{
  "8550000": {
    "zipcode": "8550000",
    "prefectureCode": "42",
    "prefectureNumber": 42,
    "prefecture": "長崎県",
    "city": "島原市",
    "town": "以下に掲載がない場合"
  },
  "8550001": {
    "zipcode": "8550001",
    "prefectureCode": "42",
    "prefectureNumber": 42,
    "prefecture": "長崎県",
    "city": "島原市",
    "town": "中野町"
  },
  "8550002": {
    "zipcode": "8550002",
    "prefectureCode": "42",
    "prefectureNumber": 42,
    "prefecture": "長崎県",
    "city": "島原市",
    "town": "洗切町"
  },
  "8550003": {
    "zipcode": "8550003",
    "prefectureCode": "42",
    "prefectureNumber": 42,
    "prefecture": "長崎県",
    "city": "島原市",
    "town": "三会町"
  },
  "8550004": {
    "zipcode": "8550004",
    "prefectureCode": "42",
    "prefectureNumber": 42,
    "prefecture": "長崎県",
    "city": "島原市",
    "town": "亀の甲町"
  },
  "8550005": {
    "zipcode": "8550005",
    "prefectureCode": "42",
    "prefectureNumber": 42,
    "prefecture": "長崎県",
    "city": "島原市",
    "town": "中原町"
  },
  "8550006": {
    "zipcode": "8550006",
    "prefectureCode": "42",
    "prefectureNumber": 42,
    "prefecture": "長崎県",
    "city": "島原市",
    "town": "寺中町"
  },
  "8550007": {
    "zipcode": "8550007",
    "prefectureCode": "42",
    "prefectureNumber": 42,
    "prefecture": "長崎県",
    "city": "島原市",
    "town": "津吹町"
  },
  "8550008": {
    "zipcode": "8550008",
    "prefectureCode": "42",
    "prefectureNumber": 42,
    "prefecture": "長崎県",
    "city": "島原市",
    "town": "原口町"
  },
  "8550011": {
    "zipcode": "8550011",
    "prefectureCode": "42",
    "prefectureNumber": 42,
    "prefecture": "長崎県",
    "city": "島原市",
    "town": "御手水町"
  },
  "8550012": {
    "zipcode": "8550012",
    "prefectureCode": "42",
    "prefectureNumber": 42,
    "prefecture": "長崎県",
    "city": "島原市",
    "town": "大手原町"
  },
  "8550013": {
    "zipcode": "8550013",
    "prefectureCode": "42",
    "prefectureNumber": 42,
    "prefecture": "長崎県",
    "city": "島原市",
    "town": "稗田町"
  },
  "8550014": {
    "zipcode": "8550014",
    "prefectureCode": "42",
    "prefectureNumber": 42,
    "prefecture": "長崎県",
    "city": "島原市",
    "town": "下宮町"
  },
  "8550015": {
    "zipcode": "8550015",
    "prefectureCode": "42",
    "prefectureNumber": 42,
    "prefecture": "長崎県",
    "city": "島原市",
    "town": "出平町"
  },
  "8550016": {
    "zipcode": "8550016",
    "prefectureCode": "42",
    "prefectureNumber": 42,
    "prefecture": "長崎県",
    "city": "島原市",
    "town": "山寺町"
  },
  "8550017": {
    "zipcode": "8550017",
    "prefectureCode": "42",
    "prefectureNumber": 42,
    "prefecture": "長崎県",
    "city": "島原市",
    "town": "江里町"
  },
  "8550018": {
    "zipcode": "8550018",
    "prefectureCode": "42",
    "prefectureNumber": 42,
    "prefecture": "長崎県",
    "city": "島原市",
    "town": "西町"
  },
  "8550021": {
    "zipcode": "8550021",
    "prefectureCode": "42",
    "prefectureNumber": 42,
    "prefecture": "長崎県",
    "city": "島原市",
    "town": "油堀町"
  },
  "8550022": {
    "zipcode": "8550022",
    "prefectureCode": "42",
    "prefectureNumber": 42,
    "prefecture": "長崎県",
    "city": "島原市",
    "town": "長貫町"
  },
  "8550023": {
    "zipcode": "8550023",
    "prefectureCode": "42",
    "prefectureNumber": 42,
    "prefecture": "長崎県",
    "city": "島原市",
    "town": "出の川町"
  },
  "8550024": {
    "zipcode": "8550024",
    "prefectureCode": "42",
    "prefectureNumber": 42,
    "prefecture": "長崎県",
    "city": "島原市",
    "town": "広高野町"
  },
  "8550025": {
    "zipcode": "8550025",
    "prefectureCode": "42",
    "prefectureNumber": 42,
    "prefecture": "長崎県",
    "city": "島原市",
    "town": "立野町"
  },
  "8550026": {
    "zipcode": "8550026",
    "prefectureCode": "42",
    "prefectureNumber": 42,
    "prefecture": "長崎県",
    "city": "島原市",
    "town": "礫石原町"
  },
  "8550031": {
    "zipcode": "8550031",
    "prefectureCode": "42",
    "prefectureNumber": 42,
    "prefecture": "長崎県",
    "city": "島原市",
    "town": "前浜町"
  },
  "8550032": {
    "zipcode": "8550032",
    "prefectureCode": "42",
    "prefectureNumber": 42,
    "prefecture": "長崎県",
    "city": "島原市",
    "town": "北門町"
  },
  "8550033": {
    "zipcode": "8550033",
    "prefectureCode": "42",
    "prefectureNumber": 42,
    "prefecture": "長崎県",
    "city": "島原市",
    "town": "新馬場町"
  },
  "8550034": {
    "zipcode": "8550034",
    "prefectureCode": "42",
    "prefectureNumber": 42,
    "prefecture": "長崎県",
    "city": "島原市",
    "town": "田町"
  },
  "8550035": {
    "zipcode": "8550035",
    "prefectureCode": "42",
    "prefectureNumber": 42,
    "prefecture": "長崎県",
    "city": "島原市",
    "town": "先魁町"
  },
  "8550036": {
    "zipcode": "8550036",
    "prefectureCode": "42",
    "prefectureNumber": 42,
    "prefecture": "長崎県",
    "city": "島原市",
    "town": "城内"
  },
  "8550038": {
    "zipcode": "8550038",
    "prefectureCode": "42",
    "prefectureNumber": 42,
    "prefecture": "長崎県",
    "city": "島原市",
    "town": "島原市の次に番地がくる場合"
  },
  "8550041": {
    "zipcode": "8550041",
    "prefectureCode": "42",
    "prefectureNumber": 42,
    "prefecture": "長崎県",
    "city": "島原市",
    "town": "宮の町"
  },
  "8550042": {
    "zipcode": "8550042",
    "prefectureCode": "42",
    "prefectureNumber": 42,
    "prefecture": "長崎県",
    "city": "島原市",
    "town": "片町"
  },
  "8550043": {
    "zipcode": "8550043",
    "prefectureCode": "42",
    "prefectureNumber": 42,
    "prefecture": "長崎県",
    "city": "島原市",
    "town": "新田町"
  },
  "8550044": {
    "zipcode": "8550044",
    "prefectureCode": "42",
    "prefectureNumber": 42,
    "prefecture": "長崎県",
    "city": "島原市",
    "town": "中町"
  },
  "8550045": {
    "zipcode": "8550045",
    "prefectureCode": "42",
    "prefectureNumber": 42,
    "prefecture": "長崎県",
    "city": "島原市",
    "town": "上の町"
  },
  "8550046": {
    "zipcode": "8550046",
    "prefectureCode": "42",
    "prefectureNumber": 42,
    "prefecture": "長崎県",
    "city": "島原市",
    "town": "今川町"
  },
  "8550051": {
    "zipcode": "8550051",
    "prefectureCode": "42",
    "prefectureNumber": 42,
    "prefecture": "長崎県",
    "city": "島原市",
    "town": "桜門町"
  },
  "8550052": {
    "zipcode": "8550052",
    "prefectureCode": "42",
    "prefectureNumber": 42,
    "prefecture": "長崎県",
    "city": "島原市",
    "town": "下の丁"
  },
  "8550053": {
    "zipcode": "8550053",
    "prefectureCode": "42",
    "prefectureNumber": 42,
    "prefecture": "長崎県",
    "city": "島原市",
    "town": "城西中の丁"
  },
  "8550054": {
    "zipcode": "8550054",
    "prefectureCode": "42",
    "prefectureNumber": 42,
    "prefecture": "長崎県",
    "city": "島原市",
    "town": "古丁"
  },
  "8550055": {
    "zipcode": "8550055",
    "prefectureCode": "42",
    "prefectureNumber": 42,
    "prefecture": "長崎県",
    "city": "島原市",
    "town": "下新丁"
  },
  "8550056": {
    "zipcode": "8550056",
    "prefectureCode": "42",
    "prefectureNumber": 42,
    "prefecture": "長崎県",
    "city": "島原市",
    "town": "浦の川"
  },
  "8550057": {
    "zipcode": "8550057",
    "prefectureCode": "42",
    "prefectureNumber": 42,
    "prefecture": "長崎県",
    "city": "島原市",
    "town": "新建"
  },
  "8550058": {
    "zipcode": "8550058",
    "prefectureCode": "42",
    "prefectureNumber": 42,
    "prefecture": "長崎県",
    "city": "島原市",
    "town": "北原町"
  },
  "8550059": {
    "zipcode": "8550059",
    "prefectureCode": "42",
    "prefectureNumber": 42,
    "prefecture": "長崎県",
    "city": "島原市",
    "town": "江戸丁"
  },
  "8550061": {
    "zipcode": "8550061",
    "prefectureCode": "42",
    "prefectureNumber": 42,
    "prefecture": "長崎県",
    "city": "島原市",
    "town": "中尾町"
  },
  "8550062": {
    "zipcode": "8550062",
    "prefectureCode": "42",
    "prefectureNumber": 42,
    "prefecture": "長崎県",
    "city": "島原市",
    "town": "本町"
  },
  "8550063": {
    "zipcode": "8550063",
    "prefectureCode": "42",
    "prefectureNumber": 42,
    "prefecture": "長崎県",
    "city": "島原市",
    "town": "原町"
  },
  "8550064": {
    "zipcode": "8550064",
    "prefectureCode": "42",
    "prefectureNumber": 42,
    "prefecture": "長崎県",
    "city": "島原市",
    "town": "柏野町"
  },
  "8550065": {
    "zipcode": "8550065",
    "prefectureCode": "42",
    "prefectureNumber": 42,
    "prefecture": "長崎県",
    "city": "島原市",
    "town": "南柏野町"
  },
  "8550066": {
    "zipcode": "8550066",
    "prefectureCode": "42",
    "prefectureNumber": 42,
    "prefecture": "長崎県",
    "city": "島原市",
    "town": "柿の木町"
  },
  "8550067": {
    "zipcode": "8550067",
    "prefectureCode": "42",
    "prefectureNumber": 42,
    "prefecture": "長崎県",
    "city": "島原市",
    "town": "上新丁"
  },
  "8550068": {
    "zipcode": "8550068",
    "prefectureCode": "42",
    "prefectureNumber": 42,
    "prefecture": "長崎県",
    "city": "島原市",
    "town": "杉山町"
  },
  "8550071": {
    "zipcode": "8550071",
    "prefectureCode": "42",
    "prefectureNumber": 42,
    "prefecture": "長崎県",
    "city": "島原市",
    "town": "宇土町"
  },
  "8550072": {
    "zipcode": "8550072",
    "prefectureCode": "42",
    "prefectureNumber": 42,
    "prefecture": "長崎県",
    "city": "島原市",
    "town": "六ツ木町"
  },
  "8550073": {
    "zipcode": "8550073",
    "prefectureCode": "42",
    "prefectureNumber": 42,
    "prefecture": "長崎県",
    "city": "島原市",
    "town": "本光寺町"
  },
  "8550074": {
    "zipcode": "8550074",
    "prefectureCode": "42",
    "prefectureNumber": 42,
    "prefecture": "長崎県",
    "city": "島原市",
    "town": "城見町"
  },
  "8550075": {
    "zipcode": "8550075",
    "prefectureCode": "42",
    "prefectureNumber": 42,
    "prefecture": "長崎県",
    "city": "島原市",
    "town": "下折橋町"
  },
  "8550076": {
    "zipcode": "8550076",
    "prefectureCode": "42",
    "prefectureNumber": 42,
    "prefecture": "長崎県",
    "city": "島原市",
    "town": "上折橋町"
  },
  "8550077": {
    "zipcode": "8550077",
    "prefectureCode": "42",
    "prefectureNumber": 42,
    "prefecture": "長崎県",
    "city": "島原市",
    "town": "南千本木町"
  },
  "8550078": {
    "zipcode": "8550078",
    "prefectureCode": "42",
    "prefectureNumber": 42,
    "prefecture": "長崎県",
    "city": "島原市",
    "town": "北千本木町"
  },
  "8550801": {
    "zipcode": "8550801",
    "prefectureCode": "42",
    "prefectureNumber": 42,
    "prefecture": "長崎県",
    "city": "島原市",
    "town": "高島"
  },
  "8550802": {
    "zipcode": "8550802",
    "prefectureCode": "42",
    "prefectureNumber": 42,
    "prefecture": "長崎県",
    "city": "島原市",
    "town": "弁天町"
  },
  "8550803": {
    "zipcode": "8550803",
    "prefectureCode": "42",
    "prefectureNumber": 42,
    "prefecture": "長崎県",
    "city": "島原市",
    "town": "新町"
  },
  "8550804": {
    "zipcode": "8550804",
    "prefectureCode": "42",
    "prefectureNumber": 42,
    "prefecture": "長崎県",
    "city": "島原市",
    "town": "万町"
  },
  "8550805": {
    "zipcode": "8550805",
    "prefectureCode": "42",
    "prefectureNumber": 42,
    "prefecture": "長崎県",
    "city": "島原市",
    "town": "堀町"
  },
  "8550806": {
    "zipcode": "8550806",
    "prefectureCode": "42",
    "prefectureNumber": 42,
    "prefecture": "長崎県",
    "city": "島原市",
    "town": "中堀町"
  },
  "8550807": {
    "zipcode": "8550807",
    "prefectureCode": "42",
    "prefectureNumber": 42,
    "prefecture": "長崎県",
    "city": "島原市",
    "town": "白土町"
  },
  "8550808": {
    "zipcode": "8550808",
    "prefectureCode": "42",
    "prefectureNumber": 42,
    "prefecture": "長崎県",
    "city": "島原市",
    "town": "加美町"
  },
  "8550809": {
    "zipcode": "8550809",
    "prefectureCode": "42",
    "prefectureNumber": 42,
    "prefecture": "長崎県",
    "city": "島原市",
    "town": "桜町"
  },
  "8550811": {
    "zipcode": "8550811",
    "prefectureCode": "42",
    "prefectureNumber": 42,
    "prefecture": "長崎県",
    "city": "島原市",
    "town": "白土桃山"
  },
  "8550812": {
    "zipcode": "8550812",
    "prefectureCode": "42",
    "prefectureNumber": 42,
    "prefecture": "長崎県",
    "city": "島原市",
    "town": "霊南"
  },
  "8550813": {
    "zipcode": "8550813",
    "prefectureCode": "42",
    "prefectureNumber": 42,
    "prefecture": "長崎県",
    "city": "島原市",
    "town": "有馬船津町"
  },
  "8550814": {
    "zipcode": "8550814",
    "prefectureCode": "42",
    "prefectureNumber": 42,
    "prefecture": "長崎県",
    "city": "島原市",
    "town": "津町"
  },
  "8550815": {
    "zipcode": "8550815",
    "prefectureCode": "42",
    "prefectureNumber": 42,
    "prefecture": "長崎県",
    "city": "島原市",
    "town": "元船津町"
  },
  "8550816": {
    "zipcode": "8550816",
    "prefectureCode": "42",
    "prefectureNumber": 42,
    "prefecture": "長崎県",
    "city": "島原市",
    "town": "蛭子町"
  },
  "8550817": {
    "zipcode": "8550817",
    "prefectureCode": "42",
    "prefectureNumber": 42,
    "prefecture": "長崎県",
    "city": "島原市",
    "town": "浦田"
  },
  "8550821": {
    "zipcode": "8550821",
    "prefectureCode": "42",
    "prefectureNumber": 42,
    "prefecture": "長崎県",
    "city": "島原市",
    "town": "湊新地町"
  },
  "8550822": {
    "zipcode": "8550822",
    "prefectureCode": "42",
    "prefectureNumber": 42,
    "prefecture": "長崎県",
    "city": "島原市",
    "town": "中組町"
  },
  "8550823": {
    "zipcode": "8550823",
    "prefectureCode": "42",
    "prefectureNumber": 42,
    "prefecture": "長崎県",
    "city": "島原市",
    "town": "湊町"
  },
  "8550824": {
    "zipcode": "8550824",
    "prefectureCode": "42",
    "prefectureNumber": 42,
    "prefecture": "長崎県",
    "city": "島原市",
    "town": "白山町"
  },
  "8550825": {
    "zipcode": "8550825",
    "prefectureCode": "42",
    "prefectureNumber": 42,
    "prefecture": "長崎県",
    "city": "島原市",
    "town": "広馬場町"
  },
  "8550831": {
    "zipcode": "8550831",
    "prefectureCode": "42",
    "prefectureNumber": 42,
    "prefecture": "長崎県",
    "city": "島原市",
    "town": "湊道"
  },
  "8550832": {
    "zipcode": "8550832",
    "prefectureCode": "42",
    "prefectureNumber": 42,
    "prefecture": "長崎県",
    "city": "島原市",
    "town": "坂上町"
  },
  "8550833": {
    "zipcode": "8550833",
    "prefectureCode": "42",
    "prefectureNumber": 42,
    "prefecture": "長崎県",
    "city": "島原市",
    "town": "坂下町"
  },
  "8550834": {
    "zipcode": "8550834",
    "prefectureCode": "42",
    "prefectureNumber": 42,
    "prefecture": "長崎県",
    "city": "島原市",
    "town": "八幡町"
  },
  "8550835": {
    "zipcode": "8550835",
    "prefectureCode": "42",
    "prefectureNumber": 42,
    "prefecture": "長崎県",
    "city": "島原市",
    "town": "西八幡町"
  },
  "8550836": {
    "zipcode": "8550836",
    "prefectureCode": "42",
    "prefectureNumber": 42,
    "prefecture": "長崎県",
    "city": "島原市",
    "town": "湖南町"
  },
  "8550841": {
    "zipcode": "8550841",
    "prefectureCode": "42",
    "prefectureNumber": 42,
    "prefecture": "長崎県",
    "city": "島原市",
    "town": "崩山町"
  },
  "8550842": {
    "zipcode": "8550842",
    "prefectureCode": "42",
    "prefectureNumber": 42,
    "prefecture": "長崎県",
    "city": "島原市",
    "town": "栄町"
  },
  "8550843": {
    "zipcode": "8550843",
    "prefectureCode": "42",
    "prefectureNumber": 42,
    "prefecture": "長崎県",
    "city": "島原市",
    "town": "新山"
  },
  "8550851": {
    "zipcode": "8550851",
    "prefectureCode": "42",
    "prefectureNumber": 42,
    "prefecture": "長崎県",
    "city": "島原市",
    "town": "萩原"
  },
  "8550852": {
    "zipcode": "8550852",
    "prefectureCode": "42",
    "prefectureNumber": 42,
    "prefecture": "長崎県",
    "city": "島原市",
    "town": "寺町"
  },
  "8550853": {
    "zipcode": "8550853",
    "prefectureCode": "42",
    "prefectureNumber": 42,
    "prefecture": "長崎県",
    "city": "島原市",
    "town": "上の原"
  },
  "8550854": {
    "zipcode": "8550854",
    "prefectureCode": "42",
    "prefectureNumber": 42,
    "prefecture": "長崎県",
    "city": "島原市",
    "town": "萩が丘"
  },
  "8550855": {
    "zipcode": "8550855",
    "prefectureCode": "42",
    "prefectureNumber": 42,
    "prefecture": "長崎県",
    "city": "島原市",
    "town": "青葉町"
  },
  "8550856": {
    "zipcode": "8550856",
    "prefectureCode": "42",
    "prefectureNumber": 42,
    "prefecture": "長崎県",
    "city": "島原市",
    "town": "小山町"
  },
  "8550861": {
    "zipcode": "8550861",
    "prefectureCode": "42",
    "prefectureNumber": 42,
    "prefecture": "長崎県",
    "city": "島原市",
    "town": "下川尻町"
  },
  "8550862": {
    "zipcode": "8550862",
    "prefectureCode": "42",
    "prefectureNumber": 42,
    "prefecture": "長崎県",
    "city": "島原市",
    "town": "新湊"
  },
  "8550863": {
    "zipcode": "8550863",
    "prefectureCode": "42",
    "prefectureNumber": 42,
    "prefecture": "長崎県",
    "city": "島原市",
    "town": "親和町"
  },
  "8550864": {
    "zipcode": "8550864",
    "prefectureCode": "42",
    "prefectureNumber": 42,
    "prefecture": "長崎県",
    "city": "島原市",
    "town": "秩父が浦町"
  },
  "8550865": {
    "zipcode": "8550865",
    "prefectureCode": "42",
    "prefectureNumber": 42,
    "prefecture": "長崎県",
    "city": "島原市",
    "town": "船泊町"
  },
  "8550866": {
    "zipcode": "8550866",
    "prefectureCode": "42",
    "prefectureNumber": 42,
    "prefecture": "長崎県",
    "city": "島原市",
    "town": "南下川尻町"
  },
  "8550867": {
    "zipcode": "8550867",
    "prefectureCode": "42",
    "prefectureNumber": 42,
    "prefecture": "長崎県",
    "city": "島原市",
    "town": "緑町"
  },
  "8550871": {
    "zipcode": "8550871",
    "prefectureCode": "42",
    "prefectureNumber": 42,
    "prefecture": "長崎県",
    "city": "島原市",
    "town": "南崩山町"
  },
  "8550872": {
    "zipcode": "8550872",
    "prefectureCode": "42",
    "prefectureNumber": 42,
    "prefecture": "長崎県",
    "city": "島原市",
    "town": "梅園町"
  },
  "8550873": {
    "zipcode": "8550873",
    "prefectureCode": "42",
    "prefectureNumber": 42,
    "prefecture": "長崎県",
    "city": "島原市",
    "town": "北安徳町"
  },
  "8550874": {
    "zipcode": "8550874",
    "prefectureCode": "42",
    "prefectureNumber": 42,
    "prefecture": "長崎県",
    "city": "島原市",
    "town": "鎌田町"
  },
  "8550875": {
    "zipcode": "8550875",
    "prefectureCode": "42",
    "prefectureNumber": 42,
    "prefecture": "長崎県",
    "city": "島原市",
    "town": "中安徳町"
  },
  "8550876": {
    "zipcode": "8550876",
    "prefectureCode": "42",
    "prefectureNumber": 42,
    "prefecture": "長崎県",
    "city": "島原市",
    "town": "南安徳町"
  },
  "8550877": {
    "zipcode": "8550877",
    "prefectureCode": "42",
    "prefectureNumber": 42,
    "prefecture": "長崎県",
    "city": "島原市",
    "town": "浜の町"
  },
  "8550878": {
    "zipcode": "8550878",
    "prefectureCode": "42",
    "prefectureNumber": 42,
    "prefecture": "長崎県",
    "city": "島原市",
    "town": "大下町"
  },
  "8550879": {
    "zipcode": "8550879",
    "prefectureCode": "42",
    "prefectureNumber": 42,
    "prefecture": "長崎県",
    "city": "島原市",
    "town": "平成町"
  },
  "8550881": {
    "zipcode": "8550881",
    "prefectureCode": "42",
    "prefectureNumber": 42,
    "prefecture": "長崎県",
    "city": "島原市",
    "town": "門内町"
  },
  "8550882": {
    "zipcode": "8550882",
    "prefectureCode": "42",
    "prefectureNumber": 42,
    "prefecture": "長崎県",
    "city": "島原市",
    "town": "札の元町"
  },
  "8550883": {
    "zipcode": "8550883",
    "prefectureCode": "42",
    "prefectureNumber": 42,
    "prefecture": "長崎県",
    "city": "島原市",
    "town": "天神元町"
  },
  "8550884": {
    "zipcode": "8550884",
    "prefectureCode": "42",
    "prefectureNumber": 42,
    "prefecture": "長崎県",
    "city": "島原市",
    "town": "仁田町"
  },
  "8550885": {
    "zipcode": "8550885",
    "prefectureCode": "42",
    "prefectureNumber": 42,
    "prefecture": "長崎県",
    "city": "島原市",
    "town": "白谷町"
  },
  "8550886": {
    "zipcode": "8550886",
    "prefectureCode": "42",
    "prefectureNumber": 42,
    "prefecture": "長崎県",
    "city": "島原市",
    "town": "北上木場町"
  },
  "8550887": {
    "zipcode": "8550887",
    "prefectureCode": "42",
    "prefectureNumber": 42,
    "prefecture": "長崎県",
    "city": "島原市",
    "town": "南上木場町"
  }
}
