{
  "8570000": {
    "zipcode": "8570000",
    "prefectureCode": "42",
    "prefectureNumber": 42,
    "prefecture": "長崎県",
    "city": "佐世保市",
    "town": "以下に掲載がない場合"
  },
  "8570001": {
    "zipcode": "8570001",
    "prefectureCode": "42",
    "prefectureNumber": 42,
    "prefecture": "長崎県",
    "city": "佐世保市",
    "town": "烏帽子町"
  },
  "8570011": {
    "zipcode": "8570011",
    "prefectureCode": "42",
    "prefectureNumber": 42,
    "prefecture": "長崎県",
    "city": "佐世保市",
    "town": "春日町"
  },
  "8570012": {
    "zipcode": "8570012",
    "prefectureCode": "42",
    "prefectureNumber": 42,
    "prefecture": "長崎県",
    "city": "佐世保市",
    "town": "桜木町"
  },
  "8570013": {
    "zipcode": "8570013",
    "prefectureCode": "42",
    "prefectureNumber": 42,
    "prefecture": "長崎県",
    "city": "佐世保市",
    "town": "赤木町"
  },
  "8570014": {
    "zipcode": "8570014",
    "prefectureCode": "42",
    "prefectureNumber": 42,
    "prefecture": "長崎県",
    "city": "佐世保市",
    "town": "田代町"
  },
  "8570015": {
    "zipcode": "8570015",
    "prefectureCode": "42",
    "prefectureNumber": 42,
    "prefecture": "長崎県",
    "city": "佐世保市",
    "town": "松山町"
  },
  "8570016": {
    "zipcode": "8570016",
    "prefectureCode": "42",
    "prefectureNumber": 42,
    "prefecture": "長崎県",
    "city": "佐世保市",
    "town": "俵町"
  },
  "8570017": {
    "zipcode": "8570017",
    "prefectureCode": "42",
    "prefectureNumber": 42,
    "prefecture": "長崎県",
    "city": "佐世保市",
    "town": "梅田町"
  },
  "8570018": {
    "zipcode": "8570018",
    "prefectureCode": "42",
    "prefectureNumber": 42,
    "prefecture": "長崎県",
    "city": "佐世保市",
    "town": "横尾町"
  },
  "8570021": {
    "zipcode": "8570021",
    "prefectureCode": "42",
    "prefectureNumber": 42,
    "prefecture": "長崎県",
    "city": "佐世保市",
    "town": "折橋町"
  },
  "8570022": {
    "zipcode": "8570022",
    "prefectureCode": "42",
    "prefectureNumber": 42,
    "prefecture": "長崎県",
    "city": "佐世保市",
    "town": "山手町"
  },
  "8570023": {
    "zipcode": "8570023",
    "prefectureCode": "42",
    "prefectureNumber": 42,
    "prefecture": "長崎県",
    "city": "佐世保市",
    "town": "名切町"
  },
  "8570024": {
    "zipcode": "8570024",
    "prefectureCode": "42",
    "prefectureNumber": 42,
    "prefecture": "長崎県",
    "city": "佐世保市",
    "town": "花園町"
  },
  "8570025": {
    "zipcode": "8570025",
    "prefectureCode": "42",
    "prefectureNumber": 42,
    "prefecture": "長崎県",
    "city": "佐世保市",
    "town": "熊野町"
  },
  "8570026": {
    "zipcode": "8570026",
    "prefectureCode": "42",
    "prefectureNumber": 42,
    "prefecture": "長崎県",
    "city": "佐世保市",
    "town": "宮地町"
  },
  "8570027": {
    "zipcode": "8570027",
    "prefectureCode": "42",
    "prefectureNumber": 42,
    "prefecture": "長崎県",
    "city": "佐世保市",
    "town": "谷郷町"
  },
  "8570028": {
    "zipcode": "8570028",
    "prefectureCode": "42",
    "prefectureNumber": 42,
    "prefecture": "長崎県",
    "city": "佐世保市",
    "town": "八幡町"
  },
  "8570031": {
    "zipcode": "8570031",
    "prefectureCode": "42",
    "prefectureNumber": 42,
    "prefecture": "長崎県",
    "city": "佐世保市",
    "town": "保立町"
  },
  "8570032": {
    "zipcode": "8570032",
    "prefectureCode": "42",
    "prefectureNumber": 42,
    "prefecture": "長崎県",
    "city": "佐世保市",
    "town": "宮田町"
  },
  "8570033": {
    "zipcode": "8570033",
    "prefectureCode": "42",
    "prefectureNumber": 42,
    "prefecture": "長崎県",
    "city": "佐世保市",
    "town": "城山町"
  },
  "8570034": {
    "zipcode": "8570034",
    "prefectureCode": "42",
    "prefectureNumber": 42,
    "prefecture": "長崎県",
    "city": "佐世保市",
    "town": "万徳町"
  },
  "8570035": {
    "zipcode": "8570035",
    "prefectureCode": "42",
    "prefectureNumber": 42,
    "prefecture": "長崎県",
    "city": "佐世保市",
    "town": "福田町"
  },
  "8570036": {
    "zipcode": "8570036",
    "prefectureCode": "42",
    "prefectureNumber": 42,
    "prefecture": "長崎県",
    "city": "佐世保市",
    "town": "清水町"
  },
  "8570037": {
    "zipcode": "8570037",
    "prefectureCode": "42",
    "prefectureNumber": 42,
    "prefecture": "長崎県",
    "city": "佐世保市",
    "town": "石坂町"
  },
  "8570038": {
    "zipcode": "8570038",
    "prefectureCode": "42",
    "prefectureNumber": 42,
    "prefecture": "長崎県",
    "city": "佐世保市",
    "town": "中通町"
  },
  "8570040": {
    "zipcode": "8570040",
    "prefectureCode": "42",
    "prefectureNumber": 42,
    "prefecture": "長崎県",
    "city": "佐世保市",
    "town": "比良町"
  },
  "8570041": {
    "zipcode": "8570041",
    "prefectureCode": "42",
    "prefectureNumber": 42,
    "prefecture": "長崎県",
    "city": "佐世保市",
    "town": "木場田町"
  },
  "8570042": {
    "zipcode": "8570042",
    "prefectureCode": "42",
    "prefectureNumber": 42,
    "prefecture": "長崎県",
    "city": "佐世保市",
    "town": "高砂町"
  },
  "8570043": {
    "zipcode": "8570043",
    "prefectureCode": "42",
    "prefectureNumber": 42,
    "prefecture": "長崎県",
    "city": "佐世保市",
    "town": "天満町"
  },
  "8570044": {
    "zipcode": "8570044",
    "prefectureCode": "42",
    "prefectureNumber": 42,
    "prefecture": "長崎県",
    "city": "佐世保市",
    "town": "相生町"
  },
  "8570045": {
    "zipcode": "8570045",
    "prefectureCode": "42",
    "prefectureNumber": 42,
    "prefecture": "長崎県",
    "city": "佐世保市",
    "town": "園田町"
  },
  "8570046": {
    "zipcode": "8570046",
    "prefectureCode": "42",
    "prefectureNumber": 42,
    "prefecture": "長崎県",
    "city": "佐世保市",
    "town": "長尾町"
  },
  "8570047": {
    "zipcode": "8570047",
    "prefectureCode": "42",
    "prefectureNumber": 42,
    "prefecture": "長崎県",
    "city": "佐世保市",
    "town": "矢岳町"
  },
  "8570048": {
    "zipcode": "8570048",
    "prefectureCode": "42",
    "prefectureNumber": 42,
    "prefecture": "長崎県",
    "city": "佐世保市",
    "town": "西大久保町"
  },
  "8570049": {
    "zipcode": "8570049",
    "prefectureCode": "42",
    "prefectureNumber": 42,
    "prefecture": "長崎県",
    "city": "佐世保市",
    "town": "東大久保町"
  },
  "8570051": {
    "zipcode": "8570051",
    "prefectureCode": "42",
    "prefectureNumber": 42,
    "prefecture": "長崎県",
    "city": "佐世保市",
    "town": "浜田町"
  },
  "8570052": {
    "zipcode": "8570052",
    "prefectureCode": "42",
    "prefectureNumber": 42,
    "prefecture": "長崎県",
    "city": "佐世保市",
    "town": "松浦町"
  },
  "8570053": {
    "zipcode": "8570053",
    "prefectureCode": "42",
    "prefectureNumber": 42,
    "prefecture": "長崎県",
    "city": "佐世保市",
    "town": "常盤町"
  },
  "8570054": {
    "zipcode": "8570054",
    "prefectureCode": "42",
    "prefectureNumber": 42,
    "prefecture": "長崎県",
    "city": "佐世保市",
    "town": "栄町"
  },
  "8570055": {
    "zipcode": "8570055",
    "prefectureCode": "42",
    "prefectureNumber": 42,
    "prefecture": "長崎県",
    "city": "佐世保市",
    "town": "湊町"
  },
  "8570056": {
    "zipcode": "8570056",
    "prefectureCode": "42",
    "prefectureNumber": 42,
    "prefecture": "長崎県",
    "city": "佐世保市",
    "town": "平瀬町"
  },
  "8570057": {
    "zipcode": "8570057",
    "prefectureCode": "42",
    "prefectureNumber": 42,
    "prefecture": "長崎県",
    "city": "佐世保市",
    "town": "泉町"
  },
  "8570058": {
    "zipcode": "8570058",
    "prefectureCode": "42",
    "prefectureNumber": 42,
    "prefecture": "長崎県",
    "city": "佐世保市",
    "town": "上町"
  },
  "8570059": {
    "zipcode": "8570059",
    "prefectureCode": "42",
    "prefectureNumber": 42,
    "prefecture": "長崎県",
    "city": "佐世保市",
    "town": "元町"
  },
  "8570061": {
    "zipcode": "8570061",
    "prefectureCode": "42",
    "prefectureNumber": 42,
    "prefecture": "長崎県",
    "city": "佐世保市",
    "town": "今福町"
  },
  "8570062": {
    "zipcode": "8570062",
    "prefectureCode": "42",
    "prefectureNumber": 42,
    "prefecture": "長崎県",
    "city": "佐世保市",
    "town": "金比良町"
  },
  "8570063": {
    "zipcode": "8570063",
    "prefectureCode": "42",
    "prefectureNumber": 42,
    "prefecture": "長崎県",
    "city": "佐世保市",
    "town": "立神町"
  },
  "8570064": {
    "zipcode": "8570064",
    "prefectureCode": "42",
    "prefectureNumber": 42,
    "prefecture": "長崎県",
    "city": "佐世保市",
    "town": "赤崎町"
  },
  "8570065": {
    "zipcode": "8570065",
    "prefectureCode": "42",
    "prefectureNumber": 42,
    "prefecture": "長崎県",
    "city": "佐世保市",
    "town": "小野町（１２００〜１４９９番地）"
  },
  "8570066": {
    "zipcode": "8570066",
    "prefectureCode": "42",
    "prefectureNumber": 42,
    "prefecture": "長崎県",
    "city": "佐世保市",
    "town": "小島町"
  },
  "8570067": {
    "zipcode": "8570067",
    "prefectureCode": "42",
    "prefectureNumber": 42,
    "prefecture": "長崎県",
    "city": "佐世保市",
    "town": "神島町"
  },
  "8570068": {
    "zipcode": "8570068",
    "prefectureCode": "42",
    "prefectureNumber": 42,
    "prefecture": "長崎県",
    "city": "佐世保市",
    "town": "御船町"
  },
  "8570069": {
    "zipcode": "8570069",
    "prefectureCode": "42",
    "prefectureNumber": 42,
    "prefecture": "長崎県",
    "city": "佐世保市",
    "town": "鵜渡越町"
  },
  "8570071": {
    "zipcode": "8570071",
    "prefectureCode": "42",
    "prefectureNumber": 42,
    "prefecture": "長崎県",
    "city": "長崎市",
    "town": "池島町"
  },
  "8570101": {
    "zipcode": "8570101",
    "prefectureCode": "42",
    "prefectureNumber": 42,
    "prefecture": "長崎県",
    "city": "佐世保市",
    "town": "知見寺町"
  },
  "8570102": {
    "zipcode": "8570102",
    "prefectureCode": "42",
    "prefectureNumber": 42,
    "prefecture": "長崎県",
    "city": "佐世保市",
    "town": "松瀬町"
  },
  "8570103": {
    "zipcode": "8570103",
    "prefectureCode": "42",
    "prefectureNumber": 42,
    "prefecture": "長崎県",
    "city": "佐世保市",
    "town": "原分町"
  },
  "8570104": {
    "zipcode": "8570104",
    "prefectureCode": "42",
    "prefectureNumber": 42,
    "prefecture": "長崎県",
    "city": "佐世保市",
    "town": "楠木町"
  },
  "8570105": {
    "zipcode": "8570105",
    "prefectureCode": "42",
    "prefectureNumber": 42,
    "prefecture": "長崎県",
    "city": "佐世保市",
    "town": "白仁田町"
  },
  "8570106": {
    "zipcode": "8570106",
    "prefectureCode": "42",
    "prefectureNumber": 42,
    "prefecture": "長崎県",
    "city": "佐世保市",
    "town": "菰田町"
  },
  "8570111": {
    "zipcode": "8570111",
    "prefectureCode": "42",
    "prefectureNumber": 42,
    "prefecture": "長崎県",
    "city": "佐世保市",
    "town": "筒井町"
  },
  "8570112": {
    "zipcode": "8570112",
    "prefectureCode": "42",
    "prefectureNumber": 42,
    "prefecture": "長崎県",
    "city": "佐世保市",
    "town": "柚木町"
  },
  "8570113": {
    "zipcode": "8570113",
    "prefectureCode": "42",
    "prefectureNumber": 42,
    "prefecture": "長崎県",
    "city": "佐世保市",
    "town": "下宇戸町"
  },
  "8570114": {
    "zipcode": "8570114",
    "prefectureCode": "42",
    "prefectureNumber": 42,
    "prefecture": "長崎県",
    "city": "佐世保市",
    "town": "小舟町"
  },
  "8570115": {
    "zipcode": "8570115",
    "prefectureCode": "42",
    "prefectureNumber": 42,
    "prefecture": "長崎県",
    "city": "佐世保市",
    "town": "柚木元町"
  },
  "8570121": {
    "zipcode": "8570121",
    "prefectureCode": "42",
    "prefectureNumber": 42,
    "prefecture": "長崎県",
    "city": "佐世保市",
    "town": "潜木町"
  },
  "8570122": {
    "zipcode": "8570122",
    "prefectureCode": "42",
    "prefectureNumber": 42,
    "prefecture": "長崎県",
    "city": "佐世保市",
    "town": "里美町"
  },
  "8570123": {
    "zipcode": "8570123",
    "prefectureCode": "42",
    "prefectureNumber": 42,
    "prefecture": "長崎県",
    "city": "佐世保市",
    "town": "川谷町"
  },
  "8570124": {
    "zipcode": "8570124",
    "prefectureCode": "42",
    "prefectureNumber": 42,
    "prefecture": "長崎県",
    "city": "佐世保市",
    "town": "戸ケ倉町"
  },
  "8570125": {
    "zipcode": "8570125",
    "prefectureCode": "42",
    "prefectureNumber": 42,
    "prefecture": "長崎県",
    "city": "佐世保市",
    "town": "高花町"
  },
  "8570126": {
    "zipcode": "8570126",
    "prefectureCode": "42",
    "prefectureNumber": 42,
    "prefecture": "長崎県",
    "city": "佐世保市",
    "town": "上柚木町"
  },
  "8570131": {
    "zipcode": "8570131",
    "prefectureCode": "42",
    "prefectureNumber": 42,
    "prefecture": "長崎県",
    "city": "佐世保市",
    "town": "大野町"
  },
  "8570132": {
    "zipcode": "8570132",
    "prefectureCode": "42",
    "prefectureNumber": 42,
    "prefecture": "長崎県",
    "city": "佐世保市",
    "town": "松原町"
  },
  "8570133": {
    "zipcode": "8570133",
    "prefectureCode": "42",
    "prefectureNumber": 42,
    "prefecture": "長崎県",
    "city": "佐世保市",
    "town": "矢峰町"
  },
  "8570134": {
    "zipcode": "8570134",
    "prefectureCode": "42",
    "prefectureNumber": 42,
    "prefecture": "長崎県",
    "city": "佐世保市",
    "town": "瀬戸越"
  },
  "8570135": {
    "zipcode": "8570135",
    "prefectureCode": "42",
    "prefectureNumber": 42,
    "prefecture": "長崎県",
    "city": "佐世保市",
    "town": "瀬戸越町"
  },
  "8570136": {
    "zipcode": "8570136",
    "prefectureCode": "42",
    "prefectureNumber": 42,
    "prefecture": "長崎県",
    "city": "佐世保市",
    "town": "田原町"
  },
  "8570141": {
    "zipcode": "8570141",
    "prefectureCode": "42",
    "prefectureNumber": 42,
    "prefecture": "長崎県",
    "city": "佐世保市",
    "town": "十文野町"
  },
  "8570142": {
    "zipcode": "8570142",
    "prefectureCode": "42",
    "prefectureNumber": 42,
    "prefecture": "長崎県",
    "city": "佐世保市",
    "town": "野中町"
  },
  "8570143": {
    "zipcode": "8570143",
    "prefectureCode": "42",
    "prefectureNumber": 42,
    "prefecture": "長崎県",
    "city": "佐世保市",
    "town": "吉岡町"
  },
  "8570144": {
    "zipcode": "8570144",
    "prefectureCode": "42",
    "prefectureNumber": 42,
    "prefecture": "長崎県",
    "city": "佐世保市",
    "town": "皆瀬町"
  },
  "8570145": {
    "zipcode": "8570145",
    "prefectureCode": "42",
    "prefectureNumber": 42,
    "prefecture": "長崎県",
    "city": "佐世保市",
    "town": "牧の地町"
  },
  "8570146": {
    "zipcode": "8570146",
    "prefectureCode": "42",
    "prefectureNumber": 42,
    "prefecture": "長崎県",
    "city": "佐世保市",
    "town": "小川内町"
  },
  "8570300": {
    "zipcode": "8570300",
    "prefectureCode": "42",
    "prefectureNumber": 42,
    "prefecture": "長崎県",
    "city": "北松浦郡佐々町",
    "town": "以下に掲載がない場合"
  },
  "8570311": {
    "zipcode": "8570311",
    "prefectureCode": "42",
    "prefectureNumber": 42,
    "prefecture": "長崎県",
    "city": "北松浦郡佐々町",
    "town": "本田原免"
  },
  "8570312": {
    "zipcode": "8570312",
    "prefectureCode": "42",
    "prefectureNumber": 42,
    "prefecture": "長崎県",
    "city": "北松浦郡佐々町",
    "town": "市場免"
  },
  "8570313": {
    "zipcode": "8570313",
    "prefectureCode": "42",
    "prefectureNumber": 42,
    "prefecture": "長崎県",
    "city": "北松浦郡佐々町",
    "town": "鴨川免"
  },
  "8570314": {
    "zipcode": "8570314",
    "prefectureCode": "42",
    "prefectureNumber": 42,
    "prefecture": "長崎県",
    "city": "北松浦郡佐々町",
    "town": "古川免"
  },
  "8570315": {
    "zipcode": "8570315",
    "prefectureCode": "42",
    "prefectureNumber": 42,
    "prefecture": "長崎県",
    "city": "北松浦郡佐々町",
    "town": "志方免"
  },
  "8570321": {
    "zipcode": "8570321",
    "prefectureCode": "42",
    "prefectureNumber": 42,
    "prefecture": "長崎県",
    "city": "北松浦郡佐々町",
    "town": "市瀬免"
  },
  "8570322": {
    "zipcode": "8570322",
    "prefectureCode": "42",
    "prefectureNumber": 42,
    "prefecture": "長崎県",
    "city": "北松浦郡佐々町",
    "town": "松瀬免"
  },
  "8570323": {
    "zipcode": "8570323",
    "prefectureCode": "42",
    "prefectureNumber": 42,
    "prefecture": "長崎県",
    "city": "北松浦郡佐々町",
    "town": "江里免"
  },
  "8570324": {
    "zipcode": "8570324",
    "prefectureCode": "42",
    "prefectureNumber": 42,
    "prefecture": "長崎県",
    "city": "北松浦郡佐々町",
    "town": "大茂免"
  },
  "8570331": {
    "zipcode": "8570331",
    "prefectureCode": "42",
    "prefectureNumber": 42,
    "prefecture": "長崎県",
    "city": "北松浦郡佐々町",
    "town": "野寄免"
  },
  "8570332": {
    "zipcode": "8570332",
    "prefectureCode": "42",
    "prefectureNumber": 42,
    "prefecture": "長崎県",
    "city": "北松浦郡佐々町",
    "town": "栗林免"
  },
  "8570333": {
    "zipcode": "8570333",
    "prefectureCode": "42",
    "prefectureNumber": 42,
    "prefecture": "長崎県",
    "city": "北松浦郡佐々町",
    "town": "中川原免"
  },
  "8570334": {
    "zipcode": "8570334",
    "prefectureCode": "42",
    "prefectureNumber": 42,
    "prefecture": "長崎県",
    "city": "北松浦郡佐々町",
    "town": "石木場免"
  },
  "8570335": {
    "zipcode": "8570335",
    "prefectureCode": "42",
    "prefectureNumber": 42,
    "prefecture": "長崎県",
    "city": "北松浦郡佐々町",
    "town": "皆瀬免"
  },
  "8570336": {
    "zipcode": "8570336",
    "prefectureCode": "42",
    "prefectureNumber": 42,
    "prefecture": "長崎県",
    "city": "北松浦郡佐々町",
    "town": "神田免"
  },
  "8570337": {
    "zipcode": "8570337",
    "prefectureCode": "42",
    "prefectureNumber": 42,
    "prefecture": "長崎県",
    "city": "北松浦郡佐々町",
    "town": "八口免"
  },
  "8570338": {
    "zipcode": "8570338",
    "prefectureCode": "42",
    "prefectureNumber": 42,
    "prefecture": "長崎県",
    "city": "北松浦郡佐々町",
    "town": "角山免"
  },
  "8570341": {
    "zipcode": "8570341",
    "prefectureCode": "42",
    "prefectureNumber": 42,
    "prefecture": "長崎県",
    "city": "北松浦郡佐々町",
    "town": "羽須和免"
  },
  "8570342": {
    "zipcode": "8570342",
    "prefectureCode": "42",
    "prefectureNumber": 42,
    "prefecture": "長崎県",
    "city": "北松浦郡佐々町",
    "town": "平野免"
  },
  "8570343": {
    "zipcode": "8570343",
    "prefectureCode": "42",
    "prefectureNumber": 42,
    "prefecture": "長崎県",
    "city": "北松浦郡佐々町",
    "town": "木場免"
  },
  "8570344": {
    "zipcode": "8570344",
    "prefectureCode": "42",
    "prefectureNumber": 42,
    "prefecture": "長崎県",
    "city": "北松浦郡佐々町",
    "town": "迎木場免"
  },
  "8570351": {
    "zipcode": "8570351",
    "prefectureCode": "42",
    "prefectureNumber": 42,
    "prefecture": "長崎県",
    "city": "北松浦郡佐々町",
    "town": "須崎免"
  },
  "8570352": {
    "zipcode": "8570352",
    "prefectureCode": "42",
    "prefectureNumber": 42,
    "prefecture": "長崎県",
    "city": "北松浦郡佐々町",
    "town": "口石免"
  },
  "8570353": {
    "zipcode": "8570353",
    "prefectureCode": "42",
    "prefectureNumber": 42,
    "prefecture": "長崎県",
    "city": "北松浦郡佐々町",
    "town": "沖田免"
  },
  "8570361": {
    "zipcode": "8570361",
    "prefectureCode": "42",
    "prefectureNumber": 42,
    "prefecture": "長崎県",
    "city": "北松浦郡佐々町",
    "town": "小浦免"
  },
  "8570401": {
    "zipcode": "8570401",
    "prefectureCode": "42",
    "prefectureNumber": 42,
    "prefecture": "長崎県",
    "city": "佐世保市",
    "town": "小佐々町黒石"
  },
  "8570402": {
    "zipcode": "8570402",
    "prefectureCode": "42",
    "prefectureNumber": 42,
    "prefecture": "長崎県",
    "city": "佐世保市",
    "town": "小佐々町小坂"
  },
  "8570403": {
    "zipcode": "8570403",
    "prefectureCode": "42",
    "prefectureNumber": 42,
    "prefecture": "長崎県",
    "city": "佐世保市",
    "town": "小佐々町臼ノ浦"
  },
  "8570404": {
    "zipcode": "8570404",
    "prefectureCode": "42",
    "prefectureNumber": 42,
    "prefecture": "長崎県",
    "city": "佐世保市",
    "town": "小佐々町田原"
  },
  "8570405": {
    "zipcode": "8570405",
    "prefectureCode": "42",
    "prefectureNumber": 42,
    "prefecture": "長崎県",
    "city": "佐世保市",
    "town": "小佐々町葛籠"
  },
  "8570406": {
    "zipcode": "8570406",
    "prefectureCode": "42",
    "prefectureNumber": 42,
    "prefecture": "長崎県",
    "city": "佐世保市",
    "town": "小佐々町平原"
  },
  "8570411": {
    "zipcode": "8570411",
    "prefectureCode": "42",
    "prefectureNumber": 42,
    "prefecture": "長崎県",
    "city": "佐世保市",
    "town": "小佐々町岳ノ木場"
  },
  "8570412": {
    "zipcode": "8570412",
    "prefectureCode": "42",
    "prefectureNumber": 42,
    "prefecture": "長崎県",
    "city": "佐世保市",
    "town": "小佐々町西川内"
  },
  "8570413": {
    "zipcode": "8570413",
    "prefectureCode": "42",
    "prefectureNumber": 42,
    "prefecture": "長崎県",
    "city": "佐世保市",
    "town": "小佐々町楠泊"
  },
  "8570414": {
    "zipcode": "8570414",
    "prefectureCode": "42",
    "prefectureNumber": 42,
    "prefecture": "長崎県",
    "city": "佐世保市",
    "town": "小佐々町矢岳"
  },
  "8570431": {
    "zipcode": "8570431",
    "prefectureCode": "42",
    "prefectureNumber": 42,
    "prefecture": "長崎県",
    "city": "佐世保市",
    "town": "浅子町"
  },
  "8570801": {
    "zipcode": "8570801",
    "prefectureCode": "42",
    "prefectureNumber": 42,
    "prefecture": "長崎県",
    "city": "佐世保市",
    "town": "祇園町"
  },
  "8570802": {
    "zipcode": "8570802",
    "prefectureCode": "42",
    "prefectureNumber": 42,
    "prefecture": "長崎県",
    "city": "佐世保市",
    "town": "高天町"
  },
  "8570803": {
    "zipcode": "8570803",
    "prefectureCode": "42",
    "prefectureNumber": 42,
    "prefecture": "長崎県",
    "city": "佐世保市",
    "town": "勝富町"
  },
  "8570804": {
    "zipcode": "8570804",
    "prefectureCode": "42",
    "prefectureNumber": 42,
    "prefecture": "長崎県",
    "city": "佐世保市",
    "town": "松川町"
  },
  "8570805": {
    "zipcode": "8570805",
    "prefectureCode": "42",
    "prefectureNumber": 42,
    "prefecture": "長崎県",
    "city": "佐世保市",
    "town": "光月町"
  },
  "8570806": {
    "zipcode": "8570806",
    "prefectureCode": "42",
    "prefectureNumber": 42,
    "prefecture": "長崎県",
    "city": "佐世保市",
    "town": "島瀬町"
  },
  "8570811": {
    "zipcode": "8570811",
    "prefectureCode": "42",
    "prefectureNumber": 42,
    "prefecture": "長崎県",
    "city": "佐世保市",
    "town": "高梨町"
  },
  "8570812": {
    "zipcode": "8570812",
    "prefectureCode": "42",
    "prefectureNumber": 42,
    "prefecture": "長崎県",
    "city": "佐世保市",
    "town": "須佐町"
  },
  "8570813": {
    "zipcode": "8570813",
    "prefectureCode": "42",
    "prefectureNumber": 42,
    "prefecture": "長崎県",
    "city": "佐世保市",
    "town": "小佐世保町"
  },
  "8570821": {
    "zipcode": "8570821",
    "prefectureCode": "42",
    "prefectureNumber": 42,
    "prefecture": "長崎県",
    "city": "佐世保市",
    "town": "白木町"
  },
  "8570822": {
    "zipcode": "8570822",
    "prefectureCode": "42",
    "prefectureNumber": 42,
    "prefecture": "長崎県",
    "city": "佐世保市",
    "town": "山祇町"
  },
  "8570831": {
    "zipcode": "8570831",
    "prefectureCode": "42",
    "prefectureNumber": 42,
    "prefecture": "長崎県",
    "city": "佐世保市",
    "town": "須田尾町"
  },
  "8570832": {
    "zipcode": "8570832",
    "prefectureCode": "42",
    "prefectureNumber": 42,
    "prefecture": "長崎県",
    "city": "佐世保市",
    "town": "藤原町"
  },
  "8570833": {
    "zipcode": "8570833",
    "prefectureCode": "42",
    "prefectureNumber": 42,
    "prefecture": "長崎県",
    "city": "佐世保市",
    "town": "若葉町"
  },
  "8570834": {
    "zipcode": "8570834",
    "prefectureCode": "42",
    "prefectureNumber": 42,
    "prefecture": "長崎県",
    "city": "佐世保市",
    "town": "潮見町"
  },
  "8570841": {
    "zipcode": "8570841",
    "prefectureCode": "42",
    "prefectureNumber": 42,
    "prefecture": "長崎県",
    "city": "佐世保市",
    "town": "大宮町"
  },
  "8570842": {
    "zipcode": "8570842",
    "prefectureCode": "42",
    "prefectureNumber": 42,
    "prefecture": "長崎県",
    "city": "佐世保市",
    "town": "東山町"
  },
  "8570843": {
    "zipcode": "8570843",
    "prefectureCode": "42",
    "prefectureNumber": 42,
    "prefecture": "長崎県",
    "city": "佐世保市",
    "town": "大黒町"
  },
  "8570851": {
    "zipcode": "8570851",
    "prefectureCode": "42",
    "prefectureNumber": 42,
    "prefecture": "長崎県",
    "city": "佐世保市",
    "town": "稲荷町"
  },
  "8570852": {
    "zipcode": "8570852",
    "prefectureCode": "42",
    "prefectureNumber": 42,
    "prefecture": "長崎県",
    "city": "佐世保市",
    "town": "干尽町"
  },
  "8570853": {
    "zipcode": "8570853",
    "prefectureCode": "42",
    "prefectureNumber": 42,
    "prefecture": "長崎県",
    "city": "佐世保市",
    "town": "前畑町"
  },
  "8570854": {
    "zipcode": "8570854",
    "prefectureCode": "42",
    "prefectureNumber": 42,
    "prefecture": "長崎県",
    "city": "佐世保市",
    "town": "福石町"
  },
  "8570855": {
    "zipcode": "8570855",
    "prefectureCode": "42",
    "prefectureNumber": 42,
    "prefecture": "長崎県",
    "city": "佐世保市",
    "town": "新港町"
  },
  "8570861": {
    "zipcode": "8570861",
    "prefectureCode": "42",
    "prefectureNumber": 42,
    "prefecture": "長崎県",
    "city": "佐世保市",
    "town": "峰坂町"
  },
  "8570862": {
    "zipcode": "8570862",
    "prefectureCode": "42",
    "prefectureNumber": 42,
    "prefecture": "長崎県",
    "city": "佐世保市",
    "town": "白南風町"
  },
  "8570863": {
    "zipcode": "8570863",
    "prefectureCode": "42",
    "prefectureNumber": 42,
    "prefecture": "長崎県",
    "city": "佐世保市",
    "town": "三浦町"
  },
  "8570864": {
    "zipcode": "8570864",
    "prefectureCode": "42",
    "prefectureNumber": 42,
    "prefecture": "長崎県",
    "city": "佐世保市",
    "town": "戸尾町"
  },
  "8570871": {
    "zipcode": "8570871",
    "prefectureCode": "42",
    "prefectureNumber": 42,
    "prefecture": "長崎県",
    "city": "佐世保市",
    "town": "本島町"
  },
  "8570872": {
    "zipcode": "8570872",
    "prefectureCode": "42",
    "prefectureNumber": 42,
    "prefecture": "長崎県",
    "city": "佐世保市",
    "town": "上京町"
  },
  "8570873": {
    "zipcode": "8570873",
    "prefectureCode": "42",
    "prefectureNumber": 42,
    "prefecture": "長崎県",
    "city": "佐世保市",
    "town": "宮崎町"
  },
  "8570874": {
    "zipcode": "8570874",
    "prefectureCode": "42",
    "prefectureNumber": 42,
    "prefecture": "長崎県",
    "city": "佐世保市",
    "town": "京坪町"
  },
  "8570875": {
    "zipcode": "8570875",
    "prefectureCode": "42",
    "prefectureNumber": 42,
    "prefecture": "長崎県",
    "city": "佐世保市",
    "town": "下京町"
  },
  "8570876": {
    "zipcode": "8570876",
    "prefectureCode": "42",
    "prefectureNumber": 42,
    "prefecture": "長崎県",
    "city": "佐世保市",
    "town": "塩浜町"
  },
  "8570877": {
    "zipcode": "8570877",
    "prefectureCode": "42",
    "prefectureNumber": 42,
    "prefecture": "長崎県",
    "city": "佐世保市",
    "town": "万津町"
  },
  "8570878": {
    "zipcode": "8570878",
    "prefectureCode": "42",
    "prefectureNumber": 42,
    "prefecture": "長崎県",
    "city": "佐世保市",
    "town": "山県町"
  },
  "8570879": {
    "zipcode": "8570879",
    "prefectureCode": "42",
    "prefectureNumber": 42,
    "prefecture": "長崎県",
    "city": "佐世保市",
    "town": "島地町"
  },
  "8571151": {
    "zipcode": "8571151",
    "prefectureCode": "42",
    "prefectureNumber": 42,
    "prefecture": "長崎県",
    "city": "佐世保市",
    "town": "日宇町"
  },
  "8571152": {
    "zipcode": "8571152",
    "prefectureCode": "42",
    "prefectureNumber": 42,
    "prefecture": "長崎県",
    "city": "佐世保市",
    "town": "黒髪町"
  },
  "8571153": {
    "zipcode": "8571153",
    "prefectureCode": "42",
    "prefectureNumber": 42,
    "prefecture": "長崎県",
    "city": "佐世保市",
    "town": "もみじが丘町"
  },
  "8571161": {
    "zipcode": "8571161",
    "prefectureCode": "42",
    "prefectureNumber": 42,
    "prefecture": "長崎県",
    "city": "佐世保市",
    "town": "大塔町"
  },
  "8571162": {
    "zipcode": "8571162",
    "prefectureCode": "42",
    "prefectureNumber": 42,
    "prefecture": "長崎県",
    "city": "佐世保市",
    "town": "卸本町"
  },
  "8571163": {
    "zipcode": "8571163",
    "prefectureCode": "42",
    "prefectureNumber": 42,
    "prefecture": "長崎県",
    "city": "佐世保市",
    "town": "大岳台町"
  },
  "8571164": {
    "zipcode": "8571164",
    "prefectureCode": "42",
    "prefectureNumber": 42,
    "prefecture": "長崎県",
    "city": "佐世保市",
    "town": "白岳町"
  },
  "8571165": {
    "zipcode": "8571165",
    "prefectureCode": "42",
    "prefectureNumber": 42,
    "prefecture": "長崎県",
    "city": "佐世保市",
    "town": "大和町"
  },
  "8571166": {
    "zipcode": "8571166",
    "prefectureCode": "42",
    "prefectureNumber": 42,
    "prefecture": "長崎県",
    "city": "佐世保市",
    "town": "木風町"
  },
  "8571167": {
    "zipcode": "8571167",
    "prefectureCode": "42",
    "prefectureNumber": 42,
    "prefecture": "長崎県",
    "city": "佐世保市",
    "town": "ひうみ町"
  },
  "8571171": {
    "zipcode": "8571171",
    "prefectureCode": "42",
    "prefectureNumber": 42,
    "prefecture": "長崎県",
    "city": "佐世保市",
    "town": "沖新町"
  },
  "8571172": {
    "zipcode": "8571172",
    "prefectureCode": "42",
    "prefectureNumber": 42,
    "prefecture": "長崎県",
    "city": "佐世保市",
    "town": "東浜町"
  },
  "8571173": {
    "zipcode": "8571173",
    "prefectureCode": "42",
    "prefectureNumber": 42,
    "prefecture": "長崎県",
    "city": "佐世保市",
    "town": "十郎新町"
  },
  "8571174": {
    "zipcode": "8571174",
    "prefectureCode": "42",
    "prefectureNumber": 42,
    "prefecture": "長崎県",
    "city": "佐世保市",
    "town": "天神"
  },
  "8571175": {
    "zipcode": "8571175",
    "prefectureCode": "42",
    "prefectureNumber": 42,
    "prefecture": "長崎県",
    "city": "佐世保市",
    "town": "天神町"
  },
  "8571176": {
    "zipcode": "8571176",
    "prefectureCode": "42",
    "prefectureNumber": 42,
    "prefecture": "長崎県",
    "city": "佐世保市",
    "town": "崎辺町"
  },
  "8571231": {
    "zipcode": "8571231",
    "prefectureCode": "42",
    "prefectureNumber": 42,
    "prefecture": "長崎県",
    "city": "佐世保市",
    "town": "船越町"
  },
  "8571232": {
    "zipcode": "8571232",
    "prefectureCode": "42",
    "prefectureNumber": 42,
    "prefecture": "長崎県",
    "city": "佐世保市",
    "town": "下船越町"
  },
  "8571233": {
    "zipcode": "8571233",
    "prefectureCode": "42",
    "prefectureNumber": 42,
    "prefecture": "長崎県",
    "city": "佐世保市",
    "town": "庵浦町"
  },
  "8571234": {
    "zipcode": "8571234",
    "prefectureCode": "42",
    "prefectureNumber": 42,
    "prefecture": "長崎県",
    "city": "佐世保市",
    "town": "野崎町"
  },
  "8571235": {
    "zipcode": "8571235",
    "prefectureCode": "42",
    "prefectureNumber": 42,
    "prefecture": "長崎県",
    "city": "佐世保市",
    "town": "俵ケ浦町"
  },
  "8572221": {
    "zipcode": "8572221",
    "prefectureCode": "42",
    "prefectureNumber": 42,
    "prefecture": "長崎県",
    "city": "西海市",
    "town": "西海町中浦南郷"
  },
  "8572222": {
    "zipcode": "8572222",
    "prefectureCode": "42",
    "prefectureNumber": 42,
    "prefecture": "長崎県",
    "city": "西海市",
    "town": "西海町中浦北郷"
  },
  "8572223": {
    "zipcode": "8572223",
    "prefectureCode": "42",
    "prefectureNumber": 42,
    "prefecture": "長崎県",
    "city": "西海市",
    "town": "西海町七釜郷"
  },
  "8572301": {
    "zipcode": "8572301",
    "prefectureCode": "42",
    "prefectureNumber": 42,
    "prefecture": "長崎県",
    "city": "西海市",
    "town": "大瀬戸町瀬戸板浦郷"
  },
  "8572302": {
    "zipcode": "8572302",
    "prefectureCode": "42",
    "prefectureNumber": 42,
    "prefecture": "長崎県",
    "city": "西海市",
    "town": "大瀬戸町瀬戸樫浦郷"
  },
  "8572303": {
    "zipcode": "8572303",
    "prefectureCode": "42",
    "prefectureNumber": 42,
    "prefecture": "長崎県",
    "city": "西海市",
    "town": "大瀬戸町瀬戸西濱郷"
  },
  "8572304": {
    "zipcode": "8572304",
    "prefectureCode": "42",
    "prefectureNumber": 42,
    "prefecture": "長崎県",
    "city": "西海市",
    "town": "大瀬戸町瀬戸下山郷"
  },
  "8572305": {
    "zipcode": "8572305",
    "prefectureCode": "42",
    "prefectureNumber": 42,
    "prefecture": "長崎県",
    "city": "西海市",
    "town": "大瀬戸町瀬戸羽出川郷"
  },
  "8572306": {
    "zipcode": "8572306",
    "prefectureCode": "42",
    "prefectureNumber": 42,
    "prefecture": "長崎県",
    "city": "西海市",
    "town": "大瀬戸町瀬戸東濱郷"
  },
  "8572307": {
    "zipcode": "8572307",
    "prefectureCode": "42",
    "prefectureNumber": 42,
    "prefecture": "長崎県",
    "city": "西海市",
    "town": "大瀬戸町瀬戸福島郷"
  },
  "8572311": {
    "zipcode": "8572311",
    "prefectureCode": "42",
    "prefectureNumber": 42,
    "prefecture": "長崎県",
    "city": "西海市",
    "town": "大瀬戸町多以良外郷"
  },
  "8572312": {
    "zipcode": "8572312",
    "prefectureCode": "42",
    "prefectureNumber": 42,
    "prefecture": "長崎県",
    "city": "西海市",
    "town": "大瀬戸町多以良内郷"
  },
  "8572321": {
    "zipcode": "8572321",
    "prefectureCode": "42",
    "prefectureNumber": 42,
    "prefecture": "長崎県",
    "city": "西海市",
    "town": "大瀬戸町雪浦幸物郷"
  },
  "8572322": {
    "zipcode": "8572322",
    "prefectureCode": "42",
    "prefectureNumber": 42,
    "prefecture": "長崎県",
    "city": "西海市",
    "town": "大瀬戸町雪浦久良木郷"
  },
  "8572323": {
    "zipcode": "8572323",
    "prefectureCode": "42",
    "prefectureNumber": 42,
    "prefecture": "長崎県",
    "city": "西海市",
    "town": "大瀬戸町雪浦河通郷"
  },
  "8572324": {
    "zipcode": "8572324",
    "prefectureCode": "42",
    "prefectureNumber": 42,
    "prefecture": "長崎県",
    "city": "西海市",
    "town": "大瀬戸町雪浦奥浦郷"
  },
  "8572325": {
    "zipcode": "8572325",
    "prefectureCode": "42",
    "prefectureNumber": 42,
    "prefecture": "長崎県",
    "city": "西海市",
    "town": "大瀬戸町雪浦小松郷"
  },
  "8572326": {
    "zipcode": "8572326",
    "prefectureCode": "42",
    "prefectureNumber": 42,
    "prefecture": "長崎県",
    "city": "西海市",
    "town": "大瀬戸町雪浦下郷"
  },
  "8572327": {
    "zipcode": "8572327",
    "prefectureCode": "42",
    "prefectureNumber": 42,
    "prefecture": "長崎県",
    "city": "西海市",
    "town": "大瀬戸町雪浦上郷"
  },
  "8572328": {
    "zipcode": "8572328",
    "prefectureCode": "42",
    "prefectureNumber": 42,
    "prefecture": "長崎県",
    "city": "西海市",
    "town": "大瀬戸町雪浦下釜郷"
  },
  "8572401": {
    "zipcode": "8572401",
    "prefectureCode": "42",
    "prefectureNumber": 42,
    "prefecture": "長崎県",
    "city": "西海市",
    "town": "大島町黒瀬"
  },
  "8572402": {
    "zipcode": "8572402",
    "prefectureCode": "42",
    "prefectureNumber": 42,
    "prefecture": "長崎県",
    "city": "西海市",
    "town": "大島町内浦地区"
  },
  "8572403": {
    "zipcode": "8572403",
    "prefectureCode": "42",
    "prefectureNumber": 42,
    "prefecture": "長崎県",
    "city": "西海市",
    "town": "大島町馬込"
  },
  "8572405": {
    "zipcode": "8572405",
    "prefectureCode": "42",
    "prefectureNumber": 42,
    "prefecture": "長崎県",
    "city": "西海市",
    "town": "大島町中央地区"
  },
  "8572411": {
    "zipcode": "8572411",
    "prefectureCode": "42",
    "prefectureNumber": 42,
    "prefecture": "長崎県",
    "city": "西海市",
    "town": "大島町寺島"
  },
  "8572412": {
    "zipcode": "8572412",
    "prefectureCode": "42",
    "prefectureNumber": 42,
    "prefecture": "長崎県",
    "city": "西海市",
    "town": "大島町真砂"
  },
  "8572413": {
    "zipcode": "8572413",
    "prefectureCode": "42",
    "prefectureNumber": 42,
    "prefecture": "長崎県",
    "city": "西海市",
    "town": "大島町間瀬"
  },
  "8572417": {
    "zipcode": "8572417",
    "prefectureCode": "42",
    "prefectureNumber": 42,
    "prefecture": "長崎県",
    "city": "西海市",
    "town": "大島町百合が丘"
  },
  "8572418": {
    "zipcode": "8572418",
    "prefectureCode": "42",
    "prefectureNumber": 42,
    "prefecture": "長崎県",
    "city": "西海市",
    "town": "大島町徳万"
  },
  "8572419": {
    "zipcode": "8572419",
    "prefectureCode": "42",
    "prefectureNumber": 42,
    "prefecture": "長崎県",
    "city": "西海市",
    "town": "大島町蛤"
  },
  "8572421": {
    "zipcode": "8572421",
    "prefectureCode": "42",
    "prefectureNumber": 42,
    "prefecture": "長崎県",
    "city": "西海市",
    "town": "大島町中戸"
  },
  "8572422": {
    "zipcode": "8572422",
    "prefectureCode": "42",
    "prefectureNumber": 42,
    "prefecture": "長崎県",
    "city": "西海市",
    "town": "大島町太田尾"
  },
  "8572423": {
    "zipcode": "8572423",
    "prefectureCode": "42",
    "prefectureNumber": 42,
    "prefecture": "長崎県",
    "city": "西海市",
    "town": "大島町塔尾"
  },
  "8572424": {
    "zipcode": "8572424",
    "prefectureCode": "42",
    "prefectureNumber": 42,
    "prefecture": "長崎県",
    "city": "西海市",
    "town": "大島町塩田"
  },
  "8572425": {
    "zipcode": "8572425",
    "prefectureCode": "42",
    "prefectureNumber": 42,
    "prefecture": "長崎県",
    "city": "西海市",
    "town": "大島町田浦"
  },
  "8572426": {
    "zipcode": "8572426",
    "prefectureCode": "42",
    "prefectureNumber": 42,
    "prefecture": "長崎県",
    "city": "西海市",
    "town": "大島町大島"
  },
  "8572427": {
    "zipcode": "8572427",
    "prefectureCode": "42",
    "prefectureNumber": 42,
    "prefecture": "長崎県",
    "city": "西海市",
    "town": "大島町の次に番地がくる場合"
  },
  "8572531": {
    "zipcode": "8572531",
    "prefectureCode": "42",
    "prefectureNumber": 42,
    "prefecture": "長崎県",
    "city": "西海市",
    "town": "大瀬戸町松島内郷"
  },
  "8572532": {
    "zipcode": "8572532",
    "prefectureCode": "42",
    "prefectureNumber": 42,
    "prefecture": "長崎県",
    "city": "西海市",
    "town": "大瀬戸町松島外郷"
  },
  "8573101": {
    "zipcode": "8573101",
    "prefectureCode": "42",
    "prefectureNumber": 42,
    "prefecture": "長崎県",
    "city": "西海市",
    "town": "崎戸町蠣浦郷"
  },
  "8573102": {
    "zipcode": "8573102",
    "prefectureCode": "42",
    "prefectureNumber": 42,
    "prefecture": "長崎県",
    "city": "西海市",
    "town": "崎戸町本郷"
  },
  "8573103": {
    "zipcode": "8573103",
    "prefectureCode": "42",
    "prefectureNumber": 42,
    "prefecture": "長崎県",
    "city": "西海市",
    "town": "崎戸町江島"
  },
  "8573271": {
    "zipcode": "8573271",
    "prefectureCode": "42",
    "prefectureNumber": 42,
    "prefecture": "長崎県",
    "city": "佐世保市",
    "town": "黒島町"
  },
  "8573311": {
    "zipcode": "8573311",
    "prefectureCode": "42",
    "prefectureNumber": 42,
    "prefecture": "長崎県",
    "city": "西海市",
    "town": "崎戸町平島"
  },
  "8574101": {
    "zipcode": "8574101",
    "prefectureCode": "42",
    "prefectureNumber": 42,
    "prefecture": "長崎県",
    "city": "南松浦郡新上五島町",
    "town": "赤尾郷"
  },
  "8574102": {
    "zipcode": "8574102",
    "prefectureCode": "42",
    "prefectureNumber": 42,
    "prefecture": "長崎県",
    "city": "南松浦郡新上五島町",
    "town": "友住郷"
  },
  "8574103": {
    "zipcode": "8574103",
    "prefectureCode": "42",
    "prefectureNumber": 42,
    "prefecture": "長崎県",
    "city": "南松浦郡新上五島町",
    "town": "江ノ浜郷"
  },
  "8574211": {
    "zipcode": "8574211",
    "prefectureCode": "42",
    "prefectureNumber": 42,
    "prefecture": "長崎県",
    "city": "南松浦郡新上五島町",
    "town": "有川郷"
  },
  "8574212": {
    "zipcode": "8574212",
    "prefectureCode": "42",
    "prefectureNumber": 42,
    "prefecture": "長崎県",
    "city": "南松浦郡新上五島町",
    "town": "小河原郷"
  },
  "8574213": {
    "zipcode": "8574213",
    "prefectureCode": "42",
    "prefectureNumber": 42,
    "prefecture": "長崎県",
    "city": "南松浦郡新上五島町",
    "town": "太田郷"
  },
  "8574214": {
    "zipcode": "8574214",
    "prefectureCode": "42",
    "prefectureNumber": 42,
    "prefecture": "長崎県",
    "city": "南松浦郡新上五島町",
    "town": "七目郷"
  },
  "8574400": {
    "zipcode": "8574400",
    "prefectureCode": "42",
    "prefectureNumber": 42,
    "prefecture": "長崎県",
    "city": "南松浦郡新上五島町",
    "town": "以下に掲載がない場合"
  },
  "8574401": {
    "zipcode": "8574401",
    "prefectureCode": "42",
    "prefectureNumber": 42,
    "prefecture": "長崎県",
    "city": "南松浦郡新上五島町",
    "town": "網上郷"
  },
  "8574402": {
    "zipcode": "8574402",
    "prefectureCode": "42",
    "prefectureNumber": 42,
    "prefecture": "長崎県",
    "city": "南松浦郡新上五島町",
    "town": "奈摩郷"
  },
  "8574404": {
    "zipcode": "8574404",
    "prefectureCode": "42",
    "prefectureNumber": 42,
    "prefecture": "長崎県",
    "city": "南松浦郡新上五島町",
    "town": "青方郷"
  },
  "8574405": {
    "zipcode": "8574405",
    "prefectureCode": "42",
    "prefectureNumber": 42,
    "prefecture": "長崎県",
    "city": "南松浦郡新上五島町",
    "town": "船崎郷"
  },
  "8574411": {
    "zipcode": "8574411",
    "prefectureCode": "42",
    "prefectureNumber": 42,
    "prefecture": "長崎県",
    "city": "南松浦郡新上五島町",
    "town": "相河郷"
  },
  "8574412": {
    "zipcode": "8574412",
    "prefectureCode": "42",
    "prefectureNumber": 42,
    "prefecture": "長崎県",
    "city": "南松浦郡新上五島町",
    "town": "三日ノ浦郷"
  },
  "8574413": {
    "zipcode": "8574413",
    "prefectureCode": "42",
    "prefectureNumber": 42,
    "prefecture": "長崎県",
    "city": "南松浦郡新上五島町",
    "town": "今里郷"
  },
  "8574414": {
    "zipcode": "8574414",
    "prefectureCode": "42",
    "prefectureNumber": 42,
    "prefecture": "長崎県",
    "city": "南松浦郡新上五島町",
    "town": "飯ノ瀬戸郷"
  },
  "8574415": {
    "zipcode": "8574415",
    "prefectureCode": "42",
    "prefectureNumber": 42,
    "prefecture": "長崎県",
    "city": "南松浦郡新上五島町",
    "town": "続浜ノ浦郷"
  },
  "8574416": {
    "zipcode": "8574416",
    "prefectureCode": "42",
    "prefectureNumber": 42,
    "prefecture": "長崎県",
    "city": "南松浦郡新上五島町",
    "town": "道土井郷"
  },
  "8574511": {
    "zipcode": "8574511",
    "prefectureCode": "42",
    "prefectureNumber": 42,
    "prefecture": "長崎県",
    "city": "南松浦郡新上五島町",
    "town": "浦桑郷"
  },
  "8574512": {
    "zipcode": "8574512",
    "prefectureCode": "42",
    "prefectureNumber": 42,
    "prefecture": "長崎県",
    "city": "南松浦郡新上五島町",
    "town": "榎津郷"
  },
  "8574513": {
    "zipcode": "8574513",
    "prefectureCode": "42",
    "prefectureNumber": 42,
    "prefecture": "長崎県",
    "city": "南松浦郡新上五島町",
    "town": "丸尾郷"
  },
  "8574514": {
    "zipcode": "8574514",
    "prefectureCode": "42",
    "prefectureNumber": 42,
    "prefecture": "長崎県",
    "city": "南松浦郡新上五島町",
    "town": "似首郷"
  },
  "8574601": {
    "zipcode": "8574601",
    "prefectureCode": "42",
    "prefectureNumber": 42,
    "prefecture": "長崎県",
    "city": "南松浦郡新上五島町",
    "town": "小串郷"
  },
  "8574602": {
    "zipcode": "8574602",
    "prefectureCode": "42",
    "prefectureNumber": 42,
    "prefecture": "長崎県",
    "city": "南松浦郡新上五島町",
    "town": "曽根郷"
  },
  "8574603": {
    "zipcode": "8574603",
    "prefectureCode": "42",
    "prefectureNumber": 42,
    "prefecture": "長崎県",
    "city": "南松浦郡新上五島町",
    "town": "立串郷"
  },
  "8574604": {
    "zipcode": "8574604",
    "prefectureCode": "42",
    "prefectureNumber": 42,
    "prefecture": "長崎県",
    "city": "南松浦郡新上五島町",
    "town": "津和崎郷"
  },
  "8574700": {
    "zipcode": "8574700",
    "prefectureCode": "42",
    "prefectureNumber": 42,
    "prefecture": "長崎県",
    "city": "北松浦郡小値賀町",
    "town": "以下に掲載がない場合"
  },
  "8574701": {
    "zipcode": "8574701",
    "prefectureCode": "42",
    "prefectureNumber": 42,
    "prefecture": "長崎県",
    "city": "北松浦郡小値賀町",
    "town": "笛吹郷"
  },
  "8574702": {
    "zipcode": "8574702",
    "prefectureCode": "42",
    "prefectureNumber": 42,
    "prefecture": "長崎県",
    "city": "北松浦郡小値賀町",
    "town": "前方郷"
  },
  "8574703": {
    "zipcode": "8574703",
    "prefectureCode": "42",
    "prefectureNumber": 42,
    "prefecture": "長崎県",
    "city": "北松浦郡小値賀町",
    "town": "中村郷"
  },
  "8574704": {
    "zipcode": "8574704",
    "prefectureCode": "42",
    "prefectureNumber": 42,
    "prefecture": "長崎県",
    "city": "北松浦郡小値賀町",
    "town": "柳郷"
  },
  "8574705": {
    "zipcode": "8574705",
    "prefectureCode": "42",
    "prefectureNumber": 42,
    "prefecture": "長崎県",
    "city": "北松浦郡小値賀町",
    "town": "浜津郷"
  },
  "8574706": {
    "zipcode": "8574706",
    "prefectureCode": "42",
    "prefectureNumber": 42,
    "prefecture": "長崎県",
    "city": "北松浦郡小値賀町",
    "town": "黒島郷"
  },
  "8574707": {
    "zipcode": "8574707",
    "prefectureCode": "42",
    "prefectureNumber": 42,
    "prefecture": "長崎県",
    "city": "北松浦郡小値賀町",
    "town": "班島郷"
  },
  "8574708": {
    "zipcode": "8574708",
    "prefectureCode": "42",
    "prefectureNumber": 42,
    "prefecture": "長崎県",
    "city": "北松浦郡小値賀町",
    "town": "大島郷"
  },
  "8574709": {
    "zipcode": "8574709",
    "prefectureCode": "42",
    "prefectureNumber": 42,
    "prefecture": "長崎県",
    "city": "北松浦郡小値賀町",
    "town": "野崎郷"
  },
  "8574711": {
    "zipcode": "8574711",
    "prefectureCode": "42",
    "prefectureNumber": 42,
    "prefecture": "長崎県",
    "city": "北松浦郡小値賀町",
    "town": "納島郷"
  },
  "8574712": {
    "zipcode": "8574712",
    "prefectureCode": "42",
    "prefectureNumber": 42,
    "prefecture": "長崎県",
    "city": "北松浦郡小値賀町",
    "town": "六島郷"
  },
  "8574811": {
    "zipcode": "8574811",
    "prefectureCode": "42",
    "prefectureNumber": 42,
    "prefecture": "長崎県",
    "city": "佐世保市",
    "town": "宇久町神浦"
  },
  "8574812": {
    "zipcode": "8574812",
    "prefectureCode": "42",
    "prefectureNumber": 42,
    "prefecture": "長崎県",
    "city": "佐世保市",
    "town": "宇久町小浜"
  },
  "8574813": {
    "zipcode": "8574813",
    "prefectureCode": "42",
    "prefectureNumber": 42,
    "prefecture": "長崎県",
    "city": "佐世保市",
    "town": "宇久町飯良"
  },
  "8574814": {
    "zipcode": "8574814",
    "prefectureCode": "42",
    "prefectureNumber": 42,
    "prefecture": "長崎県",
    "city": "佐世保市",
    "town": "宇久町本飯良"
  },
  "8574815": {
    "zipcode": "8574815",
    "prefectureCode": "42",
    "prefectureNumber": 42,
    "prefecture": "長崎県",
    "city": "佐世保市",
    "town": "宇久町大久保"
  },
  "8574816": {
    "zipcode": "8574816",
    "prefectureCode": "42",
    "prefectureNumber": 42,
    "prefecture": "長崎県",
    "city": "佐世保市",
    "town": "宇久町寺島"
  },
  "8574901": {
    "zipcode": "8574901",
    "prefectureCode": "42",
    "prefectureNumber": 42,
    "prefecture": "長崎県",
    "city": "佐世保市",
    "town": "宇久町平"
  },
  "8574902": {
    "zipcode": "8574902",
    "prefectureCode": "42",
    "prefectureNumber": 42,
    "prefecture": "長崎県",
    "city": "佐世保市",
    "town": "宇久町野方"
  },
  "8574903": {
    "zipcode": "8574903",
    "prefectureCode": "42",
    "prefectureNumber": 42,
    "prefecture": "長崎県",
    "city": "佐世保市",
    "town": "宇久町太田江"
  },
  "8574904": {
    "zipcode": "8574904",
    "prefectureCode": "42",
    "prefectureNumber": 42,
    "prefecture": "長崎県",
    "city": "佐世保市",
    "town": "宇久町木場"
  }
}
