{
  "8580901": {
    "zipcode": "8580901",
    "prefectureCode": "42",
    "prefectureNumber": 42,
    "prefecture": "長崎県",
    "city": "佐世保市",
    "town": "岳野町"
  },
  "8580902": {
    "zipcode": "8580902",
    "prefectureCode": "42",
    "prefectureNumber": 42,
    "prefecture": "長崎県",
    "city": "佐世保市",
    "town": "踊石町"
  },
  "8580903": {
    "zipcode": "8580903",
    "prefectureCode": "42",
    "prefectureNumber": 42,
    "prefecture": "長崎県",
    "city": "佐世保市",
    "town": "上本山町"
  },
  "8580904": {
    "zipcode": "8580904",
    "prefectureCode": "42",
    "prefectureNumber": 42,
    "prefecture": "長崎県",
    "city": "佐世保市",
    "town": "中里町"
  },
  "8580905": {
    "zipcode": "8580905",
    "prefectureCode": "42",
    "prefectureNumber": 42,
    "prefecture": "長崎県",
    "city": "佐世保市",
    "town": "下本山町"
  },
  "8580906": {
    "zipcode": "8580906",
    "prefectureCode": "42",
    "prefectureNumber": 42,
    "prefecture": "長崎県",
    "city": "佐世保市",
    "town": "八の久保町"
  },
  "8580907": {
    "zipcode": "8580907",
    "prefectureCode": "42",
    "prefectureNumber": 42,
    "prefecture": "長崎県",
    "city": "佐世保市",
    "town": "棚方町"
  },
  "8580908": {
    "zipcode": "8580908",
    "prefectureCode": "42",
    "prefectureNumber": 42,
    "prefecture": "長崎県",
    "city": "佐世保市",
    "town": "光町"
  },
  "8580911": {
    "zipcode": "8580911",
    "prefectureCode": "42",
    "prefectureNumber": 42,
    "prefecture": "長崎県",
    "city": "佐世保市",
    "town": "竹辺町"
  },
  "8580912": {
    "zipcode": "8580912",
    "prefectureCode": "42",
    "prefectureNumber": 42,
    "prefecture": "長崎県",
    "city": "佐世保市",
    "town": "母ケ浦町"
  },
  "8580913": {
    "zipcode": "8580913",
    "prefectureCode": "42",
    "prefectureNumber": 42,
    "prefecture": "長崎県",
    "city": "佐世保市",
    "town": "新田町"
  },
  "8580914": {
    "zipcode": "8580914",
    "prefectureCode": "42",
    "prefectureNumber": 42,
    "prefecture": "長崎県",
    "city": "佐世保市",
    "town": "川下町"
  },
  "8580915": {
    "zipcode": "8580915",
    "prefectureCode": "42",
    "prefectureNumber": 42,
    "prefecture": "長崎県",
    "city": "佐世保市",
    "town": "上相浦町"
  },
  "8580916": {
    "zipcode": "8580916",
    "prefectureCode": "42",
    "prefectureNumber": 42,
    "prefecture": "長崎県",
    "city": "佐世保市",
    "town": "木宮町"
  },
  "8580917": {
    "zipcode": "8580917",
    "prefectureCode": "42",
    "prefectureNumber": 42,
    "prefecture": "長崎県",
    "city": "佐世保市",
    "town": "愛宕町"
  },
  "8580918": {
    "zipcode": "8580918",
    "prefectureCode": "42",
    "prefectureNumber": 42,
    "prefecture": "長崎県",
    "city": "佐世保市",
    "town": "相浦町"
  },
  "8580921": {
    "zipcode": "8580921",
    "prefectureCode": "42",
    "prefectureNumber": 42,
    "prefecture": "長崎県",
    "city": "佐世保市",
    "town": "長坂町"
  },
  "8580922": {
    "zipcode": "8580922",
    "prefectureCode": "42",
    "prefectureNumber": 42,
    "prefecture": "長崎県",
    "city": "佐世保市",
    "town": "鹿子前町"
  },
  "8580923": {
    "zipcode": "8580923",
    "prefectureCode": "42",
    "prefectureNumber": 42,
    "prefecture": "長崎県",
    "city": "佐世保市",
    "town": "日野町"
  },
  "8580924": {
    "zipcode": "8580924",
    "prefectureCode": "42",
    "prefectureNumber": 42,
    "prefecture": "長崎県",
    "city": "佐世保市",
    "town": "星和台町"
  },
  "8580925": {
    "zipcode": "8580925",
    "prefectureCode": "42",
    "prefectureNumber": 42,
    "prefecture": "長崎県",
    "city": "佐世保市",
    "town": "椎木町"
  },
  "8580926": {
    "zipcode": "8580926",
    "prefectureCode": "42",
    "prefectureNumber": 42,
    "prefecture": "長崎県",
    "city": "佐世保市",
    "town": "大潟町"
  },
  "8580931": {
    "zipcode": "8580931",
    "prefectureCode": "42",
    "prefectureNumber": 42,
    "prefecture": "長崎県",
    "city": "佐世保市",
    "town": "高島町"
  },
  "8580965": {
    "zipcode": "8580965",
    "prefectureCode": "42",
    "prefectureNumber": 42,
    "prefecture": "長崎県",
    "city": "佐世保市",
    "town": "小野町（その他）"
  }
}
