{
  "8590101": {
    "zipcode": "8590101",
    "prefectureCode": "42",
    "prefectureNumber": 42,
    "prefecture": "長崎県",
    "city": "諫早市",
    "town": "高来町大戸"
  },
  "8590102": {
    "zipcode": "8590102",
    "prefectureCode": "42",
    "prefectureNumber": 42,
    "prefecture": "長崎県",
    "city": "諫早市",
    "town": "高来町折山"
  },
  "8590103": {
    "zipcode": "8590103",
    "prefectureCode": "42",
    "prefectureNumber": 42,
    "prefecture": "長崎県",
    "city": "諫早市",
    "town": "高来町古場"
  },
  "8590104": {
    "zipcode": "8590104",
    "prefectureCode": "42",
    "prefectureNumber": 42,
    "prefecture": "長崎県",
    "city": "諫早市",
    "town": "高来町建山"
  },
  "8590105": {
    "zipcode": "8590105",
    "prefectureCode": "42",
    "prefectureNumber": 42,
    "prefecture": "長崎県",
    "city": "諫早市",
    "town": "高来町船津"
  },
  "8590106": {
    "zipcode": "8590106",
    "prefectureCode": "42",
    "prefectureNumber": 42,
    "prefecture": "長崎県",
    "city": "諫早市",
    "town": "高来町冨地戸"
  },
  "8590111": {
    "zipcode": "8590111",
    "prefectureCode": "42",
    "prefectureNumber": 42,
    "prefecture": "長崎県",
    "city": "諫早市",
    "town": "高来町上与"
  },
  "8590112": {
    "zipcode": "8590112",
    "prefectureCode": "42",
    "prefectureNumber": 42,
    "prefecture": "長崎県",
    "city": "諫早市",
    "town": "高来町小船津"
  },
  "8590113": {
    "zipcode": "8590113",
    "prefectureCode": "42",
    "prefectureNumber": 42,
    "prefecture": "長崎県",
    "city": "諫早市",
    "town": "高来町下与"
  },
  "8590114": {
    "zipcode": "8590114",
    "prefectureCode": "42",
    "prefectureNumber": 42,
    "prefecture": "長崎県",
    "city": "諫早市",
    "town": "高来町西平原"
  },
  "8590115": {
    "zipcode": "8590115",
    "prefectureCode": "42",
    "prefectureNumber": 42,
    "prefecture": "長崎県",
    "city": "諫早市",
    "town": "高来町西尾"
  },
  "8590116": {
    "zipcode": "8590116",
    "prefectureCode": "42",
    "prefectureNumber": 42,
    "prefecture": "長崎県",
    "city": "諫早市",
    "town": "高来町平田"
  },
  "8590117": {
    "zipcode": "8590117",
    "prefectureCode": "42",
    "prefectureNumber": 42,
    "prefecture": "長崎県",
    "city": "諫早市",
    "town": "高来町峰"
  },
  "8590121": {
    "zipcode": "8590121",
    "prefectureCode": "42",
    "prefectureNumber": 42,
    "prefecture": "長崎県",
    "city": "諫早市",
    "town": "高来町泉"
  },
  "8590122": {
    "zipcode": "8590122",
    "prefectureCode": "42",
    "prefectureNumber": 42,
    "prefecture": "長崎県",
    "city": "諫早市",
    "town": "高来町黒崎"
  },
  "8590123": {
    "zipcode": "8590123",
    "prefectureCode": "42",
    "prefectureNumber": 42,
    "prefecture": "長崎県",
    "city": "諫早市",
    "town": "高来町小峰"
  },
  "8590124": {
    "zipcode": "8590124",
    "prefectureCode": "42",
    "prefectureNumber": 42,
    "prefecture": "長崎県",
    "city": "諫早市",
    "town": "高来町里"
  },
  "8590125": {
    "zipcode": "8590125",
    "prefectureCode": "42",
    "prefectureNumber": 42,
    "prefecture": "長崎県",
    "city": "諫早市",
    "town": "高来町善住寺"
  },
  "8590126": {
    "zipcode": "8590126",
    "prefectureCode": "42",
    "prefectureNumber": 42,
    "prefecture": "長崎県",
    "city": "諫早市",
    "town": "高来町法川"
  },
  "8590127": {
    "zipcode": "8590127",
    "prefectureCode": "42",
    "prefectureNumber": 42,
    "prefecture": "長崎県",
    "city": "諫早市",
    "town": "高来町町名"
  },
  "8590131": {
    "zipcode": "8590131",
    "prefectureCode": "42",
    "prefectureNumber": 42,
    "prefecture": "長崎県",
    "city": "諫早市",
    "town": "高来町神津倉"
  },
  "8590132": {
    "zipcode": "8590132",
    "prefectureCode": "42",
    "prefectureNumber": 42,
    "prefecture": "長崎県",
    "city": "諫早市",
    "town": "高来町三部壱"
  },
  "8590133": {
    "zipcode": "8590133",
    "prefectureCode": "42",
    "prefectureNumber": 42,
    "prefecture": "長崎県",
    "city": "諫早市",
    "town": "高来町東平原"
  },
  "8590141": {
    "zipcode": "8590141",
    "prefectureCode": "42",
    "prefectureNumber": 42,
    "prefecture": "長崎県",
    "city": "諫早市",
    "town": "高来町汲水"
  },
  "8590142": {
    "zipcode": "8590142",
    "prefectureCode": "42",
    "prefectureNumber": 42,
    "prefecture": "長崎県",
    "city": "諫早市",
    "town": "高来町黒新田"
  },
  "8590143": {
    "zipcode": "8590143",
    "prefectureCode": "42",
    "prefectureNumber": 42,
    "prefecture": "長崎県",
    "city": "諫早市",
    "town": "高来町坂元"
  },
  "8590144": {
    "zipcode": "8590144",
    "prefectureCode": "42",
    "prefectureNumber": 42,
    "prefecture": "長崎県",
    "city": "諫早市",
    "town": "高来町溝口"
  },
  "8590145": {
    "zipcode": "8590145",
    "prefectureCode": "42",
    "prefectureNumber": 42,
    "prefecture": "長崎県",
    "city": "諫早市",
    "town": "高来町山道"
  },
  "8590146": {
    "zipcode": "8590146",
    "prefectureCode": "42",
    "prefectureNumber": 42,
    "prefecture": "長崎県",
    "city": "諫早市",
    "town": "高来町金崎"
  },
  "8590147": {
    "zipcode": "8590147",
    "prefectureCode": "42",
    "prefectureNumber": 42,
    "prefecture": "長崎県",
    "city": "諫早市",
    "town": "高来町水ノ浦"
  },
  "8590151": {
    "zipcode": "8590151",
    "prefectureCode": "42",
    "prefectureNumber": 42,
    "prefecture": "長崎県",
    "city": "諫早市",
    "town": "小長井町打越"
  },
  "8590152": {
    "zipcode": "8590152",
    "prefectureCode": "42",
    "prefectureNumber": 42,
    "prefecture": "長崎県",
    "city": "諫早市",
    "town": "小長井町大搦"
  },
  "8590153": {
    "zipcode": "8590153",
    "prefectureCode": "42",
    "prefectureNumber": 42,
    "prefecture": "長崎県",
    "city": "諫早市",
    "town": "小長井町大峰"
  },
  "8590154": {
    "zipcode": "8590154",
    "prefectureCode": "42",
    "prefectureNumber": 42,
    "prefecture": "長崎県",
    "city": "諫早市",
    "town": "小長井町川内"
  },
  "8590161": {
    "zipcode": "8590161",
    "prefectureCode": "42",
    "prefectureNumber": 42,
    "prefecture": "長崎県",
    "city": "諫早市",
    "town": "小長井町古場"
  },
  "8590162": {
    "zipcode": "8590162",
    "prefectureCode": "42",
    "prefectureNumber": 42,
    "prefecture": "長崎県",
    "city": "諫早市",
    "town": "小長井町新田原"
  },
  "8590163": {
    "zipcode": "8590163",
    "prefectureCode": "42",
    "prefectureNumber": 42,
    "prefecture": "長崎県",
    "city": "諫早市",
    "town": "小長井町田原"
  },
  "8590164": {
    "zipcode": "8590164",
    "prefectureCode": "42",
    "prefectureNumber": 42,
    "prefecture": "長崎県",
    "city": "諫早市",
    "town": "小長井町牧"
  },
  "8590165": {
    "zipcode": "8590165",
    "prefectureCode": "42",
    "prefectureNumber": 42,
    "prefecture": "長崎県",
    "city": "諫早市",
    "town": "小長井町小川原浦"
  },
  "8590166": {
    "zipcode": "8590166",
    "prefectureCode": "42",
    "prefectureNumber": 42,
    "prefecture": "長崎県",
    "city": "諫早市",
    "town": "小長井町井崎"
  },
  "8590167": {
    "zipcode": "8590167",
    "prefectureCode": "42",
    "prefectureNumber": 42,
    "prefecture": "長崎県",
    "city": "諫早市",
    "town": "小長井町遠竹"
  },
  "8590171": {
    "zipcode": "8590171",
    "prefectureCode": "42",
    "prefectureNumber": 42,
    "prefecture": "長崎県",
    "city": "諫早市",
    "town": "高来町小江干拓"
  },
  "8590301": {
    "zipcode": "8590301",
    "prefectureCode": "42",
    "prefectureNumber": 42,
    "prefecture": "長崎県",
    "city": "諫早市",
    "town": "長田町"
  },
  "8590302": {
    "zipcode": "8590302",
    "prefectureCode": "42",
    "prefectureNumber": 42,
    "prefecture": "長崎県",
    "city": "諫早市",
    "town": "正久寺町"
  },
  "8590303": {
    "zipcode": "8590303",
    "prefectureCode": "42",
    "prefectureNumber": 42,
    "prefecture": "長崎県",
    "city": "諫早市",
    "town": "高天町"
  },
  "8590304": {
    "zipcode": "8590304",
    "prefectureCode": "42",
    "prefectureNumber": 42,
    "prefecture": "長崎県",
    "city": "諫早市",
    "town": "白浜町"
  },
  "8590305": {
    "zipcode": "8590305",
    "prefectureCode": "42",
    "prefectureNumber": 42,
    "prefecture": "長崎県",
    "city": "諫早市",
    "town": "猿崎町"
  },
  "8590306": {
    "zipcode": "8590306",
    "prefectureCode": "42",
    "prefectureNumber": 42,
    "prefecture": "長崎県",
    "city": "諫早市",
    "town": "白原町"
  },
  "8590307": {
    "zipcode": "8590307",
    "prefectureCode": "42",
    "prefectureNumber": 42,
    "prefecture": "長崎県",
    "city": "諫早市",
    "town": "白木峰町"
  },
  "8590311": {
    "zipcode": "8590311",
    "prefectureCode": "42",
    "prefectureNumber": 42,
    "prefecture": "長崎県",
    "city": "諫早市",
    "town": "小豆崎町"
  },
  "8590312": {
    "zipcode": "8590312",
    "prefectureCode": "42",
    "prefectureNumber": 42,
    "prefecture": "長崎県",
    "city": "諫早市",
    "town": "西里町"
  },
  "8590313": {
    "zipcode": "8590313",
    "prefectureCode": "42",
    "prefectureNumber": 42,
    "prefecture": "長崎県",
    "city": "諫早市",
    "town": "中田町"
  },
  "8590314": {
    "zipcode": "8590314",
    "prefectureCode": "42",
    "prefectureNumber": 42,
    "prefecture": "長崎県",
    "city": "諫早市",
    "town": "御手水町"
  },
  "8590315": {
    "zipcode": "8590315",
    "prefectureCode": "42",
    "prefectureNumber": 42,
    "prefecture": "長崎県",
    "city": "諫早市",
    "town": "大場町"
  },
  "8590401": {
    "zipcode": "8590401",
    "prefectureCode": "42",
    "prefectureNumber": 42,
    "prefecture": "長崎県",
    "city": "諫早市",
    "town": "多良見町化屋"
  },
  "8590402": {
    "zipcode": "8590402",
    "prefectureCode": "42",
    "prefectureNumber": 42,
    "prefecture": "長崎県",
    "city": "諫早市",
    "town": "多良見町囲"
  },
  "8590403": {
    "zipcode": "8590403",
    "prefectureCode": "42",
    "prefectureNumber": 42,
    "prefecture": "長崎県",
    "city": "諫早市",
    "town": "多良見町市布"
  },
  "8590404": {
    "zipcode": "8590404",
    "prefectureCode": "42",
    "prefectureNumber": 42,
    "prefecture": "長崎県",
    "city": "諫早市",
    "town": "多良見町西川内"
  },
  "8590405": {
    "zipcode": "8590405",
    "prefectureCode": "42",
    "prefectureNumber": 42,
    "prefecture": "長崎県",
    "city": "諫早市",
    "town": "多良見町中里"
  },
  "8590406": {
    "zipcode": "8590406",
    "prefectureCode": "42",
    "prefectureNumber": 42,
    "prefecture": "長崎県",
    "city": "諫早市",
    "town": "多良見町木床"
  },
  "8590407": {
    "zipcode": "8590407",
    "prefectureCode": "42",
    "prefectureNumber": 42,
    "prefecture": "長崎県",
    "city": "諫早市",
    "town": "多良見町シーサイド"
  },
  "8590411": {
    "zipcode": "8590411",
    "prefectureCode": "42",
    "prefectureNumber": 42,
    "prefecture": "長崎県",
    "city": "諫早市",
    "town": "多良見町東園"
  },
  "8590412": {
    "zipcode": "8590412",
    "prefectureCode": "42",
    "prefectureNumber": 42,
    "prefecture": "長崎県",
    "city": "諫早市",
    "town": "多良見町西園"
  },
  "8590413": {
    "zipcode": "8590413",
    "prefectureCode": "42",
    "prefectureNumber": 42,
    "prefecture": "長崎県",
    "city": "諫早市",
    "town": "多良見町野副"
  },
  "8590414": {
    "zipcode": "8590414",
    "prefectureCode": "42",
    "prefectureNumber": 42,
    "prefecture": "長崎県",
    "city": "諫早市",
    "town": "多良見町元釜"
  },
  "8590415": {
    "zipcode": "8590415",
    "prefectureCode": "42",
    "prefectureNumber": 42,
    "prefecture": "長崎県",
    "city": "諫早市",
    "town": "多良見町山川内"
  },
  "8590416": {
    "zipcode": "8590416",
    "prefectureCode": "42",
    "prefectureNumber": 42,
    "prefecture": "長崎県",
    "city": "諫早市",
    "town": "多良見町野川内"
  },
  "8590417": {
    "zipcode": "8590417",
    "prefectureCode": "42",
    "prefectureNumber": 42,
    "prefecture": "長崎県",
    "city": "諫早市",
    "town": "多良見町舟津"
  },
  "8590418": {
    "zipcode": "8590418",
    "prefectureCode": "42",
    "prefectureNumber": 42,
    "prefecture": "長崎県",
    "city": "諫早市",
    "town": "多良見町佐瀬"
  },
  "8591101": {
    "zipcode": "8591101",
    "prefectureCode": "42",
    "prefectureNumber": 42,
    "prefecture": "長崎県",
    "city": "雲仙市",
    "town": "吾妻町本村名"
  },
  "8591102": {
    "zipcode": "8591102",
    "prefectureCode": "42",
    "prefectureNumber": 42,
    "prefecture": "長崎県",
    "city": "雲仙市",
    "town": "吾妻町木場名"
  },
  "8591103": {
    "zipcode": "8591103",
    "prefectureCode": "42",
    "prefectureNumber": 42,
    "prefecture": "長崎県",
    "city": "雲仙市",
    "town": "吾妻町平江名"
  },
  "8591104": {
    "zipcode": "8591104",
    "prefectureCode": "42",
    "prefectureNumber": 42,
    "prefecture": "長崎県",
    "city": "雲仙市",
    "town": "吾妻町古城名"
  },
  "8591105": {
    "zipcode": "8591105",
    "prefectureCode": "42",
    "prefectureNumber": 42,
    "prefecture": "長崎県",
    "city": "雲仙市",
    "town": "吾妻町田之平名"
  },
  "8591106": {
    "zipcode": "8591106",
    "prefectureCode": "42",
    "prefectureNumber": 42,
    "prefecture": "長崎県",
    "city": "雲仙市",
    "town": "吾妻町大木場名"
  },
  "8591107": {
    "zipcode": "8591107",
    "prefectureCode": "42",
    "prefectureNumber": 42,
    "prefecture": "長崎県",
    "city": "雲仙市",
    "town": "吾妻町牛口名"
  },
  "8591111": {
    "zipcode": "8591111",
    "prefectureCode": "42",
    "prefectureNumber": 42,
    "prefecture": "長崎県",
    "city": "雲仙市",
    "town": "吾妻町馬場名"
  },
  "8591112": {
    "zipcode": "8591112",
    "prefectureCode": "42",
    "prefectureNumber": 42,
    "prefecture": "長崎県",
    "city": "雲仙市",
    "town": "吾妻町栗林名"
  },
  "8591113": {
    "zipcode": "8591113",
    "prefectureCode": "42",
    "prefectureNumber": 42,
    "prefecture": "長崎県",
    "city": "雲仙市",
    "town": "吾妻町布江名"
  },
  "8591114": {
    "zipcode": "8591114",
    "prefectureCode": "42",
    "prefectureNumber": 42,
    "prefecture": "長崎県",
    "city": "雲仙市",
    "town": "吾妻町川床名"
  },
  "8591115": {
    "zipcode": "8591115",
    "prefectureCode": "42",
    "prefectureNumber": 42,
    "prefecture": "長崎県",
    "city": "雲仙市",
    "town": "吾妻町永中名"
  },
  "8591116": {
    "zipcode": "8591116",
    "prefectureCode": "42",
    "prefectureNumber": 42,
    "prefecture": "長崎県",
    "city": "雲仙市",
    "town": "吾妻町阿母名"
  },
  "8591201": {
    "zipcode": "8591201",
    "prefectureCode": "42",
    "prefectureNumber": 42,
    "prefecture": "長崎県",
    "city": "雲仙市",
    "town": "瑞穂町西郷庚"
  },
  "8591202": {
    "zipcode": "8591202",
    "prefectureCode": "42",
    "prefectureNumber": 42,
    "prefecture": "長崎県",
    "city": "雲仙市",
    "town": "瑞穂町西郷甲"
  },
  "8591203": {
    "zipcode": "8591203",
    "prefectureCode": "42",
    "prefectureNumber": 42,
    "prefecture": "長崎県",
    "city": "雲仙市",
    "town": "瑞穂町西郷乙"
  },
  "8591204": {
    "zipcode": "8591204",
    "prefectureCode": "42",
    "prefectureNumber": 42,
    "prefecture": "長崎県",
    "city": "雲仙市",
    "town": "瑞穂町西郷丙"
  },
  "8591205": {
    "zipcode": "8591205",
    "prefectureCode": "42",
    "prefectureNumber": 42,
    "prefecture": "長崎県",
    "city": "雲仙市",
    "town": "瑞穂町西郷丁"
  },
  "8591206": {
    "zipcode": "8591206",
    "prefectureCode": "42",
    "prefectureNumber": 42,
    "prefecture": "長崎県",
    "city": "雲仙市",
    "town": "瑞穂町西郷辛"
  },
  "8591211": {
    "zipcode": "8591211",
    "prefectureCode": "42",
    "prefectureNumber": 42,
    "prefecture": "長崎県",
    "city": "雲仙市",
    "town": "瑞穂町西郷戊"
  },
  "8591212": {
    "zipcode": "8591212",
    "prefectureCode": "42",
    "prefectureNumber": 42,
    "prefecture": "長崎県",
    "city": "雲仙市",
    "town": "瑞穂町西郷己"
  },
  "8591213": {
    "zipcode": "8591213",
    "prefectureCode": "42",
    "prefectureNumber": 42,
    "prefecture": "長崎県",
    "city": "雲仙市",
    "town": "瑞穂町伊福甲"
  },
  "8591214": {
    "zipcode": "8591214",
    "prefectureCode": "42",
    "prefectureNumber": 42,
    "prefecture": "長崎県",
    "city": "雲仙市",
    "town": "瑞穂町伊福乙"
  },
  "8591215": {
    "zipcode": "8591215",
    "prefectureCode": "42",
    "prefectureNumber": 42,
    "prefecture": "長崎県",
    "city": "雲仙市",
    "town": "瑞穂町古部甲"
  },
  "8591216": {
    "zipcode": "8591216",
    "prefectureCode": "42",
    "prefectureNumber": 42,
    "prefecture": "長崎県",
    "city": "雲仙市",
    "town": "瑞穂町古部乙"
  },
  "8591301": {
    "zipcode": "8591301",
    "prefectureCode": "42",
    "prefectureNumber": 42,
    "prefecture": "長崎県",
    "city": "雲仙市",
    "town": "国見町神代甲"
  },
  "8591302": {
    "zipcode": "8591302",
    "prefectureCode": "42",
    "prefectureNumber": 42,
    "prefecture": "長崎県",
    "city": "雲仙市",
    "town": "国見町神代乙"
  },
  "8591303": {
    "zipcode": "8591303",
    "prefectureCode": "42",
    "prefectureNumber": 42,
    "prefecture": "長崎県",
    "city": "雲仙市",
    "town": "国見町神代丙"
  },
  "8591304": {
    "zipcode": "8591304",
    "prefectureCode": "42",
    "prefectureNumber": 42,
    "prefecture": "長崎県",
    "city": "雲仙市",
    "town": "国見町神代丁"
  },
  "8591305": {
    "zipcode": "8591305",
    "prefectureCode": "42",
    "prefectureNumber": 42,
    "prefecture": "長崎県",
    "city": "雲仙市",
    "town": "国見町神代戊"
  },
  "8591306": {
    "zipcode": "8591306",
    "prefectureCode": "42",
    "prefectureNumber": 42,
    "prefecture": "長崎県",
    "city": "雲仙市",
    "town": "国見町神代己"
  },
  "8591307": {
    "zipcode": "8591307",
    "prefectureCode": "42",
    "prefectureNumber": 42,
    "prefecture": "長崎県",
    "city": "雲仙市",
    "town": "国見町神代庚"
  },
  "8591308": {
    "zipcode": "8591308",
    "prefectureCode": "42",
    "prefectureNumber": 42,
    "prefecture": "長崎県",
    "city": "雲仙市",
    "town": "国見町神代辛"
  },
  "8591311": {
    "zipcode": "8591311",
    "prefectureCode": "42",
    "prefectureNumber": 42,
    "prefecture": "長崎県",
    "city": "雲仙市",
    "town": "国見町土黒甲"
  },
  "8591312": {
    "zipcode": "8591312",
    "prefectureCode": "42",
    "prefectureNumber": 42,
    "prefecture": "長崎県",
    "city": "雲仙市",
    "town": "国見町土黒乙"
  },
  "8591313": {
    "zipcode": "8591313",
    "prefectureCode": "42",
    "prefectureNumber": 42,
    "prefecture": "長崎県",
    "city": "雲仙市",
    "town": "国見町土黒丙"
  },
  "8591314": {
    "zipcode": "8591314",
    "prefectureCode": "42",
    "prefectureNumber": 42,
    "prefecture": "長崎県",
    "city": "雲仙市",
    "town": "国見町土黒丁"
  },
  "8591315": {
    "zipcode": "8591315",
    "prefectureCode": "42",
    "prefectureNumber": 42,
    "prefecture": "長崎県",
    "city": "雲仙市",
    "town": "国見町土黒戊"
  },
  "8591316": {
    "zipcode": "8591316",
    "prefectureCode": "42",
    "prefectureNumber": 42,
    "prefecture": "長崎県",
    "city": "雲仙市",
    "town": "国見町土黒己"
  },
  "8591317": {
    "zipcode": "8591317",
    "prefectureCode": "42",
    "prefectureNumber": 42,
    "prefecture": "長崎県",
    "city": "雲仙市",
    "town": "国見町土黒庚"
  },
  "8591321": {
    "zipcode": "8591321",
    "prefectureCode": "42",
    "prefectureNumber": 42,
    "prefecture": "長崎県",
    "city": "雲仙市",
    "town": "国見町多比良甲"
  },
  "8591322": {
    "zipcode": "8591322",
    "prefectureCode": "42",
    "prefectureNumber": 42,
    "prefecture": "長崎県",
    "city": "雲仙市",
    "town": "国見町多比良乙"
  },
  "8591323": {
    "zipcode": "8591323",
    "prefectureCode": "42",
    "prefectureNumber": 42,
    "prefecture": "長崎県",
    "city": "雲仙市",
    "town": "国見町多比良丙"
  },
  "8591324": {
    "zipcode": "8591324",
    "prefectureCode": "42",
    "prefectureNumber": 42,
    "prefecture": "長崎県",
    "city": "雲仙市",
    "town": "国見町多比良丁"
  },
  "8591325": {
    "zipcode": "8591325",
    "prefectureCode": "42",
    "prefectureNumber": 42,
    "prefecture": "長崎県",
    "city": "雲仙市",
    "town": "国見町多比良戊"
  },
  "8591401": {
    "zipcode": "8591401",
    "prefectureCode": "42",
    "prefectureNumber": 42,
    "prefecture": "長崎県",
    "city": "島原市",
    "town": "有明町湯江甲"
  },
  "8591402": {
    "zipcode": "8591402",
    "prefectureCode": "42",
    "prefectureNumber": 42,
    "prefecture": "長崎県",
    "city": "島原市",
    "town": "有明町湯江乙"
  },
  "8591403": {
    "zipcode": "8591403",
    "prefectureCode": "42",
    "prefectureNumber": 42,
    "prefecture": "長崎県",
    "city": "島原市",
    "town": "有明町湯江丙"
  },
  "8591404": {
    "zipcode": "8591404",
    "prefectureCode": "42",
    "prefectureNumber": 42,
    "prefecture": "長崎県",
    "city": "島原市",
    "town": "有明町湯江丁"
  },
  "8591411": {
    "zipcode": "8591411",
    "prefectureCode": "42",
    "prefectureNumber": 42,
    "prefecture": "長崎県",
    "city": "島原市",
    "town": "有明町大三東甲"
  },
  "8591412": {
    "zipcode": "8591412",
    "prefectureCode": "42",
    "prefectureNumber": 42,
    "prefecture": "長崎県",
    "city": "島原市",
    "town": "有明町大三東乙"
  },
  "8591413": {
    "zipcode": "8591413",
    "prefectureCode": "42",
    "prefectureNumber": 42,
    "prefecture": "長崎県",
    "city": "島原市",
    "town": "有明町大三東丙"
  },
  "8591414": {
    "zipcode": "8591414",
    "prefectureCode": "42",
    "prefectureNumber": 42,
    "prefecture": "長崎県",
    "city": "島原市",
    "town": "有明町大三東丁"
  },
  "8591415": {
    "zipcode": "8591415",
    "prefectureCode": "42",
    "prefectureNumber": 42,
    "prefecture": "長崎県",
    "city": "島原市",
    "town": "有明町大三東戊"
  },
  "8591501": {
    "zipcode": "8591501",
    "prefectureCode": "42",
    "prefectureNumber": 42,
    "prefecture": "長崎県",
    "city": "南島原市",
    "town": "深江町甲"
  },
  "8591502": {
    "zipcode": "8591502",
    "prefectureCode": "42",
    "prefectureNumber": 42,
    "prefecture": "長崎県",
    "city": "南島原市",
    "town": "深江町乙"
  },
  "8591503": {
    "zipcode": "8591503",
    "prefectureCode": "42",
    "prefectureNumber": 42,
    "prefecture": "長崎県",
    "city": "南島原市",
    "town": "深江町丙"
  },
  "8591504": {
    "zipcode": "8591504",
    "prefectureCode": "42",
    "prefectureNumber": 42,
    "prefecture": "長崎県",
    "city": "南島原市",
    "town": "深江町丁"
  },
  "8591505": {
    "zipcode": "8591505",
    "prefectureCode": "42",
    "prefectureNumber": 42,
    "prefecture": "長崎県",
    "city": "南島原市",
    "town": "深江町戊"
  },
  "8592111": {
    "zipcode": "8592111",
    "prefectureCode": "42",
    "prefectureNumber": 42,
    "prefecture": "長崎県",
    "city": "南島原市",
    "town": "布津町甲"
  },
  "8592112": {
    "zipcode": "8592112",
    "prefectureCode": "42",
    "prefectureNumber": 42,
    "prefecture": "長崎県",
    "city": "南島原市",
    "town": "布津町乙"
  },
  "8592113": {
    "zipcode": "8592113",
    "prefectureCode": "42",
    "prefectureNumber": 42,
    "prefecture": "長崎県",
    "city": "南島原市",
    "town": "布津町丙"
  },
  "8592121": {
    "zipcode": "8592121",
    "prefectureCode": "42",
    "prefectureNumber": 42,
    "prefecture": "長崎県",
    "city": "南島原市",
    "town": "有家町石田"
  },
  "8592122": {
    "zipcode": "8592122",
    "prefectureCode": "42",
    "prefectureNumber": 42,
    "prefecture": "長崎県",
    "city": "南島原市",
    "town": "有家町大苑"
  },
  "8592123": {
    "zipcode": "8592123",
    "prefectureCode": "42",
    "prefectureNumber": 42,
    "prefecture": "長崎県",
    "city": "南島原市",
    "town": "有家町原尾"
  },
  "8592201": {
    "zipcode": "8592201",
    "prefectureCode": "42",
    "prefectureNumber": 42,
    "prefecture": "長崎県",
    "city": "南島原市",
    "town": "有家町久保"
  },
  "8592202": {
    "zipcode": "8592202",
    "prefectureCode": "42",
    "prefectureNumber": 42,
    "prefecture": "長崎県",
    "city": "南島原市",
    "town": "有家町山川"
  },
  "8592203": {
    "zipcode": "8592203",
    "prefectureCode": "42",
    "prefectureNumber": 42,
    "prefecture": "長崎県",
    "city": "南島原市",
    "town": "有家町尾上"
  },
  "8592204": {
    "zipcode": "8592204",
    "prefectureCode": "42",
    "prefectureNumber": 42,
    "prefecture": "長崎県",
    "city": "南島原市",
    "town": "有家町蒲河"
  },
  "8592205": {
    "zipcode": "8592205",
    "prefectureCode": "42",
    "prefectureNumber": 42,
    "prefecture": "長崎県",
    "city": "南島原市",
    "town": "有家町小川"
  },
  "8592206": {
    "zipcode": "8592206",
    "prefectureCode": "42",
    "prefectureNumber": 42,
    "prefecture": "長崎県",
    "city": "南島原市",
    "town": "有家町中須川"
  },
  "8592211": {
    "zipcode": "8592211",
    "prefectureCode": "42",
    "prefectureNumber": 42,
    "prefecture": "長崎県",
    "city": "南島原市",
    "town": "西有家町里坊"
  },
  "8592212": {
    "zipcode": "8592212",
    "prefectureCode": "42",
    "prefectureNumber": 42,
    "prefecture": "長崎県",
    "city": "南島原市",
    "town": "西有家町須川"
  },
  "8592213": {
    "zipcode": "8592213",
    "prefectureCode": "42",
    "prefectureNumber": 42,
    "prefecture": "長崎県",
    "city": "南島原市",
    "town": "西有家町見岳"
  },
  "8592214": {
    "zipcode": "8592214",
    "prefectureCode": "42",
    "prefectureNumber": 42,
    "prefecture": "長崎県",
    "city": "南島原市",
    "town": "西有家町慈恩寺"
  },
  "8592215": {
    "zipcode": "8592215",
    "prefectureCode": "42",
    "prefectureNumber": 42,
    "prefecture": "長崎県",
    "city": "南島原市",
    "town": "西有家町長野"
  },
  "8592216": {
    "zipcode": "8592216",
    "prefectureCode": "42",
    "prefectureNumber": 42,
    "prefecture": "長崎県",
    "city": "南島原市",
    "town": "西有家町龍石"
  },
  "8592301": {
    "zipcode": "8592301",
    "prefectureCode": "42",
    "prefectureNumber": 42,
    "prefecture": "長崎県",
    "city": "南島原市",
    "town": "北有馬町甲"
  },
  "8592302": {
    "zipcode": "8592302",
    "prefectureCode": "42",
    "prefectureNumber": 42,
    "prefecture": "長崎県",
    "city": "南島原市",
    "town": "北有馬町乙"
  },
  "8592303": {
    "zipcode": "8592303",
    "prefectureCode": "42",
    "prefectureNumber": 42,
    "prefecture": "長崎県",
    "city": "南島原市",
    "town": "北有馬町丙"
  },
  "8592304": {
    "zipcode": "8592304",
    "prefectureCode": "42",
    "prefectureNumber": 42,
    "prefecture": "長崎県",
    "city": "南島原市",
    "town": "北有馬町丁"
  },
  "8592305": {
    "zipcode": "8592305",
    "prefectureCode": "42",
    "prefectureNumber": 42,
    "prefecture": "長崎県",
    "city": "南島原市",
    "town": "北有馬町戊"
  },
  "8592306": {
    "zipcode": "8592306",
    "prefectureCode": "42",
    "prefectureNumber": 42,
    "prefecture": "長崎県",
    "city": "南島原市",
    "town": "北有馬町己"
  },
  "8592316": {
    "zipcode": "8592316",
    "prefectureCode": "42",
    "prefectureNumber": 42,
    "prefecture": "長崎県",
    "city": "南島原市",
    "town": "南有馬町己（古園轟河）"
  },
  "8592411": {
    "zipcode": "8592411",
    "prefectureCode": "42",
    "prefectureNumber": 42,
    "prefecture": "長崎県",
    "city": "南島原市",
    "town": "南有馬町甲"
  },
  "8592412": {
    "zipcode": "8592412",
    "prefectureCode": "42",
    "prefectureNumber": 42,
    "prefecture": "長崎県",
    "city": "南島原市",
    "town": "南有馬町乙"
  },
  "8592413": {
    "zipcode": "8592413",
    "prefectureCode": "42",
    "prefectureNumber": 42,
    "prefecture": "長崎県",
    "city": "南島原市",
    "town": "南有馬町丙"
  },
  "8592414": {
    "zipcode": "8592414",
    "prefectureCode": "42",
    "prefectureNumber": 42,
    "prefecture": "長崎県",
    "city": "南島原市",
    "town": "南有馬町丁"
  },
  "8592415": {
    "zipcode": "8592415",
    "prefectureCode": "42",
    "prefectureNumber": 42,
    "prefecture": "長崎県",
    "city": "南島原市",
    "town": "南有馬町戊"
  },
  "8592416": {
    "zipcode": "8592416",
    "prefectureCode": "42",
    "prefectureNumber": 42,
    "prefecture": "長崎県",
    "city": "南島原市",
    "town": "南有馬町己（その他）"
  },
  "8592501": {
    "zipcode": "8592501",
    "prefectureCode": "42",
    "prefectureNumber": 42,
    "prefecture": "長崎県",
    "city": "南島原市",
    "town": "口之津町乙"
  },
  "8592502": {
    "zipcode": "8592502",
    "prefectureCode": "42",
    "prefectureNumber": 42,
    "prefecture": "長崎県",
    "city": "南島原市",
    "town": "口之津町甲"
  },
  "8592503": {
    "zipcode": "8592503",
    "prefectureCode": "42",
    "prefectureNumber": 42,
    "prefecture": "長崎県",
    "city": "南島原市",
    "town": "口之津町丁"
  },
  "8592504": {
    "zipcode": "8592504",
    "prefectureCode": "42",
    "prefectureNumber": 42,
    "prefecture": "長崎県",
    "city": "南島原市",
    "town": "口之津町丙"
  },
  "8592600": {
    "zipcode": "8592600",
    "prefectureCode": "42",
    "prefectureNumber": 42,
    "prefecture": "長崎県",
    "city": "南島原市",
    "town": "以下に掲載がない場合"
  },
  "8592601": {
    "zipcode": "8592601",
    "prefectureCode": "42",
    "prefectureNumber": 42,
    "prefecture": "長崎県",
    "city": "南島原市",
    "town": "加津佐町己"
  },
  "8592602": {
    "zipcode": "8592602",
    "prefectureCode": "42",
    "prefectureNumber": 42,
    "prefecture": "長崎県",
    "city": "南島原市",
    "town": "加津佐町戊"
  },
  "8592603": {
    "zipcode": "8592603",
    "prefectureCode": "42",
    "prefectureNumber": 42,
    "prefecture": "長崎県",
    "city": "南島原市",
    "town": "加津佐町丁"
  },
  "8592604": {
    "zipcode": "8592604",
    "prefectureCode": "42",
    "prefectureNumber": 42,
    "prefecture": "長崎県",
    "city": "南島原市",
    "town": "加津佐町丙"
  },
  "8592605": {
    "zipcode": "8592605",
    "prefectureCode": "42",
    "prefectureNumber": 42,
    "prefecture": "長崎県",
    "city": "南島原市",
    "town": "加津佐町乙"
  },
  "8592606": {
    "zipcode": "8592606",
    "prefectureCode": "42",
    "prefectureNumber": 42,
    "prefecture": "長崎県",
    "city": "南島原市",
    "town": "加津佐町甲"
  },
  "8593151": {
    "zipcode": "8593151",
    "prefectureCode": "42",
    "prefectureNumber": 42,
    "prefecture": "長崎県",
    "city": "佐世保市",
    "town": "三川内本町"
  },
  "8593152": {
    "zipcode": "8593152",
    "prefectureCode": "42",
    "prefectureNumber": 42,
    "prefecture": "長崎県",
    "city": "佐世保市",
    "town": "新行江町"
  },
  "8593153": {
    "zipcode": "8593153",
    "prefectureCode": "42",
    "prefectureNumber": 42,
    "prefecture": "長崎県",
    "city": "佐世保市",
    "town": "三川内新町"
  },
  "8593154": {
    "zipcode": "8593154",
    "prefectureCode": "42",
    "prefectureNumber": 42,
    "prefecture": "長崎県",
    "city": "佐世保市",
    "town": "塩浸町"
  },
  "8593155": {
    "zipcode": "8593155",
    "prefectureCode": "42",
    "prefectureNumber": 42,
    "prefecture": "長崎県",
    "city": "佐世保市",
    "town": "三川内町"
  },
  "8593156": {
    "zipcode": "8593156",
    "prefectureCode": "42",
    "prefectureNumber": 42,
    "prefecture": "長崎県",
    "city": "佐世保市",
    "town": "下の原町"
  },
  "8593157": {
    "zipcode": "8593157",
    "prefectureCode": "42",
    "prefectureNumber": 42,
    "prefecture": "長崎県",
    "city": "佐世保市",
    "town": "桑木場町"
  },
  "8593158": {
    "zipcode": "8593158",
    "prefectureCode": "42",
    "prefectureNumber": 42,
    "prefecture": "長崎県",
    "city": "佐世保市",
    "town": "新替町"
  },
  "8593161": {
    "zipcode": "8593161",
    "prefectureCode": "42",
    "prefectureNumber": 42,
    "prefecture": "長崎県",
    "city": "佐世保市",
    "town": "口の尾町"
  },
  "8593162": {
    "zipcode": "8593162",
    "prefectureCode": "42",
    "prefectureNumber": 42,
    "prefecture": "長崎県",
    "city": "佐世保市",
    "town": "吉福町"
  },
  "8593163": {
    "zipcode": "8593163",
    "prefectureCode": "42",
    "prefectureNumber": 42,
    "prefecture": "長崎県",
    "city": "佐世保市",
    "town": "横手町"
  },
  "8593164": {
    "zipcode": "8593164",
    "prefectureCode": "42",
    "prefectureNumber": 42,
    "prefecture": "長崎県",
    "city": "佐世保市",
    "town": "心野町"
  },
  "8593165": {
    "zipcode": "8593165",
    "prefectureCode": "42",
    "prefectureNumber": 42,
    "prefecture": "長崎県",
    "city": "佐世保市",
    "town": "江永町"
  },
  "8593166": {
    "zipcode": "8593166",
    "prefectureCode": "42",
    "prefectureNumber": 42,
    "prefecture": "長崎県",
    "city": "佐世保市",
    "town": "木原町"
  },
  "8593201": {
    "zipcode": "8593201",
    "prefectureCode": "42",
    "prefectureNumber": 42,
    "prefecture": "長崎県",
    "city": "佐世保市",
    "town": "平松町"
  },
  "8593202": {
    "zipcode": "8593202",
    "prefectureCode": "42",
    "prefectureNumber": 42,
    "prefecture": "長崎県",
    "city": "佐世保市",
    "town": "上原町"
  },
  "8593203": {
    "zipcode": "8593203",
    "prefectureCode": "42",
    "prefectureNumber": 42,
    "prefecture": "長崎県",
    "city": "佐世保市",
    "town": "陣の内町"
  },
  "8593204": {
    "zipcode": "8593204",
    "prefectureCode": "42",
    "prefectureNumber": 42,
    "prefecture": "長崎県",
    "city": "佐世保市",
    "town": "若竹台町"
  },
  "8593205": {
    "zipcode": "8593205",
    "prefectureCode": "42",
    "prefectureNumber": 42,
    "prefecture": "長崎県",
    "city": "佐世保市",
    "town": "田の浦町"
  },
  "8593211": {
    "zipcode": "8593211",
    "prefectureCode": "42",
    "prefectureNumber": 42,
    "prefecture": "長崎県",
    "city": "佐世保市",
    "town": "早苗町"
  },
  "8593212": {
    "zipcode": "8593212",
    "prefectureCode": "42",
    "prefectureNumber": 42,
    "prefecture": "長崎県",
    "city": "佐世保市",
    "town": "花高"
  },
  "8593213": {
    "zipcode": "8593213",
    "prefectureCode": "42",
    "prefectureNumber": 42,
    "prefecture": "長崎県",
    "city": "佐世保市",
    "town": "権常寺町"
  },
  "8593214": {
    "zipcode": "8593214",
    "prefectureCode": "42",
    "prefectureNumber": 42,
    "prefecture": "長崎県",
    "city": "佐世保市",
    "town": "権常寺"
  },
  "8593215": {
    "zipcode": "8593215",
    "prefectureCode": "42",
    "prefectureNumber": 42,
    "prefecture": "長崎県",
    "city": "佐世保市",
    "town": "早岐"
  },
  "8593216": {
    "zipcode": "8593216",
    "prefectureCode": "42",
    "prefectureNumber": 42,
    "prefecture": "長崎県",
    "city": "佐世保市",
    "town": "勝海町"
  },
  "8593221": {
    "zipcode": "8593221",
    "prefectureCode": "42",
    "prefectureNumber": 42,
    "prefecture": "長崎県",
    "city": "佐世保市",
    "town": "中原町"
  },
  "8593222": {
    "zipcode": "8593222",
    "prefectureCode": "42",
    "prefectureNumber": 42,
    "prefecture": "長崎県",
    "city": "佐世保市",
    "town": "広田町"
  },
  "8593223": {
    "zipcode": "8593223",
    "prefectureCode": "42",
    "prefectureNumber": 42,
    "prefecture": "長崎県",
    "city": "佐世保市",
    "town": "広田"
  },
  "8593224": {
    "zipcode": "8593224",
    "prefectureCode": "42",
    "prefectureNumber": 42,
    "prefecture": "長崎県",
    "city": "佐世保市",
    "town": "重尾町"
  },
  "8593225": {
    "zipcode": "8593225",
    "prefectureCode": "42",
    "prefectureNumber": 42,
    "prefecture": "長崎県",
    "city": "佐世保市",
    "town": "浦川内町"
  },
  "8593226": {
    "zipcode": "8593226",
    "prefectureCode": "42",
    "prefectureNumber": 42,
    "prefecture": "長崎県",
    "city": "佐世保市",
    "town": "崎岡町"
  },
  "8593231": {
    "zipcode": "8593231",
    "prefectureCode": "42",
    "prefectureNumber": 42,
    "prefecture": "長崎県",
    "city": "佐世保市",
    "town": "瀬道町"
  },
  "8593232": {
    "zipcode": "8593232",
    "prefectureCode": "42",
    "prefectureNumber": 42,
    "prefecture": "長崎県",
    "city": "佐世保市",
    "town": "萩坂町"
  },
  "8593233": {
    "zipcode": "8593233",
    "prefectureCode": "42",
    "prefectureNumber": 42,
    "prefecture": "長崎県",
    "city": "佐世保市",
    "town": "奥山町"
  },
  "8593234": {
    "zipcode": "8593234",
    "prefectureCode": "42",
    "prefectureNumber": 42,
    "prefecture": "長崎県",
    "city": "佐世保市",
    "town": "長畑町"
  },
  "8593235": {
    "zipcode": "8593235",
    "prefectureCode": "42",
    "prefectureNumber": 42,
    "prefecture": "長崎県",
    "city": "佐世保市",
    "town": "宮津町"
  },
  "8593236": {
    "zipcode": "8593236",
    "prefectureCode": "42",
    "prefectureNumber": 42,
    "prefecture": "長崎県",
    "city": "佐世保市",
    "town": "南風崎町"
  },
  "8593237": {
    "zipcode": "8593237",
    "prefectureCode": "42",
    "prefectureNumber": 42,
    "prefecture": "長崎県",
    "city": "佐世保市",
    "town": "城間町"
  },
  "8593241": {
    "zipcode": "8593241",
    "prefectureCode": "42",
    "prefectureNumber": 42,
    "prefecture": "長崎県",
    "city": "佐世保市",
    "town": "有福町"
  },
  "8593242": {
    "zipcode": "8593242",
    "prefectureCode": "42",
    "prefectureNumber": 42,
    "prefecture": "長崎県",
    "city": "佐世保市",
    "town": "指方町"
  },
  "8593243": {
    "zipcode": "8593243",
    "prefectureCode": "42",
    "prefectureNumber": 42,
    "prefecture": "長崎県",
    "city": "佐世保市",
    "town": "ハウステンボス町"
  },
  "8593244": {
    "zipcode": "8593244",
    "prefectureCode": "42",
    "prefectureNumber": 42,
    "prefecture": "長崎県",
    "city": "佐世保市",
    "town": "江上町"
  },
  "8593451": {
    "zipcode": "8593451",
    "prefectureCode": "42",
    "prefectureNumber": 42,
    "prefecture": "長崎県",
    "city": "佐世保市",
    "town": "針尾東町"
  },
  "8593452": {
    "zipcode": "8593452",
    "prefectureCode": "42",
    "prefectureNumber": 42,
    "prefecture": "長崎県",
    "city": "佐世保市",
    "town": "針尾中町"
  },
  "8593453": {
    "zipcode": "8593453",
    "prefectureCode": "42",
    "prefectureNumber": 42,
    "prefecture": "長崎県",
    "city": "佐世保市",
    "town": "針尾西町"
  },
  "8593454": {
    "zipcode": "8593454",
    "prefectureCode": "42",
    "prefectureNumber": 42,
    "prefecture": "長崎県",
    "city": "佐世保市",
    "town": "針尾北町"
  },
  "8593600": {
    "zipcode": "8593600",
    "prefectureCode": "42",
    "prefectureNumber": 42,
    "prefecture": "長崎県",
    "city": "東彼杵郡川棚町",
    "town": "以下に掲載がない場合"
  },
  "8593601": {
    "zipcode": "8593601",
    "prefectureCode": "42",
    "prefectureNumber": 42,
    "prefecture": "長崎県",
    "city": "東彼杵郡川棚町",
    "town": "猪乗川内郷"
  },
  "8593602": {
    "zipcode": "8593602",
    "prefectureCode": "42",
    "prefectureNumber": 42,
    "prefecture": "長崎県",
    "city": "東彼杵郡川棚町",
    "town": "木場郷"
  },
  "8593603": {
    "zipcode": "8593603",
    "prefectureCode": "42",
    "prefectureNumber": 42,
    "prefecture": "長崎県",
    "city": "東彼杵郡川棚町",
    "town": "岩屋郷"
  },
  "8593604": {
    "zipcode": "8593604",
    "prefectureCode": "42",
    "prefectureNumber": 42,
    "prefecture": "長崎県",
    "city": "東彼杵郡川棚町",
    "town": "石木郷"
  },
  "8593605": {
    "zipcode": "8593605",
    "prefectureCode": "42",
    "prefectureNumber": 42,
    "prefecture": "長崎県",
    "city": "東彼杵郡川棚町",
    "town": "百津郷"
  },
  "8593606": {
    "zipcode": "8593606",
    "prefectureCode": "42",
    "prefectureNumber": 42,
    "prefecture": "長崎県",
    "city": "東彼杵郡川棚町",
    "town": "小音琴郷"
  },
  "8593607": {
    "zipcode": "8593607",
    "prefectureCode": "42",
    "prefectureNumber": 42,
    "prefecture": "長崎県",
    "city": "東彼杵郡川棚町",
    "town": "城山町"
  },
  "8593608": {
    "zipcode": "8593608",
    "prefectureCode": "42",
    "prefectureNumber": 42,
    "prefecture": "長崎県",
    "city": "東彼杵郡川棚町",
    "town": "栄町"
  },
  "8593611": {
    "zipcode": "8593611",
    "prefectureCode": "42",
    "prefectureNumber": 42,
    "prefecture": "長崎県",
    "city": "東彼杵郡川棚町",
    "town": "中山郷"
  },
  "8593612": {
    "zipcode": "8593612",
    "prefectureCode": "42",
    "prefectureNumber": 42,
    "prefecture": "長崎県",
    "city": "東彼杵郡川棚町",
    "town": "五反田郷"
  },
  "8593613": {
    "zipcode": "8593613",
    "prefectureCode": "42",
    "prefectureNumber": 42,
    "prefecture": "長崎県",
    "city": "東彼杵郡川棚町",
    "town": "上組郷"
  },
  "8593614": {
    "zipcode": "8593614",
    "prefectureCode": "42",
    "prefectureNumber": 42,
    "prefecture": "長崎県",
    "city": "東彼杵郡川棚町",
    "town": "中組郷"
  },
  "8593615": {
    "zipcode": "8593615",
    "prefectureCode": "42",
    "prefectureNumber": 42,
    "prefecture": "長崎県",
    "city": "東彼杵郡川棚町",
    "town": "下組郷"
  },
  "8593616": {
    "zipcode": "8593616",
    "prefectureCode": "42",
    "prefectureNumber": 42,
    "prefecture": "長崎県",
    "city": "東彼杵郡川棚町",
    "town": "白石郷"
  },
  "8593617": {
    "zipcode": "8593617",
    "prefectureCode": "42",
    "prefectureNumber": 42,
    "prefecture": "長崎県",
    "city": "東彼杵郡川棚町",
    "town": "三越郷"
  },
  "8593618": {
    "zipcode": "8593618",
    "prefectureCode": "42",
    "prefectureNumber": 42,
    "prefecture": "長崎県",
    "city": "東彼杵郡川棚町",
    "town": "小串郷"
  },
  "8593619": {
    "zipcode": "8593619",
    "prefectureCode": "42",
    "prefectureNumber": 42,
    "prefecture": "長崎県",
    "city": "東彼杵郡川棚町",
    "town": "新谷郷"
  },
  "8593700": {
    "zipcode": "8593700",
    "prefectureCode": "42",
    "prefectureNumber": 42,
    "prefecture": "長崎県",
    "city": "東彼杵郡波佐見町",
    "town": "以下に掲載がない場合"
  },
  "8593701": {
    "zipcode": "8593701",
    "prefectureCode": "42",
    "prefectureNumber": 42,
    "prefecture": "長崎県",
    "city": "東彼杵郡波佐見町",
    "town": "折敷瀬郷"
  },
  "8593702": {
    "zipcode": "8593702",
    "prefectureCode": "42",
    "prefectureNumber": 42,
    "prefecture": "長崎県",
    "city": "東彼杵郡波佐見町",
    "town": "湯無田郷"
  },
  "8593703": {
    "zipcode": "8593703",
    "prefectureCode": "42",
    "prefectureNumber": 42,
    "prefecture": "長崎県",
    "city": "東彼杵郡波佐見町",
    "town": "野々川郷"
  },
  "8593704": {
    "zipcode": "8593704",
    "prefectureCode": "42",
    "prefectureNumber": 42,
    "prefecture": "長崎県",
    "city": "東彼杵郡波佐見町",
    "town": "小樽郷"
  },
  "8593705": {
    "zipcode": "8593705",
    "prefectureCode": "42",
    "prefectureNumber": 42,
    "prefecture": "長崎県",
    "city": "東彼杵郡波佐見町",
    "town": "永尾郷"
  },
  "8593706": {
    "zipcode": "8593706",
    "prefectureCode": "42",
    "prefectureNumber": 42,
    "prefecture": "長崎県",
    "city": "東彼杵郡波佐見町",
    "town": "三股郷"
  },
  "8593711": {
    "zipcode": "8593711",
    "prefectureCode": "42",
    "prefectureNumber": 42,
    "prefecture": "長崎県",
    "city": "東彼杵郡波佐見町",
    "town": "井石郷"
  },
  "8593712": {
    "zipcode": "8593712",
    "prefectureCode": "42",
    "prefectureNumber": 42,
    "prefecture": "長崎県",
    "city": "東彼杵郡波佐見町",
    "town": "中尾郷"
  },
  "8593713": {
    "zipcode": "8593713",
    "prefectureCode": "42",
    "prefectureNumber": 42,
    "prefecture": "長崎県",
    "city": "東彼杵郡波佐見町",
    "town": "鬼木郷"
  },
  "8593714": {
    "zipcode": "8593714",
    "prefectureCode": "42",
    "prefectureNumber": 42,
    "prefecture": "長崎県",
    "city": "東彼杵郡波佐見町",
    "town": "金屋郷"
  },
  "8593715": {
    "zipcode": "8593715",
    "prefectureCode": "42",
    "prefectureNumber": 42,
    "prefecture": "長崎県",
    "city": "東彼杵郡波佐見町",
    "town": "宿郷"
  },
  "8593716": {
    "zipcode": "8593716",
    "prefectureCode": "42",
    "prefectureNumber": 42,
    "prefecture": "長崎県",
    "city": "東彼杵郡波佐見町",
    "town": "田ノ頭郷"
  },
  "8593721": {
    "zipcode": "8593721",
    "prefectureCode": "42",
    "prefectureNumber": 42,
    "prefecture": "長崎県",
    "city": "東彼杵郡波佐見町",
    "town": "川内郷"
  },
  "8593722": {
    "zipcode": "8593722",
    "prefectureCode": "42",
    "prefectureNumber": 42,
    "prefecture": "長崎県",
    "city": "東彼杵郡波佐見町",
    "town": "岳辺田郷"
  },
  "8593723": {
    "zipcode": "8593723",
    "prefectureCode": "42",
    "prefectureNumber": 42,
    "prefecture": "長崎県",
    "city": "東彼杵郡波佐見町",
    "town": "平野郷"
  },
  "8593724": {
    "zipcode": "8593724",
    "prefectureCode": "42",
    "prefectureNumber": 42,
    "prefecture": "長崎県",
    "city": "東彼杵郡波佐見町",
    "town": "志折郷"
  },
  "8593725": {
    "zipcode": "8593725",
    "prefectureCode": "42",
    "prefectureNumber": 42,
    "prefecture": "長崎県",
    "city": "東彼杵郡波佐見町",
    "town": "長野郷"
  },
  "8593726": {
    "zipcode": "8593726",
    "prefectureCode": "42",
    "prefectureNumber": 42,
    "prefecture": "長崎県",
    "city": "東彼杵郡波佐見町",
    "town": "稗木場郷"
  },
  "8593727": {
    "zipcode": "8593727",
    "prefectureCode": "42",
    "prefectureNumber": 42,
    "prefecture": "長崎県",
    "city": "東彼杵郡波佐見町",
    "town": "皿山郷"
  },
  "8593728": {
    "zipcode": "8593728",
    "prefectureCode": "42",
    "prefectureNumber": 42,
    "prefecture": "長崎県",
    "city": "東彼杵郡波佐見町",
    "town": "村木郷"
  },
  "8593800": {
    "zipcode": "8593800",
    "prefectureCode": "42",
    "prefectureNumber": 42,
    "prefecture": "長崎県",
    "city": "東彼杵郡東彼杵町",
    "town": "以下に掲載がない場合"
  },
  "8593801": {
    "zipcode": "8593801",
    "prefectureCode": "42",
    "prefectureNumber": 42,
    "prefecture": "長崎県",
    "city": "東彼杵郡東彼杵町",
    "town": "中尾郷"
  },
  "8593802": {
    "zipcode": "8593802",
    "prefectureCode": "42",
    "prefectureNumber": 42,
    "prefecture": "長崎県",
    "city": "東彼杵郡東彼杵町",
    "town": "坂本郷"
  },
  "8593803": {
    "zipcode": "8593803",
    "prefectureCode": "42",
    "prefectureNumber": 42,
    "prefecture": "長崎県",
    "city": "東彼杵郡東彼杵町",
    "town": "菅無田郷"
  },
  "8593804": {
    "zipcode": "8593804",
    "prefectureCode": "42",
    "prefectureNumber": 42,
    "prefecture": "長崎県",
    "city": "東彼杵郡東彼杵町",
    "town": "法音寺郷"
  },
  "8593805": {
    "zipcode": "8593805",
    "prefectureCode": "42",
    "prefectureNumber": 42,
    "prefecture": "長崎県",
    "city": "東彼杵郡東彼杵町",
    "town": "川内郷"
  },
  "8593806": {
    "zipcode": "8593806",
    "prefectureCode": "42",
    "prefectureNumber": 42,
    "prefecture": "長崎県",
    "city": "東彼杵郡東彼杵町",
    "town": "三根郷"
  },
  "8593807": {
    "zipcode": "8593807",
    "prefectureCode": "42",
    "prefectureNumber": 42,
    "prefecture": "長崎県",
    "city": "東彼杵郡東彼杵町",
    "town": "彼杵宿郷"
  },
  "8593808": {
    "zipcode": "8593808",
    "prefectureCode": "42",
    "prefectureNumber": 42,
    "prefecture": "長崎県",
    "city": "東彼杵郡東彼杵町",
    "town": "蔵本郷"
  },
  "8593809": {
    "zipcode": "8593809",
    "prefectureCode": "42",
    "prefectureNumber": 42,
    "prefecture": "長崎県",
    "city": "東彼杵郡東彼杵町",
    "town": "口木田郷"
  },
  "8593811": {
    "zipcode": "8593811",
    "prefectureCode": "42",
    "prefectureNumber": 42,
    "prefecture": "長崎県",
    "city": "東彼杵郡東彼杵町",
    "town": "大音琴郷"
  },
  "8593812": {
    "zipcode": "8593812",
    "prefectureCode": "42",
    "prefectureNumber": 42,
    "prefecture": "長崎県",
    "city": "東彼杵郡東彼杵町",
    "town": "小音琴郷"
  },
  "8593921": {
    "zipcode": "8593921",
    "prefectureCode": "42",
    "prefectureNumber": 42,
    "prefecture": "長崎県",
    "city": "東彼杵郡東彼杵町",
    "town": "千綿宿郷"
  },
  "8593922": {
    "zipcode": "8593922",
    "prefectureCode": "42",
    "prefectureNumber": 42,
    "prefecture": "長崎県",
    "city": "東彼杵郡東彼杵町",
    "town": "八反田郷"
  },
  "8593923": {
    "zipcode": "8593923",
    "prefectureCode": "42",
    "prefectureNumber": 42,
    "prefecture": "長崎県",
    "city": "東彼杵郡東彼杵町",
    "town": "瀬戸郷"
  },
  "8593924": {
    "zipcode": "8593924",
    "prefectureCode": "42",
    "prefectureNumber": 42,
    "prefecture": "長崎県",
    "city": "東彼杵郡東彼杵町",
    "town": "太ノ浦郷"
  },
  "8593925": {
    "zipcode": "8593925",
    "prefectureCode": "42",
    "prefectureNumber": 42,
    "prefecture": "長崎県",
    "city": "東彼杵郡東彼杵町",
    "town": "中岳郷"
  },
  "8593926": {
    "zipcode": "8593926",
    "prefectureCode": "42",
    "prefectureNumber": 42,
    "prefecture": "長崎県",
    "city": "東彼杵郡東彼杵町",
    "town": "蕪郷"
  },
  "8593927": {
    "zipcode": "8593927",
    "prefectureCode": "42",
    "prefectureNumber": 42,
    "prefecture": "長崎県",
    "city": "東彼杵郡東彼杵町",
    "town": "駄地郷"
  },
  "8593928": {
    "zipcode": "8593928",
    "prefectureCode": "42",
    "prefectureNumber": 42,
    "prefecture": "長崎県",
    "city": "東彼杵郡東彼杵町",
    "town": "平似田郷"
  },
  "8593929": {
    "zipcode": "8593929",
    "prefectureCode": "42",
    "prefectureNumber": 42,
    "prefecture": "長崎県",
    "city": "東彼杵郡東彼杵町",
    "town": "里郷"
  },
  "8593931": {
    "zipcode": "8593931",
    "prefectureCode": "42",
    "prefectureNumber": 42,
    "prefecture": "長崎県",
    "city": "東彼杵郡東彼杵町",
    "town": "木場郷"
  },
  "8593932": {
    "zipcode": "8593932",
    "prefectureCode": "42",
    "prefectureNumber": 42,
    "prefecture": "長崎県",
    "city": "東彼杵郡東彼杵町",
    "town": "遠目郷"
  },
  "8593933": {
    "zipcode": "8593933",
    "prefectureCode": "42",
    "prefectureNumber": 42,
    "prefecture": "長崎県",
    "city": "東彼杵郡東彼杵町",
    "town": "一ッ石郷"
  },
  "8594301": {
    "zipcode": "8594301",
    "prefectureCode": "42",
    "prefectureNumber": 42,
    "prefecture": "長崎県",
    "city": "松浦市",
    "town": "鷹島町阿翁浦免"
  },
  "8594302": {
    "zipcode": "8594302",
    "prefectureCode": "42",
    "prefectureNumber": 42,
    "prefecture": "長崎県",
    "city": "松浦市",
    "town": "鷹島町阿翁免"
  },
  "8594303": {
    "zipcode": "8594303",
    "prefectureCode": "42",
    "prefectureNumber": 42,
    "prefecture": "長崎県",
    "city": "松浦市",
    "town": "鷹島町神崎免"
  },
  "8594304": {
    "zipcode": "8594304",
    "prefectureCode": "42",
    "prefectureNumber": 42,
    "prefecture": "長崎県",
    "city": "松浦市",
    "town": "鷹島町里免"
  },
  "8594305": {
    "zipcode": "8594305",
    "prefectureCode": "42",
    "prefectureNumber": 42,
    "prefecture": "長崎県",
    "city": "松浦市",
    "town": "鷹島町中通免"
  },
  "8594306": {
    "zipcode": "8594306",
    "prefectureCode": "42",
    "prefectureNumber": 42,
    "prefecture": "長崎県",
    "city": "松浦市",
    "town": "鷹島町原免"
  },
  "8594307": {
    "zipcode": "8594307",
    "prefectureCode": "42",
    "prefectureNumber": 42,
    "prefecture": "長崎県",
    "city": "松浦市",
    "town": "鷹島町三里免"
  },
  "8594308": {
    "zipcode": "8594308",
    "prefectureCode": "42",
    "prefectureNumber": 42,
    "prefecture": "長崎県",
    "city": "松浦市",
    "town": "鷹島町船唐津免"
  },
  "8594309": {
    "zipcode": "8594309",
    "prefectureCode": "42",
    "prefectureNumber": 42,
    "prefecture": "長崎県",
    "city": "松浦市",
    "town": "鷹島町黒島免"
  },
  "8594500": {
    "zipcode": "8594500",
    "prefectureCode": "42",
    "prefectureNumber": 42,
    "prefecture": "長崎県",
    "city": "松浦市",
    "town": "以下に掲載がない場合"
  },
  "8594501": {
    "zipcode": "8594501",
    "prefectureCode": "42",
    "prefectureNumber": 42,
    "prefecture": "長崎県",
    "city": "松浦市",
    "town": "志佐町浦免"
  },
  "8594502": {
    "zipcode": "8594502",
    "prefectureCode": "42",
    "prefectureNumber": 42,
    "prefecture": "長崎県",
    "city": "松浦市",
    "town": "志佐町里免"
  },
  "8594503": {
    "zipcode": "8594503",
    "prefectureCode": "42",
    "prefectureNumber": 42,
    "prefecture": "長崎県",
    "city": "松浦市",
    "town": "志佐町高野免"
  },
  "8594504": {
    "zipcode": "8594504",
    "prefectureCode": "42",
    "prefectureNumber": 42,
    "prefecture": "長崎県",
    "city": "松浦市",
    "town": "志佐町栢木免"
  },
  "8594505": {
    "zipcode": "8594505",
    "prefectureCode": "42",
    "prefectureNumber": 42,
    "prefecture": "長崎県",
    "city": "松浦市",
    "town": "志佐町西山免"
  },
  "8594506": {
    "zipcode": "8594506",
    "prefectureCode": "42",
    "prefectureNumber": 42,
    "prefecture": "長崎県",
    "city": "松浦市",
    "town": "志佐町白浜免"
  },
  "8594507": {
    "zipcode": "8594507",
    "prefectureCode": "42",
    "prefectureNumber": 42,
    "prefecture": "長崎県",
    "city": "松浦市",
    "town": "志佐町庄野免"
  },
  "8594511": {
    "zipcode": "8594511",
    "prefectureCode": "42",
    "prefectureNumber": 42,
    "prefecture": "長崎県",
    "city": "松浦市",
    "town": "志佐町赤木免"
  },
  "8594512": {
    "zipcode": "8594512",
    "prefectureCode": "42",
    "prefectureNumber": 42,
    "prefecture": "長崎県",
    "city": "松浦市",
    "town": "志佐町笛吹免"
  },
  "8594513": {
    "zipcode": "8594513",
    "prefectureCode": "42",
    "prefectureNumber": 42,
    "prefecture": "長崎県",
    "city": "松浦市",
    "town": "志佐町田ノ平免"
  },
  "8594514": {
    "zipcode": "8594514",
    "prefectureCode": "42",
    "prefectureNumber": 42,
    "prefecture": "長崎県",
    "city": "松浦市",
    "town": "志佐町柚木川内免"
  },
  "8594515": {
    "zipcode": "8594515",
    "prefectureCode": "42",
    "prefectureNumber": 42,
    "prefecture": "長崎県",
    "city": "松浦市",
    "town": "志佐町稗木場免"
  },
  "8594516": {
    "zipcode": "8594516",
    "prefectureCode": "42",
    "prefectureNumber": 42,
    "prefecture": "長崎県",
    "city": "松浦市",
    "town": "志佐町長野免"
  },
  "8594517": {
    "zipcode": "8594517",
    "prefectureCode": "42",
    "prefectureNumber": 42,
    "prefecture": "長崎県",
    "city": "松浦市",
    "town": "志佐町横辺田免"
  },
  "8594518": {
    "zipcode": "8594518",
    "prefectureCode": "42",
    "prefectureNumber": 42,
    "prefecture": "長崎県",
    "city": "松浦市",
    "town": "志佐町池成免"
  },
  "8594521": {
    "zipcode": "8594521",
    "prefectureCode": "42",
    "prefectureNumber": 42,
    "prefecture": "長崎県",
    "city": "松浦市",
    "town": "今福町北免"
  },
  "8594522": {
    "zipcode": "8594522",
    "prefectureCode": "42",
    "prefectureNumber": 42,
    "prefecture": "長崎県",
    "city": "松浦市",
    "town": "今福町東免"
  },
  "8594523": {
    "zipcode": "8594523",
    "prefectureCode": "42",
    "prefectureNumber": 42,
    "prefecture": "長崎県",
    "city": "松浦市",
    "town": "今福町滑栄免"
  },
  "8594524": {
    "zipcode": "8594524",
    "prefectureCode": "42",
    "prefectureNumber": 42,
    "prefecture": "長崎県",
    "city": "松浦市",
    "town": "今福町木場免"
  },
  "8594525": {
    "zipcode": "8594525",
    "prefectureCode": "42",
    "prefectureNumber": 42,
    "prefecture": "長崎県",
    "city": "松浦市",
    "town": "今福町寺上免"
  },
  "8594526": {
    "zipcode": "8594526",
    "prefectureCode": "42",
    "prefectureNumber": 42,
    "prefecture": "長崎県",
    "city": "松浦市",
    "town": "今福町坂野免"
  },
  "8594527": {
    "zipcode": "8594527",
    "prefectureCode": "42",
    "prefectureNumber": 42,
    "prefecture": "長崎県",
    "city": "松浦市",
    "town": "今福町仏坂免"
  },
  "8594528": {
    "zipcode": "8594528",
    "prefectureCode": "42",
    "prefectureNumber": 42,
    "prefecture": "長崎県",
    "city": "松浦市",
    "town": "今福町浦免"
  },
  "8594529": {
    "zipcode": "8594529",
    "prefectureCode": "42",
    "prefectureNumber": 42,
    "prefecture": "長崎県",
    "city": "松浦市",
    "town": "今福町飛島免"
  },
  "8594531": {
    "zipcode": "8594531",
    "prefectureCode": "42",
    "prefectureNumber": 42,
    "prefecture": "長崎県",
    "city": "松浦市",
    "town": "調川町平尾免"
  },
  "8594532": {
    "zipcode": "8594532",
    "prefectureCode": "42",
    "prefectureNumber": 42,
    "prefecture": "長崎県",
    "city": "松浦市",
    "town": "調川町中免"
  },
  "8594533": {
    "zipcode": "8594533",
    "prefectureCode": "42",
    "prefectureNumber": 42,
    "prefecture": "長崎県",
    "city": "松浦市",
    "town": "調川町上免"
  },
  "8594534": {
    "zipcode": "8594534",
    "prefectureCode": "42",
    "prefectureNumber": 42,
    "prefecture": "長崎県",
    "city": "松浦市",
    "town": "調川町白井免"
  },
  "8594535": {
    "zipcode": "8594535",
    "prefectureCode": "42",
    "prefectureNumber": 42,
    "prefecture": "長崎県",
    "city": "松浦市",
    "town": "調川町松山田免"
  },
  "8594536": {
    "zipcode": "8594536",
    "prefectureCode": "42",
    "prefectureNumber": 42,
    "prefecture": "長崎県",
    "city": "松浦市",
    "town": "調川町下免"
  },
  "8594741": {
    "zipcode": "8594741",
    "prefectureCode": "42",
    "prefectureNumber": 42,
    "prefecture": "長崎県",
    "city": "松浦市",
    "town": "星鹿町北久保免"
  },
  "8594742": {
    "zipcode": "8594742",
    "prefectureCode": "42",
    "prefectureNumber": 42,
    "prefecture": "長崎県",
    "city": "松浦市",
    "town": "星鹿町牟田免"
  },
  "8594743": {
    "zipcode": "8594743",
    "prefectureCode": "42",
    "prefectureNumber": 42,
    "prefecture": "長崎県",
    "city": "松浦市",
    "town": "星鹿町下田免"
  },
  "8594744": {
    "zipcode": "8594744",
    "prefectureCode": "42",
    "prefectureNumber": 42,
    "prefecture": "長崎県",
    "city": "松浦市",
    "town": "星鹿町岳崎免"
  },
  "8594745": {
    "zipcode": "8594745",
    "prefectureCode": "42",
    "prefectureNumber": 42,
    "prefecture": "長崎県",
    "city": "松浦市",
    "town": "星鹿町青島免"
  },
  "8594751": {
    "zipcode": "8594751",
    "prefectureCode": "42",
    "prefectureNumber": 42,
    "prefecture": "長崎県",
    "city": "松浦市",
    "town": "御厨町池田免"
  },
  "8594752": {
    "zipcode": "8594752",
    "prefectureCode": "42",
    "prefectureNumber": 42,
    "prefecture": "長崎県",
    "city": "松浦市",
    "town": "御厨町里免"
  },
  "8594753": {
    "zipcode": "8594753",
    "prefectureCode": "42",
    "prefectureNumber": 42,
    "prefecture": "長崎県",
    "city": "松浦市",
    "town": "御厨町中野免"
  },
  "8594754": {
    "zipcode": "8594754",
    "prefectureCode": "42",
    "prefectureNumber": 42,
    "prefecture": "長崎県",
    "city": "松浦市",
    "town": "御厨町北平免"
  },
  "8594755": {
    "zipcode": "8594755",
    "prefectureCode": "42",
    "prefectureNumber": 42,
    "prefecture": "長崎県",
    "city": "松浦市",
    "town": "御厨町横久保免"
  },
  "8594756": {
    "zipcode": "8594756",
    "prefectureCode": "42",
    "prefectureNumber": 42,
    "prefecture": "長崎県",
    "city": "松浦市",
    "town": "御厨町前田免"
  },
  "8594757": {
    "zipcode": "8594757",
    "prefectureCode": "42",
    "prefectureNumber": 42,
    "prefecture": "長崎県",
    "city": "松浦市",
    "town": "御厨町高野免"
  },
  "8594758": {
    "zipcode": "8594758",
    "prefectureCode": "42",
    "prefectureNumber": 42,
    "prefecture": "長崎県",
    "city": "松浦市",
    "town": "御厨町大崎免"
  },
  "8594761": {
    "zipcode": "8594761",
    "prefectureCode": "42",
    "prefectureNumber": 42,
    "prefecture": "長崎県",
    "city": "松浦市",
    "town": "御厨町田原免"
  },
  "8594762": {
    "zipcode": "8594762",
    "prefectureCode": "42",
    "prefectureNumber": 42,
    "prefecture": "長崎県",
    "city": "松浦市",
    "town": "御厨町小船免"
  },
  "8594763": {
    "zipcode": "8594763",
    "prefectureCode": "42",
    "prefectureNumber": 42,
    "prefecture": "長崎県",
    "city": "松浦市",
    "town": "御厨町山根免"
  },
  "8594764": {
    "zipcode": "8594764",
    "prefectureCode": "42",
    "prefectureNumber": 42,
    "prefecture": "長崎県",
    "city": "松浦市",
    "town": "御厨町狩原免"
  },
  "8594765": {
    "zipcode": "8594765",
    "prefectureCode": "42",
    "prefectureNumber": 42,
    "prefecture": "長崎県",
    "city": "松浦市",
    "town": "御厨町米ノ山免"
  },
  "8594766": {
    "zipcode": "8594766",
    "prefectureCode": "42",
    "prefectureNumber": 42,
    "prefecture": "長崎県",
    "city": "松浦市",
    "town": "御厨町普住免"
  },
  "8594767": {
    "zipcode": "8594767",
    "prefectureCode": "42",
    "prefectureNumber": 42,
    "prefecture": "長崎県",
    "city": "松浦市",
    "town": "御厨町川内免"
  },
  "8594768": {
    "zipcode": "8594768",
    "prefectureCode": "42",
    "prefectureNumber": 42,
    "prefecture": "長崎県",
    "city": "松浦市",
    "town": "御厨町西田免"
  },
  "8594769": {
    "zipcode": "8594769",
    "prefectureCode": "42",
    "prefectureNumber": 42,
    "prefecture": "長崎県",
    "city": "松浦市",
    "town": "御厨町西木場免"
  },
  "8594771": {
    "zipcode": "8594771",
    "prefectureCode": "42",
    "prefectureNumber": 42,
    "prefecture": "長崎県",
    "city": "松浦市",
    "town": "御厨町下登木免"
  },
  "8594772": {
    "zipcode": "8594772",
    "prefectureCode": "42",
    "prefectureNumber": 42,
    "prefecture": "長崎県",
    "city": "松浦市",
    "town": "御厨町寺ノ尾免"
  },
  "8594773": {
    "zipcode": "8594773",
    "prefectureCode": "42",
    "prefectureNumber": 42,
    "prefecture": "長崎県",
    "city": "松浦市",
    "town": "御厨町上登木免"
  },
  "8594774": {
    "zipcode": "8594774",
    "prefectureCode": "42",
    "prefectureNumber": 42,
    "prefecture": "長崎県",
    "city": "松浦市",
    "town": "御厨町立木免"
  },
  "8594775": {
    "zipcode": "8594775",
    "prefectureCode": "42",
    "prefectureNumber": 42,
    "prefecture": "長崎県",
    "city": "松浦市",
    "town": "御厨町郭公尾免"
  },
  "8594776": {
    "zipcode": "8594776",
    "prefectureCode": "42",
    "prefectureNumber": 42,
    "prefecture": "長崎県",
    "city": "松浦市",
    "town": "御厨町木場免"
  },
  "8594777": {
    "zipcode": "8594777",
    "prefectureCode": "42",
    "prefectureNumber": 42,
    "prefecture": "長崎県",
    "city": "松浦市",
    "town": "御厨町板橋免"
  },
  "8594778": {
    "zipcode": "8594778",
    "prefectureCode": "42",
    "prefectureNumber": 42,
    "prefecture": "長崎県",
    "city": "松浦市",
    "town": "御厨町田代免"
  },
  "8594801": {
    "zipcode": "8594801",
    "prefectureCode": "42",
    "prefectureNumber": 42,
    "prefecture": "長崎県",
    "city": "平戸市",
    "town": "田平町岳崎免"
  },
  "8594802": {
    "zipcode": "8594802",
    "prefectureCode": "42",
    "prefectureNumber": 42,
    "prefecture": "長崎県",
    "city": "平戸市",
    "town": "田平町福崎免"
  },
  "8594803": {
    "zipcode": "8594803",
    "prefectureCode": "42",
    "prefectureNumber": 42,
    "prefecture": "長崎県",
    "city": "平戸市",
    "town": "田平町小崎免"
  },
  "8594804": {
    "zipcode": "8594804",
    "prefectureCode": "42",
    "prefectureNumber": 42,
    "prefecture": "長崎県",
    "city": "平戸市",
    "town": "田平町上亀免"
  },
  "8594805": {
    "zipcode": "8594805",
    "prefectureCode": "42",
    "prefectureNumber": 42,
    "prefecture": "長崎県",
    "city": "平戸市",
    "town": "田平町本山免"
  },
  "8594806": {
    "zipcode": "8594806",
    "prefectureCode": "42",
    "prefectureNumber": 42,
    "prefecture": "長崎県",
    "city": "平戸市",
    "town": "田平町下亀免"
  },
  "8594807": {
    "zipcode": "8594807",
    "prefectureCode": "42",
    "prefectureNumber": 42,
    "prefecture": "長崎県",
    "city": "平戸市",
    "town": "田平町里免"
  },
  "8594811": {
    "zipcode": "8594811",
    "prefectureCode": "42",
    "prefectureNumber": 42,
    "prefecture": "長崎県",
    "city": "平戸市",
    "town": "田平町古梶免"
  },
  "8594812": {
    "zipcode": "8594812",
    "prefectureCode": "42",
    "prefectureNumber": 42,
    "prefecture": "長崎県",
    "city": "平戸市",
    "town": "田平町田代免"
  },
  "8594813": {
    "zipcode": "8594813",
    "prefectureCode": "42",
    "prefectureNumber": 42,
    "prefecture": "長崎県",
    "city": "平戸市",
    "town": "田平町深月免"
  },
  "8594814": {
    "zipcode": "8594814",
    "prefectureCode": "42",
    "prefectureNumber": 42,
    "prefecture": "長崎県",
    "city": "平戸市",
    "town": "田平町以善免"
  },
  "8594815": {
    "zipcode": "8594815",
    "prefectureCode": "42",
    "prefectureNumber": 42,
    "prefecture": "長崎県",
    "city": "平戸市",
    "town": "田平町下寺免"
  },
  "8594821": {
    "zipcode": "8594821",
    "prefectureCode": "42",
    "prefectureNumber": 42,
    "prefecture": "長崎県",
    "city": "平戸市",
    "town": "田平町大久保免"
  },
  "8594822": {
    "zipcode": "8594822",
    "prefectureCode": "42",
    "prefectureNumber": 42,
    "prefecture": "長崎県",
    "city": "平戸市",
    "town": "田平町一関免"
  },
  "8594823": {
    "zipcode": "8594823",
    "prefectureCode": "42",
    "prefectureNumber": 42,
    "prefecture": "長崎県",
    "city": "平戸市",
    "town": "田平町荻田免"
  },
  "8594824": {
    "zipcode": "8594824",
    "prefectureCode": "42",
    "prefectureNumber": 42,
    "prefecture": "長崎県",
    "city": "平戸市",
    "town": "田平町小手田免"
  },
  "8594825": {
    "zipcode": "8594825",
    "prefectureCode": "42",
    "prefectureNumber": 42,
    "prefecture": "長崎県",
    "city": "平戸市",
    "town": "田平町山内免"
  },
  "8594826": {
    "zipcode": "8594826",
    "prefectureCode": "42",
    "prefectureNumber": 42,
    "prefecture": "長崎県",
    "city": "平戸市",
    "town": "田平町野田免"
  },
  "8594827": {
    "zipcode": "8594827",
    "prefectureCode": "42",
    "prefectureNumber": 42,
    "prefecture": "長崎県",
    "city": "平戸市",
    "town": "田平町横島免"
  },
  "8595100": {
    "zipcode": "8595100",
    "prefectureCode": "42",
    "prefectureNumber": 42,
    "prefecture": "長崎県",
    "city": "平戸市",
    "town": "以下に掲載がない場合"
  },
  "8595101": {
    "zipcode": "8595101",
    "prefectureCode": "42",
    "prefectureNumber": 42,
    "prefecture": "長崎県",
    "city": "平戸市",
    "town": "度島町"
  },
  "8595102": {
    "zipcode": "8595102",
    "prefectureCode": "42",
    "prefectureNumber": 42,
    "prefecture": "長崎県",
    "city": "平戸市",
    "town": "大久保町"
  },
  "8595103": {
    "zipcode": "8595103",
    "prefectureCode": "42",
    "prefectureNumber": 42,
    "prefecture": "長崎県",
    "city": "平戸市",
    "town": "田助町"
  },
  "8595104": {
    "zipcode": "8595104",
    "prefectureCode": "42",
    "prefectureNumber": 42,
    "prefecture": "長崎県",
    "city": "平戸市",
    "town": "崎方町"
  },
  "8595111": {
    "zipcode": "8595111",
    "prefectureCode": "42",
    "prefectureNumber": 42,
    "prefecture": "長崎県",
    "city": "平戸市",
    "town": "浦の町"
  },
  "8595112": {
    "zipcode": "8595112",
    "prefectureCode": "42",
    "prefectureNumber": 42,
    "prefecture": "長崎県",
    "city": "平戸市",
    "town": "宮の町"
  },
  "8595113": {
    "zipcode": "8595113",
    "prefectureCode": "42",
    "prefectureNumber": 42,
    "prefecture": "長崎県",
    "city": "平戸市",
    "town": "木引田町"
  },
  "8595114": {
    "zipcode": "8595114",
    "prefectureCode": "42",
    "prefectureNumber": 42,
    "prefecture": "長崎県",
    "city": "平戸市",
    "town": "築地町"
  },
  "8595115": {
    "zipcode": "8595115",
    "prefectureCode": "42",
    "prefectureNumber": 42,
    "prefecture": "長崎県",
    "city": "平戸市",
    "town": "新町"
  },
  "8595116": {
    "zipcode": "8595116",
    "prefectureCode": "42",
    "prefectureNumber": 42,
    "prefecture": "長崎県",
    "city": "平戸市",
    "town": "職人町"
  },
  "8595117": {
    "zipcode": "8595117",
    "prefectureCode": "42",
    "prefectureNumber": 42,
    "prefecture": "長崎県",
    "city": "平戸市",
    "town": "魚の棚町"
  },
  "8595118": {
    "zipcode": "8595118",
    "prefectureCode": "42",
    "prefectureNumber": 42,
    "prefecture": "長崎県",
    "city": "平戸市",
    "town": "紺屋町"
  },
  "8595121": {
    "zipcode": "8595121",
    "prefectureCode": "42",
    "prefectureNumber": 42,
    "prefecture": "長崎県",
    "city": "平戸市",
    "town": "岩の上町"
  },
  "8595122": {
    "zipcode": "8595122",
    "prefectureCode": "42",
    "prefectureNumber": 42,
    "prefecture": "長崎県",
    "city": "平戸市",
    "town": "明の川内町"
  },
  "8595123": {
    "zipcode": "8595123",
    "prefectureCode": "42",
    "prefectureNumber": 42,
    "prefecture": "長崎県",
    "city": "平戸市",
    "town": "大野町"
  },
  "8595131": {
    "zipcode": "8595131",
    "prefectureCode": "42",
    "prefectureNumber": 42,
    "prefecture": "長崎県",
    "city": "平戸市",
    "town": "大山町"
  },
  "8595132": {
    "zipcode": "8595132",
    "prefectureCode": "42",
    "prefectureNumber": 42,
    "prefecture": "長崎県",
    "city": "平戸市",
    "town": "川内町"
  },
  "8595133": {
    "zipcode": "8595133",
    "prefectureCode": "42",
    "prefectureNumber": 42,
    "prefecture": "長崎県",
    "city": "平戸市",
    "town": "中野大久保町"
  },
  "8595134": {
    "zipcode": "8595134",
    "prefectureCode": "42",
    "prefectureNumber": 42,
    "prefecture": "長崎県",
    "city": "平戸市",
    "town": "水垂町"
  },
  "8595141": {
    "zipcode": "8595141",
    "prefectureCode": "42",
    "prefectureNumber": 42,
    "prefecture": "長崎県",
    "city": "平戸市",
    "town": "山中町"
  },
  "8595142": {
    "zipcode": "8595142",
    "prefectureCode": "42",
    "prefectureNumber": 42,
    "prefecture": "長崎県",
    "city": "平戸市",
    "town": "主師町"
  },
  "8595143": {
    "zipcode": "8595143",
    "prefectureCode": "42",
    "prefectureNumber": 42,
    "prefecture": "長崎県",
    "city": "平戸市",
    "town": "坊方町"
  },
  "8595144": {
    "zipcode": "8595144",
    "prefectureCode": "42",
    "prefectureNumber": 42,
    "prefecture": "長崎県",
    "city": "平戸市",
    "town": "下中野町"
  },
  "8595145": {
    "zipcode": "8595145",
    "prefectureCode": "42",
    "prefectureNumber": 42,
    "prefecture": "長崎県",
    "city": "平戸市",
    "town": "古江町"
  },
  "8595151": {
    "zipcode": "8595151",
    "prefectureCode": "42",
    "prefectureNumber": 42,
    "prefecture": "長崎県",
    "city": "平戸市",
    "town": "木引町"
  },
  "8595152": {
    "zipcode": "8595152",
    "prefectureCode": "42",
    "prefectureNumber": 42,
    "prefecture": "長崎県",
    "city": "平戸市",
    "town": "鏡川町"
  },
  "8595153": {
    "zipcode": "8595153",
    "prefectureCode": "42",
    "prefectureNumber": 42,
    "prefecture": "長崎県",
    "city": "平戸市",
    "town": "戸石川町"
  },
  "8595361": {
    "zipcode": "8595361",
    "prefectureCode": "42",
    "prefectureNumber": 42,
    "prefecture": "長崎県",
    "city": "平戸市",
    "town": "紐差町"
  },
  "8595362": {
    "zipcode": "8595362",
    "prefectureCode": "42",
    "prefectureNumber": 42,
    "prefecture": "長崎県",
    "city": "平戸市",
    "town": "木ケ津町"
  },
  "8595363": {
    "zipcode": "8595363",
    "prefectureCode": "42",
    "prefectureNumber": 42,
    "prefecture": "長崎県",
    "city": "平戸市",
    "town": "草積町"
  },
  "8595364": {
    "zipcode": "8595364",
    "prefectureCode": "42",
    "prefectureNumber": 42,
    "prefecture": "長崎県",
    "city": "平戸市",
    "town": "迎紐差町"
  },
  "8595365": {
    "zipcode": "8595365",
    "prefectureCode": "42",
    "prefectureNumber": 42,
    "prefecture": "長崎県",
    "city": "平戸市",
    "town": "木場町"
  },
  "8595366": {
    "zipcode": "8595366",
    "prefectureCode": "42",
    "prefectureNumber": 42,
    "prefecture": "長崎県",
    "city": "平戸市",
    "town": "宝亀町"
  },
  "8595371": {
    "zipcode": "8595371",
    "prefectureCode": "42",
    "prefectureNumber": 42,
    "prefecture": "長崎県",
    "city": "平戸市",
    "town": "獅子町"
  },
  "8595372": {
    "zipcode": "8595372",
    "prefectureCode": "42",
    "prefectureNumber": 42,
    "prefecture": "長崎県",
    "city": "平戸市",
    "town": "高越町"
  },
  "8595373": {
    "zipcode": "8595373",
    "prefectureCode": "42",
    "prefectureNumber": 42,
    "prefecture": "長崎県",
    "city": "平戸市",
    "town": "春日町"
  },
  "8595374": {
    "zipcode": "8595374",
    "prefectureCode": "42",
    "prefectureNumber": 42,
    "prefecture": "長崎県",
    "city": "平戸市",
    "town": "深川町"
  },
  "8595375": {
    "zipcode": "8595375",
    "prefectureCode": "42",
    "prefectureNumber": 42,
    "prefecture": "長崎県",
    "city": "平戸市",
    "town": "朶の原町"
  },
  "8595376": {
    "zipcode": "8595376",
    "prefectureCode": "42",
    "prefectureNumber": 42,
    "prefecture": "長崎県",
    "city": "平戸市",
    "town": "大石脇町"
  },
  "8595381": {
    "zipcode": "8595381",
    "prefectureCode": "42",
    "prefectureNumber": 42,
    "prefecture": "長崎県",
    "city": "平戸市",
    "town": "根獅子町"
  },
  "8595382": {
    "zipcode": "8595382",
    "prefectureCode": "42",
    "prefectureNumber": 42,
    "prefecture": "長崎県",
    "city": "平戸市",
    "town": "飯良町"
  },
  "8595383": {
    "zipcode": "8595383",
    "prefectureCode": "42",
    "prefectureNumber": 42,
    "prefecture": "長崎県",
    "city": "平戸市",
    "town": "大川原町"
  },
  "8595384": {
    "zipcode": "8595384",
    "prefectureCode": "42",
    "prefectureNumber": 42,
    "prefecture": "長崎県",
    "city": "平戸市",
    "town": "赤松町"
  },
  "8595501": {
    "zipcode": "8595501",
    "prefectureCode": "42",
    "prefectureNumber": 42,
    "prefecture": "長崎県",
    "city": "平戸市",
    "town": "堤町"
  },
  "8595502": {
    "zipcode": "8595502",
    "prefectureCode": "42",
    "prefectureNumber": 42,
    "prefecture": "長崎県",
    "city": "平戸市",
    "town": "猪渡谷町"
  },
  "8595503": {
    "zipcode": "8595503",
    "prefectureCode": "42",
    "prefectureNumber": 42,
    "prefecture": "長崎県",
    "city": "平戸市",
    "town": "上中津良町"
  },
  "8595504": {
    "zipcode": "8595504",
    "prefectureCode": "42",
    "prefectureNumber": 42,
    "prefecture": "長崎県",
    "city": "平戸市",
    "town": "下中津良町"
  },
  "8595505": {
    "zipcode": "8595505",
    "prefectureCode": "42",
    "prefectureNumber": 42,
    "prefecture": "長崎県",
    "city": "平戸市",
    "town": "敷佐町"
  },
  "8595511": {
    "zipcode": "8595511",
    "prefectureCode": "42",
    "prefectureNumber": 42,
    "prefecture": "長崎県",
    "city": "平戸市",
    "town": "神船町"
  },
  "8595512": {
    "zipcode": "8595512",
    "prefectureCode": "42",
    "prefectureNumber": 42,
    "prefecture": "長崎県",
    "city": "平戸市",
    "town": "津吉町"
  },
  "8595513": {
    "zipcode": "8595513",
    "prefectureCode": "42",
    "prefectureNumber": 42,
    "prefecture": "長崎県",
    "city": "平戸市",
    "town": "辻町"
  },
  "8595514": {
    "zipcode": "8595514",
    "prefectureCode": "42",
    "prefectureNumber": 42,
    "prefecture": "長崎県",
    "city": "平戸市",
    "town": "無代寺町"
  },
  "8595515": {
    "zipcode": "8595515",
    "prefectureCode": "42",
    "prefectureNumber": 42,
    "prefecture": "長崎県",
    "city": "平戸市",
    "town": "鮎川町"
  },
  "8595516": {
    "zipcode": "8595516",
    "prefectureCode": "42",
    "prefectureNumber": 42,
    "prefecture": "長崎県",
    "city": "平戸市",
    "town": "大佐志町"
  },
  "8595521": {
    "zipcode": "8595521",
    "prefectureCode": "42",
    "prefectureNumber": 42,
    "prefecture": "長崎県",
    "city": "平戸市",
    "town": "船木町"
  },
  "8595522": {
    "zipcode": "8595522",
    "prefectureCode": "42",
    "prefectureNumber": 42,
    "prefecture": "長崎県",
    "city": "平戸市",
    "town": "神ノ川町"
  },
  "8595523": {
    "zipcode": "8595523",
    "prefectureCode": "42",
    "prefectureNumber": 42,
    "prefecture": "長崎県",
    "city": "平戸市",
    "town": "前津吉町"
  },
  "8595524": {
    "zipcode": "8595524",
    "prefectureCode": "42",
    "prefectureNumber": 42,
    "prefecture": "長崎県",
    "city": "平戸市",
    "town": "神上町"
  },
  "8595525": {
    "zipcode": "8595525",
    "prefectureCode": "42",
    "prefectureNumber": 42,
    "prefecture": "長崎県",
    "city": "平戸市",
    "town": "東中山町"
  },
  "8595526": {
    "zipcode": "8595526",
    "prefectureCode": "42",
    "prefectureNumber": 42,
    "prefecture": "長崎県",
    "city": "平戸市",
    "town": "西中山町"
  },
  "8595527": {
    "zipcode": "8595527",
    "prefectureCode": "42",
    "prefectureNumber": 42,
    "prefecture": "長崎県",
    "city": "平戸市",
    "town": "田代町"
  },
  "8595531": {
    "zipcode": "8595531",
    "prefectureCode": "42",
    "prefectureNumber": 42,
    "prefecture": "長崎県",
    "city": "平戸市",
    "town": "早福町"
  },
  "8595532": {
    "zipcode": "8595532",
    "prefectureCode": "42",
    "prefectureNumber": 42,
    "prefecture": "長崎県",
    "city": "平戸市",
    "town": "大志々伎町"
  },
  "8595533": {
    "zipcode": "8595533",
    "prefectureCode": "42",
    "prefectureNumber": 42,
    "prefecture": "長崎県",
    "city": "平戸市",
    "town": "志々伎町"
  },
  "8595534": {
    "zipcode": "8595534",
    "prefectureCode": "42",
    "prefectureNumber": 42,
    "prefecture": "長崎県",
    "city": "平戸市",
    "town": "小田町"
  },
  "8595535": {
    "zipcode": "8595535",
    "prefectureCode": "42",
    "prefectureNumber": 42,
    "prefecture": "長崎県",
    "city": "平戸市",
    "town": "野子町"
  },
  "8595701": {
    "zipcode": "8595701",
    "prefectureCode": "42",
    "prefectureNumber": 42,
    "prefecture": "長崎県",
    "city": "平戸市",
    "town": "生月町壱部"
  },
  "8595702": {
    "zipcode": "8595702",
    "prefectureCode": "42",
    "prefectureNumber": 42,
    "prefecture": "長崎県",
    "city": "平戸市",
    "town": "生月町壱部浦"
  },
  "8595703": {
    "zipcode": "8595703",
    "prefectureCode": "42",
    "prefectureNumber": 42,
    "prefecture": "長崎県",
    "city": "平戸市",
    "town": "生月町里免"
  },
  "8595704": {
    "zipcode": "8595704",
    "prefectureCode": "42",
    "prefectureNumber": 42,
    "prefecture": "長崎県",
    "city": "平戸市",
    "town": "生月町山田免"
  },
  "8595705": {
    "zipcode": "8595705",
    "prefectureCode": "42",
    "prefectureNumber": 42,
    "prefecture": "長崎県",
    "city": "平戸市",
    "town": "生月町舘浦"
  },
  "8595706": {
    "zipcode": "8595706",
    "prefectureCode": "42",
    "prefectureNumber": 42,
    "prefecture": "長崎県",
    "city": "平戸市",
    "town": "生月町南免"
  },
  "8595707": {
    "zipcode": "8595707",
    "prefectureCode": "42",
    "prefectureNumber": 42,
    "prefecture": "長崎県",
    "city": "平戸市",
    "town": "生月町御崎"
  },
  "8595801": {
    "zipcode": "8595801",
    "prefectureCode": "42",
    "prefectureNumber": 42,
    "prefecture": "長崎県",
    "city": "平戸市",
    "town": "大島村神浦"
  },
  "8595802": {
    "zipcode": "8595802",
    "prefectureCode": "42",
    "prefectureNumber": 42,
    "prefecture": "長崎県",
    "city": "平戸市",
    "town": "大島村前平"
  },
  "8595803": {
    "zipcode": "8595803",
    "prefectureCode": "42",
    "prefectureNumber": 42,
    "prefecture": "長崎県",
    "city": "平戸市",
    "town": "大島村西宇戸"
  },
  "8595804": {
    "zipcode": "8595804",
    "prefectureCode": "42",
    "prefectureNumber": 42,
    "prefecture": "長崎県",
    "city": "平戸市",
    "town": "大島村大根坂"
  },
  "8595805": {
    "zipcode": "8595805",
    "prefectureCode": "42",
    "prefectureNumber": 42,
    "prefecture": "長崎県",
    "city": "平戸市",
    "town": "大島村的山川内"
  },
  "8595806": {
    "zipcode": "8595806",
    "prefectureCode": "42",
    "prefectureNumber": 42,
    "prefecture": "長崎県",
    "city": "平戸市",
    "town": "大島村的山戸田"
  },
  "8596101": {
    "zipcode": "8596101",
    "prefectureCode": "42",
    "prefectureNumber": 42,
    "prefecture": "長崎県",
    "city": "佐世保市",
    "town": "江迎町長坂"
  },
  "8596102": {
    "zipcode": "8596102",
    "prefectureCode": "42",
    "prefectureNumber": 42,
    "prefecture": "長崎県",
    "city": "佐世保市",
    "town": "江迎町上川内"
  },
  "8596103": {
    "zipcode": "8596103",
    "prefectureCode": "42",
    "prefectureNumber": 42,
    "prefecture": "長崎県",
    "city": "佐世保市",
    "town": "江迎町埋立"
  },
  "8596104": {
    "zipcode": "8596104",
    "prefectureCode": "42",
    "prefectureNumber": 42,
    "prefecture": "長崎県",
    "city": "佐世保市",
    "town": "江迎町末橘"
  },
  "8596105": {
    "zipcode": "8596105",
    "prefectureCode": "42",
    "prefectureNumber": 42,
    "prefecture": "長崎県",
    "city": "佐世保市",
    "town": "江迎町梶ノ村"
  },
  "8596106": {
    "zipcode": "8596106",
    "prefectureCode": "42",
    "prefectureNumber": 42,
    "prefecture": "長崎県",
    "city": "佐世保市",
    "town": "江迎町北田"
  },
  "8596111": {
    "zipcode": "8596111",
    "prefectureCode": "42",
    "prefectureNumber": 42,
    "prefecture": "長崎県",
    "city": "佐世保市",
    "town": "江迎町飯良坂"
  },
  "8596112": {
    "zipcode": "8596112",
    "prefectureCode": "42",
    "prefectureNumber": 42,
    "prefecture": "長崎県",
    "city": "佐世保市",
    "town": "江迎町根引"
  },
  "8596113": {
    "zipcode": "8596113",
    "prefectureCode": "42",
    "prefectureNumber": 42,
    "prefecture": "長崎県",
    "city": "佐世保市",
    "town": "江迎町栗越"
  },
  "8596114": {
    "zipcode": "8596114",
    "prefectureCode": "42",
    "prefectureNumber": 42,
    "prefecture": "長崎県",
    "city": "佐世保市",
    "town": "江迎町箙尾"
  },
  "8596115": {
    "zipcode": "8596115",
    "prefectureCode": "42",
    "prefectureNumber": 42,
    "prefecture": "長崎県",
    "city": "佐世保市",
    "town": "江迎町中尾"
  },
  "8596121": {
    "zipcode": "8596121",
    "prefectureCode": "42",
    "prefectureNumber": 42,
    "prefecture": "長崎県",
    "city": "佐世保市",
    "town": "江迎町奥川内"
  },
  "8596122": {
    "zipcode": "8596122",
    "prefectureCode": "42",
    "prefectureNumber": 42,
    "prefecture": "長崎県",
    "city": "佐世保市",
    "town": "江迎町七腕"
  },
  "8596123": {
    "zipcode": "8596123",
    "prefectureCode": "42",
    "prefectureNumber": 42,
    "prefecture": "長崎県",
    "city": "佐世保市",
    "town": "江迎町小川内"
  },
  "8596124": {
    "zipcode": "8596124",
    "prefectureCode": "42",
    "prefectureNumber": 42,
    "prefecture": "長崎県",
    "city": "佐世保市",
    "town": "江迎町乱橋"
  },
  "8596125": {
    "zipcode": "8596125",
    "prefectureCode": "42",
    "prefectureNumber": 42,
    "prefecture": "長崎県",
    "city": "佐世保市",
    "town": "江迎町三浦"
  },
  "8596126": {
    "zipcode": "8596126",
    "prefectureCode": "42",
    "prefectureNumber": 42,
    "prefecture": "長崎県",
    "city": "佐世保市",
    "town": "江迎町北平"
  },
  "8596131": {
    "zipcode": "8596131",
    "prefectureCode": "42",
    "prefectureNumber": 42,
    "prefecture": "長崎県",
    "city": "佐世保市",
    "town": "江迎町赤坂"
  },
  "8596132": {
    "zipcode": "8596132",
    "prefectureCode": "42",
    "prefectureNumber": 42,
    "prefecture": "長崎県",
    "city": "佐世保市",
    "town": "江迎町志戸氏"
  },
  "8596133": {
    "zipcode": "8596133",
    "prefectureCode": "42",
    "prefectureNumber": 42,
    "prefecture": "長崎県",
    "city": "佐世保市",
    "town": "江迎町猪調"
  },
  "8596134": {
    "zipcode": "8596134",
    "prefectureCode": "42",
    "prefectureNumber": 42,
    "prefecture": "長崎県",
    "city": "佐世保市",
    "town": "江迎町田ノ元"
  },
  "8596141": {
    "zipcode": "8596141",
    "prefectureCode": "42",
    "prefectureNumber": 42,
    "prefecture": "長崎県",
    "city": "佐世保市",
    "town": "鹿町町新深江"
  },
  "8596142": {
    "zipcode": "8596142",
    "prefectureCode": "42",
    "prefectureNumber": 42,
    "prefecture": "長崎県",
    "city": "佐世保市",
    "town": "鹿町町深江"
  },
  "8596143": {
    "zipcode": "8596143",
    "prefectureCode": "42",
    "prefectureNumber": 42,
    "prefecture": "長崎県",
    "city": "佐世保市",
    "town": "鹿町町深江潟"
  },
  "8596144": {
    "zipcode": "8596144",
    "prefectureCode": "42",
    "prefectureNumber": 42,
    "prefecture": "長崎県",
    "city": "佐世保市",
    "town": "鹿町町鹿町"
  },
  "8596145": {
    "zipcode": "8596145",
    "prefectureCode": "42",
    "prefectureNumber": 42,
    "prefecture": "長崎県",
    "city": "佐世保市",
    "town": "鹿町町土肥ノ浦"
  },
  "8596201": {
    "zipcode": "8596201",
    "prefectureCode": "42",
    "prefectureNumber": 42,
    "prefecture": "長崎県",
    "city": "佐世保市",
    "town": "鹿町町大屋"
  },
  "8596202": {
    "zipcode": "8596202",
    "prefectureCode": "42",
    "prefectureNumber": 42,
    "prefecture": "長崎県",
    "city": "佐世保市",
    "town": "鹿町町上歌ヶ浦"
  },
  "8596203": {
    "zipcode": "8596203",
    "prefectureCode": "42",
    "prefectureNumber": 42,
    "prefecture": "長崎県",
    "city": "佐世保市",
    "town": "鹿町町口ノ里"
  },
  "8596204": {
    "zipcode": "8596204",
    "prefectureCode": "42",
    "prefectureNumber": 42,
    "prefecture": "長崎県",
    "city": "佐世保市",
    "town": "鹿町町下歌ヶ浦"
  },
  "8596205": {
    "zipcode": "8596205",
    "prefectureCode": "42",
    "prefectureNumber": 42,
    "prefecture": "長崎県",
    "city": "佐世保市",
    "town": "鹿町町中野"
  },
  "8596206": {
    "zipcode": "8596206",
    "prefectureCode": "42",
    "prefectureNumber": 42,
    "prefecture": "長崎県",
    "city": "佐世保市",
    "town": "鹿町町長串"
  },
  "8596207": {
    "zipcode": "8596207",
    "prefectureCode": "42",
    "prefectureNumber": 42,
    "prefecture": "長崎県",
    "city": "佐世保市",
    "town": "鹿町町船ノ村"
  },
  "8596301": {
    "zipcode": "8596301",
    "prefectureCode": "42",
    "prefectureNumber": 42,
    "prefecture": "長崎県",
    "city": "佐世保市",
    "town": "吉井町草ノ尾"
  },
  "8596302": {
    "zipcode": "8596302",
    "prefectureCode": "42",
    "prefectureNumber": 42,
    "prefecture": "長崎県",
    "city": "佐世保市",
    "town": "吉井町福井"
  },
  "8596303": {
    "zipcode": "8596303",
    "prefectureCode": "42",
    "prefectureNumber": 42,
    "prefecture": "長崎県",
    "city": "佐世保市",
    "town": "吉井町板樋"
  },
  "8596304": {
    "zipcode": "8596304",
    "prefectureCode": "42",
    "prefectureNumber": 42,
    "prefecture": "長崎県",
    "city": "佐世保市",
    "town": "吉井町梶木場"
  },
  "8596305": {
    "zipcode": "8596305",
    "prefectureCode": "42",
    "prefectureNumber": 42,
    "prefecture": "長崎県",
    "city": "佐世保市",
    "town": "吉井町直谷"
  },
  "8596311": {
    "zipcode": "8596311",
    "prefectureCode": "42",
    "prefectureNumber": 42,
    "prefecture": "長崎県",
    "city": "佐世保市",
    "town": "吉井町橋川内"
  },
  "8596312": {
    "zipcode": "8596312",
    "prefectureCode": "42",
    "prefectureNumber": 42,
    "prefecture": "長崎県",
    "city": "佐世保市",
    "town": "吉井町橋口"
  },
  "8596313": {
    "zipcode": "8596313",
    "prefectureCode": "42",
    "prefectureNumber": 42,
    "prefecture": "長崎県",
    "city": "佐世保市",
    "town": "吉井町上吉田"
  },
  "8596314": {
    "zipcode": "8596314",
    "prefectureCode": "42",
    "prefectureNumber": 42,
    "prefecture": "長崎県",
    "city": "佐世保市",
    "town": "吉井町田原"
  },
  "8596315": {
    "zipcode": "8596315",
    "prefectureCode": "42",
    "prefectureNumber": 42,
    "prefecture": "長崎県",
    "city": "佐世保市",
    "town": "吉井町下原"
  },
  "8596316": {
    "zipcode": "8596316",
    "prefectureCode": "42",
    "prefectureNumber": 42,
    "prefecture": "長崎県",
    "city": "佐世保市",
    "town": "吉井町乙石尾"
  },
  "8596317": {
    "zipcode": "8596317",
    "prefectureCode": "42",
    "prefectureNumber": 42,
    "prefecture": "長崎県",
    "city": "佐世保市",
    "town": "吉井町高峰"
  },
  "8596321": {
    "zipcode": "8596321",
    "prefectureCode": "42",
    "prefectureNumber": 42,
    "prefecture": "長崎県",
    "city": "佐世保市",
    "town": "吉井町前岳"
  },
  "8596322": {
    "zipcode": "8596322",
    "prefectureCode": "42",
    "prefectureNumber": 42,
    "prefecture": "長崎県",
    "city": "佐世保市",
    "town": "吉井町踊瀬"
  },
  "8596323": {
    "zipcode": "8596323",
    "prefectureCode": "42",
    "prefectureNumber": 42,
    "prefecture": "長崎県",
    "city": "佐世保市",
    "town": "吉井町春明"
  },
  "8596324": {
    "zipcode": "8596324",
    "prefectureCode": "42",
    "prefectureNumber": 42,
    "prefecture": "長崎県",
    "city": "佐世保市",
    "town": "吉井町吉元"
  },
  "8596325": {
    "zipcode": "8596325",
    "prefectureCode": "42",
    "prefectureNumber": 42,
    "prefecture": "長崎県",
    "city": "佐世保市",
    "town": "吉井町大渡"
  },
  "8596326": {
    "zipcode": "8596326",
    "prefectureCode": "42",
    "prefectureNumber": 42,
    "prefecture": "長崎県",
    "city": "佐世保市",
    "town": "吉井町立石"
  },
  "8596401": {
    "zipcode": "8596401",
    "prefectureCode": "42",
    "prefectureNumber": 42,
    "prefecture": "長崎県",
    "city": "佐世保市",
    "town": "世知原町赤木場"
  },
  "8596402": {
    "zipcode": "8596402",
    "prefectureCode": "42",
    "prefectureNumber": 42,
    "prefecture": "長崎県",
    "city": "佐世保市",
    "town": "世知原町岩谷口"
  },
  "8596403": {
    "zipcode": "8596403",
    "prefectureCode": "42",
    "prefectureNumber": 42,
    "prefecture": "長崎県",
    "city": "佐世保市",
    "town": "世知原町上野原"
  },
  "8596404": {
    "zipcode": "8596404",
    "prefectureCode": "42",
    "prefectureNumber": 42,
    "prefecture": "長崎県",
    "city": "佐世保市",
    "town": "世知原町太田"
  },
  "8596405": {
    "zipcode": "8596405",
    "prefectureCode": "42",
    "prefectureNumber": 42,
    "prefecture": "長崎県",
    "city": "佐世保市",
    "town": "世知原町開作"
  },
  "8596406": {
    "zipcode": "8596406",
    "prefectureCode": "42",
    "prefectureNumber": 42,
    "prefecture": "長崎県",
    "city": "佐世保市",
    "town": "世知原町木浦原"
  },
  "8596407": {
    "zipcode": "8596407",
    "prefectureCode": "42",
    "prefectureNumber": 42,
    "prefecture": "長崎県",
    "city": "佐世保市",
    "town": "世知原町北川内"
  },
  "8596408": {
    "zipcode": "8596408",
    "prefectureCode": "42",
    "prefectureNumber": 42,
    "prefecture": "長崎県",
    "city": "佐世保市",
    "town": "世知原町栗迎"
  },
  "8596409": {
    "zipcode": "8596409",
    "prefectureCode": "42",
    "prefectureNumber": 42,
    "prefecture": "長崎県",
    "city": "佐世保市",
    "town": "世知原町中通"
  },
  "8596411": {
    "zipcode": "8596411",
    "prefectureCode": "42",
    "prefectureNumber": 42,
    "prefecture": "長崎県",
    "city": "佐世保市",
    "town": "世知原町長田代"
  },
  "8596412": {
    "zipcode": "8596412",
    "prefectureCode": "42",
    "prefectureNumber": 42,
    "prefecture": "長崎県",
    "city": "佐世保市",
    "town": "世知原町西ノ岳"
  },
  "8596413": {
    "zipcode": "8596413",
    "prefectureCode": "42",
    "prefectureNumber": 42,
    "prefecture": "長崎県",
    "city": "佐世保市",
    "town": "世知原町笥瀬"
  },
  "8596414": {
    "zipcode": "8596414",
    "prefectureCode": "42",
    "prefectureNumber": 42,
    "prefecture": "長崎県",
    "city": "佐世保市",
    "town": "世知原町矢櫃"
  },
  "8596415": {
    "zipcode": "8596415",
    "prefectureCode": "42",
    "prefectureNumber": 42,
    "prefecture": "長崎県",
    "city": "佐世保市",
    "town": "世知原町槍巻"
  }
}
