{
  "8600001": {
    "zipcode": "8600001",
    "prefectureCode": "43",
    "prefectureNumber": 43,
    "prefecture": "熊本県",
    "city": "熊本市中央区",
    "town": "千葉城町"
  },
  "8600002": {
    "zipcode": "8600002",
    "prefectureCode": "43",
    "prefectureNumber": 43,
    "prefecture": "熊本県",
    "city": "熊本市中央区",
    "town": "本丸"
  },
  "8600003": {
    "zipcode": "8600003",
    "prefectureCode": "43",
    "prefectureNumber": 43,
    "prefecture": "熊本県",
    "city": "熊本市中央区",
    "town": "古城町"
  },
  "8600004": {
    "zipcode": "8600004",
    "prefectureCode": "43",
    "prefectureNumber": 43,
    "prefecture": "熊本県",
    "city": "熊本市中央区",
    "town": "新町"
  },
  "8600005": {
    "zipcode": "8600005",
    "prefectureCode": "43",
    "prefectureNumber": 43,
    "prefecture": "熊本県",
    "city": "熊本市中央区",
    "town": "宮内"
  },
  "8600006": {
    "zipcode": "8600006",
    "prefectureCode": "43",
    "prefectureNumber": 43,
    "prefecture": "熊本県",
    "city": "熊本市中央区",
    "town": "段山本町"
  },
  "8600007": {
    "zipcode": "8600007",
    "prefectureCode": "43",
    "prefectureNumber": 43,
    "prefecture": "熊本県",
    "city": "熊本市中央区",
    "town": "古京町"
  },
  "8600008": {
    "zipcode": "8600008",
    "prefectureCode": "43",
    "prefectureNumber": 43,
    "prefecture": "熊本県",
    "city": "熊本市中央区",
    "town": "二の丸"
  },
  "8600011": {
    "zipcode": "8600011",
    "prefectureCode": "43",
    "prefectureNumber": 43,
    "prefecture": "熊本県",
    "city": "熊本市中央区",
    "town": "新鍛冶屋町"
  },
  "8600012": {
    "zipcode": "8600012",
    "prefectureCode": "43",
    "prefectureNumber": 43,
    "prefecture": "熊本県",
    "city": "熊本市中央区",
    "town": "紺屋今町"
  },
  "8600013": {
    "zipcode": "8600013",
    "prefectureCode": "43",
    "prefectureNumber": 43,
    "prefecture": "熊本県",
    "city": "熊本市中央区",
    "town": "通町"
  },
  "8600014": {
    "zipcode": "8600014",
    "prefectureCode": "43",
    "prefectureNumber": 43,
    "prefecture": "熊本県",
    "city": "熊本市中央区",
    "town": "慶徳堀町"
  },
  "8600015": {
    "zipcode": "8600015",
    "prefectureCode": "43",
    "prefectureNumber": 43,
    "prefecture": "熊本県",
    "city": "熊本市中央区",
    "town": "古川町"
  },
  "8600016": {
    "zipcode": "8600016",
    "prefectureCode": "43",
    "prefectureNumber": 43,
    "prefecture": "熊本県",
    "city": "熊本市中央区",
    "town": "山崎町"
  },
  "8600017": {
    "zipcode": "8600017",
    "prefectureCode": "43",
    "prefectureNumber": 43,
    "prefecture": "熊本県",
    "city": "熊本市中央区",
    "town": "練兵町"
  },
  "8600018": {
    "zipcode": "8600018",
    "prefectureCode": "43",
    "prefectureNumber": 43,
    "prefecture": "熊本県",
    "city": "熊本市中央区",
    "town": "船場町下"
  },
  "8600019": {
    "zipcode": "8600019",
    "prefectureCode": "43",
    "prefectureNumber": 43,
    "prefecture": "熊本県",
    "city": "熊本市中央区",
    "town": "船場町"
  },
  "8600021": {
    "zipcode": "8600021",
    "prefectureCode": "43",
    "prefectureNumber": 43,
    "prefecture": "熊本県",
    "city": "熊本市中央区",
    "town": "上鍛冶屋町"
  },
  "8600022": {
    "zipcode": "8600022",
    "prefectureCode": "43",
    "prefectureNumber": 43,
    "prefecture": "熊本県",
    "city": "熊本市中央区",
    "town": "横紺屋町"
  },
  "8600023": {
    "zipcode": "8600023",
    "prefectureCode": "43",
    "prefectureNumber": 43,
    "prefecture": "熊本県",
    "city": "熊本市中央区",
    "town": "河原町"
  },
  "8600024": {
    "zipcode": "8600024",
    "prefectureCode": "43",
    "prefectureNumber": 43,
    "prefecture": "熊本県",
    "city": "熊本市中央区",
    "town": "松原町"
  },
  "8600025": {
    "zipcode": "8600025",
    "prefectureCode": "43",
    "prefectureNumber": 43,
    "prefecture": "熊本県",
    "city": "熊本市中央区",
    "town": "紺屋町"
  },
  "8600026": {
    "zipcode": "8600026",
    "prefectureCode": "43",
    "prefectureNumber": 43,
    "prefecture": "熊本県",
    "city": "熊本市中央区",
    "town": "鍛冶屋町"
  },
  "8600027": {
    "zipcode": "8600027",
    "prefectureCode": "43",
    "prefectureNumber": 43,
    "prefecture": "熊本県",
    "city": "熊本市中央区",
    "town": "西唐人町"
  },
  "8600028": {
    "zipcode": "8600028",
    "prefectureCode": "43",
    "prefectureNumber": 43,
    "prefecture": "熊本県",
    "city": "熊本市中央区",
    "town": "中唐人町"
  },
  "8600029": {
    "zipcode": "8600029",
    "prefectureCode": "43",
    "prefectureNumber": 43,
    "prefecture": "熊本県",
    "city": "熊本市中央区",
    "town": "米屋町"
  },
  "8600031": {
    "zipcode": "8600031",
    "prefectureCode": "43",
    "prefectureNumber": 43,
    "prefecture": "熊本県",
    "city": "熊本市中央区",
    "town": "魚屋町"
  },
  "8600032": {
    "zipcode": "8600032",
    "prefectureCode": "43",
    "prefectureNumber": 43,
    "prefecture": "熊本県",
    "city": "熊本市中央区",
    "town": "万町"
  },
  "8600033": {
    "zipcode": "8600033",
    "prefectureCode": "43",
    "prefectureNumber": 43,
    "prefecture": "熊本県",
    "city": "熊本市中央区",
    "town": "紺屋阿弥陀寺町"
  },
  "8600034": {
    "zipcode": "8600034",
    "prefectureCode": "43",
    "prefectureNumber": 43,
    "prefecture": "熊本県",
    "city": "熊本市中央区",
    "town": "東阿弥陀寺町"
  },
  "8600035": {
    "zipcode": "8600035",
    "prefectureCode": "43",
    "prefectureNumber": 43,
    "prefecture": "熊本県",
    "city": "熊本市中央区",
    "town": "呉服町"
  },
  "8600036": {
    "zipcode": "8600036",
    "prefectureCode": "43",
    "prefectureNumber": 43,
    "prefecture": "熊本県",
    "city": "熊本市中央区",
    "town": "古大工町"
  },
  "8600037": {
    "zipcode": "8600037",
    "prefectureCode": "43",
    "prefectureNumber": 43,
    "prefecture": "熊本県",
    "city": "熊本市中央区",
    "town": "西阿弥陀寺町"
  },
  "8600038": {
    "zipcode": "8600038",
    "prefectureCode": "43",
    "prefectureNumber": 43,
    "prefecture": "熊本県",
    "city": "熊本市中央区",
    "town": "古桶屋町"
  },
  "8600039": {
    "zipcode": "8600039",
    "prefectureCode": "43",
    "prefectureNumber": 43,
    "prefecture": "熊本県",
    "city": "熊本市中央区",
    "town": "川端町"
  },
  "8600041": {
    "zipcode": "8600041",
    "prefectureCode": "43",
    "prefectureNumber": 43,
    "prefecture": "熊本県",
    "city": "熊本市中央区",
    "town": "細工町"
  },
  "8600042": {
    "zipcode": "8600042",
    "prefectureCode": "43",
    "prefectureNumber": 43,
    "prefecture": "熊本県",
    "city": "熊本市中央区",
    "town": "小沢町"
  },
  "8600043": {
    "zipcode": "8600043",
    "prefectureCode": "43",
    "prefectureNumber": 43,
    "prefecture": "熊本県",
    "city": "熊本市中央区",
    "town": "板屋町"
  },
  "8600044": {
    "zipcode": "8600044",
    "prefectureCode": "43",
    "prefectureNumber": 43,
    "prefecture": "熊本県",
    "city": "熊本市西区",
    "town": "谷尾崎町"
  },
  "8600045": {
    "zipcode": "8600045",
    "prefectureCode": "43",
    "prefectureNumber": 43,
    "prefecture": "熊本県",
    "city": "熊本市西区",
    "town": "戸坂町"
  },
  "8600046": {
    "zipcode": "8600046",
    "prefectureCode": "43",
    "prefectureNumber": 43,
    "prefecture": "熊本県",
    "city": "熊本市西区",
    "town": "横手"
  },
  "8600047": {
    "zipcode": "8600047",
    "prefectureCode": "43",
    "prefectureNumber": 43,
    "prefecture": "熊本県",
    "city": "熊本市西区",
    "town": "春日"
  },
  "8600048": {
    "zipcode": "8600048",
    "prefectureCode": "43",
    "prefectureNumber": 43,
    "prefecture": "熊本県",
    "city": "熊本市西区",
    "town": "池上町"
  },
  "8600051": {
    "zipcode": "8600051",
    "prefectureCode": "43",
    "prefectureNumber": 43,
    "prefecture": "熊本県",
    "city": "熊本市西区",
    "town": "二本木"
  },
  "8600052": {
    "zipcode": "8600052",
    "prefectureCode": "43",
    "prefectureNumber": 43,
    "prefecture": "熊本県",
    "city": "熊本市西区",
    "town": "田崎本町"
  },
  "8600053": {
    "zipcode": "8600053",
    "prefectureCode": "43",
    "prefectureNumber": 43,
    "prefecture": "熊本県",
    "city": "熊本市西区",
    "town": "田崎"
  },
  "8600054": {
    "zipcode": "8600054",
    "prefectureCode": "43",
    "prefectureNumber": 43,
    "prefecture": "熊本県",
    "city": "熊本市西区",
    "town": "八島"
  },
  "8600055": {
    "zipcode": "8600055",
    "prefectureCode": "43",
    "prefectureNumber": 43,
    "prefecture": "熊本県",
    "city": "熊本市西区",
    "town": "蓮台寺"
  },
  "8600056": {
    "zipcode": "8600056",
    "prefectureCode": "43",
    "prefectureNumber": 43,
    "prefecture": "熊本県",
    "city": "熊本市西区",
    "town": "新土河原"
  },
  "8600057": {
    "zipcode": "8600057",
    "prefectureCode": "43",
    "prefectureNumber": 43,
    "prefecture": "熊本県",
    "city": "熊本市西区",
    "town": "八島町"
  },
  "8600058": {
    "zipcode": "8600058",
    "prefectureCode": "43",
    "prefectureNumber": 43,
    "prefecture": "熊本県",
    "city": "熊本市西区",
    "town": "田崎町"
  },
  "8600059": {
    "zipcode": "8600059",
    "prefectureCode": "43",
    "prefectureNumber": 43,
    "prefecture": "熊本県",
    "city": "熊本市西区",
    "town": "野中"
  },
  "8600061": {
    "zipcode": "8600061",
    "prefectureCode": "43",
    "prefectureNumber": 43,
    "prefecture": "熊本県",
    "city": "熊本市西区",
    "town": "上高橋"
  },
  "8600062": {
    "zipcode": "8600062",
    "prefectureCode": "43",
    "prefectureNumber": 43,
    "prefecture": "熊本県",
    "city": "熊本市西区",
    "town": "高橋町"
  },
  "8600063": {
    "zipcode": "8600063",
    "prefectureCode": "43",
    "prefectureNumber": 43,
    "prefecture": "熊本県",
    "city": "熊本市西区",
    "town": "城山上代町"
  },
  "8600064": {
    "zipcode": "8600064",
    "prefectureCode": "43",
    "prefectureNumber": 43,
    "prefecture": "熊本県",
    "city": "熊本市西区",
    "town": "城山半田"
  },
  "8600065": {
    "zipcode": "8600065",
    "prefectureCode": "43",
    "prefectureNumber": 43,
    "prefecture": "熊本県",
    "city": "熊本市西区",
    "town": "城山薬師"
  },
  "8600066": {
    "zipcode": "8600066",
    "prefectureCode": "43",
    "prefectureNumber": 43,
    "prefecture": "熊本県",
    "city": "熊本市西区",
    "town": "城山下代"
  },
  "8600067": {
    "zipcode": "8600067",
    "prefectureCode": "43",
    "prefectureNumber": 43,
    "prefecture": "熊本県",
    "city": "熊本市西区",
    "town": "城山大塘"
  },
  "8600068": {
    "zipcode": "8600068",
    "prefectureCode": "43",
    "prefectureNumber": 43,
    "prefecture": "熊本県",
    "city": "熊本市西区",
    "town": "上代"
  },
  "8600071": {
    "zipcode": "8600071",
    "prefectureCode": "43",
    "prefectureNumber": 43,
    "prefecture": "熊本県",
    "city": "熊本市西区",
    "town": "池亀町"
  },
  "8600072": {
    "zipcode": "8600072",
    "prefectureCode": "43",
    "prefectureNumber": 43,
    "prefecture": "熊本県",
    "city": "熊本市西区",
    "town": "花園"
  },
  "8600073": {
    "zipcode": "8600073",
    "prefectureCode": "43",
    "prefectureNumber": 43,
    "prefecture": "熊本県",
    "city": "熊本市西区",
    "town": "島崎"
  },
  "8600074": {
    "zipcode": "8600074",
    "prefectureCode": "43",
    "prefectureNumber": 43,
    "prefecture": "熊本県",
    "city": "熊本市西区",
    "town": "出町"
  },
  "8600075": {
    "zipcode": "8600075",
    "prefectureCode": "43",
    "prefectureNumber": 43,
    "prefecture": "熊本県",
    "city": "熊本市西区",
    "town": "稗田町"
  },
  "8600076": {
    "zipcode": "8600076",
    "prefectureCode": "43",
    "prefectureNumber": 43,
    "prefecture": "熊本県",
    "city": "熊本市中央区",
    "town": "壺川"
  },
  "8600077": {
    "zipcode": "8600077",
    "prefectureCode": "43",
    "prefectureNumber": 43,
    "prefecture": "熊本県",
    "city": "熊本市中央区",
    "town": "内坪井町"
  },
  "8600078": {
    "zipcode": "8600078",
    "prefectureCode": "43",
    "prefectureNumber": 43,
    "prefecture": "熊本県",
    "city": "熊本市中央区",
    "town": "京町"
  },
  "8600079": {
    "zipcode": "8600079",
    "prefectureCode": "43",
    "prefectureNumber": 43,
    "prefecture": "熊本県",
    "city": "熊本市西区",
    "town": "上熊本"
  },
  "8600081": {
    "zipcode": "8600081",
    "prefectureCode": "43",
    "prefectureNumber": 43,
    "prefecture": "熊本県",
    "city": "熊本市西区",
    "town": "京町本丁"
  },
  "8600082": {
    "zipcode": "8600082",
    "prefectureCode": "43",
    "prefectureNumber": 43,
    "prefecture": "熊本県",
    "city": "熊本市北区",
    "town": "池田"
  },
  "8600083": {
    "zipcode": "8600083",
    "prefectureCode": "43",
    "prefectureNumber": 43,
    "prefecture": "熊本県",
    "city": "熊本市北区",
    "town": "大窪"
  },
  "8600084": {
    "zipcode": "8600084",
    "prefectureCode": "43",
    "prefectureNumber": 43,
    "prefecture": "熊本県",
    "city": "熊本市北区",
    "town": "山室"
  },
  "8600085": {
    "zipcode": "8600085",
    "prefectureCode": "43",
    "prefectureNumber": 43,
    "prefecture": "熊本県",
    "city": "熊本市北区",
    "town": "高平"
  },
  "8600086": {
    "zipcode": "8600086",
    "prefectureCode": "43",
    "prefectureNumber": 43,
    "prefecture": "熊本県",
    "city": "熊本市北区",
    "town": "打越町"
  },
  "8600087": {
    "zipcode": "8600087",
    "prefectureCode": "43",
    "prefectureNumber": 43,
    "prefecture": "熊本県",
    "city": "熊本市北区",
    "town": "清水町打越"
  },
  "8600088": {
    "zipcode": "8600088",
    "prefectureCode": "43",
    "prefectureNumber": 43,
    "prefecture": "熊本県",
    "city": "熊本市北区",
    "town": "津浦町"
  },
  "8600801": {
    "zipcode": "8600801",
    "prefectureCode": "43",
    "prefectureNumber": 43,
    "prefecture": "熊本県",
    "city": "熊本市中央区",
    "town": "安政町"
  },
  "8600802": {
    "zipcode": "8600802",
    "prefectureCode": "43",
    "prefectureNumber": 43,
    "prefecture": "熊本県",
    "city": "熊本市中央区",
    "town": "中央街"
  },
  "8600803": {
    "zipcode": "8600803",
    "prefectureCode": "43",
    "prefectureNumber": 43,
    "prefecture": "熊本県",
    "city": "熊本市中央区",
    "town": "新市街"
  },
  "8600804": {
    "zipcode": "8600804",
    "prefectureCode": "43",
    "prefectureNumber": 43,
    "prefecture": "熊本県",
    "city": "熊本市中央区",
    "town": "辛島町"
  },
  "8600805": {
    "zipcode": "8600805",
    "prefectureCode": "43",
    "prefectureNumber": 43,
    "prefecture": "熊本県",
    "city": "熊本市中央区",
    "town": "桜町"
  },
  "8600806": {
    "zipcode": "8600806",
    "prefectureCode": "43",
    "prefectureNumber": 43,
    "prefecture": "熊本県",
    "city": "熊本市中央区",
    "town": "花畑町"
  },
  "8600807": {
    "zipcode": "8600807",
    "prefectureCode": "43",
    "prefectureNumber": 43,
    "prefecture": "熊本県",
    "city": "熊本市中央区",
    "town": "下通"
  },
  "8600808": {
    "zipcode": "8600808",
    "prefectureCode": "43",
    "prefectureNumber": 43,
    "prefecture": "熊本県",
    "city": "熊本市中央区",
    "town": "手取本町"
  },
  "8600811": {
    "zipcode": "8600811",
    "prefectureCode": "43",
    "prefectureNumber": 43,
    "prefecture": "熊本県",
    "city": "熊本市中央区",
    "town": "本荘"
  },
  "8600812": {
    "zipcode": "8600812",
    "prefectureCode": "43",
    "prefectureNumber": 43,
    "prefecture": "熊本県",
    "city": "熊本市中央区",
    "town": "南熊本"
  },
  "8600813": {
    "zipcode": "8600813",
    "prefectureCode": "43",
    "prefectureNumber": 43,
    "prefecture": "熊本県",
    "city": "熊本市中央区",
    "town": "琴平"
  },
  "8600814": {
    "zipcode": "8600814",
    "prefectureCode": "43",
    "prefectureNumber": 43,
    "prefecture": "熊本県",
    "city": "熊本市中央区",
    "town": "琴平本町"
  },
  "8600815": {
    "zipcode": "8600815",
    "prefectureCode": "43",
    "prefectureNumber": 43,
    "prefecture": "熊本県",
    "city": "熊本市中央区",
    "town": "春竹町"
  },
  "8600816": {
    "zipcode": "8600816",
    "prefectureCode": "43",
    "prefectureNumber": 43,
    "prefecture": "熊本県",
    "city": "熊本市中央区",
    "town": "本荘町"
  },
  "8600817": {
    "zipcode": "8600817",
    "prefectureCode": "43",
    "prefectureNumber": 43,
    "prefecture": "熊本県",
    "city": "熊本市中央区",
    "town": "迎町"
  },
  "8600818": {
    "zipcode": "8600818",
    "prefectureCode": "43",
    "prefectureNumber": 43,
    "prefecture": "熊本県",
    "city": "熊本市中央区",
    "town": "弥生町"
  },
  "8600821": {
    "zipcode": "8600821",
    "prefectureCode": "43",
    "prefectureNumber": 43,
    "prefecture": "熊本県",
    "city": "熊本市中央区",
    "town": "本山"
  },
  "8600822": {
    "zipcode": "8600822",
    "prefectureCode": "43",
    "prefectureNumber": 43,
    "prefecture": "熊本県",
    "city": "熊本市中央区",
    "town": "本山町"
  },
  "8600823": {
    "zipcode": "8600823",
    "prefectureCode": "43",
    "prefectureNumber": 43,
    "prefecture": "熊本県",
    "city": "熊本市中央区",
    "town": "世安町"
  },
  "8600824": {
    "zipcode": "8600824",
    "prefectureCode": "43",
    "prefectureNumber": 43,
    "prefecture": "熊本県",
    "city": "熊本市南区",
    "town": "十禅寺"
  },
  "8600826": {
    "zipcode": "8600826",
    "prefectureCode": "43",
    "prefectureNumber": 43,
    "prefecture": "熊本県",
    "city": "熊本市南区",
    "town": "平田"
  },
  "8600827": {
    "zipcode": "8600827",
    "prefectureCode": "43",
    "prefectureNumber": 43,
    "prefecture": "熊本県",
    "city": "熊本市中央区",
    "town": "世安"
  },
  "8600831": {
    "zipcode": "8600831",
    "prefectureCode": "43",
    "prefectureNumber": 43,
    "prefecture": "熊本県",
    "city": "熊本市南区",
    "town": "八王寺町"
  },
  "8600832": {
    "zipcode": "8600832",
    "prefectureCode": "43",
    "prefectureNumber": 43,
    "prefecture": "熊本県",
    "city": "熊本市中央区",
    "town": "萩原町"
  },
  "8600833": {
    "zipcode": "8600833",
    "prefectureCode": "43",
    "prefectureNumber": 43,
    "prefecture": "熊本県",
    "city": "熊本市南区",
    "town": "平成"
  },
  "8600834": {
    "zipcode": "8600834",
    "prefectureCode": "43",
    "prefectureNumber": 43,
    "prefecture": "熊本県",
    "city": "熊本市南区",
    "town": "江越"
  },
  "8600841": {
    "zipcode": "8600841",
    "prefectureCode": "43",
    "prefectureNumber": 43,
    "prefecture": "熊本県",
    "city": "熊本市中央区",
    "town": "井川淵町"
  },
  "8600842": {
    "zipcode": "8600842",
    "prefectureCode": "43",
    "prefectureNumber": 43,
    "prefecture": "熊本県",
    "city": "熊本市中央区",
    "town": "南千反畑町"
  },
  "8600843": {
    "zipcode": "8600843",
    "prefectureCode": "43",
    "prefectureNumber": 43,
    "prefecture": "熊本県",
    "city": "熊本市中央区",
    "town": "草葉町"
  },
  "8600844": {
    "zipcode": "8600844",
    "prefectureCode": "43",
    "prefectureNumber": 43,
    "prefecture": "熊本県",
    "city": "熊本市中央区",
    "town": "水道町"
  },
  "8600845": {
    "zipcode": "8600845",
    "prefectureCode": "43",
    "prefectureNumber": 43,
    "prefecture": "熊本県",
    "city": "熊本市中央区",
    "town": "上通町"
  },
  "8600846": {
    "zipcode": "8600846",
    "prefectureCode": "43",
    "prefectureNumber": 43,
    "prefecture": "熊本県",
    "city": "熊本市中央区",
    "town": "城東町"
  },
  "8600847": {
    "zipcode": "8600847",
    "prefectureCode": "43",
    "prefectureNumber": 43,
    "prefecture": "熊本県",
    "city": "熊本市中央区",
    "town": "上林町"
  },
  "8600848": {
    "zipcode": "8600848",
    "prefectureCode": "43",
    "prefectureNumber": 43,
    "prefecture": "熊本県",
    "city": "熊本市中央区",
    "town": "南坪井町"
  },
  "8600851": {
    "zipcode": "8600851",
    "prefectureCode": "43",
    "prefectureNumber": 43,
    "prefecture": "熊本県",
    "city": "熊本市中央区",
    "town": "子飼本町"
  },
  "8600852": {
    "zipcode": "8600852",
    "prefectureCode": "43",
    "prefectureNumber": 43,
    "prefecture": "熊本県",
    "city": "熊本市中央区",
    "town": "薬園町"
  },
  "8600853": {
    "zipcode": "8600853",
    "prefectureCode": "43",
    "prefectureNumber": 43,
    "prefecture": "熊本県",
    "city": "熊本市中央区",
    "town": "西子飼町"
  },
  "8600854": {
    "zipcode": "8600854",
    "prefectureCode": "43",
    "prefectureNumber": 43,
    "prefecture": "熊本県",
    "city": "熊本市中央区",
    "town": "東子飼町"
  },
  "8600855": {
    "zipcode": "8600855",
    "prefectureCode": "43",
    "prefectureNumber": 43,
    "prefecture": "熊本県",
    "city": "熊本市中央区",
    "town": "北千反畑町"
  },
  "8600856": {
    "zipcode": "8600856",
    "prefectureCode": "43",
    "prefectureNumber": 43,
    "prefecture": "熊本県",
    "city": "熊本市中央区",
    "town": "妙体寺町"
  },
  "8600861": {
    "zipcode": "8600861",
    "prefectureCode": "43",
    "prefectureNumber": 43,
    "prefecture": "熊本県",
    "city": "熊本市北区",
    "town": "黒髪町坪井"
  },
  "8600862": {
    "zipcode": "8600862",
    "prefectureCode": "43",
    "prefectureNumber": 43,
    "prefecture": "熊本県",
    "city": "熊本市北区",
    "town": "黒髪"
  },
  "8600863": {
    "zipcode": "8600863",
    "prefectureCode": "43",
    "prefectureNumber": 43,
    "prefecture": "熊本県",
    "city": "熊本市中央区",
    "town": "坪井"
  }
}
