{
  "8620901": {
    "zipcode": "8620901",
    "prefectureCode": "43",
    "prefectureNumber": 43,
    "prefecture": "熊本県",
    "city": "熊本市東区",
    "town": "東町"
  },
  "8620902": {
    "zipcode": "8620902",
    "prefectureCode": "43",
    "prefectureNumber": 43,
    "prefecture": "熊本県",
    "city": "熊本市東区",
    "town": "東本町"
  },
  "8620903": {
    "zipcode": "8620903",
    "prefectureCode": "43",
    "prefectureNumber": 43,
    "prefecture": "熊本県",
    "city": "熊本市東区",
    "town": "若葉（１〜３丁目）"
  },
  "8620904": {
    "zipcode": "8620904",
    "prefectureCode": "43",
    "prefectureNumber": 43,
    "prefecture": "熊本県",
    "city": "熊本市東区",
    "town": "栄町"
  },
  "8620905": {
    "zipcode": "8620905",
    "prefectureCode": "43",
    "prefectureNumber": 43,
    "prefecture": "熊本県",
    "city": "熊本市東区",
    "town": "南町"
  },
  "8620906": {
    "zipcode": "8620906",
    "prefectureCode": "43",
    "prefectureNumber": 43,
    "prefecture": "熊本県",
    "city": "熊本市東区",
    "town": "広木町"
  },
  "8620907": {
    "zipcode": "8620907",
    "prefectureCode": "43",
    "prefectureNumber": 43,
    "prefecture": "熊本県",
    "city": "熊本市東区",
    "town": "水源"
  },
  "8620908": {
    "zipcode": "8620908",
    "prefectureCode": "43",
    "prefectureNumber": 43,
    "prefecture": "熊本県",
    "city": "熊本市東区",
    "town": "新生"
  },
  "8620909": {
    "zipcode": "8620909",
    "prefectureCode": "43",
    "prefectureNumber": 43,
    "prefecture": "熊本県",
    "city": "熊本市東区",
    "town": "湖東"
  },
  "8620910": {
    "zipcode": "8620910",
    "prefectureCode": "43",
    "prefectureNumber": 43,
    "prefecture": "熊本県",
    "city": "熊本市東区",
    "town": "健軍本町"
  },
  "8620911": {
    "zipcode": "8620911",
    "prefectureCode": "43",
    "prefectureNumber": 43,
    "prefecture": "熊本県",
    "city": "熊本市東区",
    "town": "健軍"
  },
  "8620912": {
    "zipcode": "8620912",
    "prefectureCode": "43",
    "prefectureNumber": 43,
    "prefecture": "熊本県",
    "city": "熊本市東区",
    "town": "錦ケ丘"
  },
  "8620913": {
    "zipcode": "8620913",
    "prefectureCode": "43",
    "prefectureNumber": 43,
    "prefecture": "熊本県",
    "city": "熊本市東区",
    "town": "尾ノ上"
  },
  "8620914": {
    "zipcode": "8620914",
    "prefectureCode": "43",
    "prefectureNumber": 43,
    "prefecture": "熊本県",
    "city": "熊本市東区",
    "town": "山ノ内"
  },
  "8620915": {
    "zipcode": "8620915",
    "prefectureCode": "43",
    "prefectureNumber": 43,
    "prefecture": "熊本県",
    "city": "熊本市東区",
    "town": "山ノ神"
  },
  "8620916": {
    "zipcode": "8620916",
    "prefectureCode": "43",
    "prefectureNumber": 43,
    "prefecture": "熊本県",
    "city": "熊本市東区",
    "town": "佐土原"
  },
  "8620917": {
    "zipcode": "8620917",
    "prefectureCode": "43",
    "prefectureNumber": 43,
    "prefecture": "熊本県",
    "city": "熊本市東区",
    "town": "榎町"
  },
  "8620918": {
    "zipcode": "8620918",
    "prefectureCode": "43",
    "prefectureNumber": 43,
    "prefecture": "熊本県",
    "city": "熊本市東区",
    "town": "花立（５、６丁目）"
  },
  "8620920": {
    "zipcode": "8620920",
    "prefectureCode": "43",
    "prefectureNumber": 43,
    "prefecture": "熊本県",
    "city": "熊本市東区",
    "town": "月出"
  },
  "8620921": {
    "zipcode": "8620921",
    "prefectureCode": "43",
    "prefectureNumber": 43,
    "prefecture": "熊本県",
    "city": "熊本市東区",
    "town": "新外"
  },
  "8620922": {
    "zipcode": "8620922",
    "prefectureCode": "43",
    "prefectureNumber": 43,
    "prefecture": "熊本県",
    "city": "熊本市東区",
    "town": "三郎"
  },
  "8620923": {
    "zipcode": "8620923",
    "prefectureCode": "43",
    "prefectureNumber": 43,
    "prefecture": "熊本県",
    "city": "熊本市東区",
    "town": "東京塚町"
  },
  "8620924": {
    "zipcode": "8620924",
    "prefectureCode": "43",
    "prefectureNumber": 43,
    "prefecture": "熊本県",
    "city": "熊本市東区",
    "town": "帯山"
  },
  "8620925": {
    "zipcode": "8620925",
    "prefectureCode": "43",
    "prefectureNumber": 43,
    "prefecture": "熊本県",
    "city": "熊本市東区",
    "town": "保田窪本町"
  },
  "8620926": {
    "zipcode": "8620926",
    "prefectureCode": "43",
    "prefectureNumber": 43,
    "prefecture": "熊本県",
    "city": "熊本市東区",
    "town": "保田窪"
  },
  "8620933": {
    "zipcode": "8620933",
    "prefectureCode": "43",
    "prefectureNumber": 43,
    "prefecture": "熊本県",
    "city": "熊本市東区",
    "town": "小峯"
  },
  "8620941": {
    "zipcode": "8620941",
    "prefectureCode": "43",
    "prefectureNumber": 43,
    "prefecture": "熊本県",
    "city": "熊本市東区",
    "town": "出水"
  },
  "8620942": {
    "zipcode": "8620942",
    "prefectureCode": "43",
    "prefectureNumber": 43,
    "prefecture": "熊本県",
    "city": "熊本市東区",
    "town": "江津"
  },
  "8620943": {
    "zipcode": "8620943",
    "prefectureCode": "43",
    "prefectureNumber": 43,
    "prefecture": "熊本県",
    "city": "熊本市東区",
    "town": "画図町下江津"
  },
  "8620944": {
    "zipcode": "8620944",
    "prefectureCode": "43",
    "prefectureNumber": 43,
    "prefecture": "熊本県",
    "city": "熊本市東区",
    "town": "画図町上無田"
  },
  "8620945": {
    "zipcode": "8620945",
    "prefectureCode": "43",
    "prefectureNumber": 43,
    "prefecture": "熊本県",
    "city": "熊本市東区",
    "town": "画図町下無田"
  },
  "8620946": {
    "zipcode": "8620946",
    "prefectureCode": "43",
    "prefectureNumber": 43,
    "prefecture": "熊本県",
    "city": "熊本市東区",
    "town": "画図町所島"
  },
  "8620947": {
    "zipcode": "8620947",
    "prefectureCode": "43",
    "prefectureNumber": 43,
    "prefecture": "熊本県",
    "city": "熊本市東区",
    "town": "画図町重富"
  },
  "8620948": {
    "zipcode": "8620948",
    "prefectureCode": "43",
    "prefectureNumber": 43,
    "prefecture": "熊本県",
    "city": "熊本市中央区",
    "town": "国府本町"
  },
  "8620949": {
    "zipcode": "8620949",
    "prefectureCode": "43",
    "prefectureNumber": 43,
    "prefecture": "熊本県",
    "city": "熊本市中央区",
    "town": "国府"
  },
  "8620950": {
    "zipcode": "8620950",
    "prefectureCode": "43",
    "prefectureNumber": 43,
    "prefecture": "熊本県",
    "city": "熊本市中央区",
    "town": "水前寺"
  },
  "8620951": {
    "zipcode": "8620951",
    "prefectureCode": "43",
    "prefectureNumber": 43,
    "prefecture": "熊本県",
    "city": "熊本市中央区",
    "town": "上水前寺"
  },
  "8620952": {
    "zipcode": "8620952",
    "prefectureCode": "43",
    "prefectureNumber": 43,
    "prefecture": "熊本県",
    "city": "熊本市東区",
    "town": "京塚本町"
  },
  "8620953": {
    "zipcode": "8620953",
    "prefectureCode": "43",
    "prefectureNumber": 43,
    "prefecture": "熊本県",
    "city": "熊本市中央区",
    "town": "上京塚町"
  },
  "8620954": {
    "zipcode": "8620954",
    "prefectureCode": "43",
    "prefectureNumber": 43,
    "prefecture": "熊本県",
    "city": "熊本市中央区",
    "town": "神水"
  },
  "8620955": {
    "zipcode": "8620955",
    "prefectureCode": "43",
    "prefectureNumber": 43,
    "prefecture": "熊本県",
    "city": "熊本市東区",
    "town": "神水本町"
  },
  "8620956": {
    "zipcode": "8620956",
    "prefectureCode": "43",
    "prefectureNumber": 43,
    "prefecture": "熊本県",
    "city": "熊本市中央区",
    "town": "水前寺公園"
  },
  "8620957": {
    "zipcode": "8620957",
    "prefectureCode": "43",
    "prefectureNumber": 43,
    "prefecture": "熊本県",
    "city": "熊本市中央区",
    "town": "菅原町"
  },
  "8620958": {
    "zipcode": "8620958",
    "prefectureCode": "43",
    "prefectureNumber": 43,
    "prefecture": "熊本県",
    "city": "熊本市中央区",
    "town": "岡田町"
  },
  "8620959": {
    "zipcode": "8620959",
    "prefectureCode": "43",
    "prefectureNumber": 43,
    "prefecture": "熊本県",
    "city": "熊本市中央区",
    "town": "白山"
  },
  "8620960": {
    "zipcode": "8620960",
    "prefectureCode": "43",
    "prefectureNumber": 43,
    "prefecture": "熊本県",
    "city": "熊本市東区",
    "town": "下江津"
  },
  "8620961": {
    "zipcode": "8620961",
    "prefectureCode": "43",
    "prefectureNumber": 43,
    "prefecture": "熊本県",
    "city": "熊本市東区",
    "town": "画図東"
  },
  "8620962": {
    "zipcode": "8620962",
    "prefectureCode": "43",
    "prefectureNumber": 43,
    "prefecture": "熊本県",
    "city": "熊本市南区",
    "town": "田迎"
  },
  "8620963": {
    "zipcode": "8620963",
    "prefectureCode": "43",
    "prefectureNumber": 43,
    "prefecture": "熊本県",
    "city": "熊本市南区",
    "town": "出仲間"
  },
  "8620965": {
    "zipcode": "8620965",
    "prefectureCode": "43",
    "prefectureNumber": 43,
    "prefecture": "熊本県",
    "city": "熊本市南区",
    "town": "田迎町田井島"
  },
  "8620966": {
    "zipcode": "8620966",
    "prefectureCode": "43",
    "prefectureNumber": 43,
    "prefecture": "熊本県",
    "city": "熊本市南区",
    "town": "田迎町良町"
  },
  "8620967": {
    "zipcode": "8620967",
    "prefectureCode": "43",
    "prefectureNumber": 43,
    "prefecture": "熊本県",
    "city": "熊本市南区",
    "town": "流通団地"
  },
  "8620968": {
    "zipcode": "8620968",
    "prefectureCode": "43",
    "prefectureNumber": 43,
    "prefecture": "熊本県",
    "city": "熊本市南区",
    "town": "馬渡"
  },
  "8620969": {
    "zipcode": "8620969",
    "prefectureCode": "43",
    "prefectureNumber": 43,
    "prefecture": "熊本県",
    "city": "熊本市南区",
    "town": "良町"
  },
  "8620970": {
    "zipcode": "8620970",
    "prefectureCode": "43",
    "prefectureNumber": 43,
    "prefecture": "熊本県",
    "city": "熊本市東区",
    "town": "渡鹿"
  },
  "8620971": {
    "zipcode": "8620971",
    "prefectureCode": "43",
    "prefectureNumber": 43,
    "prefecture": "熊本県",
    "city": "熊本市中央区",
    "town": "大江"
  },
  "8620972": {
    "zipcode": "8620972",
    "prefectureCode": "43",
    "prefectureNumber": 43,
    "prefecture": "熊本県",
    "city": "熊本市中央区",
    "town": "新大江"
  },
  "8620973": {
    "zipcode": "8620973",
    "prefectureCode": "43",
    "prefectureNumber": 43,
    "prefecture": "熊本県",
    "city": "熊本市中央区",
    "town": "大江本町"
  },
  "8620975": {
    "zipcode": "8620975",
    "prefectureCode": "43",
    "prefectureNumber": 43,
    "prefecture": "熊本県",
    "city": "熊本市中央区",
    "town": "新屋敷"
  },
  "8620976": {
    "zipcode": "8620976",
    "prefectureCode": "43",
    "prefectureNumber": 43,
    "prefecture": "熊本県",
    "city": "熊本市中央区",
    "town": "九品寺"
  }
}
