{
  "8640000": {
    "zipcode": "8640000",
    "prefectureCode": "43",
    "prefectureNumber": 43,
    "prefecture": "熊本県",
    "city": "荒尾市",
    "town": "以下に掲載がない場合"
  },
  "8640001": {
    "zipcode": "8640001",
    "prefectureCode": "43",
    "prefectureNumber": 43,
    "prefecture": "熊本県",
    "city": "荒尾市",
    "town": "原万田"
  },
  "8640002": {
    "zipcode": "8640002",
    "prefectureCode": "43",
    "prefectureNumber": 43,
    "prefecture": "熊本県",
    "city": "荒尾市",
    "town": "万田"
  },
  "8640003": {
    "zipcode": "8640003",
    "prefectureCode": "43",
    "prefectureNumber": 43,
    "prefecture": "熊本県",
    "city": "荒尾市",
    "town": "宮内出目"
  },
  "8640004": {
    "zipcode": "8640004",
    "prefectureCode": "43",
    "prefectureNumber": 43,
    "prefecture": "熊本県",
    "city": "荒尾市",
    "town": "宮内"
  },
  "8640005": {
    "zipcode": "8640005",
    "prefectureCode": "43",
    "prefectureNumber": 43,
    "prefecture": "熊本県",
    "city": "荒尾市",
    "town": "大平町"
  },
  "8640006": {
    "zipcode": "8640006",
    "prefectureCode": "43",
    "prefectureNumber": 43,
    "prefecture": "熊本県",
    "city": "荒尾市",
    "town": "住吉町"
  },
  "8640011": {
    "zipcode": "8640011",
    "prefectureCode": "43",
    "prefectureNumber": 43,
    "prefecture": "熊本県",
    "city": "荒尾市",
    "town": "下井手"
  },
  "8640012": {
    "zipcode": "8640012",
    "prefectureCode": "43",
    "prefectureNumber": 43,
    "prefecture": "熊本県",
    "city": "荒尾市",
    "town": "本井手"
  },
  "8640013": {
    "zipcode": "8640013",
    "prefectureCode": "43",
    "prefectureNumber": 43,
    "prefecture": "熊本県",
    "city": "荒尾市",
    "town": "上井手"
  },
  "8640014": {
    "zipcode": "8640014",
    "prefectureCode": "43",
    "prefectureNumber": 43,
    "prefecture": "熊本県",
    "city": "荒尾市",
    "town": "上平山"
  },
  "8640015": {
    "zipcode": "8640015",
    "prefectureCode": "43",
    "prefectureNumber": 43,
    "prefecture": "熊本県",
    "city": "荒尾市",
    "town": "平山"
  },
  "8640021": {
    "zipcode": "8640021",
    "prefectureCode": "43",
    "prefectureNumber": 43,
    "prefecture": "熊本県",
    "city": "荒尾市",
    "town": "一部"
  },
  "8640022": {
    "zipcode": "8640022",
    "prefectureCode": "43",
    "prefectureNumber": 43,
    "prefecture": "熊本県",
    "city": "荒尾市",
    "town": "桜山町"
  },
  "8640023": {
    "zipcode": "8640023",
    "prefectureCode": "43",
    "prefectureNumber": 43,
    "prefecture": "熊本県",
    "city": "荒尾市",
    "town": "水野"
  },
  "8640025": {
    "zipcode": "8640025",
    "prefectureCode": "43",
    "prefectureNumber": 43,
    "prefecture": "熊本県",
    "city": "荒尾市",
    "town": "高浜"
  },
  "8640026": {
    "zipcode": "8640026",
    "prefectureCode": "43",
    "prefectureNumber": 43,
    "prefecture": "熊本県",
    "city": "荒尾市",
    "town": "牛水"
  },
  "8640027": {
    "zipcode": "8640027",
    "prefectureCode": "43",
    "prefectureNumber": 43,
    "prefecture": "熊本県",
    "city": "荒尾市",
    "town": "蔵満"
  },
  "8640031": {
    "zipcode": "8640031",
    "prefectureCode": "43",
    "prefectureNumber": 43,
    "prefecture": "熊本県",
    "city": "荒尾市",
    "town": "川登（１７７３〜１９７９、１９８１〜２０１０、２０５０〜２１００番地）"
  },
  "8640032": {
    "zipcode": "8640032",
    "prefectureCode": "43",
    "prefectureNumber": 43,
    "prefecture": "熊本県",
    "city": "荒尾市",
    "town": "増永"
  },
  "8640033": {
    "zipcode": "8640033",
    "prefectureCode": "43",
    "prefectureNumber": 43,
    "prefecture": "熊本県",
    "city": "荒尾市",
    "town": "緑ケ丘"
  },
  "8640041": {
    "zipcode": "8640041",
    "prefectureCode": "43",
    "prefectureNumber": 43,
    "prefecture": "熊本県",
    "city": "荒尾市",
    "town": "荒尾"
  },
  "8640042": {
    "zipcode": "8640042",
    "prefectureCode": "43",
    "prefectureNumber": 43,
    "prefecture": "熊本県",
    "city": "荒尾市",
    "town": "東屋形"
  },
  "8640051": {
    "zipcode": "8640051",
    "prefectureCode": "43",
    "prefectureNumber": 43,
    "prefecture": "熊本県",
    "city": "荒尾市",
    "town": "大島町"
  },
  "8640052": {
    "zipcode": "8640052",
    "prefectureCode": "43",
    "prefectureNumber": 43,
    "prefecture": "熊本県",
    "city": "荒尾市",
    "town": "四ツ山町"
  },
  "8640053": {
    "zipcode": "8640053",
    "prefectureCode": "43",
    "prefectureNumber": 43,
    "prefecture": "熊本県",
    "city": "荒尾市",
    "town": "西原町"
  },
  "8640054": {
    "zipcode": "8640054",
    "prefectureCode": "43",
    "prefectureNumber": 43,
    "prefecture": "熊本県",
    "city": "荒尾市",
    "town": "大正町"
  },
  "8640055": {
    "zipcode": "8640055",
    "prefectureCode": "43",
    "prefectureNumber": 43,
    "prefecture": "熊本県",
    "city": "荒尾市",
    "town": "日の出町"
  },
  "8640056": {
    "zipcode": "8640056",
    "prefectureCode": "43",
    "prefectureNumber": 43,
    "prefecture": "熊本県",
    "city": "荒尾市",
    "town": "昭和町"
  },
  "8640057": {
    "zipcode": "8640057",
    "prefectureCode": "43",
    "prefectureNumber": 43,
    "prefecture": "熊本県",
    "city": "荒尾市",
    "town": "大島"
  },
  "8640058": {
    "zipcode": "8640058",
    "prefectureCode": "43",
    "prefectureNumber": 43,
    "prefecture": "熊本県",
    "city": "荒尾市",
    "town": "海陽町"
  },
  "8640131": {
    "zipcode": "8640131",
    "prefectureCode": "43",
    "prefectureNumber": 43,
    "prefecture": "熊本県",
    "city": "荒尾市",
    "town": "川登（その他）"
  },
  "8640161": {
    "zipcode": "8640161",
    "prefectureCode": "43",
    "prefectureNumber": 43,
    "prefecture": "熊本県",
    "city": "荒尾市",
    "town": "菰屋"
  },
  "8640162": {
    "zipcode": "8640162",
    "prefectureCode": "43",
    "prefectureNumber": 43,
    "prefecture": "熊本県",
    "city": "荒尾市",
    "town": "金山"
  },
  "8640163": {
    "zipcode": "8640163",
    "prefectureCode": "43",
    "prefectureNumber": 43,
    "prefecture": "熊本県",
    "city": "荒尾市",
    "town": "野原"
  },
  "8640164": {
    "zipcode": "8640164",
    "prefectureCode": "43",
    "prefectureNumber": 43,
    "prefecture": "熊本県",
    "city": "荒尾市",
    "town": "八幡台"
  },
  "8640165": {
    "zipcode": "8640165",
    "prefectureCode": "43",
    "prefectureNumber": 43,
    "prefecture": "熊本県",
    "city": "荒尾市",
    "town": "樺"
  },
  "8640166": {
    "zipcode": "8640166",
    "prefectureCode": "43",
    "prefectureNumber": 43,
    "prefecture": "熊本県",
    "city": "荒尾市",
    "town": "府本"
  }
}
