{
  "8670000": {
    "zipcode": "8670000",
    "prefectureCode": "43",
    "prefectureNumber": 43,
    "prefecture": "熊本県",
    "city": "水俣市",
    "town": "以下に掲載がない場合"
  },
  "8670001": {
    "zipcode": "8670001",
    "prefectureCode": "43",
    "prefectureNumber": 43,
    "prefecture": "熊本県",
    "city": "水俣市",
    "town": "小津奈木"
  },
  "8670002": {
    "zipcode": "8670002",
    "prefectureCode": "43",
    "prefectureNumber": 43,
    "prefecture": "熊本県",
    "city": "水俣市",
    "town": "初野"
  },
  "8670003": {
    "zipcode": "8670003",
    "prefectureCode": "43",
    "prefectureNumber": 43,
    "prefecture": "熊本県",
    "city": "水俣市",
    "town": "ひばりケ丘"
  },
  "8670004": {
    "zipcode": "8670004",
    "prefectureCode": "43",
    "prefectureNumber": 43,
    "prefecture": "熊本県",
    "city": "水俣市",
    "town": "わらび野"
  },
  "8670005": {
    "zipcode": "8670005",
    "prefectureCode": "43",
    "prefectureNumber": 43,
    "prefecture": "熊本県",
    "city": "水俣市",
    "town": "牧ノ内"
  },
  "8670006": {
    "zipcode": "8670006",
    "prefectureCode": "43",
    "prefectureNumber": 43,
    "prefecture": "熊本県",
    "city": "水俣市",
    "town": "白浜町"
  },
  "8670007": {
    "zipcode": "8670007",
    "prefectureCode": "43",
    "prefectureNumber": 43,
    "prefecture": "熊本県",
    "city": "水俣市",
    "town": "桜ケ丘"
  },
  "8670008": {
    "zipcode": "8670008",
    "prefectureCode": "43",
    "prefectureNumber": 43,
    "prefecture": "熊本県",
    "city": "水俣市",
    "town": "浜"
  },
  "8670009": {
    "zipcode": "8670009",
    "prefectureCode": "43",
    "prefectureNumber": 43,
    "prefecture": "熊本県",
    "city": "水俣市",
    "town": "大迫"
  },
  "8670011": {
    "zipcode": "8670011",
    "prefectureCode": "43",
    "prefectureNumber": 43,
    "prefecture": "熊本県",
    "city": "水俣市",
    "town": "陣内"
  },
  "8670012": {
    "zipcode": "8670012",
    "prefectureCode": "43",
    "prefectureNumber": 43,
    "prefecture": "熊本県",
    "city": "水俣市",
    "town": "古城"
  },
  "8670013": {
    "zipcode": "8670013",
    "prefectureCode": "43",
    "prefectureNumber": 43,
    "prefecture": "熊本県",
    "city": "水俣市",
    "town": "長野町"
  },
  "8670014": {
    "zipcode": "8670014",
    "prefectureCode": "43",
    "prefectureNumber": 43,
    "prefecture": "熊本県",
    "city": "水俣市",
    "town": "中鶴"
  },
  "8670015": {
    "zipcode": "8670015",
    "prefectureCode": "43",
    "prefectureNumber": 43,
    "prefecture": "熊本県",
    "city": "水俣市",
    "town": "深川"
  },
  "8670016": {
    "zipcode": "8670016",
    "prefectureCode": "43",
    "prefectureNumber": 43,
    "prefecture": "熊本県",
    "city": "水俣市",
    "town": "薄原（桜野、桜野上場、芦刈赤林）"
  },
  "8670021": {
    "zipcode": "8670021",
    "prefectureCode": "43",
    "prefectureNumber": 43,
    "prefecture": "熊本県",
    "city": "水俣市",
    "town": "平町"
  },
  "8670022": {
    "zipcode": "8670022",
    "prefectureCode": "43",
    "prefectureNumber": 43,
    "prefecture": "熊本県",
    "city": "水俣市",
    "town": "江南町"
  },
  "8670023": {
    "zipcode": "8670023",
    "prefectureCode": "43",
    "prefectureNumber": 43,
    "prefecture": "熊本県",
    "city": "水俣市",
    "town": "南福寺"
  },
  "8670024": {
    "zipcode": "8670024",
    "prefectureCode": "43",
    "prefectureNumber": 43,
    "prefecture": "熊本県",
    "city": "水俣市",
    "town": "長野"
  },
  "8670025": {
    "zipcode": "8670025",
    "prefectureCode": "43",
    "prefectureNumber": 43,
    "prefecture": "熊本県",
    "city": "水俣市",
    "town": "湯出"
  },
  "8670031": {
    "zipcode": "8670031",
    "prefectureCode": "43",
    "prefectureNumber": 43,
    "prefecture": "熊本県",
    "city": "水俣市",
    "town": "八ノ窪町"
  },
  "8670032": {
    "zipcode": "8670032",
    "prefectureCode": "43",
    "prefectureNumber": 43,
    "prefecture": "熊本県",
    "city": "水俣市",
    "town": "江添"
  },
  "8670033": {
    "zipcode": "8670033",
    "prefectureCode": "43",
    "prefectureNumber": 43,
    "prefecture": "熊本県",
    "city": "水俣市",
    "town": "長崎"
  },
  "8670034": {
    "zipcode": "8670034",
    "prefectureCode": "43",
    "prefectureNumber": 43,
    "prefecture": "熊本県",
    "city": "水俣市",
    "town": "袋"
  },
  "8670035": {
    "zipcode": "8670035",
    "prefectureCode": "43",
    "prefectureNumber": 43,
    "prefecture": "熊本県",
    "city": "水俣市",
    "town": "月浦"
  },
  "8670036": {
    "zipcode": "8670036",
    "prefectureCode": "43",
    "prefectureNumber": 43,
    "prefecture": "熊本県",
    "city": "水俣市",
    "town": "浦上町"
  },
  "8670041": {
    "zipcode": "8670041",
    "prefectureCode": "43",
    "prefectureNumber": 43,
    "prefecture": "熊本県",
    "city": "水俣市",
    "town": "天神町"
  },
  "8670042": {
    "zipcode": "8670042",
    "prefectureCode": "43",
    "prefectureNumber": 43,
    "prefecture": "熊本県",
    "city": "水俣市",
    "town": "大園町"
  },
  "8670043": {
    "zipcode": "8670043",
    "prefectureCode": "43",
    "prefectureNumber": 43,
    "prefecture": "熊本県",
    "city": "水俣市",
    "town": "大黒町"
  },
  "8670044": {
    "zipcode": "8670044",
    "prefectureCode": "43",
    "prefectureNumber": 43,
    "prefecture": "熊本県",
    "city": "水俣市",
    "town": "旭町"
  },
  "8670045": {
    "zipcode": "8670045",
    "prefectureCode": "43",
    "prefectureNumber": 43,
    "prefecture": "熊本県",
    "city": "水俣市",
    "town": "桜井町"
  },
  "8670046": {
    "zipcode": "8670046",
    "prefectureCode": "43",
    "prefectureNumber": 43,
    "prefecture": "熊本県",
    "city": "水俣市",
    "town": "山手町"
  },
  "8670047": {
    "zipcode": "8670047",
    "prefectureCode": "43",
    "prefectureNumber": 43,
    "prefecture": "熊本県",
    "city": "水俣市",
    "town": "緑ケ丘"
  },
  "8670048": {
    "zipcode": "8670048",
    "prefectureCode": "43",
    "prefectureNumber": 43,
    "prefecture": "熊本県",
    "city": "水俣市",
    "town": "多々良町"
  },
  "8670049": {
    "zipcode": "8670049",
    "prefectureCode": "43",
    "prefectureNumber": 43,
    "prefecture": "熊本県",
    "city": "水俣市",
    "town": "百間町"
  },
  "8670051": {
    "zipcode": "8670051",
    "prefectureCode": "43",
    "prefectureNumber": 43,
    "prefecture": "熊本県",
    "city": "水俣市",
    "town": "昭和町"
  },
  "8670052": {
    "zipcode": "8670052",
    "prefectureCode": "43",
    "prefectureNumber": 43,
    "prefecture": "熊本県",
    "city": "水俣市",
    "town": "港町"
  },
  "8670053": {
    "zipcode": "8670053",
    "prefectureCode": "43",
    "prefectureNumber": 43,
    "prefecture": "熊本県",
    "city": "水俣市",
    "town": "野口町"
  },
  "8670054": {
    "zipcode": "8670054",
    "prefectureCode": "43",
    "prefectureNumber": 43,
    "prefecture": "熊本県",
    "city": "水俣市",
    "town": "汐見町"
  },
  "8670055": {
    "zipcode": "8670055",
    "prefectureCode": "43",
    "prefectureNumber": 43,
    "prefecture": "熊本県",
    "city": "水俣市",
    "town": "明神町"
  },
  "8670056": {
    "zipcode": "8670056",
    "prefectureCode": "43",
    "prefectureNumber": 43,
    "prefecture": "熊本県",
    "city": "水俣市",
    "town": "梅戸町"
  },
  "8670057": {
    "zipcode": "8670057",
    "prefectureCode": "43",
    "prefectureNumber": 43,
    "prefecture": "熊本県",
    "city": "水俣市",
    "town": "祇園町"
  },
  "8670058": {
    "zipcode": "8670058",
    "prefectureCode": "43",
    "prefectureNumber": 43,
    "prefecture": "熊本県",
    "city": "水俣市",
    "town": "丸島町"
  },
  "8670059": {
    "zipcode": "8670059",
    "prefectureCode": "43",
    "prefectureNumber": 43,
    "prefecture": "熊本県",
    "city": "水俣市",
    "town": "栄町"
  },
  "8670061": {
    "zipcode": "8670061",
    "prefectureCode": "43",
    "prefectureNumber": 43,
    "prefecture": "熊本県",
    "city": "水俣市",
    "town": "八幡町"
  },
  "8670062": {
    "zipcode": "8670062",
    "prefectureCode": "43",
    "prefectureNumber": 43,
    "prefecture": "熊本県",
    "city": "水俣市",
    "town": "築地"
  },
  "8670063": {
    "zipcode": "8670063",
    "prefectureCode": "43",
    "prefectureNumber": 43,
    "prefecture": "熊本県",
    "city": "水俣市",
    "town": "洗切町"
  },
  "8670064": {
    "zipcode": "8670064",
    "prefectureCode": "43",
    "prefectureNumber": 43,
    "prefecture": "熊本県",
    "city": "水俣市",
    "town": "幸町"
  },
  "8670065": {
    "zipcode": "8670065",
    "prefectureCode": "43",
    "prefectureNumber": 43,
    "prefecture": "熊本県",
    "city": "水俣市",
    "town": "浜町"
  },
  "8670066": {
    "zipcode": "8670066",
    "prefectureCode": "43",
    "prefectureNumber": 43,
    "prefecture": "熊本県",
    "city": "水俣市",
    "town": "古賀町"
  },
  "8670067": {
    "zipcode": "8670067",
    "prefectureCode": "43",
    "prefectureNumber": 43,
    "prefecture": "熊本県",
    "city": "水俣市",
    "town": "塩浜町"
  },
  "8670068": {
    "zipcode": "8670068",
    "prefectureCode": "43",
    "prefectureNumber": 43,
    "prefecture": "熊本県",
    "city": "水俣市",
    "town": "浜松町"
  },
  "8670116": {
    "zipcode": "8670116",
    "prefectureCode": "43",
    "prefectureNumber": 43,
    "prefecture": "熊本県",
    "city": "水俣市",
    "town": "薄原（その他）"
  },
  "8670171": {
    "zipcode": "8670171",
    "prefectureCode": "43",
    "prefectureNumber": 43,
    "prefecture": "熊本県",
    "city": "水俣市",
    "town": "宝川内"
  },
  "8670172": {
    "zipcode": "8670172",
    "prefectureCode": "43",
    "prefectureNumber": 43,
    "prefecture": "熊本県",
    "city": "水俣市",
    "town": "市渡瀬"
  },
  "8670173": {
    "zipcode": "8670173",
    "prefectureCode": "43",
    "prefectureNumber": 43,
    "prefecture": "熊本県",
    "city": "水俣市",
    "town": "葛渡"
  },
  "8670174": {
    "zipcode": "8670174",
    "prefectureCode": "43",
    "prefectureNumber": 43,
    "prefecture": "熊本県",
    "city": "水俣市",
    "town": "石坂川"
  },
  "8670281": {
    "zipcode": "8670281",
    "prefectureCode": "43",
    "prefectureNumber": 43,
    "prefecture": "熊本県",
    "city": "水俣市",
    "town": "久木野"
  },
  "8670282": {
    "zipcode": "8670282",
    "prefectureCode": "43",
    "prefectureNumber": 43,
    "prefecture": "熊本県",
    "city": "水俣市",
    "town": "古里"
  },
  "8670283": {
    "zipcode": "8670283",
    "prefectureCode": "43",
    "prefectureNumber": 43,
    "prefecture": "熊本県",
    "city": "水俣市",
    "town": "大川"
  },
  "8670284": {
    "zipcode": "8670284",
    "prefectureCode": "43",
    "prefectureNumber": 43,
    "prefecture": "熊本県",
    "city": "水俣市",
    "town": "越小場"
  }
}
