{
  "8680000": {
    "zipcode": "8680000",
    "prefectureCode": "43",
    "prefectureNumber": 43,
    "prefecture": "熊本県",
    "city": "球磨郡山江村",
    "town": "以下に掲載がない場合"
  },
  "8680001": {
    "zipcode": "8680001",
    "prefectureCode": "43",
    "prefectureNumber": 43,
    "prefecture": "熊本県",
    "city": "人吉市",
    "town": "鍛冶屋町"
  },
  "8680002": {
    "zipcode": "8680002",
    "prefectureCode": "43",
    "prefectureNumber": 43,
    "prefecture": "熊本県",
    "city": "人吉市",
    "town": "大工町"
  },
  "8680003": {
    "zipcode": "8680003",
    "prefectureCode": "43",
    "prefectureNumber": 43,
    "prefecture": "熊本県",
    "city": "人吉市",
    "town": "紺屋町"
  },
  "8680004": {
    "zipcode": "8680004",
    "prefectureCode": "43",
    "prefectureNumber": 43,
    "prefecture": "熊本県",
    "city": "人吉市",
    "town": "九日町"
  },
  "8680005": {
    "zipcode": "8680005",
    "prefectureCode": "43",
    "prefectureNumber": 43,
    "prefecture": "熊本県",
    "city": "人吉市",
    "town": "上青井町"
  },
  "8680006": {
    "zipcode": "8680006",
    "prefectureCode": "43",
    "prefectureNumber": 43,
    "prefecture": "熊本県",
    "city": "人吉市",
    "town": "駒井田町"
  },
  "8680007": {
    "zipcode": "8680007",
    "prefectureCode": "43",
    "prefectureNumber": 43,
    "prefecture": "熊本県",
    "city": "人吉市",
    "town": "下青井町"
  },
  "8680008": {
    "zipcode": "8680008",
    "prefectureCode": "43",
    "prefectureNumber": 43,
    "prefecture": "熊本県",
    "city": "人吉市",
    "town": "中青井町"
  },
  "8680011": {
    "zipcode": "8680011",
    "prefectureCode": "43",
    "prefectureNumber": 43,
    "prefecture": "熊本県",
    "city": "人吉市",
    "town": "宝来町"
  },
  "8680012": {
    "zipcode": "8680012",
    "prefectureCode": "43",
    "prefectureNumber": 43,
    "prefecture": "熊本県",
    "city": "人吉市",
    "town": "相良町"
  },
  "8680013": {
    "zipcode": "8680013",
    "prefectureCode": "43",
    "prefectureNumber": 43,
    "prefecture": "熊本県",
    "city": "人吉市",
    "town": "上薩摩瀬町"
  },
  "8680014": {
    "zipcode": "8680014",
    "prefectureCode": "43",
    "prefectureNumber": 43,
    "prefecture": "熊本県",
    "city": "人吉市",
    "town": "下薩摩瀬町"
  },
  "8680015": {
    "zipcode": "8680015",
    "prefectureCode": "43",
    "prefectureNumber": 43,
    "prefecture": "熊本県",
    "city": "人吉市",
    "town": "下城本町"
  },
  "8680016": {
    "zipcode": "8680016",
    "prefectureCode": "43",
    "prefectureNumber": 43,
    "prefecture": "熊本県",
    "city": "人吉市",
    "town": "城本町"
  },
  "8680021": {
    "zipcode": "8680021",
    "prefectureCode": "43",
    "prefectureNumber": 43,
    "prefecture": "熊本県",
    "city": "人吉市",
    "town": "鬼木町"
  },
  "8680022": {
    "zipcode": "8680022",
    "prefectureCode": "43",
    "prefectureNumber": 43,
    "prefecture": "熊本県",
    "city": "人吉市",
    "town": "北願成寺町"
  },
  "8680023": {
    "zipcode": "8680023",
    "prefectureCode": "43",
    "prefectureNumber": 43,
    "prefecture": "熊本県",
    "city": "人吉市",
    "town": "北泉田町"
  },
  "8680024": {
    "zipcode": "8680024",
    "prefectureCode": "43",
    "prefectureNumber": 43,
    "prefecture": "熊本県",
    "city": "人吉市",
    "town": "鶴田町"
  },
  "8680025": {
    "zipcode": "8680025",
    "prefectureCode": "43",
    "prefectureNumber": 43,
    "prefecture": "熊本県",
    "city": "人吉市",
    "town": "瓦屋町"
  },
  "8680026": {
    "zipcode": "8680026",
    "prefectureCode": "43",
    "prefectureNumber": 43,
    "prefecture": "熊本県",
    "city": "人吉市",
    "town": "合ノ原町"
  },
  "8680027": {
    "zipcode": "8680027",
    "prefectureCode": "43",
    "prefectureNumber": 43,
    "prefecture": "熊本県",
    "city": "人吉市",
    "town": "井ノ口町"
  },
  "8680031": {
    "zipcode": "8680031",
    "prefectureCode": "43",
    "prefectureNumber": 43,
    "prefecture": "熊本県",
    "city": "人吉市",
    "town": "南願成寺町"
  },
  "8680032": {
    "zipcode": "8680032",
    "prefectureCode": "43",
    "prefectureNumber": 43,
    "prefecture": "熊本県",
    "city": "人吉市",
    "town": "上新町"
  },
  "8680033": {
    "zipcode": "8680033",
    "prefectureCode": "43",
    "prefectureNumber": 43,
    "prefecture": "熊本県",
    "city": "人吉市",
    "town": "下新町"
  },
  "8680034": {
    "zipcode": "8680034",
    "prefectureCode": "43",
    "prefectureNumber": 43,
    "prefecture": "熊本県",
    "city": "人吉市",
    "town": "七日町"
  },
  "8680035": {
    "zipcode": "8680035",
    "prefectureCode": "43",
    "prefectureNumber": 43,
    "prefecture": "熊本県",
    "city": "人吉市",
    "town": "五日町"
  },
  "8680036": {
    "zipcode": "8680036",
    "prefectureCode": "43",
    "prefectureNumber": 43,
    "prefecture": "熊本県",
    "city": "人吉市",
    "town": "二日町"
  },
  "8680037": {
    "zipcode": "8680037",
    "prefectureCode": "43",
    "prefectureNumber": 43,
    "prefecture": "熊本県",
    "city": "人吉市",
    "town": "南泉田町"
  },
  "8680041": {
    "zipcode": "8680041",
    "prefectureCode": "43",
    "prefectureNumber": 43,
    "prefecture": "熊本県",
    "city": "人吉市",
    "town": "七地町"
  },
  "8680042": {
    "zipcode": "8680042",
    "prefectureCode": "43",
    "prefectureNumber": 43,
    "prefecture": "熊本県",
    "city": "人吉市",
    "town": "蟹作町"
  },
  "8680043": {
    "zipcode": "8680043",
    "prefectureCode": "43",
    "prefectureNumber": 43,
    "prefecture": "熊本県",
    "city": "人吉市",
    "town": "東間上町"
  },
  "8680044": {
    "zipcode": "8680044",
    "prefectureCode": "43",
    "prefectureNumber": 43,
    "prefecture": "熊本県",
    "city": "人吉市",
    "town": "東間下町"
  },
  "8680045": {
    "zipcode": "8680045",
    "prefectureCode": "43",
    "prefectureNumber": 43,
    "prefecture": "熊本県",
    "city": "人吉市",
    "town": "浪床町"
  },
  "8680046": {
    "zipcode": "8680046",
    "prefectureCode": "43",
    "prefectureNumber": 43,
    "prefecture": "熊本県",
    "city": "人吉市",
    "town": "原城町"
  },
  "8680047": {
    "zipcode": "8680047",
    "prefectureCode": "43",
    "prefectureNumber": 43,
    "prefecture": "熊本県",
    "city": "人吉市",
    "town": "上原町"
  },
  "8680048": {
    "zipcode": "8680048",
    "prefectureCode": "43",
    "prefectureNumber": 43,
    "prefecture": "熊本県",
    "city": "人吉市",
    "town": "富ケ尾町"
  },
  "8680051": {
    "zipcode": "8680051",
    "prefectureCode": "43",
    "prefectureNumber": 43,
    "prefecture": "熊本県",
    "city": "人吉市",
    "town": "麓町"
  },
  "8680052": {
    "zipcode": "8680052",
    "prefectureCode": "43",
    "prefectureNumber": 43,
    "prefecture": "熊本県",
    "city": "人吉市",
    "town": "新町"
  },
  "8680053": {
    "zipcode": "8680053",
    "prefectureCode": "43",
    "prefectureNumber": 43,
    "prefecture": "熊本県",
    "city": "人吉市",
    "town": "老神町"
  },
  "8680054": {
    "zipcode": "8680054",
    "prefectureCode": "43",
    "prefectureNumber": 43,
    "prefecture": "熊本県",
    "city": "人吉市",
    "town": "田町"
  },
  "8680055": {
    "zipcode": "8680055",
    "prefectureCode": "43",
    "prefectureNumber": 43,
    "prefecture": "熊本県",
    "city": "人吉市",
    "town": "南町"
  },
  "8680056": {
    "zipcode": "8680056",
    "prefectureCode": "43",
    "prefectureNumber": 43,
    "prefecture": "熊本県",
    "city": "人吉市",
    "town": "寺町"
  },
  "8680057": {
    "zipcode": "8680057",
    "prefectureCode": "43",
    "prefectureNumber": 43,
    "prefecture": "熊本県",
    "city": "人吉市",
    "town": "土手町"
  },
  "8680058": {
    "zipcode": "8680058",
    "prefectureCode": "43",
    "prefectureNumber": 43,
    "prefecture": "熊本県",
    "city": "人吉市",
    "town": "灰久保町"
  },
  "8680061": {
    "zipcode": "8680061",
    "prefectureCode": "43",
    "prefectureNumber": 43,
    "prefecture": "熊本県",
    "city": "人吉市",
    "town": "蓑野町"
  },
  "8680062": {
    "zipcode": "8680062",
    "prefectureCode": "43",
    "prefectureNumber": 43,
    "prefecture": "熊本県",
    "city": "人吉市",
    "town": "古仏頂町"
  },
  "8680063": {
    "zipcode": "8680063",
    "prefectureCode": "43",
    "prefectureNumber": 43,
    "prefecture": "熊本県",
    "city": "人吉市",
    "town": "木地屋町"
  },
  "8680064": {
    "zipcode": "8680064",
    "prefectureCode": "43",
    "prefectureNumber": 43,
    "prefecture": "熊本県",
    "city": "人吉市",
    "town": "東大塚町"
  },
  "8680065": {
    "zipcode": "8680065",
    "prefectureCode": "43",
    "prefectureNumber": 43,
    "prefecture": "熊本県",
    "city": "人吉市",
    "town": "西大塚町"
  },
  "8680066": {
    "zipcode": "8680066",
    "prefectureCode": "43",
    "prefectureNumber": 43,
    "prefecture": "熊本県",
    "city": "人吉市",
    "town": "田野町"
  },
  "8680071": {
    "zipcode": "8680071",
    "prefectureCode": "43",
    "prefectureNumber": 43,
    "prefecture": "熊本県",
    "city": "人吉市",
    "town": "西間上町"
  },
  "8680072": {
    "zipcode": "8680072",
    "prefectureCode": "43",
    "prefectureNumber": 43,
    "prefecture": "熊本県",
    "city": "人吉市",
    "town": "西間下町"
  },
  "8680073": {
    "zipcode": "8680073",
    "prefectureCode": "43",
    "prefectureNumber": 43,
    "prefecture": "熊本県",
    "city": "人吉市",
    "town": "上永野町"
  },
  "8680074": {
    "zipcode": "8680074",
    "prefectureCode": "43",
    "prefectureNumber": 43,
    "prefecture": "熊本県",
    "city": "人吉市",
    "town": "下永野町"
  },
  "8680075": {
    "zipcode": "8680075",
    "prefectureCode": "43",
    "prefectureNumber": 43,
    "prefecture": "熊本県",
    "city": "人吉市",
    "town": "矢黒町"
  },
  "8680076": {
    "zipcode": "8680076",
    "prefectureCode": "43",
    "prefectureNumber": 43,
    "prefecture": "熊本県",
    "city": "人吉市",
    "town": "上戸越町"
  },
  "8680077": {
    "zipcode": "8680077",
    "prefectureCode": "43",
    "prefectureNumber": 43,
    "prefecture": "熊本県",
    "city": "人吉市",
    "town": "下戸越町"
  },
  "8680078": {
    "zipcode": "8680078",
    "prefectureCode": "43",
    "prefectureNumber": 43,
    "prefecture": "熊本県",
    "city": "人吉市",
    "town": "鹿目町"
  },
  "8680081": {
    "zipcode": "8680081",
    "prefectureCode": "43",
    "prefectureNumber": 43,
    "prefecture": "熊本県",
    "city": "人吉市",
    "town": "上林町"
  },
  "8680082": {
    "zipcode": "8680082",
    "prefectureCode": "43",
    "prefectureNumber": 43,
    "prefecture": "熊本県",
    "city": "人吉市",
    "town": "中林町"
  },
  "8680083": {
    "zipcode": "8680083",
    "prefectureCode": "43",
    "prefectureNumber": 43,
    "prefecture": "熊本県",
    "city": "人吉市",
    "town": "下林町"
  },
  "8680084": {
    "zipcode": "8680084",
    "prefectureCode": "43",
    "prefectureNumber": 43,
    "prefecture": "熊本県",
    "city": "人吉市",
    "town": "温泉町"
  },
  "8680085": {
    "zipcode": "8680085",
    "prefectureCode": "43",
    "prefectureNumber": 43,
    "prefecture": "熊本県",
    "city": "人吉市",
    "town": "中神町"
  },
  "8680086": {
    "zipcode": "8680086",
    "prefectureCode": "43",
    "prefectureNumber": 43,
    "prefecture": "熊本県",
    "city": "人吉市",
    "town": "下原田町"
  },
  "8680087": {
    "zipcode": "8680087",
    "prefectureCode": "43",
    "prefectureNumber": 43,
    "prefecture": "熊本県",
    "city": "人吉市",
    "town": "上原田町"
  },
  "8680091": {
    "zipcode": "8680091",
    "prefectureCode": "43",
    "prefectureNumber": 43,
    "prefecture": "熊本県",
    "city": "球磨郡山江村",
    "town": "万江"
  },
  "8680092": {
    "zipcode": "8680092",
    "prefectureCode": "43",
    "prefectureNumber": 43,
    "prefecture": "熊本県",
    "city": "球磨郡山江村",
    "town": "山田"
  },
  "8680093": {
    "zipcode": "8680093",
    "prefectureCode": "43",
    "prefectureNumber": 43,
    "prefecture": "熊本県",
    "city": "球磨郡相良村",
    "town": "川辺"
  },
  "8680094": {
    "zipcode": "8680094",
    "prefectureCode": "43",
    "prefectureNumber": 43,
    "prefecture": "熊本県",
    "city": "球磨郡相良村",
    "town": "深水"
  },
  "8680095": {
    "zipcode": "8680095",
    "prefectureCode": "43",
    "prefectureNumber": 43,
    "prefecture": "熊本県",
    "city": "球磨郡相良村",
    "town": "柳瀬"
  },
  "8680101": {
    "zipcode": "8680101",
    "prefectureCode": "43",
    "prefectureNumber": 43,
    "prefecture": "熊本県",
    "city": "球磨郡相良村",
    "town": "四浦"
  },
  "8680200": {
    "zipcode": "8680200",
    "prefectureCode": "43",
    "prefectureNumber": 43,
    "prefecture": "熊本県",
    "city": "球磨郡五木村",
    "town": "以下に掲載がない場合"
  },
  "8680201": {
    "zipcode": "8680201",
    "prefectureCode": "43",
    "prefectureNumber": 43,
    "prefecture": "熊本県",
    "city": "球磨郡五木村",
    "town": "甲"
  },
  "8680202": {
    "zipcode": "8680202",
    "prefectureCode": "43",
    "prefectureNumber": 43,
    "prefecture": "熊本県",
    "city": "球磨郡五木村",
    "town": "乙"
  },
  "8680203": {
    "zipcode": "8680203",
    "prefectureCode": "43",
    "prefectureNumber": 43,
    "prefecture": "熊本県",
    "city": "球磨郡五木村",
    "town": "丙"
  },
  "8680300": {
    "zipcode": "8680300",
    "prefectureCode": "43",
    "prefectureNumber": 43,
    "prefecture": "熊本県",
    "city": "球磨郡錦町",
    "town": "以下に掲載がない場合"
  },
  "8680301": {
    "zipcode": "8680301",
    "prefectureCode": "43",
    "prefectureNumber": 43,
    "prefecture": "熊本県",
    "city": "球磨郡錦町",
    "town": "木上"
  },
  "8680302": {
    "zipcode": "8680302",
    "prefectureCode": "43",
    "prefectureNumber": 43,
    "prefecture": "熊本県",
    "city": "球磨郡錦町",
    "town": "一武"
  },
  "8680303": {
    "zipcode": "8680303",
    "prefectureCode": "43",
    "prefectureNumber": 43,
    "prefecture": "熊本県",
    "city": "球磨郡錦町",
    "town": "西"
  },
  "8680400": {
    "zipcode": "8680400",
    "prefectureCode": "43",
    "prefectureNumber": 43,
    "prefecture": "熊本県",
    "city": "球磨郡あさぎり町",
    "town": "以下に掲載がない場合"
  },
  "8680408": {
    "zipcode": "8680408",
    "prefectureCode": "43",
    "prefectureNumber": 43,
    "prefecture": "熊本県",
    "city": "球磨郡あさぎり町",
    "town": "免田東"
  },
  "8680415": {
    "zipcode": "8680415",
    "prefectureCode": "43",
    "prefectureNumber": 43,
    "prefecture": "熊本県",
    "city": "球磨郡あさぎり町",
    "town": "免田西"
  },
  "8680421": {
    "zipcode": "8680421",
    "prefectureCode": "43",
    "prefectureNumber": 43,
    "prefecture": "熊本県",
    "city": "球磨郡あさぎり町",
    "town": "上東"
  },
  "8680422": {
    "zipcode": "8680422",
    "prefectureCode": "43",
    "prefectureNumber": 43,
    "prefecture": "熊本県",
    "city": "球磨郡あさぎり町",
    "town": "上北"
  },
  "8680423": {
    "zipcode": "8680423",
    "prefectureCode": "43",
    "prefectureNumber": 43,
    "prefecture": "熊本県",
    "city": "球磨郡あさぎり町",
    "town": "上南"
  },
  "8680424": {
    "zipcode": "8680424",
    "prefectureCode": "43",
    "prefectureNumber": 43,
    "prefecture": "熊本県",
    "city": "球磨郡あさぎり町",
    "town": "上西"
  },
  "8680425": {
    "zipcode": "8680425",
    "prefectureCode": "43",
    "prefectureNumber": 43,
    "prefecture": "熊本県",
    "city": "球磨郡あさぎり町",
    "town": "皆越"
  },
  "8680431": {
    "zipcode": "8680431",
    "prefectureCode": "43",
    "prefectureNumber": 43,
    "prefecture": "熊本県",
    "city": "球磨郡あさぎり町",
    "town": "岡原北"
  },
  "8680432": {
    "zipcode": "8680432",
    "prefectureCode": "43",
    "prefectureNumber": 43,
    "prefecture": "熊本県",
    "city": "球磨郡あさぎり町",
    "town": "岡原南"
  },
  "8680441": {
    "zipcode": "8680441",
    "prefectureCode": "43",
    "prefectureNumber": 43,
    "prefecture": "熊本県",
    "city": "球磨郡あさぎり町",
    "town": "深田北"
  },
  "8680442": {
    "zipcode": "8680442",
    "prefectureCode": "43",
    "prefectureNumber": 43,
    "prefecture": "熊本県",
    "city": "球磨郡あさぎり町",
    "town": "深田東"
  },
  "8680443": {
    "zipcode": "8680443",
    "prefectureCode": "43",
    "prefectureNumber": 43,
    "prefecture": "熊本県",
    "city": "球磨郡あさぎり町",
    "town": "深田南"
  },
  "8680444": {
    "zipcode": "8680444",
    "prefectureCode": "43",
    "prefectureNumber": 43,
    "prefecture": "熊本県",
    "city": "球磨郡あさぎり町",
    "town": "深田西"
  },
  "8680451": {
    "zipcode": "8680451",
    "prefectureCode": "43",
    "prefectureNumber": 43,
    "prefecture": "熊本県",
    "city": "球磨郡あさぎり町",
    "town": "須恵"
  },
  "8680500": {
    "zipcode": "8680500",
    "prefectureCode": "43",
    "prefectureNumber": 43,
    "prefecture": "熊本県",
    "city": "球磨郡多良木町",
    "town": "以下に掲載がない場合"
  },
  "8680501": {
    "zipcode": "8680501",
    "prefectureCode": "43",
    "prefectureNumber": 43,
    "prefecture": "熊本県",
    "city": "球磨郡多良木町",
    "town": "多良木"
  },
  "8680502": {
    "zipcode": "8680502",
    "prefectureCode": "43",
    "prefectureNumber": 43,
    "prefecture": "熊本県",
    "city": "球磨郡多良木町",
    "town": "黒肥地"
  },
  "8680503": {
    "zipcode": "8680503",
    "prefectureCode": "43",
    "prefectureNumber": 43,
    "prefecture": "熊本県",
    "city": "球磨郡多良木町",
    "town": "久米"
  },
  "8680504": {
    "zipcode": "8680504",
    "prefectureCode": "43",
    "prefectureNumber": 43,
    "prefecture": "熊本県",
    "city": "球磨郡多良木町",
    "town": "奥野"
  },
  "8680505": {
    "zipcode": "8680505",
    "prefectureCode": "43",
    "prefectureNumber": 43,
    "prefecture": "熊本県",
    "city": "球磨郡多良木町",
    "town": "槻木"
  },
  "8680600": {
    "zipcode": "8680600",
    "prefectureCode": "43",
    "prefectureNumber": 43,
    "prefecture": "熊本県",
    "city": "球磨郡湯前町",
    "town": "以下に掲載がない場合"
  },
  "8680601": {
    "zipcode": "8680601",
    "prefectureCode": "43",
    "prefectureNumber": 43,
    "prefecture": "熊本県",
    "city": "球磨郡湯前町",
    "town": "下城"
  },
  "8680602": {
    "zipcode": "8680602",
    "prefectureCode": "43",
    "prefectureNumber": 43,
    "prefecture": "熊本県",
    "city": "球磨郡湯前町",
    "town": "浜川"
  },
  "8680603": {
    "zipcode": "8680603",
    "prefectureCode": "43",
    "prefectureNumber": 43,
    "prefecture": "熊本県",
    "city": "球磨郡湯前町",
    "town": "古城"
  },
  "8680604": {
    "zipcode": "8680604",
    "prefectureCode": "43",
    "prefectureNumber": 43,
    "prefecture": "熊本県",
    "city": "球磨郡湯前町",
    "town": "浅ケ野"
  },
  "8680605": {
    "zipcode": "8680605",
    "prefectureCode": "43",
    "prefectureNumber": 43,
    "prefecture": "熊本県",
    "city": "球磨郡湯前町",
    "town": "下染田"
  },
  "8680606": {
    "zipcode": "8680606",
    "prefectureCode": "43",
    "prefectureNumber": 43,
    "prefecture": "熊本県",
    "city": "球磨郡湯前町",
    "town": "中里"
  },
  "8680607": {
    "zipcode": "8680607",
    "prefectureCode": "43",
    "prefectureNumber": 43,
    "prefecture": "熊本県",
    "city": "球磨郡湯前町",
    "town": "下里"
  },
  "8680611": {
    "zipcode": "8680611",
    "prefectureCode": "43",
    "prefectureNumber": 43,
    "prefecture": "熊本県",
    "city": "球磨郡湯前町",
    "town": "植木"
  },
  "8680612": {
    "zipcode": "8680612",
    "prefectureCode": "43",
    "prefectureNumber": 43,
    "prefecture": "熊本県",
    "city": "球磨郡湯前町",
    "town": "上村"
  },
  "8680613": {
    "zipcode": "8680613",
    "prefectureCode": "43",
    "prefectureNumber": 43,
    "prefecture": "熊本県",
    "city": "球磨郡湯前町",
    "town": "田上"
  },
  "8680614": {
    "zipcode": "8680614",
    "prefectureCode": "43",
    "prefectureNumber": 43,
    "prefecture": "熊本県",
    "city": "球磨郡湯前町",
    "town": "馬場"
  },
  "8680615": {
    "zipcode": "8680615",
    "prefectureCode": "43",
    "prefectureNumber": 43,
    "prefecture": "熊本県",
    "city": "球磨郡湯前町",
    "town": "瀬戸口"
  },
  "8680616": {
    "zipcode": "8680616",
    "prefectureCode": "43",
    "prefectureNumber": 43,
    "prefecture": "熊本県",
    "city": "球磨郡湯前町",
    "town": "下村"
  },
  "8680621": {
    "zipcode": "8680621",
    "prefectureCode": "43",
    "prefectureNumber": 43,
    "prefecture": "熊本県",
    "city": "球磨郡湯前町",
    "town": "上里"
  },
  "8680622": {
    "zipcode": "8680622",
    "prefectureCode": "43",
    "prefectureNumber": 43,
    "prefecture": "熊本県",
    "city": "球磨郡湯前町",
    "town": "上染田"
  },
  "8680623": {
    "zipcode": "8680623",
    "prefectureCode": "43",
    "prefectureNumber": 43,
    "prefecture": "熊本県",
    "city": "球磨郡湯前町",
    "town": "野中田"
  },
  "8680624": {
    "zipcode": "8680624",
    "prefectureCode": "43",
    "prefectureNumber": 43,
    "prefecture": "熊本県",
    "city": "球磨郡湯前町",
    "town": "中猪"
  },
  "8680625": {
    "zipcode": "8680625",
    "prefectureCode": "43",
    "prefectureNumber": 43,
    "prefecture": "熊本県",
    "city": "球磨郡湯前町",
    "town": "上猪"
  },
  "8680700": {
    "zipcode": "8680700",
    "prefectureCode": "43",
    "prefectureNumber": 43,
    "prefecture": "熊本県",
    "city": "球磨郡水上村",
    "town": "以下に掲載がない場合"
  },
  "8680701": {
    "zipcode": "8680701",
    "prefectureCode": "43",
    "prefectureNumber": 43,
    "prefecture": "熊本県",
    "city": "球磨郡水上村",
    "town": "岩野"
  },
  "8680702": {
    "zipcode": "8680702",
    "prefectureCode": "43",
    "prefectureNumber": 43,
    "prefecture": "熊本県",
    "city": "球磨郡水上村",
    "town": "江代"
  },
  "8680703": {
    "zipcode": "8680703",
    "prefectureCode": "43",
    "prefectureNumber": 43,
    "prefecture": "熊本県",
    "city": "球磨郡水上村",
    "town": "湯山"
  },
  "8680801": {
    "zipcode": "8680801",
    "prefectureCode": "43",
    "prefectureNumber": 43,
    "prefecture": "熊本県",
    "city": "人吉市",
    "town": "上田代町"
  },
  "8680802": {
    "zipcode": "8680802",
    "prefectureCode": "43",
    "prefectureNumber": 43,
    "prefecture": "熊本県",
    "city": "人吉市",
    "town": "下田代町"
  },
  "8680803": {
    "zipcode": "8680803",
    "prefectureCode": "43",
    "prefectureNumber": 43,
    "prefecture": "熊本県",
    "city": "人吉市",
    "town": "大畑町"
  },
  "8680811": {
    "zipcode": "8680811",
    "prefectureCode": "43",
    "prefectureNumber": 43,
    "prefecture": "熊本県",
    "city": "人吉市",
    "town": "大畑麓町"
  },
  "8680812": {
    "zipcode": "8680812",
    "prefectureCode": "43",
    "prefectureNumber": 43,
    "prefecture": "熊本県",
    "city": "人吉市",
    "town": "大野町"
  },
  "8680813": {
    "zipcode": "8680813",
    "prefectureCode": "43",
    "prefectureNumber": 43,
    "prefecture": "熊本県",
    "city": "人吉市",
    "town": "矢岳町"
  },
  "8680821": {
    "zipcode": "8680821",
    "prefectureCode": "43",
    "prefectureNumber": 43,
    "prefecture": "熊本県",
    "city": "人吉市",
    "town": "上漆田町"
  },
  "8680822": {
    "zipcode": "8680822",
    "prefectureCode": "43",
    "prefectureNumber": 43,
    "prefecture": "熊本県",
    "city": "人吉市",
    "town": "下漆田町"
  },
  "8680823": {
    "zipcode": "8680823",
    "prefectureCode": "43",
    "prefectureNumber": 43,
    "prefecture": "熊本県",
    "city": "人吉市",
    "town": "東漆田町"
  },
  "8680824": {
    "zipcode": "8680824",
    "prefectureCode": "43",
    "prefectureNumber": 43,
    "prefecture": "熊本県",
    "city": "人吉市",
    "town": "赤池水無町"
  },
  "8680825": {
    "zipcode": "8680825",
    "prefectureCode": "43",
    "prefectureNumber": 43,
    "prefecture": "熊本県",
    "city": "人吉市",
    "town": "赤池原町"
  }
}
