{
  "8690100": {
    "zipcode": "8690100",
    "prefectureCode": "43",
    "prefectureNumber": 43,
    "prefecture": "熊本県",
    "city": "玉名郡長洲町",
    "town": "以下に掲載がない場合"
  },
  "8690101": {
    "zipcode": "8690101",
    "prefectureCode": "43",
    "prefectureNumber": 43,
    "prefecture": "熊本県",
    "city": "玉名郡長洲町",
    "town": "宮野"
  },
  "8690102": {
    "zipcode": "8690102",
    "prefectureCode": "43",
    "prefectureNumber": 43,
    "prefecture": "熊本県",
    "city": "玉名郡長洲町",
    "town": "折崎"
  },
  "8690103": {
    "zipcode": "8690103",
    "prefectureCode": "43",
    "prefectureNumber": 43,
    "prefecture": "熊本県",
    "city": "玉名郡長洲町",
    "town": "腹赤"
  },
  "8690104": {
    "zipcode": "8690104",
    "prefectureCode": "43",
    "prefectureNumber": 43,
    "prefecture": "熊本県",
    "city": "玉名郡長洲町",
    "town": "上沖洲"
  },
  "8690105": {
    "zipcode": "8690105",
    "prefectureCode": "43",
    "prefectureNumber": 43,
    "prefecture": "熊本県",
    "city": "玉名郡長洲町",
    "town": "清源寺"
  },
  "8690106": {
    "zipcode": "8690106",
    "prefectureCode": "43",
    "prefectureNumber": 43,
    "prefecture": "熊本県",
    "city": "玉名郡長洲町",
    "town": "永塩"
  },
  "8690111": {
    "zipcode": "8690111",
    "prefectureCode": "43",
    "prefectureNumber": 43,
    "prefecture": "熊本県",
    "city": "玉名郡長洲町",
    "town": "名石浜"
  },
  "8690112": {
    "zipcode": "8690112",
    "prefectureCode": "43",
    "prefectureNumber": 43,
    "prefecture": "熊本県",
    "city": "玉名郡長洲町",
    "town": "姫ケ浦"
  },
  "8690113": {
    "zipcode": "8690113",
    "prefectureCode": "43",
    "prefectureNumber": 43,
    "prefecture": "熊本県",
    "city": "玉名郡長洲町",
    "town": "有明"
  },
  "8690121": {
    "zipcode": "8690121",
    "prefectureCode": "43",
    "prefectureNumber": 43,
    "prefecture": "熊本県",
    "city": "玉名郡長洲町",
    "town": "高浜"
  },
  "8690122": {
    "zipcode": "8690122",
    "prefectureCode": "43",
    "prefectureNumber": 43,
    "prefecture": "熊本県",
    "city": "玉名郡長洲町",
    "town": "梅田"
  },
  "8690123": {
    "zipcode": "8690123",
    "prefectureCode": "43",
    "prefectureNumber": 43,
    "prefecture": "熊本県",
    "city": "玉名郡長洲町",
    "town": "長洲"
  },
  "8690201": {
    "zipcode": "8690201",
    "prefectureCode": "43",
    "prefectureNumber": 43,
    "prefecture": "熊本県",
    "city": "玉名市",
    "town": "岱明町山下"
  },
  "8690202": {
    "zipcode": "8690202",
    "prefectureCode": "43",
    "prefectureNumber": 43,
    "prefecture": "熊本県",
    "city": "玉名市",
    "town": "岱明町高道"
  },
  "8690203": {
    "zipcode": "8690203",
    "prefectureCode": "43",
    "prefectureNumber": 43,
    "prefecture": "熊本県",
    "city": "玉名市",
    "town": "岱明町浜田"
  },
  "8690211": {
    "zipcode": "8690211",
    "prefectureCode": "43",
    "prefectureNumber": 43,
    "prefecture": "熊本県",
    "city": "玉名市",
    "town": "岱明町鍋"
  },
  "8690212": {
    "zipcode": "8690212",
    "prefectureCode": "43",
    "prefectureNumber": 43,
    "prefecture": "熊本県",
    "city": "玉名市",
    "town": "岱明町下沖洲"
  },
  "8690213": {
    "zipcode": "8690213",
    "prefectureCode": "43",
    "prefectureNumber": 43,
    "prefecture": "熊本県",
    "city": "玉名市",
    "town": "岱明町扇崎"
  },
  "8690221": {
    "zipcode": "8690221",
    "prefectureCode": "43",
    "prefectureNumber": 43,
    "prefecture": "熊本県",
    "city": "玉名市",
    "town": "岱明町下前原"
  },
  "8690222": {
    "zipcode": "8690222",
    "prefectureCode": "43",
    "prefectureNumber": 43,
    "prefecture": "熊本県",
    "city": "玉名市",
    "town": "岱明町野口"
  },
  "8690223": {
    "zipcode": "8690223",
    "prefectureCode": "43",
    "prefectureNumber": 43,
    "prefecture": "熊本県",
    "city": "玉名市",
    "town": "岱明町中土"
  },
  "8690224": {
    "zipcode": "8690224",
    "prefectureCode": "43",
    "prefectureNumber": 43,
    "prefecture": "熊本県",
    "city": "玉名市",
    "town": "岱明町大野下"
  },
  "8690231": {
    "zipcode": "8690231",
    "prefectureCode": "43",
    "prefectureNumber": 43,
    "prefecture": "熊本県",
    "city": "玉名市",
    "town": "岱明町庄山"
  },
  "8690232": {
    "zipcode": "8690232",
    "prefectureCode": "43",
    "prefectureNumber": 43,
    "prefecture": "熊本県",
    "city": "玉名市",
    "town": "岱明町上（その他）"
  },
  "8690233": {
    "zipcode": "8690233",
    "prefectureCode": "43",
    "prefectureNumber": 43,
    "prefecture": "熊本県",
    "city": "玉名市",
    "town": "岱明町古閑（その他）"
  },
  "8690234": {
    "zipcode": "8690234",
    "prefectureCode": "43",
    "prefectureNumber": 43,
    "prefecture": "熊本県",
    "city": "玉名市",
    "town": "岱明町三崎"
  },
  "8690235": {
    "zipcode": "8690235",
    "prefectureCode": "43",
    "prefectureNumber": 43,
    "prefecture": "熊本県",
    "city": "玉名市",
    "town": "岱明町上（雲雀丘）"
  },
  "8690236": {
    "zipcode": "8690236",
    "prefectureCode": "43",
    "prefectureNumber": 43,
    "prefecture": "熊本県",
    "city": "玉名市",
    "town": "岱明町西照寺（その他）"
  },
  "8690238": {
    "zipcode": "8690238",
    "prefectureCode": "43",
    "prefectureNumber": 43,
    "prefecture": "熊本県",
    "city": "玉名市",
    "town": "岱明町開田"
  },
  "8690300": {
    "zipcode": "8690300",
    "prefectureCode": "43",
    "prefectureNumber": 43,
    "prefecture": "熊本県",
    "city": "玉名郡玉東町",
    "town": "以下に掲載がない場合"
  },
  "8690301": {
    "zipcode": "8690301",
    "prefectureCode": "43",
    "prefectureNumber": 43,
    "prefecture": "熊本県",
    "city": "玉名郡玉東町",
    "town": "稲佐"
  },
  "8690302": {
    "zipcode": "8690302",
    "prefectureCode": "43",
    "prefectureNumber": 43,
    "prefecture": "熊本県",
    "city": "玉名郡玉東町",
    "town": "山口"
  },
  "8690303": {
    "zipcode": "8690303",
    "prefectureCode": "43",
    "prefectureNumber": 43,
    "prefecture": "熊本県",
    "city": "玉名郡玉東町",
    "town": "木葉"
  },
  "8690304": {
    "zipcode": "8690304",
    "prefectureCode": "43",
    "prefectureNumber": 43,
    "prefecture": "熊本県",
    "city": "玉名郡玉東町",
    "town": "浦田"
  },
  "8690305": {
    "zipcode": "8690305",
    "prefectureCode": "43",
    "prefectureNumber": 43,
    "prefecture": "熊本県",
    "city": "玉名郡玉東町",
    "town": "上木葉"
  },
  "8690311": {
    "zipcode": "8690311",
    "prefectureCode": "43",
    "prefectureNumber": 43,
    "prefecture": "熊本県",
    "city": "玉名郡玉東町",
    "town": "二俣"
  },
  "8690312": {
    "zipcode": "8690312",
    "prefectureCode": "43",
    "prefectureNumber": 43,
    "prefecture": "熊本県",
    "city": "玉名郡玉東町",
    "town": "白木"
  },
  "8690313": {
    "zipcode": "8690313",
    "prefectureCode": "43",
    "prefectureNumber": 43,
    "prefecture": "熊本県",
    "city": "玉名郡玉東町",
    "town": "上白木"
  },
  "8690321": {
    "zipcode": "8690321",
    "prefectureCode": "43",
    "prefectureNumber": 43,
    "prefecture": "熊本県",
    "city": "玉名郡玉東町",
    "town": "西安寺"
  },
  "8690322": {
    "zipcode": "8690322",
    "prefectureCode": "43",
    "prefectureNumber": 43,
    "prefecture": "熊本県",
    "city": "玉名郡玉東町",
    "town": "原倉"
  },
  "8690400": {
    "zipcode": "8690400",
    "prefectureCode": "43",
    "prefectureNumber": 43,
    "prefecture": "熊本県",
    "city": "宇土市",
    "town": "以下に掲載がない場合"
  },
  "8690401": {
    "zipcode": "8690401",
    "prefectureCode": "43",
    "prefectureNumber": 43,
    "prefecture": "熊本県",
    "city": "宇土市",
    "town": "住吉町"
  },
  "8690402": {
    "zipcode": "8690402",
    "prefectureCode": "43",
    "prefectureNumber": 43,
    "prefecture": "熊本県",
    "city": "宇土市",
    "town": "笹原町"
  },
  "8690403": {
    "zipcode": "8690403",
    "prefectureCode": "43",
    "prefectureNumber": 43,
    "prefecture": "熊本県",
    "city": "宇土市",
    "town": "新開町"
  },
  "8690404": {
    "zipcode": "8690404",
    "prefectureCode": "43",
    "prefectureNumber": 43,
    "prefecture": "熊本県",
    "city": "宇土市",
    "town": "走潟町"
  },
  "8690405": {
    "zipcode": "8690405",
    "prefectureCode": "43",
    "prefectureNumber": 43,
    "prefecture": "熊本県",
    "city": "宇土市",
    "town": "馬之瀬町"
  },
  "8690406": {
    "zipcode": "8690406",
    "prefectureCode": "43",
    "prefectureNumber": 43,
    "prefecture": "熊本県",
    "city": "宇土市",
    "town": "三拾町"
  },
  "8690407": {
    "zipcode": "8690407",
    "prefectureCode": "43",
    "prefectureNumber": 43,
    "prefecture": "熊本県",
    "city": "宇土市",
    "town": "松原町"
  },
  "8690408": {
    "zipcode": "8690408",
    "prefectureCode": "43",
    "prefectureNumber": 43,
    "prefecture": "熊本県",
    "city": "宇土市",
    "town": "築籠町"
  },
  "8690410": {
    "zipcode": "8690410",
    "prefectureCode": "43",
    "prefectureNumber": 43,
    "prefecture": "熊本県",
    "city": "宇土市",
    "town": "花園台町"
  },
  "8690411": {
    "zipcode": "8690411",
    "prefectureCode": "43",
    "prefectureNumber": 43,
    "prefecture": "熊本県",
    "city": "宇土市",
    "town": "水町"
  },
  "8690412": {
    "zipcode": "8690412",
    "prefectureCode": "43",
    "prefectureNumber": 43,
    "prefecture": "熊本県",
    "city": "宇土市",
    "town": "岩古曽町"
  },
  "8690413": {
    "zipcode": "8690413",
    "prefectureCode": "43",
    "prefectureNumber": 43,
    "prefecture": "熊本県",
    "city": "宇土市",
    "town": "花園町"
  },
  "8690414": {
    "zipcode": "8690414",
    "prefectureCode": "43",
    "prefectureNumber": 43,
    "prefecture": "熊本県",
    "city": "宇土市",
    "town": "立岡町"
  },
  "8690415": {
    "zipcode": "8690415",
    "prefectureCode": "43",
    "prefectureNumber": 43,
    "prefecture": "熊本県",
    "city": "宇土市",
    "town": "古保里町"
  },
  "8690416": {
    "zipcode": "8690416",
    "prefectureCode": "43",
    "prefectureNumber": 43,
    "prefecture": "熊本県",
    "city": "宇土市",
    "town": "松山町"
  },
  "8690417": {
    "zipcode": "8690417",
    "prefectureCode": "43",
    "prefectureNumber": 43,
    "prefecture": "熊本県",
    "city": "宇土市",
    "town": "境目町"
  },
  "8690418": {
    "zipcode": "8690418",
    "prefectureCode": "43",
    "prefectureNumber": 43,
    "prefecture": "熊本県",
    "city": "宇土市",
    "town": "善道寺町"
  },
  "8690419": {
    "zipcode": "8690419",
    "prefectureCode": "43",
    "prefectureNumber": 43,
    "prefecture": "熊本県",
    "city": "宇土市",
    "town": "新松原町"
  },
  "8690421": {
    "zipcode": "8690421",
    "prefectureCode": "43",
    "prefectureNumber": 43,
    "prefecture": "熊本県",
    "city": "宇土市",
    "town": "南段原町"
  },
  "8690422": {
    "zipcode": "8690422",
    "prefectureCode": "43",
    "prefectureNumber": 43,
    "prefecture": "熊本県",
    "city": "宇土市",
    "town": "入地町"
  },
  "8690423": {
    "zipcode": "8690423",
    "prefectureCode": "43",
    "prefectureNumber": 43,
    "prefecture": "熊本県",
    "city": "宇土市",
    "town": "伊無田町"
  },
  "8690424": {
    "zipcode": "8690424",
    "prefectureCode": "43",
    "prefectureNumber": 43,
    "prefecture": "熊本県",
    "city": "宇土市",
    "town": "神馬町"
  },
  "8690425": {
    "zipcode": "8690425",
    "prefectureCode": "43",
    "prefectureNumber": 43,
    "prefecture": "熊本県",
    "city": "宇土市",
    "town": "栗崎町"
  },
  "8690426": {
    "zipcode": "8690426",
    "prefectureCode": "43",
    "prefectureNumber": 43,
    "prefecture": "熊本県",
    "city": "宇土市",
    "town": "神合町"
  },
  "8690431": {
    "zipcode": "8690431",
    "prefectureCode": "43",
    "prefectureNumber": 43,
    "prefecture": "熊本県",
    "city": "宇土市",
    "town": "本町"
  },
  "8690432": {
    "zipcode": "8690432",
    "prefectureCode": "43",
    "prefectureNumber": 43,
    "prefecture": "熊本県",
    "city": "宇土市",
    "town": "旭町"
  },
  "8690433": {
    "zipcode": "8690433",
    "prefectureCode": "43",
    "prefectureNumber": 43,
    "prefecture": "熊本県",
    "city": "宇土市",
    "town": "新小路町"
  },
  "8690434": {
    "zipcode": "8690434",
    "prefectureCode": "43",
    "prefectureNumber": 43,
    "prefecture": "熊本県",
    "city": "宇土市",
    "town": "門内町"
  },
  "8690435": {
    "zipcode": "8690435",
    "prefectureCode": "43",
    "prefectureNumber": 43,
    "prefecture": "熊本県",
    "city": "宇土市",
    "town": "一里木町"
  },
  "8690436": {
    "zipcode": "8690436",
    "prefectureCode": "43",
    "prefectureNumber": 43,
    "prefecture": "熊本県",
    "city": "宇土市",
    "town": "定府町"
  },
  "8690441": {
    "zipcode": "8690441",
    "prefectureCode": "43",
    "prefectureNumber": 43,
    "prefecture": "熊本県",
    "city": "宇土市",
    "town": "石小路町"
  },
  "8690442": {
    "zipcode": "8690442",
    "prefectureCode": "43",
    "prefectureNumber": 43,
    "prefecture": "熊本県",
    "city": "宇土市",
    "town": "城之浦町"
  },
  "8690443": {
    "zipcode": "8690443",
    "prefectureCode": "43",
    "prefectureNumber": 43,
    "prefecture": "熊本県",
    "city": "宇土市",
    "town": "船場町"
  },
  "8690444": {
    "zipcode": "8690444",
    "prefectureCode": "43",
    "prefectureNumber": 43,
    "prefecture": "熊本県",
    "city": "宇土市",
    "town": "新町"
  },
  "8690445": {
    "zipcode": "8690445",
    "prefectureCode": "43",
    "prefectureNumber": 43,
    "prefecture": "熊本県",
    "city": "宇土市",
    "town": "浦田町"
  },
  "8690451": {
    "zipcode": "8690451",
    "prefectureCode": "43",
    "prefectureNumber": 43,
    "prefecture": "熊本県",
    "city": "宇土市",
    "town": "北段原町"
  },
  "8690452": {
    "zipcode": "8690452",
    "prefectureCode": "43",
    "prefectureNumber": 43,
    "prefecture": "熊本県",
    "city": "宇土市",
    "town": "高柳町"
  },
  "8690453": {
    "zipcode": "8690453",
    "prefectureCode": "43",
    "prefectureNumber": 43,
    "prefecture": "熊本県",
    "city": "宇土市",
    "town": "栄町"
  },
  "8690454": {
    "zipcode": "8690454",
    "prefectureCode": "43",
    "prefectureNumber": 43,
    "prefecture": "熊本県",
    "city": "宇土市",
    "town": "古城町"
  },
  "8690455": {
    "zipcode": "8690455",
    "prefectureCode": "43",
    "prefectureNumber": 43,
    "prefecture": "熊本県",
    "city": "宇土市",
    "town": "椿原町"
  },
  "8690456": {
    "zipcode": "8690456",
    "prefectureCode": "43",
    "prefectureNumber": 43,
    "prefecture": "熊本県",
    "city": "宇土市",
    "town": "石橋町"
  },
  "8690457": {
    "zipcode": "8690457",
    "prefectureCode": "43",
    "prefectureNumber": 43,
    "prefecture": "熊本県",
    "city": "宇土市",
    "town": "宮庄町"
  },
  "8690461": {
    "zipcode": "8690461",
    "prefectureCode": "43",
    "prefectureNumber": 43,
    "prefecture": "熊本県",
    "city": "宇土市",
    "town": "網津町"
  },
  "8690462": {
    "zipcode": "8690462",
    "prefectureCode": "43",
    "prefectureNumber": 43,
    "prefecture": "熊本県",
    "city": "宇土市",
    "town": "城塚町"
  },
  "8690463": {
    "zipcode": "8690463",
    "prefectureCode": "43",
    "prefectureNumber": 43,
    "prefecture": "熊本県",
    "city": "宇土市",
    "town": "野鶴町"
  },
  "8690464": {
    "zipcode": "8690464",
    "prefectureCode": "43",
    "prefectureNumber": 43,
    "prefecture": "熊本県",
    "city": "宇土市",
    "town": "恵塚町"
  },
  "8690465": {
    "zipcode": "8690465",
    "prefectureCode": "43",
    "prefectureNumber": 43,
    "prefecture": "熊本県",
    "city": "宇土市",
    "town": "網引町"
  },
  "8690500": {
    "zipcode": "8690500",
    "prefectureCode": "43",
    "prefectureNumber": 43,
    "prefecture": "熊本県",
    "city": "宇城市",
    "town": "以下に掲載がない場合"
  },
  "8690501": {
    "zipcode": "8690501",
    "prefectureCode": "43",
    "prefectureNumber": 43,
    "prefecture": "熊本県",
    "city": "宇城市",
    "town": "松橋町松山"
  },
  "8690502": {
    "zipcode": "8690502",
    "prefectureCode": "43",
    "prefectureNumber": 43,
    "prefecture": "熊本県",
    "city": "宇城市",
    "town": "松橋町松橋"
  },
  "8690503": {
    "zipcode": "8690503",
    "prefectureCode": "43",
    "prefectureNumber": 43,
    "prefecture": "熊本県",
    "city": "宇城市",
    "town": "松橋町きらら"
  },
  "8690511": {
    "zipcode": "8690511",
    "prefectureCode": "43",
    "prefectureNumber": 43,
    "prefecture": "熊本県",
    "city": "宇城市",
    "town": "松橋町曲野"
  },
  "8690512": {
    "zipcode": "8690512",
    "prefectureCode": "43",
    "prefectureNumber": 43,
    "prefecture": "熊本県",
    "city": "宇城市",
    "town": "松橋町古保山"
  },
  "8690513": {
    "zipcode": "8690513",
    "prefectureCode": "43",
    "prefectureNumber": 43,
    "prefecture": "熊本県",
    "city": "宇城市",
    "town": "松橋町萩尾"
  },
  "8690521": {
    "zipcode": "8690521",
    "prefectureCode": "43",
    "prefectureNumber": 43,
    "prefecture": "熊本県",
    "city": "宇城市",
    "town": "松橋町浦川内"
  },
  "8690522": {
    "zipcode": "8690522",
    "prefectureCode": "43",
    "prefectureNumber": 43,
    "prefecture": "熊本県",
    "city": "宇城市",
    "town": "松橋町内田"
  },
  "8690523": {
    "zipcode": "8690523",
    "prefectureCode": "43",
    "prefectureNumber": 43,
    "prefecture": "熊本県",
    "city": "宇城市",
    "town": "松橋町竹崎"
  },
  "8690524": {
    "zipcode": "8690524",
    "prefectureCode": "43",
    "prefectureNumber": 43,
    "prefecture": "熊本県",
    "city": "宇城市",
    "town": "松橋町豊福"
  },
  "8690531": {
    "zipcode": "8690531",
    "prefectureCode": "43",
    "prefectureNumber": 43,
    "prefecture": "熊本県",
    "city": "宇城市",
    "town": "松橋町大野"
  },
  "8690532": {
    "zipcode": "8690532",
    "prefectureCode": "43",
    "prefectureNumber": 43,
    "prefecture": "熊本県",
    "city": "宇城市",
    "town": "松橋町久具"
  },
  "8690533": {
    "zipcode": "8690533",
    "prefectureCode": "43",
    "prefectureNumber": 43,
    "prefecture": "熊本県",
    "city": "宇城市",
    "town": "松橋町両仲間"
  },
  "8690534": {
    "zipcode": "8690534",
    "prefectureCode": "43",
    "prefectureNumber": 43,
    "prefecture": "熊本県",
    "city": "宇城市",
    "town": "松橋町西下郷"
  },
  "8690541": {
    "zipcode": "8690541",
    "prefectureCode": "43",
    "prefectureNumber": 43,
    "prefecture": "熊本県",
    "city": "宇城市",
    "town": "松橋町東松崎"
  },
  "8690542": {
    "zipcode": "8690542",
    "prefectureCode": "43",
    "prefectureNumber": 43,
    "prefecture": "熊本県",
    "city": "宇城市",
    "town": "松橋町豊崎"
  },
  "8690543": {
    "zipcode": "8690543",
    "prefectureCode": "43",
    "prefectureNumber": 43,
    "prefecture": "熊本県",
    "city": "宇城市",
    "town": "松橋町南豊崎"
  },
  "8690544": {
    "zipcode": "8690544",
    "prefectureCode": "43",
    "prefectureNumber": 43,
    "prefecture": "熊本県",
    "city": "宇城市",
    "town": "松橋町浅川"
  },
  "8690545": {
    "zipcode": "8690545",
    "prefectureCode": "43",
    "prefectureNumber": 43,
    "prefecture": "熊本県",
    "city": "宇城市",
    "town": "松橋町砂川"
  },
  "8690546": {
    "zipcode": "8690546",
    "prefectureCode": "43",
    "prefectureNumber": 43,
    "prefecture": "熊本県",
    "city": "宇城市",
    "town": "松橋町御船"
  },
  "8690551": {
    "zipcode": "8690551",
    "prefectureCode": "43",
    "prefectureNumber": 43,
    "prefecture": "熊本県",
    "city": "宇城市",
    "town": "不知火町御領"
  },
  "8690552": {
    "zipcode": "8690552",
    "prefectureCode": "43",
    "prefectureNumber": 43,
    "prefecture": "熊本県",
    "city": "宇城市",
    "town": "不知火町高良"
  },
  "8690553": {
    "zipcode": "8690553",
    "prefectureCode": "43",
    "prefectureNumber": 43,
    "prefecture": "熊本県",
    "city": "宇城市",
    "town": "不知火町小曽部"
  },
  "8690554": {
    "zipcode": "8690554",
    "prefectureCode": "43",
    "prefectureNumber": 43,
    "prefecture": "熊本県",
    "city": "宇城市",
    "town": "不知火町柏原"
  },
  "8690561": {
    "zipcode": "8690561",
    "prefectureCode": "43",
    "prefectureNumber": 43,
    "prefecture": "熊本県",
    "city": "宇城市",
    "town": "不知火町亀松"
  },
  "8690562": {
    "zipcode": "8690562",
    "prefectureCode": "43",
    "prefectureNumber": 43,
    "prefecture": "熊本県",
    "city": "宇城市",
    "town": "不知火町長崎"
  },
  "8690563": {
    "zipcode": "8690563",
    "prefectureCode": "43",
    "prefectureNumber": 43,
    "prefecture": "熊本県",
    "city": "宇城市",
    "town": "不知火町浦上"
  },
  "8690601": {
    "zipcode": "8690601",
    "prefectureCode": "43",
    "prefectureNumber": 43,
    "prefecture": "熊本県",
    "city": "宇城市",
    "town": "小川町北小野"
  },
  "8690602": {
    "zipcode": "8690602",
    "prefectureCode": "43",
    "prefectureNumber": 43,
    "prefecture": "熊本県",
    "city": "宇城市",
    "town": "小川町中小野"
  },
  "8690603": {
    "zipcode": "8690603",
    "prefectureCode": "43",
    "prefectureNumber": 43,
    "prefecture": "熊本県",
    "city": "宇城市",
    "town": "小川町南小野"
  },
  "8690604": {
    "zipcode": "8690604",
    "prefectureCode": "43",
    "prefectureNumber": 43,
    "prefecture": "熊本県",
    "city": "宇城市",
    "town": "小川町北部田"
  },
  "8690605": {
    "zipcode": "8690605",
    "prefectureCode": "43",
    "prefectureNumber": 43,
    "prefecture": "熊本県",
    "city": "宇城市",
    "town": "小川町南部田"
  },
  "8690606": {
    "zipcode": "8690606",
    "prefectureCode": "43",
    "prefectureNumber": 43,
    "prefecture": "熊本県",
    "city": "宇城市",
    "town": "小川町河江"
  },
  "8690611": {
    "zipcode": "8690611",
    "prefectureCode": "43",
    "prefectureNumber": 43,
    "prefecture": "熊本県",
    "city": "宇城市",
    "town": "小川町東海東"
  },
  "8690612": {
    "zipcode": "8690612",
    "prefectureCode": "43",
    "prefectureNumber": 43,
    "prefecture": "熊本県",
    "city": "宇城市",
    "town": "小川町南海東"
  },
  "8690613": {
    "zipcode": "8690613",
    "prefectureCode": "43",
    "prefectureNumber": 43,
    "prefecture": "熊本県",
    "city": "宇城市",
    "town": "小川町東小川"
  },
  "8690614": {
    "zipcode": "8690614",
    "prefectureCode": "43",
    "prefectureNumber": 43,
    "prefecture": "熊本県",
    "city": "宇城市",
    "town": "小川町南小川"
  },
  "8690615": {
    "zipcode": "8690615",
    "prefectureCode": "43",
    "prefectureNumber": 43,
    "prefecture": "熊本県",
    "city": "宇城市",
    "town": "小川町西海東"
  },
  "8690616": {
    "zipcode": "8690616",
    "prefectureCode": "43",
    "prefectureNumber": 43,
    "prefecture": "熊本県",
    "city": "宇城市",
    "town": "小川町北海東"
  },
  "8690621": {
    "zipcode": "8690621",
    "prefectureCode": "43",
    "prefectureNumber": 43,
    "prefecture": "熊本県",
    "city": "宇城市",
    "town": "小川町小川"
  },
  "8690622": {
    "zipcode": "8690622",
    "prefectureCode": "43",
    "prefectureNumber": 43,
    "prefecture": "熊本県",
    "city": "宇城市",
    "town": "小川町西北小川"
  },
  "8690623": {
    "zipcode": "8690623",
    "prefectureCode": "43",
    "prefectureNumber": 43,
    "prefecture": "熊本県",
    "city": "宇城市",
    "town": "小川町川尻"
  },
  "8690624": {
    "zipcode": "8690624",
    "prefectureCode": "43",
    "prefectureNumber": 43,
    "prefecture": "熊本県",
    "city": "宇城市",
    "town": "小川町江頭"
  },
  "8690631": {
    "zipcode": "8690631",
    "prefectureCode": "43",
    "prefectureNumber": 43,
    "prefecture": "熊本県",
    "city": "宇城市",
    "town": "小川町北新田"
  },
  "8690632": {
    "zipcode": "8690632",
    "prefectureCode": "43",
    "prefectureNumber": 43,
    "prefecture": "熊本県",
    "city": "宇城市",
    "town": "小川町南新田"
  },
  "8690633": {
    "zipcode": "8690633",
    "prefectureCode": "43",
    "prefectureNumber": 43,
    "prefecture": "熊本県",
    "city": "宇城市",
    "town": "小川町新田"
  },
  "8690634": {
    "zipcode": "8690634",
    "prefectureCode": "43",
    "prefectureNumber": 43,
    "prefecture": "熊本県",
    "city": "宇城市",
    "town": "小川町住吉"
  },
  "8690635": {
    "zipcode": "8690635",
    "prefectureCode": "43",
    "prefectureNumber": 43,
    "prefecture": "熊本県",
    "city": "宇城市",
    "town": "小川町不知火"
  },
  "8690636": {
    "zipcode": "8690636",
    "prefectureCode": "43",
    "prefectureNumber": 43,
    "prefecture": "熊本県",
    "city": "宇城市",
    "town": "小川町新田出"
  },
  "8691100": {
    "zipcode": "8691100",
    "prefectureCode": "43",
    "prefectureNumber": 43,
    "prefecture": "熊本県",
    "city": "菊池郡菊陽町",
    "town": "以下に掲載がない場合"
  },
  "8691101": {
    "zipcode": "8691101",
    "prefectureCode": "43",
    "prefectureNumber": 43,
    "prefecture": "熊本県",
    "city": "菊池郡菊陽町",
    "town": "津久礼"
  },
  "8691102": {
    "zipcode": "8691102",
    "prefectureCode": "43",
    "prefectureNumber": 43,
    "prefecture": "熊本県",
    "city": "菊池郡菊陽町",
    "town": "原水"
  },
  "8691103": {
    "zipcode": "8691103",
    "prefectureCode": "43",
    "prefectureNumber": 43,
    "prefecture": "熊本県",
    "city": "菊池郡菊陽町",
    "town": "久保田"
  },
  "8691104": {
    "zipcode": "8691104",
    "prefectureCode": "43",
    "prefectureNumber": 43,
    "prefecture": "熊本県",
    "city": "菊池郡菊陽町",
    "town": "戸次"
  },
  "8691105": {
    "zipcode": "8691105",
    "prefectureCode": "43",
    "prefectureNumber": 43,
    "prefecture": "熊本県",
    "city": "菊池郡菊陽町",
    "town": "馬場楠"
  },
  "8691106": {
    "zipcode": "8691106",
    "prefectureCode": "43",
    "prefectureNumber": 43,
    "prefecture": "熊本県",
    "city": "菊池郡菊陽町",
    "town": "曲手"
  },
  "8691107": {
    "zipcode": "8691107",
    "prefectureCode": "43",
    "prefectureNumber": 43,
    "prefecture": "熊本県",
    "city": "菊池郡菊陽町",
    "town": "辛川"
  },
  "8691108": {
    "zipcode": "8691108",
    "prefectureCode": "43",
    "prefectureNumber": 43,
    "prefecture": "熊本県",
    "city": "菊池郡菊陽町",
    "town": "光の森"
  },
  "8691109": {
    "zipcode": "8691109",
    "prefectureCode": "43",
    "prefectureNumber": 43,
    "prefecture": "熊本県",
    "city": "菊池郡菊陽町",
    "town": "新山"
  },
  "8691110": {
    "zipcode": "8691110",
    "prefectureCode": "43",
    "prefectureNumber": 43,
    "prefecture": "熊本県",
    "city": "菊池郡菊陽町",
    "town": "杉並台"
  },
  "8691111": {
    "zipcode": "8691111",
    "prefectureCode": "43",
    "prefectureNumber": 43,
    "prefecture": "熊本県",
    "city": "菊池郡菊陽町",
    "town": "武蔵ヶ丘"
  },
  "8691112": {
    "zipcode": "8691112",
    "prefectureCode": "43",
    "prefectureNumber": 43,
    "prefecture": "熊本県",
    "city": "菊池郡菊陽町",
    "town": "武蔵ヶ丘北"
  },
  "8691113": {
    "zipcode": "8691113",
    "prefectureCode": "43",
    "prefectureNumber": 43,
    "prefecture": "熊本県",
    "city": "菊池郡菊陽町",
    "town": "花立"
  },
  "8691114": {
    "zipcode": "8691114",
    "prefectureCode": "43",
    "prefectureNumber": 43,
    "prefecture": "熊本県",
    "city": "菊池郡菊陽町",
    "town": "向陽台"
  },
  "8691115": {
    "zipcode": "8691115",
    "prefectureCode": "43",
    "prefectureNumber": 43,
    "prefecture": "熊本県",
    "city": "菊池郡菊陽町",
    "town": "沖野"
  },
  "8691200": {
    "zipcode": "8691200",
    "prefectureCode": "43",
    "prefectureNumber": 43,
    "prefecture": "熊本県",
    "city": "菊池郡大津町",
    "town": "以下に掲載がない場合"
  },
  "8691201": {
    "zipcode": "8691201",
    "prefectureCode": "43",
    "prefectureNumber": 43,
    "prefecture": "熊本県",
    "city": "菊池市",
    "town": "旭志弁利"
  },
  "8691202": {
    "zipcode": "8691202",
    "prefectureCode": "43",
    "prefectureNumber": 43,
    "prefecture": "熊本県",
    "city": "菊池市",
    "town": "旭志麓"
  },
  "8691203": {
    "zipcode": "8691203",
    "prefectureCode": "43",
    "prefectureNumber": 43,
    "prefecture": "熊本県",
    "city": "菊池市",
    "town": "旭志尾足"
  },
  "8691204": {
    "zipcode": "8691204",
    "prefectureCode": "43",
    "prefectureNumber": 43,
    "prefecture": "熊本県",
    "city": "菊池市",
    "town": "旭志小原"
  },
  "8691205": {
    "zipcode": "8691205",
    "prefectureCode": "43",
    "prefectureNumber": 43,
    "prefecture": "熊本県",
    "city": "菊池市",
    "town": "旭志川辺"
  },
  "8691206": {
    "zipcode": "8691206",
    "prefectureCode": "43",
    "prefectureNumber": 43,
    "prefecture": "熊本県",
    "city": "菊池市",
    "town": "旭志伊坂"
  },
  "8691207": {
    "zipcode": "8691207",
    "prefectureCode": "43",
    "prefectureNumber": 43,
    "prefecture": "熊本県",
    "city": "菊池市",
    "town": "旭志新明"
  },
  "8691208": {
    "zipcode": "8691208",
    "prefectureCode": "43",
    "prefectureNumber": 43,
    "prefecture": "熊本県",
    "city": "菊池市",
    "town": "旭志伊萩"
  },
  "8691211": {
    "zipcode": "8691211",
    "prefectureCode": "43",
    "prefectureNumber": 43,
    "prefecture": "熊本県",
    "city": "菊池郡大津町",
    "town": "矢護川"
  },
  "8691212": {
    "zipcode": "8691212",
    "prefectureCode": "43",
    "prefectureNumber": 43,
    "prefecture": "熊本県",
    "city": "菊池郡大津町",
    "town": "真木"
  },
  "8691213": {
    "zipcode": "8691213",
    "prefectureCode": "43",
    "prefectureNumber": 43,
    "prefecture": "熊本県",
    "city": "菊池郡大津町",
    "town": "古城"
  },
  "8691214": {
    "zipcode": "8691214",
    "prefectureCode": "43",
    "prefectureNumber": 43,
    "prefecture": "熊本県",
    "city": "菊池郡大津町",
    "town": "瀬田"
  },
  "8691215": {
    "zipcode": "8691215",
    "prefectureCode": "43",
    "prefectureNumber": 43,
    "prefecture": "熊本県",
    "city": "菊池郡大津町",
    "town": "外牧"
  },
  "8691216": {
    "zipcode": "8691216",
    "prefectureCode": "43",
    "prefectureNumber": 43,
    "prefecture": "熊本県",
    "city": "菊池郡大津町",
    "town": "錦野"
  },
  "8691217": {
    "zipcode": "8691217",
    "prefectureCode": "43",
    "prefectureNumber": 43,
    "prefecture": "熊本県",
    "city": "菊池郡大津町",
    "town": "森"
  },
  "8691218": {
    "zipcode": "8691218",
    "prefectureCode": "43",
    "prefectureNumber": 43,
    "prefecture": "熊本県",
    "city": "菊池郡大津町",
    "town": "吹田"
  },
  "8691219": {
    "zipcode": "8691219",
    "prefectureCode": "43",
    "prefectureNumber": 43,
    "prefecture": "熊本県",
    "city": "菊池郡大津町",
    "town": "大林"
  },
  "8691221": {
    "zipcode": "8691221",
    "prefectureCode": "43",
    "prefectureNumber": 43,
    "prefecture": "熊本県",
    "city": "菊池郡大津町",
    "town": "陣内"
  },
  "8691222": {
    "zipcode": "8691222",
    "prefectureCode": "43",
    "prefectureNumber": 43,
    "prefecture": "熊本県",
    "city": "菊池郡大津町",
    "town": "岩坂"
  },
  "8691223": {
    "zipcode": "8691223",
    "prefectureCode": "43",
    "prefectureNumber": 43,
    "prefecture": "熊本県",
    "city": "菊池郡大津町",
    "town": "中島"
  },
  "8691224": {
    "zipcode": "8691224",
    "prefectureCode": "43",
    "prefectureNumber": 43,
    "prefecture": "熊本県",
    "city": "菊池郡大津町",
    "town": "町"
  },
  "8691225": {
    "zipcode": "8691225",
    "prefectureCode": "43",
    "prefectureNumber": 43,
    "prefecture": "熊本県",
    "city": "菊池郡大津町",
    "town": "下町"
  },
  "8691226": {
    "zipcode": "8691226",
    "prefectureCode": "43",
    "prefectureNumber": 43,
    "prefecture": "熊本県",
    "city": "菊池郡大津町",
    "town": "灰塚"
  },
  "8691227": {
    "zipcode": "8691227",
    "prefectureCode": "43",
    "prefectureNumber": 43,
    "prefecture": "熊本県",
    "city": "菊池郡大津町",
    "town": "新"
  },
  "8691231": {
    "zipcode": "8691231",
    "prefectureCode": "43",
    "prefectureNumber": 43,
    "prefecture": "熊本県",
    "city": "菊池郡大津町",
    "town": "平川"
  },
  "8691232": {
    "zipcode": "8691232",
    "prefectureCode": "43",
    "prefectureNumber": 43,
    "prefecture": "熊本県",
    "city": "菊池郡大津町",
    "town": "高尾野"
  },
  "8691233": {
    "zipcode": "8691233",
    "prefectureCode": "43",
    "prefectureNumber": 43,
    "prefecture": "熊本県",
    "city": "菊池郡大津町",
    "town": "大津"
  },
  "8691234": {
    "zipcode": "8691234",
    "prefectureCode": "43",
    "prefectureNumber": 43,
    "prefecture": "熊本県",
    "city": "菊池郡大津町",
    "town": "引水"
  },
  "8691235": {
    "zipcode": "8691235",
    "prefectureCode": "43",
    "prefectureNumber": 43,
    "prefecture": "熊本県",
    "city": "菊池郡大津町",
    "town": "室"
  },
  "8691236": {
    "zipcode": "8691236",
    "prefectureCode": "43",
    "prefectureNumber": 43,
    "prefecture": "熊本県",
    "city": "菊池郡大津町",
    "town": "杉水"
  },
  "8691237": {
    "zipcode": "8691237",
    "prefectureCode": "43",
    "prefectureNumber": 43,
    "prefecture": "熊本県",
    "city": "菊池郡大津町",
    "town": "美咲野"
  },
  "8691400": {
    "zipcode": "8691400",
    "prefectureCode": "43",
    "prefectureNumber": 43,
    "prefecture": "熊本県",
    "city": "阿蘇郡南阿蘇村",
    "town": "以下に掲載がない場合"
  },
  "8691401": {
    "zipcode": "8691401",
    "prefectureCode": "43",
    "prefectureNumber": 43,
    "prefecture": "熊本県",
    "city": "阿蘇郡南阿蘇村",
    "town": "立野"
  },
  "8691402": {
    "zipcode": "8691402",
    "prefectureCode": "43",
    "prefectureNumber": 43,
    "prefecture": "熊本県",
    "city": "阿蘇郡南阿蘇村",
    "town": "下野"
  },
  "8691403": {
    "zipcode": "8691403",
    "prefectureCode": "43",
    "prefectureNumber": 43,
    "prefecture": "熊本県",
    "city": "阿蘇郡南阿蘇村",
    "town": "長野"
  },
  "8691404": {
    "zipcode": "8691404",
    "prefectureCode": "43",
    "prefectureNumber": 43,
    "prefecture": "熊本県",
    "city": "阿蘇郡南阿蘇村",
    "town": "河陽"
  },
  "8691411": {
    "zipcode": "8691411",
    "prefectureCode": "43",
    "prefectureNumber": 43,
    "prefecture": "熊本県",
    "city": "阿蘇郡南阿蘇村",
    "town": "河陰"
  },
  "8691412": {
    "zipcode": "8691412",
    "prefectureCode": "43",
    "prefectureNumber": 43,
    "prefecture": "熊本県",
    "city": "阿蘇郡南阿蘇村",
    "town": "久石"
  },
  "8691501": {
    "zipcode": "8691501",
    "prefectureCode": "43",
    "prefectureNumber": 43,
    "prefecture": "熊本県",
    "city": "阿蘇郡南阿蘇村",
    "town": "両併"
  },
  "8691502": {
    "zipcode": "8691502",
    "prefectureCode": "43",
    "prefectureNumber": 43,
    "prefecture": "熊本県",
    "city": "阿蘇郡南阿蘇村",
    "town": "白川"
  },
  "8691503": {
    "zipcode": "8691503",
    "prefectureCode": "43",
    "prefectureNumber": 43,
    "prefecture": "熊本県",
    "city": "阿蘇郡南阿蘇村",
    "town": "吉田"
  },
  "8691504": {
    "zipcode": "8691504",
    "prefectureCode": "43",
    "prefectureNumber": 43,
    "prefecture": "熊本県",
    "city": "阿蘇郡南阿蘇村",
    "town": "一関"
  },
  "8691505": {
    "zipcode": "8691505",
    "prefectureCode": "43",
    "prefectureNumber": 43,
    "prefecture": "熊本県",
    "city": "阿蘇郡南阿蘇村",
    "town": "中松（その他）"
  },
  "8691600": {
    "zipcode": "8691600",
    "prefectureCode": "43",
    "prefectureNumber": 43,
    "prefecture": "熊本県",
    "city": "阿蘇郡高森町",
    "town": "以下に掲載がない場合"
  },
  "8691601": {
    "zipcode": "8691601",
    "prefectureCode": "43",
    "prefectureNumber": 43,
    "prefecture": "熊本県",
    "city": "阿蘇郡高森町",
    "town": "上色見"
  },
  "8691602": {
    "zipcode": "8691602",
    "prefectureCode": "43",
    "prefectureNumber": 43,
    "prefecture": "熊本県",
    "city": "阿蘇郡高森町",
    "town": "高森"
  },
  "8691603": {
    "zipcode": "8691603",
    "prefectureCode": "43",
    "prefectureNumber": 43,
    "prefecture": "熊本県",
    "city": "阿蘇郡高森町",
    "town": "色見"
  },
  "8691811": {
    "zipcode": "8691811",
    "prefectureCode": "43",
    "prefectureNumber": 43,
    "prefecture": "熊本県",
    "city": "阿蘇郡高森町",
    "town": "草部"
  },
  "8691812": {
    "zipcode": "8691812",
    "prefectureCode": "43",
    "prefectureNumber": 43,
    "prefecture": "熊本県",
    "city": "阿蘇郡高森町",
    "town": "芹口"
  },
  "8691813": {
    "zipcode": "8691813",
    "prefectureCode": "43",
    "prefectureNumber": 43,
    "prefecture": "熊本県",
    "city": "阿蘇郡高森町",
    "town": "菅山"
  },
  "8691814": {
    "zipcode": "8691814",
    "prefectureCode": "43",
    "prefectureNumber": 43,
    "prefecture": "熊本県",
    "city": "阿蘇郡高森町",
    "town": "永野原"
  },
  "8691815": {
    "zipcode": "8691815",
    "prefectureCode": "43",
    "prefectureNumber": 43,
    "prefecture": "熊本県",
    "city": "阿蘇郡高森町",
    "town": "下切"
  },
  "8691821": {
    "zipcode": "8691821",
    "prefectureCode": "43",
    "prefectureNumber": 43,
    "prefecture": "熊本県",
    "city": "阿蘇郡高森町",
    "town": "中"
  },
  "8691822": {
    "zipcode": "8691822",
    "prefectureCode": "43",
    "prefectureNumber": 43,
    "prefecture": "熊本県",
    "city": "阿蘇郡高森町",
    "town": "矢津田"
  },
  "8691823": {
    "zipcode": "8691823",
    "prefectureCode": "43",
    "prefectureNumber": 43,
    "prefecture": "熊本県",
    "city": "阿蘇郡高森町",
    "town": "津留"
  },
  "8691824": {
    "zipcode": "8691824",
    "prefectureCode": "43",
    "prefectureNumber": 43,
    "prefecture": "熊本県",
    "city": "阿蘇郡高森町",
    "town": "野尻"
  },
  "8691825": {
    "zipcode": "8691825",
    "prefectureCode": "43",
    "prefectureNumber": 43,
    "prefecture": "熊本県",
    "city": "阿蘇郡高森町",
    "town": "尾下"
  },
  "8691826": {
    "zipcode": "8691826",
    "prefectureCode": "43",
    "prefectureNumber": 43,
    "prefecture": "熊本県",
    "city": "阿蘇郡高森町",
    "town": "河原"
  },
  "8692205": {
    "zipcode": "8692205",
    "prefectureCode": "43",
    "prefectureNumber": 43,
    "prefecture": "熊本県",
    "city": "阿蘇郡南阿蘇村",
    "town": "中松（古坊中）"
  },
  "8692221": {
    "zipcode": "8692221",
    "prefectureCode": "43",
    "prefectureNumber": 43,
    "prefecture": "熊本県",
    "city": "阿蘇市",
    "town": "役犬原"
  },
  "8692222": {
    "zipcode": "8692222",
    "prefectureCode": "43",
    "prefectureNumber": 43,
    "prefecture": "熊本県",
    "city": "阿蘇市",
    "town": "西町"
  },
  "8692223": {
    "zipcode": "8692223",
    "prefectureCode": "43",
    "prefectureNumber": 43,
    "prefecture": "熊本県",
    "city": "阿蘇市",
    "town": "竹原"
  },
  "8692224": {
    "zipcode": "8692224",
    "prefectureCode": "43",
    "prefectureNumber": 43,
    "prefecture": "熊本県",
    "city": "阿蘇市",
    "town": "蔵原"
  },
  "8692225": {
    "zipcode": "8692225",
    "prefectureCode": "43",
    "prefectureNumber": 43,
    "prefecture": "熊本県",
    "city": "阿蘇市",
    "town": "黒川"
  },
  "8692226": {
    "zipcode": "8692226",
    "prefectureCode": "43",
    "prefectureNumber": 43,
    "prefecture": "熊本県",
    "city": "阿蘇市",
    "town": "乙姫"
  },
  "8692231": {
    "zipcode": "8692231",
    "prefectureCode": "43",
    "prefectureNumber": 43,
    "prefecture": "熊本県",
    "city": "阿蘇市",
    "town": "永草"
  },
  "8692232": {
    "zipcode": "8692232",
    "prefectureCode": "43",
    "prefectureNumber": 43,
    "prefecture": "熊本県",
    "city": "阿蘇市",
    "town": "赤水"
  },
  "8692233": {
    "zipcode": "8692233",
    "prefectureCode": "43",
    "prefectureNumber": 43,
    "prefecture": "熊本県",
    "city": "阿蘇市",
    "town": "無田"
  },
  "8692234": {
    "zipcode": "8692234",
    "prefectureCode": "43",
    "prefectureNumber": 43,
    "prefecture": "熊本県",
    "city": "阿蘇市",
    "town": "車帰"
  },
  "8692235": {
    "zipcode": "8692235",
    "prefectureCode": "43",
    "prefectureNumber": 43,
    "prefecture": "熊本県",
    "city": "阿蘇市",
    "town": "狩尾"
  },
  "8692236": {
    "zipcode": "8692236",
    "prefectureCode": "43",
    "prefectureNumber": 43,
    "prefecture": "熊本県",
    "city": "阿蘇市",
    "town": "跡ケ瀬"
  },
  "8692237": {
    "zipcode": "8692237",
    "prefectureCode": "43",
    "prefectureNumber": 43,
    "prefecture": "熊本県",
    "city": "阿蘇市",
    "town": "的石"
  },
  "8692301": {
    "zipcode": "8692301",
    "prefectureCode": "43",
    "prefectureNumber": 43,
    "prefecture": "熊本県",
    "city": "阿蘇市",
    "town": "内牧"
  },
  "8692302": {
    "zipcode": "8692302",
    "prefectureCode": "43",
    "prefectureNumber": 43,
    "prefecture": "熊本県",
    "city": "阿蘇市",
    "town": "三久保"
  },
  "8692303": {
    "zipcode": "8692303",
    "prefectureCode": "43",
    "prefectureNumber": 43,
    "prefecture": "熊本県",
    "city": "阿蘇市",
    "town": "西小園"
  },
  "8692304": {
    "zipcode": "8692304",
    "prefectureCode": "43",
    "prefectureNumber": 43,
    "prefecture": "熊本県",
    "city": "阿蘇市",
    "town": "西湯浦"
  },
  "8692305": {
    "zipcode": "8692305",
    "prefectureCode": "43",
    "prefectureNumber": 43,
    "prefecture": "熊本県",
    "city": "阿蘇市",
    "town": "湯浦"
  },
  "8692306": {
    "zipcode": "8692306",
    "prefectureCode": "43",
    "prefectureNumber": 43,
    "prefecture": "熊本県",
    "city": "阿蘇市",
    "town": "南宮原"
  },
  "8692307": {
    "zipcode": "8692307",
    "prefectureCode": "43",
    "prefectureNumber": 43,
    "prefecture": "熊本県",
    "city": "阿蘇市",
    "town": "小里"
  },
  "8692311": {
    "zipcode": "8692311",
    "prefectureCode": "43",
    "prefectureNumber": 43,
    "prefecture": "熊本県",
    "city": "阿蘇市",
    "town": "小池"
  },
  "8692312": {
    "zipcode": "8692312",
    "prefectureCode": "43",
    "prefectureNumber": 43,
    "prefecture": "熊本県",
    "city": "阿蘇市",
    "town": "小倉"
  },
  "8692313": {
    "zipcode": "8692313",
    "prefectureCode": "43",
    "prefectureNumber": 43,
    "prefecture": "熊本県",
    "city": "阿蘇市",
    "town": "山田（その他）"
  },
  "8692314": {
    "zipcode": "8692314",
    "prefectureCode": "43",
    "prefectureNumber": 43,
    "prefecture": "熊本県",
    "city": "阿蘇市",
    "town": "小野田"
  },
  "8692315": {
    "zipcode": "8692315",
    "prefectureCode": "43",
    "prefectureNumber": 43,
    "prefecture": "熊本県",
    "city": "阿蘇市",
    "town": "今町"
  },
  "8692316": {
    "zipcode": "8692316",
    "prefectureCode": "43",
    "prefectureNumber": 43,
    "prefecture": "熊本県",
    "city": "阿蘇市",
    "town": "黒流町"
  },
  "8692400": {
    "zipcode": "8692400",
    "prefectureCode": "43",
    "prefectureNumber": 43,
    "prefecture": "熊本県",
    "city": "阿蘇郡南小国町",
    "town": "以下に掲載がない場合"
  },
  "8692401": {
    "zipcode": "8692401",
    "prefectureCode": "43",
    "prefectureNumber": 43,
    "prefecture": "熊本県",
    "city": "阿蘇郡南小国町",
    "town": "赤馬場"
  },
  "8692402": {
    "zipcode": "8692402",
    "prefectureCode": "43",
    "prefectureNumber": 43,
    "prefecture": "熊本県",
    "city": "阿蘇郡南小国町",
    "town": "満願寺"
  },
  "8692403": {
    "zipcode": "8692403",
    "prefectureCode": "43",
    "prefectureNumber": 43,
    "prefecture": "熊本県",
    "city": "阿蘇郡南小国町",
    "town": "中原"
  },
  "8692413": {
    "zipcode": "8692413",
    "prefectureCode": "43",
    "prefectureNumber": 43,
    "prefecture": "熊本県",
    "city": "阿蘇市",
    "town": "山田（蔵床、橋台、茗ケ原）"
  },
  "8692500": {
    "zipcode": "8692500",
    "prefectureCode": "43",
    "prefectureNumber": 43,
    "prefecture": "熊本県",
    "city": "阿蘇郡小国町",
    "town": "以下に掲載がない場合"
  },
  "8692501": {
    "zipcode": "8692501",
    "prefectureCode": "43",
    "prefectureNumber": 43,
    "prefecture": "熊本県",
    "city": "阿蘇郡小国町",
    "town": "宮原"
  },
  "8692502": {
    "zipcode": "8692502",
    "prefectureCode": "43",
    "prefectureNumber": 43,
    "prefecture": "熊本県",
    "city": "阿蘇郡小国町",
    "town": "黒渕"
  },
  "8692503": {
    "zipcode": "8692503",
    "prefectureCode": "43",
    "prefectureNumber": 43,
    "prefecture": "熊本県",
    "city": "阿蘇郡小国町",
    "town": "下城"
  },
  "8692504": {
    "zipcode": "8692504",
    "prefectureCode": "43",
    "prefectureNumber": 43,
    "prefecture": "熊本県",
    "city": "阿蘇郡小国町",
    "town": "西里"
  },
  "8692505": {
    "zipcode": "8692505",
    "prefectureCode": "43",
    "prefectureNumber": 43,
    "prefecture": "熊本県",
    "city": "阿蘇郡小国町",
    "town": "北里"
  },
  "8692506": {
    "zipcode": "8692506",
    "prefectureCode": "43",
    "prefectureNumber": 43,
    "prefecture": "熊本県",
    "city": "阿蘇郡小国町",
    "town": "上田"
  },
  "8692600": {
    "zipcode": "8692600",
    "prefectureCode": "43",
    "prefectureNumber": 43,
    "prefecture": "熊本県",
    "city": "阿蘇市",
    "town": "以下に掲載がない場合"
  },
  "8692601": {
    "zipcode": "8692601",
    "prefectureCode": "43",
    "prefectureNumber": 43,
    "prefecture": "熊本県",
    "city": "阿蘇市",
    "town": "一の宮町手野"
  },
  "8692602": {
    "zipcode": "8692602",
    "prefectureCode": "43",
    "prefectureNumber": 43,
    "prefecture": "熊本県",
    "city": "阿蘇市",
    "town": "一の宮町三野"
  },
  "8692603": {
    "zipcode": "8692603",
    "prefectureCode": "43",
    "prefectureNumber": 43,
    "prefecture": "熊本県",
    "city": "阿蘇市",
    "town": "一の宮町北坂梨"
  },
  "8692604": {
    "zipcode": "8692604",
    "prefectureCode": "43",
    "prefectureNumber": 43,
    "prefecture": "熊本県",
    "city": "阿蘇市",
    "town": "一の宮町中坂梨"
  },
  "8692611": {
    "zipcode": "8692611",
    "prefectureCode": "43",
    "prefectureNumber": 43,
    "prefecture": "熊本県",
    "city": "阿蘇市",
    "town": "一の宮町坂梨"
  },
  "8692612": {
    "zipcode": "8692612",
    "prefectureCode": "43",
    "prefectureNumber": 43,
    "prefecture": "熊本県",
    "city": "阿蘇市",
    "town": "一の宮町宮地"
  },
  "8692613": {
    "zipcode": "8692613",
    "prefectureCode": "43",
    "prefectureNumber": 43,
    "prefecture": "熊本県",
    "city": "阿蘇市",
    "town": "一の宮町中通"
  },
  "8692621": {
    "zipcode": "8692621",
    "prefectureCode": "43",
    "prefectureNumber": 43,
    "prefecture": "熊本県",
    "city": "阿蘇市",
    "town": "一の宮町荻の草"
  },
  "8692700": {
    "zipcode": "8692700",
    "prefectureCode": "43",
    "prefectureNumber": 43,
    "prefecture": "熊本県",
    "city": "阿蘇郡産山村",
    "town": "以下に掲載がない場合"
  },
  "8692701": {
    "zipcode": "8692701",
    "prefectureCode": "43",
    "prefectureNumber": 43,
    "prefecture": "熊本県",
    "city": "阿蘇郡産山村",
    "town": "片俣"
  },
  "8692702": {
    "zipcode": "8692702",
    "prefectureCode": "43",
    "prefectureNumber": 43,
    "prefecture": "熊本県",
    "city": "阿蘇郡産山村",
    "town": "大利"
  },
  "8692703": {
    "zipcode": "8692703",
    "prefectureCode": "43",
    "prefectureNumber": 43,
    "prefecture": "熊本県",
    "city": "阿蘇郡産山村",
    "town": "山鹿"
  },
  "8692704": {
    "zipcode": "8692704",
    "prefectureCode": "43",
    "prefectureNumber": 43,
    "prefecture": "熊本県",
    "city": "阿蘇郡産山村",
    "town": "田尻"
  },
  "8692705": {
    "zipcode": "8692705",
    "prefectureCode": "43",
    "prefectureNumber": 43,
    "prefecture": "熊本県",
    "city": "阿蘇郡産山村",
    "town": "産山"
  },
  "8692801": {
    "zipcode": "8692801",
    "prefectureCode": "43",
    "prefectureNumber": 43,
    "prefecture": "熊本県",
    "city": "阿蘇市",
    "town": "波野小地野"
  },
  "8692802": {
    "zipcode": "8692802",
    "prefectureCode": "43",
    "prefectureNumber": 43,
    "prefecture": "熊本県",
    "city": "阿蘇市",
    "town": "波野小園"
  },
  "8692803": {
    "zipcode": "8692803",
    "prefectureCode": "43",
    "prefectureNumber": 43,
    "prefecture": "熊本県",
    "city": "阿蘇市",
    "town": "波野赤仁田"
  },
  "8692804": {
    "zipcode": "8692804",
    "prefectureCode": "43",
    "prefectureNumber": 43,
    "prefecture": "熊本県",
    "city": "阿蘇市",
    "town": "波野滝水"
  },
  "8692805": {
    "zipcode": "8692805",
    "prefectureCode": "43",
    "prefectureNumber": 43,
    "prefecture": "熊本県",
    "city": "阿蘇市",
    "town": "波野中江"
  },
  "8692806": {
    "zipcode": "8692806",
    "prefectureCode": "43",
    "prefectureNumber": 43,
    "prefecture": "熊本県",
    "city": "阿蘇市",
    "town": "波野波野"
  },
  "8692807": {
    "zipcode": "8692807",
    "prefectureCode": "43",
    "prefectureNumber": 43,
    "prefecture": "熊本県",
    "city": "阿蘇市",
    "town": "波野新波野"
  },
  "8693171": {
    "zipcode": "8693171",
    "prefectureCode": "43",
    "prefectureNumber": 43,
    "prefecture": "熊本県",
    "city": "宇土市",
    "town": "長浜町"
  },
  "8693172": {
    "zipcode": "8693172",
    "prefectureCode": "43",
    "prefectureNumber": 43,
    "prefecture": "熊本県",
    "city": "宇土市",
    "town": "上網田町"
  },
  "8693173": {
    "zipcode": "8693173",
    "prefectureCode": "43",
    "prefectureNumber": 43,
    "prefecture": "熊本県",
    "city": "宇土市",
    "town": "下網田町"
  },
  "8693174": {
    "zipcode": "8693174",
    "prefectureCode": "43",
    "prefectureNumber": 43,
    "prefecture": "熊本県",
    "city": "宇土市",
    "town": "戸口町"
  },
  "8693175": {
    "zipcode": "8693175",
    "prefectureCode": "43",
    "prefectureNumber": 43,
    "prefecture": "熊本県",
    "city": "宇土市",
    "town": "赤瀬町"
  },
  "8693201": {
    "zipcode": "8693201",
    "prefectureCode": "43",
    "prefectureNumber": 43,
    "prefecture": "熊本県",
    "city": "宇城市",
    "town": "三角町大田尾"
  },
  "8693202": {
    "zipcode": "8693202",
    "prefectureCode": "43",
    "prefectureNumber": 43,
    "prefecture": "熊本県",
    "city": "宇城市",
    "town": "三角町郡浦"
  },
  "8693203": {
    "zipcode": "8693203",
    "prefectureCode": "43",
    "prefectureNumber": 43,
    "prefecture": "熊本県",
    "city": "宇城市",
    "town": "三角町戸馳"
  },
  "8693204": {
    "zipcode": "8693204",
    "prefectureCode": "43",
    "prefectureNumber": 43,
    "prefecture": "熊本県",
    "city": "宇城市",
    "town": "三角町中村"
  },
  "8693205": {
    "zipcode": "8693205",
    "prefectureCode": "43",
    "prefectureNumber": 43,
    "prefecture": "熊本県",
    "city": "宇城市",
    "town": "三角町波多"
  },
  "8693206": {
    "zipcode": "8693206",
    "prefectureCode": "43",
    "prefectureNumber": 43,
    "prefecture": "熊本県",
    "city": "宇城市",
    "town": "三角町前越"
  },
  "8693207": {
    "zipcode": "8693207",
    "prefectureCode": "43",
    "prefectureNumber": 43,
    "prefecture": "熊本県",
    "city": "宇城市",
    "town": "三角町三角浦"
  },
  "8693211": {
    "zipcode": "8693211",
    "prefectureCode": "43",
    "prefectureNumber": 43,
    "prefecture": "熊本県",
    "city": "宇城市",
    "town": "三角町大口"
  },
  "8693212": {
    "zipcode": "8693212",
    "prefectureCode": "43",
    "prefectureNumber": 43,
    "prefecture": "熊本県",
    "city": "宇城市",
    "town": "三角町手場"
  },
  "8693213": {
    "zipcode": "8693213",
    "prefectureCode": "43",
    "prefectureNumber": 43,
    "prefecture": "熊本県",
    "city": "宇城市",
    "town": "三角町里浦"
  },
  "8693471": {
    "zipcode": "8693471",
    "prefectureCode": "43",
    "prefectureNumber": 43,
    "prefecture": "熊本県",
    "city": "宇城市",
    "town": "不知火町永尾"
  },
  "8693472": {
    "zipcode": "8693472",
    "prefectureCode": "43",
    "prefectureNumber": 43,
    "prefecture": "熊本県",
    "city": "宇城市",
    "town": "不知火町松合"
  },
  "8693473": {
    "zipcode": "8693473",
    "prefectureCode": "43",
    "prefectureNumber": 43,
    "prefecture": "熊本県",
    "city": "宇城市",
    "town": "不知火町大見"
  },
  "8693600": {
    "zipcode": "8693600",
    "prefectureCode": "43",
    "prefectureNumber": 43,
    "prefecture": "熊本県",
    "city": "上天草市",
    "town": "以下に掲載がない場合"
  },
  "8693601": {
    "zipcode": "8693601",
    "prefectureCode": "43",
    "prefectureNumber": 43,
    "prefecture": "熊本県",
    "city": "上天草市",
    "town": "大矢野町登立"
  },
  "8693602": {
    "zipcode": "8693602",
    "prefectureCode": "43",
    "prefectureNumber": 43,
    "prefecture": "熊本県",
    "city": "上天草市",
    "town": "大矢野町上"
  },
  "8693603": {
    "zipcode": "8693603",
    "prefectureCode": "43",
    "prefectureNumber": 43,
    "prefecture": "熊本県",
    "city": "上天草市",
    "town": "大矢野町中"
  },
  "8693604": {
    "zipcode": "8693604",
    "prefectureCode": "43",
    "prefectureNumber": 43,
    "prefecture": "熊本県",
    "city": "上天草市",
    "town": "大矢野町維和"
  },
  "8693711": {
    "zipcode": "8693711",
    "prefectureCode": "43",
    "prefectureNumber": 43,
    "prefecture": "熊本県",
    "city": "上天草市",
    "town": "大矢野町湯島"
  },
  "8694201": {
    "zipcode": "8694201",
    "prefectureCode": "43",
    "prefectureNumber": 43,
    "prefecture": "熊本県",
    "city": "八代市",
    "town": "鏡町鏡村"
  },
  "8694202": {
    "zipcode": "8694202",
    "prefectureCode": "43",
    "prefectureNumber": 43,
    "prefecture": "熊本県",
    "city": "八代市",
    "town": "鏡町内田"
  },
  "8694203": {
    "zipcode": "8694203",
    "prefectureCode": "43",
    "prefectureNumber": 43,
    "prefecture": "熊本県",
    "city": "八代市",
    "town": "鏡町鏡"
  },
  "8694204": {
    "zipcode": "8694204",
    "prefectureCode": "43",
    "prefectureNumber": 43,
    "prefecture": "熊本県",
    "city": "八代市",
    "town": "鏡町芝口"
  },
  "8694205": {
    "zipcode": "8694205",
    "prefectureCode": "43",
    "prefectureNumber": 43,
    "prefecture": "熊本県",
    "city": "八代市",
    "town": "鏡町野崎"
  },
  "8694211": {
    "zipcode": "8694211",
    "prefectureCode": "43",
    "prefectureNumber": 43,
    "prefecture": "熊本県",
    "city": "八代市",
    "town": "鏡町上鏡"
  },
  "8694212": {
    "zipcode": "8694212",
    "prefectureCode": "43",
    "prefectureNumber": 43,
    "prefecture": "熊本県",
    "city": "八代市",
    "town": "鏡町下有佐"
  },
  "8694213": {
    "zipcode": "8694213",
    "prefectureCode": "43",
    "prefectureNumber": 43,
    "prefecture": "熊本県",
    "city": "八代市",
    "town": "鏡町有佐"
  },
  "8694214": {
    "zipcode": "8694214",
    "prefectureCode": "43",
    "prefectureNumber": 43,
    "prefecture": "熊本県",
    "city": "八代市",
    "town": "鏡町中島"
  },
  "8694215": {
    "zipcode": "8694215",
    "prefectureCode": "43",
    "prefectureNumber": 43,
    "prefecture": "熊本県",
    "city": "八代市",
    "town": "鏡町下村"
  },
  "8694221": {
    "zipcode": "8694221",
    "prefectureCode": "43",
    "prefectureNumber": 43,
    "prefecture": "熊本県",
    "city": "八代市",
    "town": "鏡町宝出"
  },
  "8694222": {
    "zipcode": "8694222",
    "prefectureCode": "43",
    "prefectureNumber": 43,
    "prefecture": "熊本県",
    "city": "八代市",
    "town": "鏡町両出"
  },
  "8694223": {
    "zipcode": "8694223",
    "prefectureCode": "43",
    "prefectureNumber": 43,
    "prefecture": "熊本県",
    "city": "八代市",
    "town": "鏡町貝洲"
  },
  "8694224": {
    "zipcode": "8694224",
    "prefectureCode": "43",
    "prefectureNumber": 43,
    "prefecture": "熊本県",
    "city": "八代市",
    "town": "鏡町塩浜"
  },
  "8694225": {
    "zipcode": "8694225",
    "prefectureCode": "43",
    "prefectureNumber": 43,
    "prefecture": "熊本県",
    "city": "八代市",
    "town": "鏡町北新地"
  },
  "8694301": {
    "zipcode": "8694301",
    "prefectureCode": "43",
    "prefectureNumber": 43,
    "prefecture": "熊本県",
    "city": "八代市",
    "town": "東陽町南"
  },
  "8694302": {
    "zipcode": "8694302",
    "prefectureCode": "43",
    "prefectureNumber": 43,
    "prefecture": "熊本県",
    "city": "八代市",
    "town": "東陽町北"
  },
  "8694303": {
    "zipcode": "8694303",
    "prefectureCode": "43",
    "prefectureNumber": 43,
    "prefecture": "熊本県",
    "city": "八代市",
    "town": "東陽町河俣"
  },
  "8694304": {
    "zipcode": "8694304",
    "prefectureCode": "43",
    "prefectureNumber": 43,
    "prefecture": "熊本県",
    "city": "八代市",
    "town": "東陽町小浦"
  },
  "8694401": {
    "zipcode": "8694401",
    "prefectureCode": "43",
    "prefectureNumber": 43,
    "prefecture": "熊本県",
    "city": "八代市",
    "town": "泉町柿迫（その他）"
  },
  "8694402": {
    "zipcode": "8694402",
    "prefectureCode": "43",
    "prefectureNumber": 43,
    "prefecture": "熊本県",
    "city": "八代市",
    "town": "泉町栗木"
  },
  "8694403": {
    "zipcode": "8694403",
    "prefectureCode": "43",
    "prefectureNumber": 43,
    "prefecture": "熊本県",
    "city": "八代市",
    "town": "泉町下岳"
  },
  "8694501": {
    "zipcode": "8694501",
    "prefectureCode": "43",
    "prefectureNumber": 43,
    "prefecture": "熊本県",
    "city": "八代市",
    "town": "泉町柿迫（８６２８番地）"
  },
  "8694511": {
    "zipcode": "8694511",
    "prefectureCode": "43",
    "prefectureNumber": 43,
    "prefecture": "熊本県",
    "city": "八代市",
    "town": "泉町葉木"
  },
  "8694512": {
    "zipcode": "8694512",
    "prefectureCode": "43",
    "prefectureNumber": 43,
    "prefecture": "熊本県",
    "city": "八代市",
    "town": "泉町樅木"
  },
  "8694513": {
    "zipcode": "8694513",
    "prefectureCode": "43",
    "prefectureNumber": 43,
    "prefecture": "熊本県",
    "city": "八代市",
    "town": "泉町久連子"
  },
  "8694514": {
    "zipcode": "8694514",
    "prefectureCode": "43",
    "prefectureNumber": 43,
    "prefecture": "熊本県",
    "city": "八代市",
    "town": "泉町椎原"
  },
  "8694515": {
    "zipcode": "8694515",
    "prefectureCode": "43",
    "prefectureNumber": 43,
    "prefecture": "熊本県",
    "city": "八代市",
    "town": "泉町仁田尾"
  },
  "8694600": {
    "zipcode": "8694600",
    "prefectureCode": "43",
    "prefectureNumber": 43,
    "prefecture": "熊本県",
    "city": "八代郡氷川町",
    "town": "以下に掲載がない場合"
  },
  "8694601": {
    "zipcode": "8694601",
    "prefectureCode": "43",
    "prefectureNumber": 43,
    "prefecture": "熊本県",
    "city": "八代郡氷川町",
    "town": "今"
  },
  "8694602": {
    "zipcode": "8694602",
    "prefectureCode": "43",
    "prefectureNumber": 43,
    "prefecture": "熊本県",
    "city": "八代郡氷川町",
    "town": "宮原"
  },
  "8694603": {
    "zipcode": "8694603",
    "prefectureCode": "43",
    "prefectureNumber": 43,
    "prefecture": "熊本県",
    "city": "八代郡氷川町",
    "town": "立神"
  },
  "8694604": {
    "zipcode": "8694604",
    "prefectureCode": "43",
    "prefectureNumber": 43,
    "prefecture": "熊本県",
    "city": "八代郡氷川町",
    "town": "有佐"
  },
  "8694605": {
    "zipcode": "8694605",
    "prefectureCode": "43",
    "prefectureNumber": 43,
    "prefecture": "熊本県",
    "city": "八代郡氷川町",
    "town": "中島"
  },
  "8694606": {
    "zipcode": "8694606",
    "prefectureCode": "43",
    "prefectureNumber": 43,
    "prefecture": "熊本県",
    "city": "八代郡氷川町",
    "town": "早尾"
  },
  "8694607": {
    "zipcode": "8694607",
    "prefectureCode": "43",
    "prefectureNumber": 43,
    "prefecture": "熊本県",
    "city": "八代郡氷川町",
    "town": "栫"
  },
  "8694608": {
    "zipcode": "8694608",
    "prefectureCode": "43",
    "prefectureNumber": 43,
    "prefecture": "熊本県",
    "city": "八代郡氷川町",
    "town": "宮原栄久"
  },
  "8694611": {
    "zipcode": "8694611",
    "prefectureCode": "43",
    "prefectureNumber": 43,
    "prefecture": "熊本県",
    "city": "八代市",
    "town": "岡町小路"
  },
  "8694612": {
    "zipcode": "8694612",
    "prefectureCode": "43",
    "prefectureNumber": 43,
    "prefecture": "熊本県",
    "city": "八代市",
    "town": "岡町中"
  },
  "8694613": {
    "zipcode": "8694613",
    "prefectureCode": "43",
    "prefectureNumber": 43,
    "prefecture": "熊本県",
    "city": "八代市",
    "town": "岡町谷川"
  },
  "8694614": {
    "zipcode": "8694614",
    "prefectureCode": "43",
    "prefectureNumber": 43,
    "prefecture": "熊本県",
    "city": "八代市",
    "town": "興善寺町"
  },
  "8694615": {
    "zipcode": "8694615",
    "prefectureCode": "43",
    "prefectureNumber": 43,
    "prefecture": "熊本県",
    "city": "八代市",
    "town": "川田町東"
  },
  "8694616": {
    "zipcode": "8694616",
    "prefectureCode": "43",
    "prefectureNumber": 43,
    "prefecture": "熊本県",
    "city": "八代市",
    "town": "川田町西"
  },
  "8694701": {
    "zipcode": "8694701",
    "prefectureCode": "43",
    "prefectureNumber": 43,
    "prefecture": "熊本県",
    "city": "八代市",
    "town": "千丁町太牟田"
  },
  "8694702": {
    "zipcode": "8694702",
    "prefectureCode": "43",
    "prefectureNumber": 43,
    "prefecture": "熊本県",
    "city": "八代市",
    "town": "千丁町吉王丸"
  },
  "8694703": {
    "zipcode": "8694703",
    "prefectureCode": "43",
    "prefectureNumber": 43,
    "prefecture": "熊本県",
    "city": "八代市",
    "town": "千丁町新牟田"
  },
  "8694704": {
    "zipcode": "8694704",
    "prefectureCode": "43",
    "prefectureNumber": 43,
    "prefecture": "熊本県",
    "city": "八代市",
    "town": "千丁町古閑出"
  },
  "8694721": {
    "zipcode": "8694721",
    "prefectureCode": "43",
    "prefectureNumber": 43,
    "prefecture": "熊本県",
    "city": "八代市",
    "town": "昭和日進町"
  },
  "8694722": {
    "zipcode": "8694722",
    "prefectureCode": "43",
    "prefectureNumber": 43,
    "prefecture": "熊本県",
    "city": "八代市",
    "town": "昭和明徴町"
  },
  "8694723": {
    "zipcode": "8694723",
    "prefectureCode": "43",
    "prefectureNumber": 43,
    "prefecture": "熊本県",
    "city": "八代市",
    "town": "昭和同仁町"
  },
  "8694801": {
    "zipcode": "8694801",
    "prefectureCode": "43",
    "prefectureNumber": 43,
    "prefecture": "熊本県",
    "city": "八代郡氷川町",
    "town": "新田"
  },
  "8694802": {
    "zipcode": "8694802",
    "prefectureCode": "43",
    "prefectureNumber": 43,
    "prefecture": "熊本県",
    "city": "八代郡氷川町",
    "town": "高塚"
  },
  "8694803": {
    "zipcode": "8694803",
    "prefectureCode": "43",
    "prefectureNumber": 43,
    "prefecture": "熊本県",
    "city": "八代郡氷川町",
    "town": "吉本"
  },
  "8694804": {
    "zipcode": "8694804",
    "prefectureCode": "43",
    "prefectureNumber": 43,
    "prefecture": "熊本県",
    "city": "八代郡氷川町",
    "town": "大野"
  },
  "8694805": {
    "zipcode": "8694805",
    "prefectureCode": "43",
    "prefectureNumber": 43,
    "prefecture": "熊本県",
    "city": "八代郡氷川町",
    "town": "野津"
  },
  "8694806": {
    "zipcode": "8694806",
    "prefectureCode": "43",
    "prefectureNumber": 43,
    "prefecture": "熊本県",
    "city": "八代郡氷川町",
    "town": "河原"
  },
  "8694811": {
    "zipcode": "8694811",
    "prefectureCode": "43",
    "prefectureNumber": 43,
    "prefecture": "熊本県",
    "city": "八代郡氷川町",
    "town": "鹿野"
  },
  "8694812": {
    "zipcode": "8694812",
    "prefectureCode": "43",
    "prefectureNumber": 43,
    "prefecture": "熊本県",
    "city": "八代郡氷川町",
    "town": "網道"
  },
  "8694813": {
    "zipcode": "8694813",
    "prefectureCode": "43",
    "prefectureNumber": 43,
    "prefecture": "熊本県",
    "city": "八代郡氷川町",
    "town": "若洲"
  },
  "8694814": {
    "zipcode": "8694814",
    "prefectureCode": "43",
    "prefectureNumber": 43,
    "prefecture": "熊本県",
    "city": "八代郡氷川町",
    "town": "島地"
  },
  "8694815": {
    "zipcode": "8694815",
    "prefectureCode": "43",
    "prefectureNumber": 43,
    "prefecture": "熊本県",
    "city": "八代郡氷川町",
    "town": "鹿島"
  },
  "8695131": {
    "zipcode": "8695131",
    "prefectureCode": "43",
    "prefectureNumber": 43,
    "prefecture": "熊本県",
    "city": "八代市",
    "town": "日奈久馬越町"
  },
  "8695132": {
    "zipcode": "8695132",
    "prefectureCode": "43",
    "prefectureNumber": 43,
    "prefecture": "熊本県",
    "city": "八代市",
    "town": "日奈久下西町"
  },
  "8695133": {
    "zipcode": "8695133",
    "prefectureCode": "43",
    "prefectureNumber": 43,
    "prefecture": "熊本県",
    "city": "八代市",
    "town": "日奈久中西町"
  },
  "8695134": {
    "zipcode": "8695134",
    "prefectureCode": "43",
    "prefectureNumber": 43,
    "prefecture": "熊本県",
    "city": "八代市",
    "town": "日奈久上西町"
  },
  "8695135": {
    "zipcode": "8695135",
    "prefectureCode": "43",
    "prefectureNumber": 43,
    "prefecture": "熊本県",
    "city": "八代市",
    "town": "日奈久中町"
  },
  "8695136": {
    "zipcode": "8695136",
    "prefectureCode": "43",
    "prefectureNumber": 43,
    "prefecture": "熊本県",
    "city": "八代市",
    "town": "日奈久東町"
  },
  "8695137": {
    "zipcode": "8695137",
    "prefectureCode": "43",
    "prefectureNumber": 43,
    "prefecture": "熊本県",
    "city": "八代市",
    "town": "日奈久浜町"
  },
  "8695138": {
    "zipcode": "8695138",
    "prefectureCode": "43",
    "prefectureNumber": 43,
    "prefecture": "熊本県",
    "city": "八代市",
    "town": "日奈久平成町"
  },
  "8695141": {
    "zipcode": "8695141",
    "prefectureCode": "43",
    "prefectureNumber": 43,
    "prefecture": "熊本県",
    "city": "八代市",
    "town": "日奈久塩南町"
  },
  "8695142": {
    "zipcode": "8695142",
    "prefectureCode": "43",
    "prefectureNumber": 43,
    "prefecture": "熊本県",
    "city": "八代市",
    "town": "日奈久塩北町"
  },
  "8695143": {
    "zipcode": "8695143",
    "prefectureCode": "43",
    "prefectureNumber": 43,
    "prefecture": "熊本県",
    "city": "八代市",
    "town": "日奈久竹之内町"
  },
  "8695144": {
    "zipcode": "8695144",
    "prefectureCode": "43",
    "prefectureNumber": 43,
    "prefecture": "熊本県",
    "city": "八代市",
    "town": "日奈久山下町"
  },
  "8695145": {
    "zipcode": "8695145",
    "prefectureCode": "43",
    "prefectureNumber": 43,
    "prefecture": "熊本県",
    "city": "八代市",
    "town": "日奈久新田町"
  },
  "8695146": {
    "zipcode": "8695146",
    "prefectureCode": "43",
    "prefectureNumber": 43,
    "prefecture": "熊本県",
    "city": "八代市",
    "town": "日奈久大坪町"
  },
  "8695147": {
    "zipcode": "8695147",
    "prefectureCode": "43",
    "prefectureNumber": 43,
    "prefecture": "熊本県",
    "city": "八代市",
    "town": "日奈久新開町"
  },
  "8695148": {
    "zipcode": "8695148",
    "prefectureCode": "43",
    "prefectureNumber": 43,
    "prefecture": "熊本県",
    "city": "八代市",
    "town": "日奈久栄町"
  },
  "8695151": {
    "zipcode": "8695151",
    "prefectureCode": "43",
    "prefectureNumber": 43,
    "prefecture": "熊本県",
    "city": "八代市",
    "town": "敷川内町"
  },
  "8695152": {
    "zipcode": "8695152",
    "prefectureCode": "43",
    "prefectureNumber": 43,
    "prefecture": "熊本県",
    "city": "八代市",
    "town": "揚町"
  },
  "8695153": {
    "zipcode": "8695153",
    "prefectureCode": "43",
    "prefectureNumber": 43,
    "prefecture": "熊本県",
    "city": "八代市",
    "town": "催合町"
  },
  "8695154": {
    "zipcode": "8695154",
    "prefectureCode": "43",
    "prefectureNumber": 43,
    "prefecture": "熊本県",
    "city": "八代市",
    "town": "高植本町"
  },
  "8695155": {
    "zipcode": "8695155",
    "prefectureCode": "43",
    "prefectureNumber": 43,
    "prefecture": "熊本県",
    "city": "八代市",
    "town": "水島町"
  },
  "8695161": {
    "zipcode": "8695161",
    "prefectureCode": "43",
    "prefectureNumber": 43,
    "prefecture": "熊本県",
    "city": "八代市",
    "town": "葭牟田町"
  },
  "8695162": {
    "zipcode": "8695162",
    "prefectureCode": "43",
    "prefectureNumber": 43,
    "prefecture": "熊本県",
    "city": "八代市",
    "town": "北原町"
  },
  "8695163": {
    "zipcode": "8695163",
    "prefectureCode": "43",
    "prefectureNumber": 43,
    "prefecture": "熊本県",
    "city": "八代市",
    "town": "三江湖町"
  },
  "8695164": {
    "zipcode": "8695164",
    "prefectureCode": "43",
    "prefectureNumber": 43,
    "prefecture": "熊本県",
    "city": "八代市",
    "town": "鼠蔵町"
  },
  "8695165": {
    "zipcode": "8695165",
    "prefectureCode": "43",
    "prefectureNumber": 43,
    "prefecture": "熊本県",
    "city": "八代市",
    "town": "南平和町"
  },
  "8695166": {
    "zipcode": "8695166",
    "prefectureCode": "43",
    "prefectureNumber": 43,
    "prefecture": "熊本県",
    "city": "八代市",
    "town": "北平和町"
  },
  "8695171": {
    "zipcode": "8695171",
    "prefectureCode": "43",
    "prefectureNumber": 43,
    "prefecture": "熊本県",
    "city": "八代市",
    "town": "二見洲口町"
  },
  "8695172": {
    "zipcode": "8695172",
    "prefectureCode": "43",
    "prefectureNumber": 43,
    "prefecture": "熊本県",
    "city": "八代市",
    "town": "二見本町"
  },
  "8695173": {
    "zipcode": "8695173",
    "prefectureCode": "43",
    "prefectureNumber": 43,
    "prefecture": "熊本県",
    "city": "八代市",
    "town": "二見赤松町"
  },
  "8695174": {
    "zipcode": "8695174",
    "prefectureCode": "43",
    "prefectureNumber": 43,
    "prefecture": "熊本県",
    "city": "八代市",
    "town": "二見下大野町"
  },
  "8695175": {
    "zipcode": "8695175",
    "prefectureCode": "43",
    "prefectureNumber": 43,
    "prefecture": "熊本県",
    "city": "八代市",
    "town": "二見野田崎町"
  },
  "8695221": {
    "zipcode": "8695221",
    "prefectureCode": "43",
    "prefectureNumber": 43,
    "prefecture": "熊本県",
    "city": "八代市",
    "town": "坂本町川嶽"
  },
  "8695222": {
    "zipcode": "8695222",
    "prefectureCode": "43",
    "prefectureNumber": 43,
    "prefecture": "熊本県",
    "city": "八代市",
    "town": "坂本町鶴喰"
  },
  "8695223": {
    "zipcode": "8695223",
    "prefectureCode": "43",
    "prefectureNumber": 43,
    "prefecture": "熊本県",
    "city": "八代市",
    "town": "坂本町田上"
  },
  "8695224": {
    "zipcode": "8695224",
    "prefectureCode": "43",
    "prefectureNumber": 43,
    "prefecture": "熊本県",
    "city": "八代市",
    "town": "坂本町百済来下"
  },
  "8695225": {
    "zipcode": "8695225",
    "prefectureCode": "43",
    "prefectureNumber": 43,
    "prefecture": "熊本県",
    "city": "八代市",
    "town": "坂本町百済来上"
  },
  "8695301": {
    "zipcode": "8695301",
    "prefectureCode": "43",
    "prefectureNumber": 43,
    "prefecture": "熊本県",
    "city": "葦北郡芦北町",
    "town": "横居木"
  },
  "8695302": {
    "zipcode": "8695302",
    "prefectureCode": "43",
    "prefectureNumber": 43,
    "prefecture": "熊本県",
    "city": "葦北郡芦北町",
    "town": "田浦"
  },
  "8695303": {
    "zipcode": "8695303",
    "prefectureCode": "43",
    "prefectureNumber": 43,
    "prefecture": "熊本県",
    "city": "葦北郡芦北町",
    "town": "小田浦"
  },
  "8695304": {
    "zipcode": "8695304",
    "prefectureCode": "43",
    "prefectureNumber": 43,
    "prefecture": "熊本県",
    "city": "葦北郡芦北町",
    "town": "海浦"
  },
  "8695305": {
    "zipcode": "8695305",
    "prefectureCode": "43",
    "prefectureNumber": 43,
    "prefecture": "熊本県",
    "city": "葦北郡芦北町",
    "town": "田浦町"
  },
  "8695306": {
    "zipcode": "8695306",
    "prefectureCode": "43",
    "prefectureNumber": 43,
    "prefecture": "熊本県",
    "city": "葦北郡芦北町",
    "town": "波多島"
  },
  "8695307": {
    "zipcode": "8695307",
    "prefectureCode": "43",
    "prefectureNumber": 43,
    "prefecture": "熊本県",
    "city": "葦北郡芦北町",
    "town": "井牟田"
  },
  "8695400": {
    "zipcode": "8695400",
    "prefectureCode": "43",
    "prefectureNumber": 43,
    "prefecture": "熊本県",
    "city": "葦北郡芦北町",
    "town": "以下に掲載がない場合"
  },
  "8695421": {
    "zipcode": "8695421",
    "prefectureCode": "43",
    "prefectureNumber": 43,
    "prefecture": "熊本県",
    "city": "葦北郡芦北町",
    "town": "立川"
  },
  "8695422": {
    "zipcode": "8695422",
    "prefectureCode": "43",
    "prefectureNumber": 43,
    "prefecture": "熊本県",
    "city": "葦北郡芦北町",
    "town": "大尼田"
  },
  "8695423": {
    "zipcode": "8695423",
    "prefectureCode": "43",
    "prefectureNumber": 43,
    "prefecture": "熊本県",
    "city": "葦北郡芦北町",
    "town": "松生"
  },
  "8695424": {
    "zipcode": "8695424",
    "prefectureCode": "43",
    "prefectureNumber": 43,
    "prefecture": "熊本県",
    "city": "葦北郡芦北町",
    "town": "伏木氏"
  },
  "8695431": {
    "zipcode": "8695431",
    "prefectureCode": "43",
    "prefectureNumber": 43,
    "prefecture": "熊本県",
    "city": "葦北郡芦北町",
    "town": "乙千屋"
  },
  "8695432": {
    "zipcode": "8695432",
    "prefectureCode": "43",
    "prefectureNumber": 43,
    "prefecture": "熊本県",
    "city": "葦北郡芦北町",
    "town": "宮浦"
  },
  "8695433": {
    "zipcode": "8695433",
    "prefectureCode": "43",
    "prefectureNumber": 43,
    "prefecture": "熊本県",
    "city": "葦北郡芦北町",
    "town": "八幡"
  },
  "8695434": {
    "zipcode": "8695434",
    "prefectureCode": "43",
    "prefectureNumber": 43,
    "prefecture": "熊本県",
    "city": "葦北郡芦北町",
    "town": "桑原"
  },
  "8695441": {
    "zipcode": "8695441",
    "prefectureCode": "43",
    "prefectureNumber": 43,
    "prefecture": "熊本県",
    "city": "葦北郡芦北町",
    "town": "佐敷"
  },
  "8695442": {
    "zipcode": "8695442",
    "prefectureCode": "43",
    "prefectureNumber": 43,
    "prefecture": "熊本県",
    "city": "葦北郡芦北町",
    "town": "花岡"
  },
  "8695443": {
    "zipcode": "8695443",
    "prefectureCode": "43",
    "prefectureNumber": 43,
    "prefecture": "熊本県",
    "city": "葦北郡芦北町",
    "town": "田川"
  },
  "8695451": {
    "zipcode": "8695451",
    "prefectureCode": "43",
    "prefectureNumber": 43,
    "prefecture": "熊本県",
    "city": "葦北郡芦北町",
    "town": "道川内"
  },
  "8695452": {
    "zipcode": "8695452",
    "prefectureCode": "43",
    "prefectureNumber": 43,
    "prefecture": "熊本県",
    "city": "葦北郡芦北町",
    "town": "白岩"
  },
  "8695453": {
    "zipcode": "8695453",
    "prefectureCode": "43",
    "prefectureNumber": 43,
    "prefecture": "熊本県",
    "city": "葦北郡芦北町",
    "town": "計石"
  },
  "8695454": {
    "zipcode": "8695454",
    "prefectureCode": "43",
    "prefectureNumber": 43,
    "prefecture": "熊本県",
    "city": "葦北郡芦北町",
    "town": "鶴木山"
  },
  "8695461": {
    "zipcode": "8695461",
    "prefectureCode": "43",
    "prefectureNumber": 43,
    "prefecture": "熊本県",
    "city": "葦北郡芦北町",
    "town": "芦北（その他）"
  },
  "8695561": {
    "zipcode": "8695561",
    "prefectureCode": "43",
    "prefectureNumber": 43,
    "prefecture": "熊本県",
    "city": "葦北郡芦北町",
    "town": "芦北（北田、中割、西割、松崎）"
  },
  "8695562": {
    "zipcode": "8695562",
    "prefectureCode": "43",
    "prefectureNumber": 43,
    "prefecture": "熊本県",
    "city": "葦北郡芦北町",
    "town": "宮崎"
  },
  "8695563": {
    "zipcode": "8695563",
    "prefectureCode": "43",
    "prefectureNumber": 43,
    "prefecture": "熊本県",
    "city": "葦北郡芦北町",
    "town": "湯浦"
  },
  "8695564": {
    "zipcode": "8695564",
    "prefectureCode": "43",
    "prefectureNumber": 43,
    "prefecture": "熊本県",
    "city": "葦北郡芦北町",
    "town": "女島"
  },
  "8695571": {
    "zipcode": "8695571",
    "prefectureCode": "43",
    "prefectureNumber": 43,
    "prefecture": "熊本県",
    "city": "葦北郡芦北町",
    "town": "豊岡"
  },
  "8695572": {
    "zipcode": "8695572",
    "prefectureCode": "43",
    "prefectureNumber": 43,
    "prefecture": "熊本県",
    "city": "葦北郡芦北町",
    "town": "丸山"
  },
  "8695573": {
    "zipcode": "8695573",
    "prefectureCode": "43",
    "prefectureNumber": 43,
    "prefecture": "熊本県",
    "city": "葦北郡芦北町",
    "town": "米田"
  },
  "8695574": {
    "zipcode": "8695574",
    "prefectureCode": "43",
    "prefectureNumber": 43,
    "prefecture": "熊本県",
    "city": "葦北郡芦北町",
    "town": "大川内"
  },
  "8695575": {
    "zipcode": "8695575",
    "prefectureCode": "43",
    "prefectureNumber": 43,
    "prefecture": "熊本県",
    "city": "葦北郡芦北町",
    "town": "古石"
  },
  "8695576": {
    "zipcode": "8695576",
    "prefectureCode": "43",
    "prefectureNumber": 43,
    "prefecture": "熊本県",
    "city": "葦北郡芦北町",
    "town": "高岡"
  },
  "8695600": {
    "zipcode": "8695600",
    "prefectureCode": "43",
    "prefectureNumber": 43,
    "prefecture": "熊本県",
    "city": "葦北郡津奈木町",
    "town": "以下に掲載がない場合"
  },
  "8695601": {
    "zipcode": "8695601",
    "prefectureCode": "43",
    "prefectureNumber": 43,
    "prefecture": "熊本県",
    "city": "葦北郡津奈木町",
    "town": "千代"
  },
  "8695602": {
    "zipcode": "8695602",
    "prefectureCode": "43",
    "prefectureNumber": 43,
    "prefecture": "熊本県",
    "city": "葦北郡津奈木町",
    "town": "津奈木"
  },
  "8695603": {
    "zipcode": "8695603",
    "prefectureCode": "43",
    "prefectureNumber": 43,
    "prefecture": "熊本県",
    "city": "葦北郡津奈木町",
    "town": "岩城"
  },
  "8695604": {
    "zipcode": "8695604",
    "prefectureCode": "43",
    "prefectureNumber": 43,
    "prefecture": "熊本県",
    "city": "葦北郡津奈木町",
    "town": "小津奈木"
  },
  "8695605": {
    "zipcode": "8695605",
    "prefectureCode": "43",
    "prefectureNumber": 43,
    "prefecture": "熊本県",
    "city": "葦北郡津奈木町",
    "town": "福浜"
  },
  "8696101": {
    "zipcode": "8696101",
    "prefectureCode": "43",
    "prefectureNumber": 43,
    "prefecture": "熊本県",
    "city": "八代市",
    "town": "坂本町西部"
  },
  "8696102": {
    "zipcode": "8696102",
    "prefectureCode": "43",
    "prefectureNumber": 43,
    "prefecture": "熊本県",
    "city": "八代市",
    "town": "坂本町深水"
  },
  "8696103": {
    "zipcode": "8696103",
    "prefectureCode": "43",
    "prefectureNumber": 43,
    "prefecture": "熊本県",
    "city": "八代市",
    "town": "坂本町中谷"
  },
  "8696104": {
    "zipcode": "8696104",
    "prefectureCode": "43",
    "prefectureNumber": 43,
    "prefecture": "熊本県",
    "city": "八代市",
    "town": "坂本町鮎帰"
  },
  "8696105": {
    "zipcode": "8696105",
    "prefectureCode": "43",
    "prefectureNumber": 43,
    "prefecture": "熊本県",
    "city": "八代市",
    "town": "坂本町坂本"
  },
  "8696111": {
    "zipcode": "8696111",
    "prefectureCode": "43",
    "prefectureNumber": 43,
    "prefecture": "熊本県",
    "city": "八代市",
    "town": "坂本町葉木"
  },
  "8696112": {
    "zipcode": "8696112",
    "prefectureCode": "43",
    "prefectureNumber": 43,
    "prefecture": "熊本県",
    "city": "八代市",
    "town": "坂本町鎌瀬"
  },
  "8696113": {
    "zipcode": "8696113",
    "prefectureCode": "43",
    "prefectureNumber": 43,
    "prefecture": "熊本県",
    "city": "八代市",
    "town": "坂本町中津道"
  },
  "8696114": {
    "zipcode": "8696114",
    "prefectureCode": "43",
    "prefectureNumber": 43,
    "prefecture": "熊本県",
    "city": "八代市",
    "town": "坂本町市ノ俣"
  },
  "8696115": {
    "zipcode": "8696115",
    "prefectureCode": "43",
    "prefectureNumber": 43,
    "prefecture": "熊本県",
    "city": "八代市",
    "town": "坂本町荒瀬"
  },
  "8696211": {
    "zipcode": "8696211",
    "prefectureCode": "43",
    "prefectureNumber": 43,
    "prefecture": "熊本県",
    "city": "葦北郡芦北町",
    "town": "箙瀬"
  },
  "8696212": {
    "zipcode": "8696212",
    "prefectureCode": "43",
    "prefectureNumber": 43,
    "prefecture": "熊本県",
    "city": "葦北郡芦北町",
    "town": "吉尾"
  },
  "8696213": {
    "zipcode": "8696213",
    "prefectureCode": "43",
    "prefectureNumber": 43,
    "prefecture": "熊本県",
    "city": "葦北郡芦北町",
    "town": "大岩"
  },
  "8696214": {
    "zipcode": "8696214",
    "prefectureCode": "43",
    "prefectureNumber": 43,
    "prefecture": "熊本県",
    "city": "葦北郡芦北町",
    "town": "黒岩"
  },
  "8696215": {
    "zipcode": "8696215",
    "prefectureCode": "43",
    "prefectureNumber": 43,
    "prefecture": "熊本県",
    "city": "葦北郡芦北町",
    "town": "上原"
  },
  "8696216": {
    "zipcode": "8696216",
    "prefectureCode": "43",
    "prefectureNumber": 43,
    "prefecture": "熊本県",
    "city": "葦北郡芦北町",
    "town": "海路"
  },
  "8696301": {
    "zipcode": "8696301",
    "prefectureCode": "43",
    "prefectureNumber": 43,
    "prefecture": "熊本県",
    "city": "葦北郡芦北町",
    "town": "天月"
  },
  "8696302": {
    "zipcode": "8696302",
    "prefectureCode": "43",
    "prefectureNumber": 43,
    "prefecture": "熊本県",
    "city": "葦北郡芦北町",
    "town": "白石"
  },
  "8696303": {
    "zipcode": "8696303",
    "prefectureCode": "43",
    "prefectureNumber": 43,
    "prefecture": "熊本県",
    "city": "葦北郡芦北町",
    "town": "告"
  },
  "8696304": {
    "zipcode": "8696304",
    "prefectureCode": "43",
    "prefectureNumber": 43,
    "prefecture": "熊本県",
    "city": "葦北郡芦北町",
    "town": "国見"
  },
  "8696305": {
    "zipcode": "8696305",
    "prefectureCode": "43",
    "prefectureNumber": 43,
    "prefecture": "熊本県",
    "city": "葦北郡芦北町",
    "town": "大野"
  },
  "8696306": {
    "zipcode": "8696306",
    "prefectureCode": "43",
    "prefectureNumber": 43,
    "prefecture": "熊本県",
    "city": "葦北郡芦北町",
    "town": "市野瀬"
  },
  "8696307": {
    "zipcode": "8696307",
    "prefectureCode": "43",
    "prefectureNumber": 43,
    "prefecture": "熊本県",
    "city": "葦北郡芦北町",
    "town": "塩浸"
  },
  "8696308": {
    "zipcode": "8696308",
    "prefectureCode": "43",
    "prefectureNumber": 43,
    "prefecture": "熊本県",
    "city": "葦北郡芦北町",
    "town": "白木"
  },
  "8696400": {
    "zipcode": "8696400",
    "prefectureCode": "43",
    "prefectureNumber": 43,
    "prefecture": "熊本県",
    "city": "球磨郡球磨村",
    "town": "以下に掲載がない場合"
  },
  "8696401": {
    "zipcode": "8696401",
    "prefectureCode": "43",
    "prefectureNumber": 43,
    "prefecture": "熊本県",
    "city": "球磨郡球磨村",
    "town": "渡"
  },
  "8696402": {
    "zipcode": "8696402",
    "prefectureCode": "43",
    "prefectureNumber": 43,
    "prefecture": "熊本県",
    "city": "球磨郡球磨村",
    "town": "三ケ浦"
  },
  "8696403": {
    "zipcode": "8696403",
    "prefectureCode": "43",
    "prefectureNumber": 43,
    "prefecture": "熊本県",
    "city": "球磨郡球磨村",
    "town": "一勝地"
  },
  "8696404": {
    "zipcode": "8696404",
    "prefectureCode": "43",
    "prefectureNumber": 43,
    "prefecture": "熊本県",
    "city": "球磨郡球磨村",
    "town": "神瀬"
  },
  "8696405": {
    "zipcode": "8696405",
    "prefectureCode": "43",
    "prefectureNumber": 43,
    "prefecture": "熊本県",
    "city": "球磨郡球磨村",
    "town": "大瀬"
  }
}
