{
  "8700001": {
    "zipcode": "8700001",
    "prefectureCode": "44",
    "prefectureNumber": 44,
    "prefecture": "大分県",
    "city": "大分市",
    "town": "生石港町"
  },
  "8700002": {
    "zipcode": "8700002",
    "prefectureCode": "44",
    "prefectureNumber": 44,
    "prefecture": "大分県",
    "city": "大分市",
    "town": "浜の市"
  },
  "8700003": {
    "zipcode": "8700003",
    "prefectureCode": "44",
    "prefectureNumber": 44,
    "prefecture": "大分県",
    "city": "大分市",
    "town": "生石"
  },
  "8700004": {
    "zipcode": "8700004",
    "prefectureCode": "44",
    "prefectureNumber": 44,
    "prefecture": "大分県",
    "city": "大分市",
    "town": "王子港町"
  },
  "8700005": {
    "zipcode": "8700005",
    "prefectureCode": "44",
    "prefectureNumber": 44,
    "prefecture": "大分県",
    "city": "大分市",
    "town": "王子北町"
  },
  "8700006": {
    "zipcode": "8700006",
    "prefectureCode": "44",
    "prefectureNumber": 44,
    "prefecture": "大分県",
    "city": "大分市",
    "town": "王子中町"
  },
  "8700007": {
    "zipcode": "8700007",
    "prefectureCode": "44",
    "prefectureNumber": 44,
    "prefecture": "大分県",
    "city": "大分市",
    "town": "王子南町"
  },
  "8700008": {
    "zipcode": "8700008",
    "prefectureCode": "44",
    "prefectureNumber": 44,
    "prefecture": "大分県",
    "city": "大分市",
    "town": "王子西町"
  },
  "8700009": {
    "zipcode": "8700009",
    "prefectureCode": "44",
    "prefectureNumber": 44,
    "prefecture": "大分県",
    "city": "大分市",
    "town": "王子町"
  },
  "8700011": {
    "zipcode": "8700011",
    "prefectureCode": "44",
    "prefectureNumber": 44,
    "prefecture": "大分県",
    "city": "大分市",
    "town": "春日浦"
  },
  "8700012": {
    "zipcode": "8700012",
    "prefectureCode": "44",
    "prefectureNumber": 44,
    "prefecture": "大分県",
    "city": "大分市",
    "town": "浜町北"
  },
  "8700013": {
    "zipcode": "8700013",
    "prefectureCode": "44",
    "prefectureNumber": 44,
    "prefecture": "大分県",
    "city": "大分市",
    "town": "浜町東"
  },
  "8700014": {
    "zipcode": "8700014",
    "prefectureCode": "44",
    "prefectureNumber": 44,
    "prefecture": "大分県",
    "city": "大分市",
    "town": "芦崎"
  },
  "8700015": {
    "zipcode": "8700015",
    "prefectureCode": "44",
    "prefectureNumber": 44,
    "prefecture": "大分県",
    "city": "大分市",
    "town": "新川西"
  },
  "8700016": {
    "zipcode": "8700016",
    "prefectureCode": "44",
    "prefectureNumber": 44,
    "prefecture": "大分県",
    "city": "大分市",
    "town": "新川町"
  },
  "8700017": {
    "zipcode": "8700017",
    "prefectureCode": "44",
    "prefectureNumber": 44,
    "prefecture": "大分県",
    "city": "大分市",
    "town": "弁天"
  },
  "8700018": {
    "zipcode": "8700018",
    "prefectureCode": "44",
    "prefectureNumber": 44,
    "prefecture": "大分県",
    "city": "大分市",
    "town": "豊海"
  },
  "8700021": {
    "zipcode": "8700021",
    "prefectureCode": "44",
    "prefectureNumber": 44,
    "prefecture": "大分県",
    "city": "大分市",
    "town": "府内町"
  },
  "8700022": {
    "zipcode": "8700022",
    "prefectureCode": "44",
    "prefectureNumber": 44,
    "prefecture": "大分県",
    "city": "大分市",
    "town": "大手町"
  },
  "8700023": {
    "zipcode": "8700023",
    "prefectureCode": "44",
    "prefectureNumber": 44,
    "prefecture": "大分県",
    "city": "大分市",
    "town": "長浜町"
  },
  "8700024": {
    "zipcode": "8700024",
    "prefectureCode": "44",
    "prefectureNumber": 44,
    "prefecture": "大分県",
    "city": "大分市",
    "town": "錦町"
  },
  "8700025": {
    "zipcode": "8700025",
    "prefectureCode": "44",
    "prefectureNumber": 44,
    "prefecture": "大分県",
    "city": "大分市",
    "town": "顕徳町"
  },
  "8700026": {
    "zipcode": "8700026",
    "prefectureCode": "44",
    "prefectureNumber": 44,
    "prefecture": "大分県",
    "city": "大分市",
    "town": "金池町"
  },
  "8700027": {
    "zipcode": "8700027",
    "prefectureCode": "44",
    "prefectureNumber": 44,
    "prefecture": "大分県",
    "city": "大分市",
    "town": "末広町"
  },
  "8700028": {
    "zipcode": "8700028",
    "prefectureCode": "44",
    "prefectureNumber": 44,
    "prefecture": "大分県",
    "city": "大分市",
    "town": "新町"
  },
  "8700029": {
    "zipcode": "8700029",
    "prefectureCode": "44",
    "prefectureNumber": 44,
    "prefecture": "大分県",
    "city": "大分市",
    "town": "高砂町"
  },
  "8700030": {
    "zipcode": "8700030",
    "prefectureCode": "44",
    "prefectureNumber": 44,
    "prefecture": "大分県",
    "city": "大分市",
    "town": "三芳"
  },
  "8700031": {
    "zipcode": "8700031",
    "prefectureCode": "44",
    "prefectureNumber": 44,
    "prefecture": "大分県",
    "city": "大分市",
    "town": "勢家町"
  },
  "8700032": {
    "zipcode": "8700032",
    "prefectureCode": "44",
    "prefectureNumber": 44,
    "prefecture": "大分県",
    "city": "大分市",
    "town": "住吉町"
  },
  "8700033": {
    "zipcode": "8700033",
    "prefectureCode": "44",
    "prefectureNumber": 44,
    "prefecture": "大分県",
    "city": "大分市",
    "town": "千代町"
  },
  "8700034": {
    "zipcode": "8700034",
    "prefectureCode": "44",
    "prefectureNumber": 44,
    "prefecture": "大分県",
    "city": "大分市",
    "town": "都町"
  },
  "8700035": {
    "zipcode": "8700035",
    "prefectureCode": "44",
    "prefectureNumber": 44,
    "prefecture": "大分県",
    "city": "大分市",
    "town": "中央町"
  },
  "8700036": {
    "zipcode": "8700036",
    "prefectureCode": "44",
    "prefectureNumber": 44,
    "prefecture": "大分県",
    "city": "大分市",
    "town": "寿町"
  },
  "8700037": {
    "zipcode": "8700037",
    "prefectureCode": "44",
    "prefectureNumber": 44,
    "prefecture": "大分県",
    "city": "大分市",
    "town": "東春日町"
  },
  "8700038": {
    "zipcode": "8700038",
    "prefectureCode": "44",
    "prefectureNumber": 44,
    "prefecture": "大分県",
    "city": "大分市",
    "town": "西春日町"
  },
  "8700039": {
    "zipcode": "8700039",
    "prefectureCode": "44",
    "prefectureNumber": 44,
    "prefecture": "大分県",
    "city": "大分市",
    "town": "中春日町"
  },
  "8700041": {
    "zipcode": "8700041",
    "prefectureCode": "44",
    "prefectureNumber": 44,
    "prefecture": "大分県",
    "city": "大分市",
    "town": "泉町"
  },
  "8700042": {
    "zipcode": "8700042",
    "prefectureCode": "44",
    "prefectureNumber": 44,
    "prefecture": "大分県",
    "city": "大分市",
    "town": "豊町"
  },
  "8700043": {
    "zipcode": "8700043",
    "prefectureCode": "44",
    "prefectureNumber": 44,
    "prefecture": "大分県",
    "city": "大分市",
    "town": "中島東"
  },
  "8700044": {
    "zipcode": "8700044",
    "prefectureCode": "44",
    "prefectureNumber": 44,
    "prefecture": "大分県",
    "city": "大分市",
    "town": "舞鶴町"
  },
  "8700045": {
    "zipcode": "8700045",
    "prefectureCode": "44",
    "prefectureNumber": 44,
    "prefecture": "大分県",
    "city": "大分市",
    "town": "城崎町"
  },
  "8700046": {
    "zipcode": "8700046",
    "prefectureCode": "44",
    "prefectureNumber": 44,
    "prefecture": "大分県",
    "city": "大分市",
    "town": "荷揚町"
  },
  "8700047": {
    "zipcode": "8700047",
    "prefectureCode": "44",
    "prefectureNumber": 44,
    "prefecture": "大分県",
    "city": "大分市",
    "town": "中島西"
  },
  "8700048": {
    "zipcode": "8700048",
    "prefectureCode": "44",
    "prefectureNumber": 44,
    "prefecture": "大分県",
    "city": "大分市",
    "town": "碩田町"
  },
  "8700049": {
    "zipcode": "8700049",
    "prefectureCode": "44",
    "prefectureNumber": 44,
    "prefecture": "大分県",
    "city": "大分市",
    "town": "中島中央"
  },
  "8700100": {
    "zipcode": "8700100",
    "prefectureCode": "44",
    "prefectureNumber": 44,
    "prefecture": "大分県",
    "city": "大分市",
    "town": "以下に掲載がない場合"
  },
  "8700101": {
    "zipcode": "8700101",
    "prefectureCode": "44",
    "prefectureNumber": 44,
    "prefecture": "大分県",
    "city": "大分市",
    "town": "中鶴崎"
  },
  "8700102": {
    "zipcode": "8700102",
    "prefectureCode": "44",
    "prefectureNumber": 44,
    "prefecture": "大分県",
    "city": "大分市",
    "town": "北鶴崎"
  },
  "8700103": {
    "zipcode": "8700103",
    "prefectureCode": "44",
    "prefectureNumber": 44,
    "prefecture": "大分県",
    "city": "大分市",
    "town": "東鶴崎"
  },
  "8700104": {
    "zipcode": "8700104",
    "prefectureCode": "44",
    "prefectureNumber": 44,
    "prefecture": "大分県",
    "city": "大分市",
    "town": "南鶴崎"
  },
  "8700105": {
    "zipcode": "8700105",
    "prefectureCode": "44",
    "prefectureNumber": 44,
    "prefecture": "大分県",
    "city": "大分市",
    "town": "西鶴崎"
  },
  "8700106": {
    "zipcode": "8700106",
    "prefectureCode": "44",
    "prefectureNumber": 44,
    "prefecture": "大分県",
    "city": "大分市",
    "town": "鶴崎"
  },
  "8700107": {
    "zipcode": "8700107",
    "prefectureCode": "44",
    "prefectureNumber": 44,
    "prefecture": "大分県",
    "city": "大分市",
    "town": "海原"
  },
  "8700108": {
    "zipcode": "8700108",
    "prefectureCode": "44",
    "prefectureNumber": 44,
    "prefecture": "大分県",
    "city": "大分市",
    "town": "三佐"
  },
  "8700109": {
    "zipcode": "8700109",
    "prefectureCode": "44",
    "prefectureNumber": 44,
    "prefecture": "大分県",
    "city": "大分市",
    "town": "徳島"
  },
  "8700111": {
    "zipcode": "8700111",
    "prefectureCode": "44",
    "prefectureNumber": 44,
    "prefecture": "大分県",
    "city": "大分市",
    "town": "中ノ洲"
  },
  "8700112": {
    "zipcode": "8700112",
    "prefectureCode": "44",
    "prefectureNumber": 44,
    "prefecture": "大分県",
    "city": "大分市",
    "town": "一の洲"
  },
  "8700113": {
    "zipcode": "8700113",
    "prefectureCode": "44",
    "prefectureNumber": 44,
    "prefecture": "大分県",
    "city": "大分市",
    "town": "家島"
  },
  "8700114": {
    "zipcode": "8700114",
    "prefectureCode": "44",
    "prefectureNumber": 44,
    "prefecture": "大分県",
    "city": "大分市",
    "town": "小中島"
  },
  "8700115": {
    "zipcode": "8700115",
    "prefectureCode": "44",
    "prefectureNumber": 44,
    "prefecture": "大分県",
    "city": "大分市",
    "town": "関園"
  },
  "8700116": {
    "zipcode": "8700116",
    "prefectureCode": "44",
    "prefectureNumber": 44,
    "prefecture": "大分県",
    "city": "大分市",
    "town": "常行"
  },
  "8700117": {
    "zipcode": "8700117",
    "prefectureCode": "44",
    "prefectureNumber": 44,
    "prefecture": "大分県",
    "city": "大分市",
    "town": "南"
  },
  "8700118": {
    "zipcode": "8700118",
    "prefectureCode": "44",
    "prefectureNumber": 44,
    "prefecture": "大分県",
    "city": "大分市",
    "town": "下徳丸"
  },
  "8700120": {
    "zipcode": "8700120",
    "prefectureCode": "44",
    "prefectureNumber": 44,
    "prefecture": "大分県",
    "city": "大分市",
    "town": "鶴崎コスモス団地"
  },
  "8700121": {
    "zipcode": "8700121",
    "prefectureCode": "44",
    "prefectureNumber": 44,
    "prefecture": "大分県",
    "city": "大分市",
    "town": "鶴瀬"
  },
  "8700122": {
    "zipcode": "8700122",
    "prefectureCode": "44",
    "prefectureNumber": 44,
    "prefecture": "大分県",
    "city": "大分市",
    "town": "丸亀"
  },
  "8700123": {
    "zipcode": "8700123",
    "prefectureCode": "44",
    "prefectureNumber": 44,
    "prefecture": "大分県",
    "city": "大分市",
    "town": "大津留"
  },
  "8700124": {
    "zipcode": "8700124",
    "prefectureCode": "44",
    "prefectureNumber": 44,
    "prefecture": "大分県",
    "city": "大分市",
    "town": "毛井"
  },
  "8700125": {
    "zipcode": "8700125",
    "prefectureCode": "44",
    "prefectureNumber": 44,
    "prefecture": "大分県",
    "city": "大分市",
    "town": "松岡"
  },
  "8700126": {
    "zipcode": "8700126",
    "prefectureCode": "44",
    "prefectureNumber": 44,
    "prefecture": "大分県",
    "city": "大分市",
    "town": "横尾"
  },
  "8700127": {
    "zipcode": "8700127",
    "prefectureCode": "44",
    "prefectureNumber": 44,
    "prefecture": "大分県",
    "city": "大分市",
    "town": "森町"
  },
  "8700128": {
    "zipcode": "8700128",
    "prefectureCode": "44",
    "prefectureNumber": 44,
    "prefecture": "大分県",
    "city": "大分市",
    "town": "森"
  },
  "8700129": {
    "zipcode": "8700129",
    "prefectureCode": "44",
    "prefectureNumber": 44,
    "prefecture": "大分県",
    "city": "大分市",
    "town": "京が丘南"
  },
  "8700130": {
    "zipcode": "8700130",
    "prefectureCode": "44",
    "prefectureNumber": 44,
    "prefecture": "大分県",
    "city": "大分市",
    "town": "横尾東町"
  },
  "8700131": {
    "zipcode": "8700131",
    "prefectureCode": "44",
    "prefectureNumber": 44,
    "prefecture": "大分県",
    "city": "大分市",
    "town": "皆春"
  },
  "8700132": {
    "zipcode": "8700132",
    "prefectureCode": "44",
    "prefectureNumber": 44,
    "prefecture": "大分県",
    "city": "大分市",
    "town": "千歳"
  },
  "8700133": {
    "zipcode": "8700133",
    "prefectureCode": "44",
    "prefectureNumber": 44,
    "prefecture": "大分県",
    "city": "大分市",
    "town": "葛木"
  },
  "8700134": {
    "zipcode": "8700134",
    "prefectureCode": "44",
    "prefectureNumber": 44,
    "prefecture": "大分県",
    "city": "大分市",
    "town": "猪野"
  },
  "8700135": {
    "zipcode": "8700135",
    "prefectureCode": "44",
    "prefectureNumber": 44,
    "prefecture": "大分県",
    "city": "大分市",
    "town": "仲西町"
  },
  "8700136": {
    "zipcode": "8700136",
    "prefectureCode": "44",
    "prefectureNumber": 44,
    "prefecture": "大分県",
    "city": "大分市",
    "town": "山津町"
  },
  "8700137": {
    "zipcode": "8700137",
    "prefectureCode": "44",
    "prefectureNumber": 44,
    "prefecture": "大分県",
    "city": "大分市",
    "town": "寺崎町"
  },
  "8700138": {
    "zipcode": "8700138",
    "prefectureCode": "44",
    "prefectureNumber": 44,
    "prefecture": "大分県",
    "city": "大分市",
    "town": "原川"
  },
  "8700139": {
    "zipcode": "8700139",
    "prefectureCode": "44",
    "prefectureNumber": 44,
    "prefecture": "大分県",
    "city": "大分市",
    "town": "桃園団地"
  },
  "8700140": {
    "zipcode": "8700140",
    "prefectureCode": "44",
    "prefectureNumber": 44,
    "prefecture": "大分県",
    "city": "大分市",
    "town": "森町西"
  },
  "8700141": {
    "zipcode": "8700141",
    "prefectureCode": "44",
    "prefectureNumber": 44,
    "prefecture": "大分県",
    "city": "大分市",
    "town": "三川新町"
  },
  "8700142": {
    "zipcode": "8700142",
    "prefectureCode": "44",
    "prefectureNumber": 44,
    "prefecture": "大分県",
    "city": "大分市",
    "town": "三川下"
  },
  "8700143": {
    "zipcode": "8700143",
    "prefectureCode": "44",
    "prefectureNumber": 44,
    "prefecture": "大分県",
    "city": "大分市",
    "town": "三川上"
  },
  "8700144": {
    "zipcode": "8700144",
    "prefectureCode": "44",
    "prefectureNumber": 44,
    "prefecture": "大分県",
    "city": "大分市",
    "town": "乙津"
  },
  "8700145": {
    "zipcode": "8700145",
    "prefectureCode": "44",
    "prefectureNumber": 44,
    "prefecture": "大分県",
    "city": "大分市",
    "town": "乙津町"
  },
  "8700146": {
    "zipcode": "8700146",
    "prefectureCode": "44",
    "prefectureNumber": 44,
    "prefecture": "大分県",
    "city": "大分市",
    "town": "乙津港町"
  },
  "8700147": {
    "zipcode": "8700147",
    "prefectureCode": "44",
    "prefectureNumber": 44,
    "prefecture": "大分県",
    "city": "大分市",
    "town": "小池原"
  },
  "8700148": {
    "zipcode": "8700148",
    "prefectureCode": "44",
    "prefectureNumber": 44,
    "prefecture": "大分県",
    "city": "大分市",
    "town": "高城台"
  },
  "8700149": {
    "zipcode": "8700149",
    "prefectureCode": "44",
    "prefectureNumber": 44,
    "prefecture": "大分県",
    "city": "大分市",
    "town": "高城団地"
  },
  "8700150": {
    "zipcode": "8700150",
    "prefectureCode": "44",
    "prefectureNumber": 44,
    "prefecture": "大分県",
    "city": "大分市",
    "town": "東原"
  },
  "8700151": {
    "zipcode": "8700151",
    "prefectureCode": "44",
    "prefectureNumber": 44,
    "prefecture": "大分県",
    "city": "大分市",
    "town": "東明野"
  },
  "8700152": {
    "zipcode": "8700152",
    "prefectureCode": "44",
    "prefectureNumber": 44,
    "prefecture": "大分県",
    "city": "大分市",
    "town": "牧（その他）"
  },
  "8700153": {
    "zipcode": "8700153",
    "prefectureCode": "44",
    "prefectureNumber": 44,
    "prefecture": "大分県",
    "city": "大分市",
    "town": "城東町（その他）"
  },
  "8700154": {
    "zipcode": "8700154",
    "prefectureCode": "44",
    "prefectureNumber": 44,
    "prefecture": "大分県",
    "city": "大分市",
    "town": "高城西町（その他）"
  },
  "8700155": {
    "zipcode": "8700155",
    "prefectureCode": "44",
    "prefectureNumber": 44,
    "prefecture": "大分県",
    "city": "大分市",
    "town": "高城南町"
  },
  "8700156": {
    "zipcode": "8700156",
    "prefectureCode": "44",
    "prefectureNumber": 44,
    "prefecture": "大分県",
    "city": "大分市",
    "town": "高城新町"
  },
  "8700157": {
    "zipcode": "8700157",
    "prefectureCode": "44",
    "prefectureNumber": 44,
    "prefecture": "大分県",
    "city": "大分市",
    "town": "高城本町"
  },
  "8700158": {
    "zipcode": "8700158",
    "prefectureCode": "44",
    "prefectureNumber": 44,
    "prefecture": "大分県",
    "city": "大分市",
    "town": "岡"
  },
  "8700159": {
    "zipcode": "8700159",
    "prefectureCode": "44",
    "prefectureNumber": 44,
    "prefecture": "大分県",
    "city": "大分市",
    "town": "岡新町"
  },
  "8700161": {
    "zipcode": "8700161",
    "prefectureCode": "44",
    "prefectureNumber": 44,
    "prefecture": "大分県",
    "city": "大分市",
    "town": "明野東"
  },
  "8700162": {
    "zipcode": "8700162",
    "prefectureCode": "44",
    "prefectureNumber": 44,
    "prefecture": "大分県",
    "city": "大分市",
    "town": "明野高尾"
  },
  "8700163": {
    "zipcode": "8700163",
    "prefectureCode": "44",
    "prefectureNumber": 44,
    "prefecture": "大分県",
    "city": "大分市",
    "town": "明野南"
  },
  "8700164": {
    "zipcode": "8700164",
    "prefectureCode": "44",
    "prefectureNumber": 44,
    "prefecture": "大分県",
    "city": "大分市",
    "town": "明野西"
  },
  "8700165": {
    "zipcode": "8700165",
    "prefectureCode": "44",
    "prefectureNumber": 44,
    "prefecture": "大分県",
    "city": "大分市",
    "town": "明野北"
  },
  "8700166": {
    "zipcode": "8700166",
    "prefectureCode": "44",
    "prefectureNumber": 44,
    "prefecture": "大分県",
    "city": "大分市",
    "town": "明野北町"
  },
  "8700167": {
    "zipcode": "8700167",
    "prefectureCode": "44",
    "prefectureNumber": 44,
    "prefecture": "大分県",
    "city": "大分市",
    "town": "明野紅陽台"
  },
  "8700168": {
    "zipcode": "8700168",
    "prefectureCode": "44",
    "prefectureNumber": 44,
    "prefecture": "大分県",
    "city": "大分市",
    "town": "明野ハイツ"
  },
  "8700171": {
    "zipcode": "8700171",
    "prefectureCode": "44",
    "prefectureNumber": 44,
    "prefecture": "大分県",
    "city": "大分市",
    "town": "法勝台"
  },
  "8700172": {
    "zipcode": "8700172",
    "prefectureCode": "44",
    "prefectureNumber": 44,
    "prefecture": "大分県",
    "city": "大分市",
    "town": "新明治"
  },
  "8700173": {
    "zipcode": "8700173",
    "prefectureCode": "44",
    "prefectureNumber": 44,
    "prefecture": "大分県",
    "city": "大分市",
    "town": "公園通り"
  },
  "8700174": {
    "zipcode": "8700174",
    "prefectureCode": "44",
    "prefectureNumber": 44,
    "prefecture": "大分県",
    "city": "大分市",
    "town": "公園通り西"
  },
  "8700241": {
    "zipcode": "8700241",
    "prefectureCode": "44",
    "prefectureNumber": 44,
    "prefecture": "大分県",
    "city": "大分市",
    "town": "庄境"
  },
  "8700242": {
    "zipcode": "8700242",
    "prefectureCode": "44",
    "prefectureNumber": 44,
    "prefecture": "大分県",
    "city": "大分市",
    "town": "角子南"
  },
  "8700243": {
    "zipcode": "8700243",
    "prefectureCode": "44",
    "prefectureNumber": 44,
    "prefecture": "大分県",
    "city": "大分市",
    "town": "花江川"
  },
  "8700244": {
    "zipcode": "8700244",
    "prefectureCode": "44",
    "prefectureNumber": 44,
    "prefecture": "大分県",
    "city": "大分市",
    "town": "須賀"
  },
  "8700245": {
    "zipcode": "8700245",
    "prefectureCode": "44",
    "prefectureNumber": 44,
    "prefecture": "大分県",
    "city": "大分市",
    "town": "大在北"
  },
  "8700251": {
    "zipcode": "8700251",
    "prefectureCode": "44",
    "prefectureNumber": 44,
    "prefecture": "大分県",
    "city": "大分市",
    "town": "大在中央"
  },
  "8700252": {
    "zipcode": "8700252",
    "prefectureCode": "44",
    "prefectureNumber": 44,
    "prefecture": "大分県",
    "city": "大分市",
    "town": "大在浜"
  },
  "8700253": {
    "zipcode": "8700253",
    "prefectureCode": "44",
    "prefectureNumber": 44,
    "prefecture": "大分県",
    "city": "大分市",
    "town": "汐見"
  },
  "8700254": {
    "zipcode": "8700254",
    "prefectureCode": "44",
    "prefectureNumber": 44,
    "prefecture": "大分県",
    "city": "大分市",
    "town": "横塚"
  },
  "8700261": {
    "zipcode": "8700261",
    "prefectureCode": "44",
    "prefectureNumber": 44,
    "prefecture": "大分県",
    "city": "大分市",
    "town": "志村"
  },
  "8700263": {
    "zipcode": "8700263",
    "prefectureCode": "44",
    "prefectureNumber": 44,
    "prefecture": "大分県",
    "city": "大分市",
    "town": "横田"
  },
  "8700265": {
    "zipcode": "8700265",
    "prefectureCode": "44",
    "prefectureNumber": 44,
    "prefecture": "大分県",
    "city": "大分市",
    "town": "竹下"
  },
  "8700266": {
    "zipcode": "8700266",
    "prefectureCode": "44",
    "prefectureNumber": 44,
    "prefecture": "大分県",
    "city": "大分市",
    "town": "大在"
  },
  "8700267": {
    "zipcode": "8700267",
    "prefectureCode": "44",
    "prefectureNumber": 44,
    "prefecture": "大分県",
    "city": "大分市",
    "town": "城原"
  },
  "8700268": {
    "zipcode": "8700268",
    "prefectureCode": "44",
    "prefectureNumber": 44,
    "prefecture": "大分県",
    "city": "大分市",
    "town": "政所"
  },
  "8700270": {
    "zipcode": "8700270",
    "prefectureCode": "44",
    "prefectureNumber": 44,
    "prefecture": "大分県",
    "city": "大分市",
    "town": "望みが丘"
  },
  "8700271": {
    "zipcode": "8700271",
    "prefectureCode": "44",
    "prefectureNumber": 44,
    "prefecture": "大分県",
    "city": "大分市",
    "town": "角子原"
  },
  "8700272": {
    "zipcode": "8700272",
    "prefectureCode": "44",
    "prefectureNumber": 44,
    "prefecture": "大分県",
    "city": "大分市",
    "town": "迫"
  },
  "8700273": {
    "zipcode": "8700273",
    "prefectureCode": "44",
    "prefectureNumber": 44,
    "prefecture": "大分県",
    "city": "大分市",
    "town": "曙台"
  },
  "8700274": {
    "zipcode": "8700274",
    "prefectureCode": "44",
    "prefectureNumber": 44,
    "prefecture": "大分県",
    "city": "大分市",
    "town": "種具"
  },
  "8700275": {
    "zipcode": "8700275",
    "prefectureCode": "44",
    "prefectureNumber": 44,
    "prefecture": "大分県",
    "city": "大分市",
    "town": "宮河内ハイランド"
  },
  "8700276": {
    "zipcode": "8700276",
    "prefectureCode": "44",
    "prefectureNumber": 44,
    "prefecture": "大分県",
    "city": "大分市",
    "town": "宮河内"
  },
  "8700277": {
    "zipcode": "8700277",
    "prefectureCode": "44",
    "prefectureNumber": 44,
    "prefecture": "大分県",
    "city": "大分市",
    "town": "広内"
  },
  "8700278": {
    "zipcode": "8700278",
    "prefectureCode": "44",
    "prefectureNumber": 44,
    "prefecture": "大分県",
    "city": "大分市",
    "town": "青崎"
  },
  "8700279": {
    "zipcode": "8700279",
    "prefectureCode": "44",
    "prefectureNumber": 44,
    "prefecture": "大分県",
    "city": "大分市",
    "town": "つるさき陽光台"
  },
  "8700301": {
    "zipcode": "8700301",
    "prefectureCode": "44",
    "prefectureNumber": 44,
    "prefecture": "大分県",
    "city": "大分市",
    "town": "日吉原"
  },
  "8700302": {
    "zipcode": "8700302",
    "prefectureCode": "44",
    "prefectureNumber": 44,
    "prefecture": "大分県",
    "city": "大分市",
    "town": "坂ノ市"
  },
  "8700303": {
    "zipcode": "8700303",
    "prefectureCode": "44",
    "prefectureNumber": 44,
    "prefecture": "大分県",
    "city": "大分市",
    "town": "里"
  },
  "8700304": {
    "zipcode": "8700304",
    "prefectureCode": "44",
    "prefectureNumber": 44,
    "prefecture": "大分県",
    "city": "大分市",
    "town": "久原"
  },
  "8700305": {
    "zipcode": "8700305",
    "prefectureCode": "44",
    "prefectureNumber": 44,
    "prefecture": "大分県",
    "city": "大分市",
    "town": "細"
  },
  "8700306": {
    "zipcode": "8700306",
    "prefectureCode": "44",
    "prefectureNumber": 44,
    "prefecture": "大分県",
    "city": "大分市",
    "town": "東上野"
  },
  "8700307": {
    "zipcode": "8700307",
    "prefectureCode": "44",
    "prefectureNumber": 44,
    "prefecture": "大分県",
    "city": "大分市",
    "town": "坂ノ市中央"
  },
  "8700308": {
    "zipcode": "8700308",
    "prefectureCode": "44",
    "prefectureNumber": 44,
    "prefecture": "大分県",
    "city": "大分市",
    "town": "坂ノ市南"
  },
  "8700309": {
    "zipcode": "8700309",
    "prefectureCode": "44",
    "prefectureNumber": 44,
    "prefecture": "大分県",
    "city": "大分市",
    "town": "坂ノ市西"
  },
  "8700311": {
    "zipcode": "8700311",
    "prefectureCode": "44",
    "prefectureNumber": 44,
    "prefecture": "大分県",
    "city": "大分市",
    "town": "木田"
  },
  "8700312": {
    "zipcode": "8700312",
    "prefectureCode": "44",
    "prefectureNumber": 44,
    "prefecture": "大分県",
    "city": "大分市",
    "town": "市尾"
  },
  "8700313": {
    "zipcode": "8700313",
    "prefectureCode": "44",
    "prefectureNumber": 44,
    "prefecture": "大分県",
    "city": "大分市",
    "town": "屋山"
  },
  "8700314": {
    "zipcode": "8700314",
    "prefectureCode": "44",
    "prefectureNumber": 44,
    "prefecture": "大分県",
    "city": "大分市",
    "town": "久土"
  },
  "8700315": {
    "zipcode": "8700315",
    "prefectureCode": "44",
    "prefectureNumber": 44,
    "prefecture": "大分県",
    "city": "大分市",
    "town": "佐野"
  },
  "8700316": {
    "zipcode": "8700316",
    "prefectureCode": "44",
    "prefectureNumber": 44,
    "prefecture": "大分県",
    "city": "大分市",
    "town": "一木"
  },
  "8700317": {
    "zipcode": "8700317",
    "prefectureCode": "44",
    "prefectureNumber": 44,
    "prefecture": "大分県",
    "city": "大分市",
    "town": "丹川"
  },
  "8700318": {
    "zipcode": "8700318",
    "prefectureCode": "44",
    "prefectureNumber": 44,
    "prefecture": "大分県",
    "city": "大分市",
    "town": "丹生"
  },
  "8700319": {
    "zipcode": "8700319",
    "prefectureCode": "44",
    "prefectureNumber": 44,
    "prefecture": "大分県",
    "city": "大分市",
    "town": "大分流通業務団地"
  },
  "8700321": {
    "zipcode": "8700321",
    "prefectureCode": "44",
    "prefectureNumber": 44,
    "prefecture": "大分県",
    "city": "大分市",
    "town": "王ノ瀬"
  },
  "8700322": {
    "zipcode": "8700322",
    "prefectureCode": "44",
    "prefectureNumber": 44,
    "prefecture": "大分県",
    "city": "大分市",
    "town": "恵比寿町"
  },
  "8700323": {
    "zipcode": "8700323",
    "prefectureCode": "44",
    "prefectureNumber": 44,
    "prefecture": "大分県",
    "city": "大分市",
    "town": "浜中"
  },
  "8700324": {
    "zipcode": "8700324",
    "prefectureCode": "44",
    "prefectureNumber": 44,
    "prefecture": "大分県",
    "city": "大分市",
    "town": "久原北"
  },
  "8700325": {
    "zipcode": "8700325",
    "prefectureCode": "44",
    "prefectureNumber": 44,
    "prefecture": "大分県",
    "city": "大分市",
    "town": "久原中央"
  },
  "8700326": {
    "zipcode": "8700326",
    "prefectureCode": "44",
    "prefectureNumber": 44,
    "prefecture": "大分県",
    "city": "大分市",
    "town": "久原南"
  },
  "8700327": {
    "zipcode": "8700327",
    "prefectureCode": "44",
    "prefectureNumber": 44,
    "prefecture": "大分県",
    "city": "大分市",
    "town": "小佐井"
  },
  "8700801": {
    "zipcode": "8700801",
    "prefectureCode": "44",
    "prefectureNumber": 44,
    "prefecture": "大分県",
    "city": "大分市",
    "town": "鳴川"
  },
  "8700802": {
    "zipcode": "8700802",
    "prefectureCode": "44",
    "prefectureNumber": 44,
    "prefecture": "大分県",
    "city": "大分市",
    "town": "田ノ浦"
  },
  "8700803": {
    "zipcode": "8700803",
    "prefectureCode": "44",
    "prefectureNumber": 44,
    "prefecture": "大分県",
    "city": "大分市",
    "town": "下白木"
  },
  "8700804": {
    "zipcode": "8700804",
    "prefectureCode": "44",
    "prefectureNumber": 44,
    "prefecture": "大分県",
    "city": "大分市",
    "town": "御幸町"
  },
  "8700805": {
    "zipcode": "8700805",
    "prefectureCode": "44",
    "prefectureNumber": 44,
    "prefecture": "大分県",
    "city": "大分市",
    "town": "上白木"
  },
  "8700806": {
    "zipcode": "8700806",
    "prefectureCode": "44",
    "prefectureNumber": 44,
    "prefecture": "大分県",
    "city": "大分市",
    "town": "大久保"
  },
  "8700807": {
    "zipcode": "8700807",
    "prefectureCode": "44",
    "prefectureNumber": 44,
    "prefecture": "大分県",
    "city": "大分市",
    "town": "下八幡"
  },
  "8700808": {
    "zipcode": "8700808",
    "prefectureCode": "44",
    "prefectureNumber": 44,
    "prefecture": "大分県",
    "city": "大分市",
    "town": "上八幡"
  },
  "8700809": {
    "zipcode": "8700809",
    "prefectureCode": "44",
    "prefectureNumber": 44,
    "prefecture": "大分県",
    "city": "大分市",
    "town": "机張原"
  },
  "8700811": {
    "zipcode": "8700811",
    "prefectureCode": "44",
    "prefectureNumber": 44,
    "prefecture": "大分県",
    "city": "大分市",
    "town": "南生石西"
  },
  "8700812": {
    "zipcode": "8700812",
    "prefectureCode": "44",
    "prefectureNumber": 44,
    "prefecture": "大分県",
    "city": "大分市",
    "town": "南生石東"
  },
  "8700813": {
    "zipcode": "8700813",
    "prefectureCode": "44",
    "prefectureNumber": 44,
    "prefecture": "大分県",
    "city": "大分市",
    "town": "王子山の手町"
  },
  "8700815": {
    "zipcode": "8700815",
    "prefectureCode": "44",
    "prefectureNumber": 44,
    "prefecture": "大分県",
    "city": "大分市",
    "town": "南春日町"
  },
  "8700816": {
    "zipcode": "8700816",
    "prefectureCode": "44",
    "prefectureNumber": 44,
    "prefecture": "大分県",
    "city": "大分市",
    "town": "田室町"
  },
  "8700817": {
    "zipcode": "8700817",
    "prefectureCode": "44",
    "prefectureNumber": 44,
    "prefecture": "大分県",
    "city": "大分市",
    "town": "上春日町"
  },
  "8700818": {
    "zipcode": "8700818",
    "prefectureCode": "44",
    "prefectureNumber": 44,
    "prefecture": "大分県",
    "city": "大分市",
    "town": "新春日町"
  },
  "8700819": {
    "zipcode": "8700819",
    "prefectureCode": "44",
    "prefectureNumber": 44,
    "prefecture": "大分県",
    "city": "大分市",
    "town": "王子新町"
  },
  "8700820": {
    "zipcode": "8700820",
    "prefectureCode": "44",
    "prefectureNumber": 44,
    "prefecture": "大分県",
    "city": "大分市",
    "town": "西大道"
  },
  "8700821": {
    "zipcode": "8700821",
    "prefectureCode": "44",
    "prefectureNumber": 44,
    "prefecture": "大分県",
    "city": "大分市",
    "town": "志手"
  },
  "8700822": {
    "zipcode": "8700822",
    "prefectureCode": "44",
    "prefectureNumber": 44,
    "prefecture": "大分県",
    "city": "大分市",
    "town": "大道町"
  },
  "8700823": {
    "zipcode": "8700823",
    "prefectureCode": "44",
    "prefectureNumber": 44,
    "prefecture": "大分県",
    "city": "大分市",
    "town": "東大道"
  },
  "8700824": {
    "zipcode": "8700824",
    "prefectureCode": "44",
    "prefectureNumber": 44,
    "prefecture": "大分県",
    "city": "大分市",
    "town": "城南東"
  },
  "8700825": {
    "zipcode": "8700825",
    "prefectureCode": "44",
    "prefectureNumber": 44,
    "prefecture": "大分県",
    "city": "大分市",
    "town": "城南南"
  },
  "8700826": {
    "zipcode": "8700826",
    "prefectureCode": "44",
    "prefectureNumber": 44,
    "prefecture": "大分県",
    "city": "大分市",
    "town": "城南西"
  },
  "8700827": {
    "zipcode": "8700827",
    "prefectureCode": "44",
    "prefectureNumber": 44,
    "prefecture": "大分県",
    "city": "大分市",
    "town": "城南北"
  },
  "8700828": {
    "zipcode": "8700828",
    "prefectureCode": "44",
    "prefectureNumber": 44,
    "prefecture": "大分県",
    "city": "大分市",
    "town": "城南山手台"
  },
  "8700829": {
    "zipcode": "8700829",
    "prefectureCode": "44",
    "prefectureNumber": 44,
    "prefecture": "大分県",
    "city": "大分市",
    "town": "椎迫"
  },
  "8700831": {
    "zipcode": "8700831",
    "prefectureCode": "44",
    "prefectureNumber": 44,
    "prefecture": "大分県",
    "city": "大分市",
    "town": "要町"
  },
  "8700832": {
    "zipcode": "8700832",
    "prefectureCode": "44",
    "prefectureNumber": 44,
    "prefecture": "大分県",
    "city": "大分市",
    "town": "上野町"
  },
  "8700833": {
    "zipcode": "8700833",
    "prefectureCode": "44",
    "prefectureNumber": 44,
    "prefecture": "大分県",
    "city": "大分市",
    "town": "上野丘東"
  },
  "8700834": {
    "zipcode": "8700834",
    "prefectureCode": "44",
    "prefectureNumber": 44,
    "prefecture": "大分県",
    "city": "大分市",
    "town": "上野丘西"
  },
  "8700835": {
    "zipcode": "8700835",
    "prefectureCode": "44",
    "prefectureNumber": 44,
    "prefecture": "大分県",
    "city": "大分市",
    "town": "上野丘"
  },
  "8700837": {
    "zipcode": "8700837",
    "prefectureCode": "44",
    "prefectureNumber": 44,
    "prefecture": "大分県",
    "city": "大分市",
    "town": "太平町"
  },
  "8700838": {
    "zipcode": "8700838",
    "prefectureCode": "44",
    "prefectureNumber": 44,
    "prefecture": "大分県",
    "city": "大分市",
    "town": "桜ケ丘"
  },
  "8700839": {
    "zipcode": "8700839",
    "prefectureCode": "44",
    "prefectureNumber": 44,
    "prefecture": "大分県",
    "city": "大分市",
    "town": "金池南"
  },
  "8700841": {
    "zipcode": "8700841",
    "prefectureCode": "44",
    "prefectureNumber": 44,
    "prefecture": "大分県",
    "city": "大分市",
    "town": "六坊北町"
  },
  "8700842": {
    "zipcode": "8700842",
    "prefectureCode": "44",
    "prefectureNumber": 44,
    "prefecture": "大分県",
    "city": "大分市",
    "town": "六坊南町"
  },
  "8700843": {
    "zipcode": "8700843",
    "prefectureCode": "44",
    "prefectureNumber": 44,
    "prefecture": "大分県",
    "city": "大分市",
    "town": "元町"
  },
  "8700844": {
    "zipcode": "8700844",
    "prefectureCode": "44",
    "prefectureNumber": 44,
    "prefecture": "大分県",
    "city": "大分市",
    "town": "古国府"
  },
  "8700846": {
    "zipcode": "8700846",
    "prefectureCode": "44",
    "prefectureNumber": 44,
    "prefecture": "大分県",
    "city": "大分市",
    "town": "花園"
  },
  "8700847": {
    "zipcode": "8700847",
    "prefectureCode": "44",
    "prefectureNumber": 44,
    "prefecture": "大分県",
    "city": "大分市",
    "town": "広瀬町"
  },
  "8700848": {
    "zipcode": "8700848",
    "prefectureCode": "44",
    "prefectureNumber": 44,
    "prefecture": "大分県",
    "city": "大分市",
    "town": "賀来北"
  },
  "8700849": {
    "zipcode": "8700849",
    "prefectureCode": "44",
    "prefectureNumber": 44,
    "prefecture": "大分県",
    "city": "大分市",
    "town": "賀来南"
  },
  "8700850": {
    "zipcode": "8700850",
    "prefectureCode": "44",
    "prefectureNumber": 44,
    "prefecture": "大分県",
    "city": "大分市",
    "town": "賀来西"
  },
  "8700851": {
    "zipcode": "8700851",
    "prefectureCode": "44",
    "prefectureNumber": 44,
    "prefecture": "大分県",
    "city": "大分市",
    "town": "大石町"
  },
  "8700852": {
    "zipcode": "8700852",
    "prefectureCode": "44",
    "prefectureNumber": 44,
    "prefecture": "大分県",
    "city": "大分市",
    "town": "田中町"
  },
  "8700853": {
    "zipcode": "8700853",
    "prefectureCode": "44",
    "prefectureNumber": 44,
    "prefecture": "大分県",
    "city": "大分市",
    "town": "羽屋新町"
  },
  "8700854": {
    "zipcode": "8700854",
    "prefectureCode": "44",
    "prefectureNumber": 44,
    "prefecture": "大分県",
    "city": "大分市",
    "town": "羽屋"
  },
  "8700855": {
    "zipcode": "8700855",
    "prefectureCode": "44",
    "prefectureNumber": 44,
    "prefecture": "大分県",
    "city": "大分市",
    "town": "豊饒"
  },
  "8700856": {
    "zipcode": "8700856",
    "prefectureCode": "44",
    "prefectureNumber": 44,
    "prefecture": "大分県",
    "city": "大分市",
    "town": "畑中"
  },
  "8700857": {
    "zipcode": "8700857",
    "prefectureCode": "44",
    "prefectureNumber": 44,
    "prefecture": "大分県",
    "city": "大分市",
    "town": "明磧"
  },
  "8700858": {
    "zipcode": "8700858",
    "prefectureCode": "44",
    "prefectureNumber": 44,
    "prefecture": "大分県",
    "city": "大分市",
    "town": "尼が瀬"
  },
  "8700859": {
    "zipcode": "8700859",
    "prefectureCode": "44",
    "prefectureNumber": 44,
    "prefecture": "大分県",
    "city": "大分市",
    "town": "中の瀬町"
  },
  "8700860": {
    "zipcode": "8700860",
    "prefectureCode": "44",
    "prefectureNumber": 44,
    "prefecture": "大分県",
    "city": "大分市",
    "town": "明磧町"
  },
  "8700861": {
    "zipcode": "8700861",
    "prefectureCode": "44",
    "prefectureNumber": 44,
    "prefecture": "大分県",
    "city": "大分市",
    "town": "東院"
  },
  "8700862": {
    "zipcode": "8700862",
    "prefectureCode": "44",
    "prefectureNumber": 44,
    "prefecture": "大分県",
    "city": "大分市",
    "town": "中尾"
  },
  "8700863": {
    "zipcode": "8700863",
    "prefectureCode": "44",
    "prefectureNumber": 44,
    "prefecture": "大分県",
    "city": "大分市",
    "town": "国分台"
  },
  "8700864": {
    "zipcode": "8700864",
    "prefectureCode": "44",
    "prefectureNumber": 44,
    "prefecture": "大分県",
    "city": "大分市",
    "town": "国分"
  },
  "8700865": {
    "zipcode": "8700865",
    "prefectureCode": "44",
    "prefectureNumber": 44,
    "prefecture": "大分県",
    "city": "大分市",
    "town": "国分団地"
  },
  "8700866": {
    "zipcode": "8700866",
    "prefectureCode": "44",
    "prefectureNumber": 44,
    "prefecture": "大分県",
    "city": "大分市",
    "town": "平横瀬"
  },
  "8700867": {
    "zipcode": "8700867",
    "prefectureCode": "44",
    "prefectureNumber": 44,
    "prefecture": "大分県",
    "city": "大分市",
    "town": "東野台"
  },
  "8700868": {
    "zipcode": "8700868",
    "prefectureCode": "44",
    "prefectureNumber": 44,
    "prefecture": "大分県",
    "city": "大分市",
    "town": "野田"
  },
  "8700869": {
    "zipcode": "8700869",
    "prefectureCode": "44",
    "prefectureNumber": 44,
    "prefecture": "大分県",
    "city": "大分市",
    "town": "国分新町"
  },
  "8700870": {
    "zipcode": "8700870",
    "prefectureCode": "44",
    "prefectureNumber": 44,
    "prefecture": "大分県",
    "city": "大分市",
    "town": "季の坂"
  },
  "8700871": {
    "zipcode": "8700871",
    "prefectureCode": "44",
    "prefectureNumber": 44,
    "prefecture": "大分県",
    "city": "大分市",
    "town": "東八幡"
  },
  "8700872": {
    "zipcode": "8700872",
    "prefectureCode": "44",
    "prefectureNumber": 44,
    "prefecture": "大分県",
    "city": "大分市",
    "town": "高崎"
  },
  "8700873": {
    "zipcode": "8700873",
    "prefectureCode": "44",
    "prefectureNumber": 44,
    "prefecture": "大分県",
    "city": "大分市",
    "town": "高尾台"
  },
  "8700874": {
    "zipcode": "8700874",
    "prefectureCode": "44",
    "prefectureNumber": 44,
    "prefecture": "大分県",
    "city": "大分市",
    "town": "にじが丘"
  },
  "8700875": {
    "zipcode": "8700875",
    "prefectureCode": "44",
    "prefectureNumber": 44,
    "prefecture": "大分県",
    "city": "大分市",
    "town": "青葉台"
  },
  "8700876": {
    "zipcode": "8700876",
    "prefectureCode": "44",
    "prefectureNumber": 44,
    "prefecture": "大分県",
    "city": "大分市",
    "town": "庄の原"
  },
  "8700877": {
    "zipcode": "8700877",
    "prefectureCode": "44",
    "prefectureNumber": 44,
    "prefecture": "大分県",
    "city": "大分市",
    "town": "賀来"
  },
  "8700878": {
    "zipcode": "8700878",
    "prefectureCode": "44",
    "prefectureNumber": 44,
    "prefecture": "大分県",
    "city": "大分市",
    "town": "宮苑"
  },
  "8700879": {
    "zipcode": "8700879",
    "prefectureCode": "44",
    "prefectureNumber": 44,
    "prefecture": "大分県",
    "city": "大分市",
    "town": "金谷迫"
  },
  "8700880": {
    "zipcode": "8700880",
    "prefectureCode": "44",
    "prefectureNumber": 44,
    "prefecture": "大分県",
    "city": "大分市",
    "town": "はなの森"
  },
  "8700881": {
    "zipcode": "8700881",
    "prefectureCode": "44",
    "prefectureNumber": 44,
    "prefecture": "大分県",
    "city": "大分市",
    "town": "深河内"
  },
  "8700882": {
    "zipcode": "8700882",
    "prefectureCode": "44",
    "prefectureNumber": 44,
    "prefecture": "大分県",
    "city": "大分市",
    "town": "竹の上"
  },
  "8700883": {
    "zipcode": "8700883",
    "prefectureCode": "44",
    "prefectureNumber": 44,
    "prefecture": "大分県",
    "city": "大分市",
    "town": "永興"
  },
  "8700884": {
    "zipcode": "8700884",
    "prefectureCode": "44",
    "prefectureNumber": 44,
    "prefecture": "大分県",
    "city": "大分市",
    "town": "旭町"
  },
  "8700885": {
    "zipcode": "8700885",
    "prefectureCode": "44",
    "prefectureNumber": 44,
    "prefecture": "大分県",
    "city": "大分市",
    "town": "南太平寺"
  },
  "8700886": {
    "zipcode": "8700886",
    "prefectureCode": "44",
    "prefectureNumber": 44,
    "prefecture": "大分県",
    "city": "大分市",
    "town": "上田町"
  },
  "8700887": {
    "zipcode": "8700887",
    "prefectureCode": "44",
    "prefectureNumber": 44,
    "prefecture": "大分県",
    "city": "大分市",
    "town": "二又町"
  },
  "8700888": {
    "zipcode": "8700888",
    "prefectureCode": "44",
    "prefectureNumber": 44,
    "prefecture": "大分県",
    "city": "大分市",
    "town": "三ケ田町"
  },
  "8700889": {
    "zipcode": "8700889",
    "prefectureCode": "44",
    "prefectureNumber": 44,
    "prefecture": "大分県",
    "city": "大分市",
    "town": "荏隈"
  },
  "8700891": {
    "zipcode": "8700891",
    "prefectureCode": "44",
    "prefectureNumber": 44,
    "prefecture": "大分県",
    "city": "大分市",
    "town": "荏隈町"
  },
  "8700892": {
    "zipcode": "8700892",
    "prefectureCode": "44",
    "prefectureNumber": 44,
    "prefecture": "大分県",
    "city": "大分市",
    "town": "賀来新川"
  },
  "8700901": {
    "zipcode": "8700901",
    "prefectureCode": "44",
    "prefectureNumber": 44,
    "prefecture": "大分県",
    "city": "大分市",
    "town": "西新地"
  },
  "8700902": {
    "zipcode": "8700902",
    "prefectureCode": "44",
    "prefectureNumber": 44,
    "prefecture": "大分県",
    "city": "大分市",
    "town": "西ノ洲"
  },
  "8700903": {
    "zipcode": "8700903",
    "prefectureCode": "44",
    "prefectureNumber": 44,
    "prefecture": "大分県",
    "city": "大分市",
    "town": "向原沖"
  },
  "8700904": {
    "zipcode": "8700904",
    "prefectureCode": "44",
    "prefectureNumber": 44,
    "prefecture": "大分県",
    "city": "大分市",
    "town": "向原東"
  },
  "8700905": {
    "zipcode": "8700905",
    "prefectureCode": "44",
    "prefectureNumber": 44,
    "prefecture": "大分県",
    "city": "大分市",
    "town": "向原西"
  },
  "8700906": {
    "zipcode": "8700906",
    "prefectureCode": "44",
    "prefectureNumber": 44,
    "prefecture": "大分県",
    "city": "大分市",
    "town": "大州浜"
  },
  "8700907": {
    "zipcode": "8700907",
    "prefectureCode": "44",
    "prefectureNumber": 44,
    "prefecture": "大分県",
    "city": "大分市",
    "town": "大津町"
  },
  "8700908": {
    "zipcode": "8700908",
    "prefectureCode": "44",
    "prefectureNumber": 44,
    "prefecture": "大分県",
    "city": "大分市",
    "town": "青葉町"
  },
  "8700911": {
    "zipcode": "8700911",
    "prefectureCode": "44",
    "prefectureNumber": 44,
    "prefecture": "大分県",
    "city": "大分市",
    "town": "新貝"
  },
  "8700912": {
    "zipcode": "8700912",
    "prefectureCode": "44",
    "prefectureNumber": 44,
    "prefecture": "大分県",
    "city": "大分市",
    "town": "原新町"
  },
  "8700913": {
    "zipcode": "8700913",
    "prefectureCode": "44",
    "prefectureNumber": 44,
    "prefecture": "大分県",
    "city": "大分市",
    "town": "松原町"
  },
  "8700914": {
    "zipcode": "8700914",
    "prefectureCode": "44",
    "prefectureNumber": 44,
    "prefecture": "大分県",
    "city": "大分市",
    "town": "日岡"
  },
  "8700915": {
    "zipcode": "8700915",
    "prefectureCode": "44",
    "prefectureNumber": 44,
    "prefecture": "大分県",
    "city": "大分市",
    "town": "花高松"
  },
  "8700916": {
    "zipcode": "8700916",
    "prefectureCode": "44",
    "prefectureNumber": 44,
    "prefecture": "大分県",
    "city": "大分市",
    "town": "高松東"
  },
  "8700917": {
    "zipcode": "8700917",
    "prefectureCode": "44",
    "prefectureNumber": 44,
    "prefecture": "大分県",
    "city": "大分市",
    "town": "高松"
  },
  "8700918": {
    "zipcode": "8700918",
    "prefectureCode": "44",
    "prefectureNumber": 44,
    "prefecture": "大分県",
    "city": "大分市",
    "town": "日吉町"
  },
  "8700919": {
    "zipcode": "8700919",
    "prefectureCode": "44",
    "prefectureNumber": 44,
    "prefecture": "大分県",
    "city": "大分市",
    "town": "新栄町"
  },
  "8700921": {
    "zipcode": "8700921",
    "prefectureCode": "44",
    "prefectureNumber": 44,
    "prefecture": "大分県",
    "city": "大分市",
    "town": "萩原"
  },
  "8700922": {
    "zipcode": "8700922",
    "prefectureCode": "44",
    "prefectureNumber": 44,
    "prefecture": "大分県",
    "city": "大分市",
    "town": "城東町（３の２２、４の２、４の３０）"
  },
  "8700923": {
    "zipcode": "8700923",
    "prefectureCode": "44",
    "prefectureNumber": 44,
    "prefecture": "大分県",
    "city": "大分市",
    "town": "高城西町（１〜７番）"
  },
  "8700924": {
    "zipcode": "8700924",
    "prefectureCode": "44",
    "prefectureNumber": 44,
    "prefecture": "大分県",
    "city": "大分市",
    "town": "牧（１〜３丁目、白滝Ｂ・Ｃ、高見）"
  },
  "8700925": {
    "zipcode": "8700925",
    "prefectureCode": "44",
    "prefectureNumber": 44,
    "prefecture": "大分県",
    "city": "大分市",
    "town": "牧上町"
  },
  "8700926": {
    "zipcode": "8700926",
    "prefectureCode": "44",
    "prefectureNumber": 44,
    "prefecture": "大分県",
    "city": "大分市",
    "town": "加納"
  },
  "8700927": {
    "zipcode": "8700927",
    "prefectureCode": "44",
    "prefectureNumber": 44,
    "prefecture": "大分県",
    "city": "大分市",
    "town": "北下郡"
  },
  "8700928": {
    "zipcode": "8700928",
    "prefectureCode": "44",
    "prefectureNumber": 44,
    "prefecture": "大分県",
    "city": "大分市",
    "town": "南下郡"
  },
  "8700929": {
    "zipcode": "8700929",
    "prefectureCode": "44",
    "prefectureNumber": 44,
    "prefecture": "大分県",
    "city": "大分市",
    "town": "長谷町"
  },
  "8700930": {
    "zipcode": "8700930",
    "prefectureCode": "44",
    "prefectureNumber": 44,
    "prefecture": "大分県",
    "city": "大分市",
    "town": "津留"
  },
  "8700931": {
    "zipcode": "8700931",
    "prefectureCode": "44",
    "prefectureNumber": 44,
    "prefecture": "大分県",
    "city": "大分市",
    "town": "西浜"
  },
  "8700932": {
    "zipcode": "8700932",
    "prefectureCode": "44",
    "prefectureNumber": 44,
    "prefecture": "大分県",
    "city": "大分市",
    "town": "東浜"
  },
  "8700933": {
    "zipcode": "8700933",
    "prefectureCode": "44",
    "prefectureNumber": 44,
    "prefecture": "大分県",
    "city": "大分市",
    "town": "花津留"
  },
  "8700934": {
    "zipcode": "8700934",
    "prefectureCode": "44",
    "prefectureNumber": 44,
    "prefecture": "大分県",
    "city": "大分市",
    "town": "東津留"
  },
  "8700935": {
    "zipcode": "8700935",
    "prefectureCode": "44",
    "prefectureNumber": 44,
    "prefecture": "大分県",
    "city": "大分市",
    "town": "古ケ鶴"
  },
  "8700936": {
    "zipcode": "8700936",
    "prefectureCode": "44",
    "prefectureNumber": 44,
    "prefecture": "大分県",
    "city": "大分市",
    "town": "岩田町"
  },
  "8700937": {
    "zipcode": "8700937",
    "prefectureCode": "44",
    "prefectureNumber": 44,
    "prefecture": "大分県",
    "city": "大分市",
    "town": "南津留"
  },
  "8700938": {
    "zipcode": "8700938",
    "prefectureCode": "44",
    "prefectureNumber": 44,
    "prefecture": "大分県",
    "city": "大分市",
    "town": "今津留"
  },
  "8700939": {
    "zipcode": "8700939",
    "prefectureCode": "44",
    "prefectureNumber": 44,
    "prefecture": "大分県",
    "city": "大分市",
    "town": "中津留"
  },
  "8700941": {
    "zipcode": "8700941",
    "prefectureCode": "44",
    "prefectureNumber": 44,
    "prefecture": "大分県",
    "city": "大分市",
    "town": "下郡工業団地"
  },
  "8700942": {
    "zipcode": "8700942",
    "prefectureCode": "44",
    "prefectureNumber": 44,
    "prefecture": "大分県",
    "city": "大分市",
    "town": "羽田"
  },
  "8700943": {
    "zipcode": "8700943",
    "prefectureCode": "44",
    "prefectureNumber": 44,
    "prefecture": "大分県",
    "city": "大分市",
    "town": "片島"
  },
  "8700944": {
    "zipcode": "8700944",
    "prefectureCode": "44",
    "prefectureNumber": 44,
    "prefecture": "大分県",
    "city": "大分市",
    "town": "米良"
  },
  "8700945": {
    "zipcode": "8700945",
    "prefectureCode": "44",
    "prefectureNumber": 44,
    "prefecture": "大分県",
    "city": "大分市",
    "town": "津守"
  },
  "8700946": {
    "zipcode": "8700946",
    "prefectureCode": "44",
    "prefectureNumber": 44,
    "prefecture": "大分県",
    "city": "大分市",
    "town": "曲（その他）"
  },
  "8700947": {
    "zipcode": "8700947",
    "prefectureCode": "44",
    "prefectureNumber": 44,
    "prefecture": "大分県",
    "city": "大分市",
    "town": "富岡"
  },
  "8700948": {
    "zipcode": "8700948",
    "prefectureCode": "44",
    "prefectureNumber": 44,
    "prefecture": "大分県",
    "city": "大分市",
    "town": "芳河原台"
  },
  "8700949": {
    "zipcode": "8700949",
    "prefectureCode": "44",
    "prefectureNumber": 44,
    "prefecture": "大分県",
    "city": "大分市",
    "town": "かたしま台"
  },
  "8700951": {
    "zipcode": "8700951",
    "prefectureCode": "44",
    "prefectureNumber": 44,
    "prefecture": "大分県",
    "city": "大分市",
    "town": "下郡"
  },
  "8700952": {
    "zipcode": "8700952",
    "prefectureCode": "44",
    "prefectureNumber": 44,
    "prefecture": "大分県",
    "city": "大分市",
    "town": "下郡北"
  },
  "8700953": {
    "zipcode": "8700953",
    "prefectureCode": "44",
    "prefectureNumber": 44,
    "prefecture": "大分県",
    "city": "大分市",
    "town": "下郡東"
  },
  "8700954": {
    "zipcode": "8700954",
    "prefectureCode": "44",
    "prefectureNumber": 44,
    "prefecture": "大分県",
    "city": "大分市",
    "town": "下郡中央"
  },
  "8700955": {
    "zipcode": "8700955",
    "prefectureCode": "44",
    "prefectureNumber": 44,
    "prefecture": "大分県",
    "city": "大分市",
    "town": "下郡南"
  },
  "8700956": {
    "zipcode": "8700956",
    "prefectureCode": "44",
    "prefectureNumber": 44,
    "prefecture": "大分県",
    "city": "大分市",
    "town": "裏川団地"
  },
  "8700957": {
    "zipcode": "8700957",
    "prefectureCode": "44",
    "prefectureNumber": 44,
    "prefecture": "大分県",
    "city": "大分市",
    "town": "藤の台"
  },
  "8700958": {
    "zipcode": "8700958",
    "prefectureCode": "44",
    "prefectureNumber": 44,
    "prefecture": "大分県",
    "city": "大分市",
    "town": "ゆめが丘"
  },
  "8700959": {
    "zipcode": "8700959",
    "prefectureCode": "44",
    "prefectureNumber": 44,
    "prefecture": "大分県",
    "city": "大分市",
    "town": "希望が丘"
  },
  "8700961": {
    "zipcode": "8700961",
    "prefectureCode": "44",
    "prefectureNumber": 44,
    "prefecture": "大分県",
    "city": "大分市",
    "town": "下郡山の手"
  },
  "8701101": {
    "zipcode": "8701101",
    "prefectureCode": "44",
    "prefectureNumber": 44,
    "prefecture": "大分県",
    "city": "大分市",
    "town": "敷戸北町"
  },
  "8701102": {
    "zipcode": "8701102",
    "prefectureCode": "44",
    "prefectureNumber": 44,
    "prefecture": "大分県",
    "city": "大分市",
    "town": "敷戸新町"
  },
  "8701103": {
    "zipcode": "8701103",
    "prefectureCode": "44",
    "prefectureNumber": 44,
    "prefecture": "大分県",
    "city": "大分市",
    "town": "敷戸西町"
  },
  "8701104": {
    "zipcode": "8701104",
    "prefectureCode": "44",
    "prefectureNumber": 44,
    "prefecture": "大分県",
    "city": "大分市",
    "town": "敷戸東町"
  },
  "8701105": {
    "zipcode": "8701105",
    "prefectureCode": "44",
    "prefectureNumber": 44,
    "prefecture": "大分県",
    "city": "大分市",
    "town": "敷戸南町"
  },
  "8701106": {
    "zipcode": "8701106",
    "prefectureCode": "44",
    "prefectureNumber": 44,
    "prefecture": "大分県",
    "city": "大分市",
    "town": "敷戸台"
  },
  "8701107": {
    "zipcode": "8701107",
    "prefectureCode": "44",
    "prefectureNumber": 44,
    "prefecture": "大分県",
    "city": "大分市",
    "town": "敷戸駅北町"
  },
  "8701108": {
    "zipcode": "8701108",
    "prefectureCode": "44",
    "prefectureNumber": 44,
    "prefecture": "大分県",
    "city": "大分市",
    "town": "判田台東"
  },
  "8701109": {
    "zipcode": "8701109",
    "prefectureCode": "44",
    "prefectureNumber": 44,
    "prefecture": "大分県",
    "city": "大分市",
    "town": "判田台南"
  },
  "8701110": {
    "zipcode": "8701110",
    "prefectureCode": "44",
    "prefectureNumber": 44,
    "prefecture": "大分県",
    "city": "大分市",
    "town": "判田台"
  },
  "8701111": {
    "zipcode": "8701111",
    "prefectureCode": "44",
    "prefectureNumber": 44,
    "prefecture": "大分県",
    "city": "大分市",
    "town": "上判田"
  },
  "8701112": {
    "zipcode": "8701112",
    "prefectureCode": "44",
    "prefectureNumber": 44,
    "prefecture": "大分県",
    "city": "大分市",
    "town": "下判田"
  },
  "8701113": {
    "zipcode": "8701113",
    "prefectureCode": "44",
    "prefectureNumber": 44,
    "prefecture": "大分県",
    "city": "大分市",
    "town": "中判田"
  },
  "8701114": {
    "zipcode": "8701114",
    "prefectureCode": "44",
    "prefectureNumber": 44,
    "prefecture": "大分県",
    "city": "大分市",
    "town": "星和台"
  },
  "8701115": {
    "zipcode": "8701115",
    "prefectureCode": "44",
    "prefectureNumber": 44,
    "prefecture": "大分県",
    "city": "大分市",
    "town": "ひばりケ丘"
  },
  "8701116": {
    "zipcode": "8701116",
    "prefectureCode": "44",
    "prefectureNumber": 44,
    "prefecture": "大分県",
    "city": "大分市",
    "town": "高江中央"
  },
  "8701117": {
    "zipcode": "8701117",
    "prefectureCode": "44",
    "prefectureNumber": 44,
    "prefecture": "大分県",
    "city": "大分市",
    "town": "高江西"
  },
  "8701118": {
    "zipcode": "8701118",
    "prefectureCode": "44",
    "prefectureNumber": 44,
    "prefecture": "大分県",
    "city": "大分市",
    "town": "高江南"
  },
  "8701119": {
    "zipcode": "8701119",
    "prefectureCode": "44",
    "prefectureNumber": 44,
    "prefecture": "大分県",
    "city": "大分市",
    "town": "高江北"
  },
  "8701120": {
    "zipcode": "8701120",
    "prefectureCode": "44",
    "prefectureNumber": 44,
    "prefecture": "大分県",
    "city": "大分市",
    "town": "サンシャインしきど"
  },
  "8701121": {
    "zipcode": "8701121",
    "prefectureCode": "44",
    "prefectureNumber": 44,
    "prefecture": "大分県",
    "city": "大分市",
    "town": "鴛野"
  },
  "8701122": {
    "zipcode": "8701122",
    "prefectureCode": "44",
    "prefectureNumber": 44,
    "prefecture": "大分県",
    "city": "大分市",
    "town": "敷戸"
  },
  "8701123": {
    "zipcode": "8701123",
    "prefectureCode": "44",
    "prefectureNumber": 44,
    "prefecture": "大分県",
    "city": "大分市",
    "town": "寒田"
  },
  "8701124": {
    "zipcode": "8701124",
    "prefectureCode": "44",
    "prefectureNumber": 44,
    "prefecture": "大分県",
    "city": "大分市",
    "town": "旦野原"
  },
  "8701125": {
    "zipcode": "8701125",
    "prefectureCode": "44",
    "prefectureNumber": 44,
    "prefecture": "大分県",
    "city": "大分市",
    "town": "大園団地"
  },
  "8701126": {
    "zipcode": "8701126",
    "prefectureCode": "44",
    "prefectureNumber": 44,
    "prefecture": "大分県",
    "city": "大分市",
    "town": "判田台北"
  },
  "8701127": {
    "zipcode": "8701127",
    "prefectureCode": "44",
    "prefectureNumber": 44,
    "prefecture": "大分県",
    "city": "大分市",
    "town": "寒田わかば台"
  },
  "8701128": {
    "zipcode": "8701128",
    "prefectureCode": "44",
    "prefectureNumber": 44,
    "prefecture": "大分県",
    "city": "大分市",
    "town": "花の木坂"
  },
  "8701130": {
    "zipcode": "8701130",
    "prefectureCode": "44",
    "prefectureNumber": 44,
    "prefecture": "大分県",
    "city": "大分市",
    "town": "田尻中央"
  },
  "8701131": {
    "zipcode": "8701131",
    "prefectureCode": "44",
    "prefectureNumber": 44,
    "prefecture": "大分県",
    "city": "大分市",
    "town": "岡川"
  },
  "8701132": {
    "zipcode": "8701132",
    "prefectureCode": "44",
    "prefectureNumber": 44,
    "prefecture": "大分県",
    "city": "大分市",
    "town": "光吉"
  },
  "8701133": {
    "zipcode": "8701133",
    "prefectureCode": "44",
    "prefectureNumber": 44,
    "prefecture": "大分県",
    "city": "大分市",
    "town": "宮崎"
  },
  "8701134": {
    "zipcode": "8701134",
    "prefectureCode": "44",
    "prefectureNumber": 44,
    "prefecture": "大分県",
    "city": "大分市",
    "town": "小原団地"
  },
  "8701135": {
    "zipcode": "8701135",
    "prefectureCode": "44",
    "prefectureNumber": 44,
    "prefecture": "大分県",
    "city": "大分市",
    "town": "光吉新町"
  },
  "8701136": {
    "zipcode": "8701136",
    "prefectureCode": "44",
    "prefectureNumber": 44,
    "prefecture": "大分県",
    "city": "大分市",
    "town": "光吉台"
  },
  "8701137": {
    "zipcode": "8701137",
    "prefectureCode": "44",
    "prefectureNumber": 44,
    "prefecture": "大分県",
    "city": "大分市",
    "town": "宮崎台"
  },
  "8701138": {
    "zipcode": "8701138",
    "prefectureCode": "44",
    "prefectureNumber": 44,
    "prefecture": "大分県",
    "city": "大分市",
    "town": "寒田北町"
  },
  "8701139": {
    "zipcode": "8701139",
    "prefectureCode": "44",
    "prefectureNumber": 44,
    "prefecture": "大分県",
    "city": "大分市",
    "town": "寒田南町"
  },
  "8701140": {
    "zipcode": "8701140",
    "prefectureCode": "44",
    "prefectureNumber": 44,
    "prefecture": "大分県",
    "city": "大分市",
    "town": "田尻北"
  },
  "8701141": {
    "zipcode": "8701141",
    "prefectureCode": "44",
    "prefectureNumber": 44,
    "prefecture": "大分県",
    "city": "大分市",
    "town": "下宗方"
  },
  "8701142": {
    "zipcode": "8701142",
    "prefectureCode": "44",
    "prefectureNumber": 44,
    "prefecture": "大分県",
    "city": "大分市",
    "town": "高瀬"
  },
  "8701143": {
    "zipcode": "8701143",
    "prefectureCode": "44",
    "prefectureNumber": 44,
    "prefecture": "大分県",
    "city": "大分市",
    "town": "田尻"
  },
  "8701144": {
    "zipcode": "8701144",
    "prefectureCode": "44",
    "prefectureNumber": 44,
    "prefecture": "大分県",
    "city": "大分市",
    "town": "田尻西"
  },
  "8701145": {
    "zipcode": "8701145",
    "prefectureCode": "44",
    "prefectureNumber": 44,
    "prefecture": "大分県",
    "city": "大分市",
    "town": "田尻南"
  },
  "8701146": {
    "zipcode": "8701146",
    "prefectureCode": "44",
    "prefectureNumber": 44,
    "prefecture": "大分県",
    "city": "大分市",
    "town": "曲（６３５、６３９、６５０、６６９、６７６、６７８、６８９、６９５、７１８、７３３、１４８１、１５５５、１６１８番地）"
  },
  "8701147": {
    "zipcode": "8701147",
    "prefectureCode": "44",
    "prefectureNumber": 44,
    "prefecture": "大分県",
    "city": "大分市",
    "town": "ふじが丘"
  },
  "8701148": {
    "zipcode": "8701148",
    "prefectureCode": "44",
    "prefectureNumber": 44,
    "prefecture": "大分県",
    "city": "大分市",
    "town": "天領ハイツ"
  },
  "8701149": {
    "zipcode": "8701149",
    "prefectureCode": "44",
    "prefectureNumber": 44,
    "prefecture": "大分県",
    "city": "大分市",
    "town": "田尻東"
  },
  "8701150": {
    "zipcode": "8701150",
    "prefectureCode": "44",
    "prefectureNumber": 44,
    "prefecture": "大分県",
    "city": "大分市",
    "town": "小野鶴南"
  },
  "8701151": {
    "zipcode": "8701151",
    "prefectureCode": "44",
    "prefectureNumber": 44,
    "prefecture": "大分県",
    "city": "大分市",
    "town": "市"
  },
  "8701152": {
    "zipcode": "8701152",
    "prefectureCode": "44",
    "prefectureNumber": 44,
    "prefecture": "大分県",
    "city": "大分市",
    "town": "上宗方"
  },
  "8701153": {
    "zipcode": "8701153",
    "prefectureCode": "44",
    "prefectureNumber": 44,
    "prefecture": "大分県",
    "city": "大分市",
    "town": "小野鶴"
  },
  "8701154": {
    "zipcode": "8701154",
    "prefectureCode": "44",
    "prefectureNumber": 44,
    "prefecture": "大分県",
    "city": "大分市",
    "town": "田原"
  },
  "8701155": {
    "zipcode": "8701155",
    "prefectureCode": "44",
    "prefectureNumber": 44,
    "prefecture": "大分県",
    "city": "大分市",
    "town": "玉沢"
  },
  "8701156": {
    "zipcode": "8701156",
    "prefectureCode": "44",
    "prefectureNumber": 44,
    "prefecture": "大分県",
    "city": "大分市",
    "town": "小野鶴新町"
  },
  "8701157": {
    "zipcode": "8701157",
    "prefectureCode": "44",
    "prefectureNumber": 44,
    "prefecture": "大分県",
    "city": "大分市",
    "town": "宗方台東"
  },
  "8701158": {
    "zipcode": "8701158",
    "prefectureCode": "44",
    "prefectureNumber": 44,
    "prefecture": "大分県",
    "city": "大分市",
    "town": "宗方台西"
  },
  "8701159": {
    "zipcode": "8701159",
    "prefectureCode": "44",
    "prefectureNumber": 44,
    "prefecture": "大分県",
    "city": "大分市",
    "town": "宗方台北"
  },
  "8701161": {
    "zipcode": "8701161",
    "prefectureCode": "44",
    "prefectureNumber": 44,
    "prefecture": "大分県",
    "city": "大分市",
    "town": "木上"
  },
  "8701162": {
    "zipcode": "8701162",
    "prefectureCode": "44",
    "prefectureNumber": 44,
    "prefecture": "大分県",
    "city": "大分市",
    "town": "口戸"
  },
  "8701163": {
    "zipcode": "8701163",
    "prefectureCode": "44",
    "prefectureNumber": 44,
    "prefecture": "大分県",
    "city": "大分市",
    "town": "廻栖野（１〜６５７、７７６〜８２９、８４２〜１３０５、２６９１、２９２５番地）"
  },
  "8701164": {
    "zipcode": "8701164",
    "prefectureCode": "44",
    "prefectureNumber": 44,
    "prefecture": "大分県",
    "city": "大分市",
    "town": "雄城台中央"
  },
  "8701165": {
    "zipcode": "8701165",
    "prefectureCode": "44",
    "prefectureNumber": 44,
    "prefecture": "大分県",
    "city": "大分市",
    "town": "雄城台"
  },
  "8701166": {
    "zipcode": "8701166",
    "prefectureCode": "44",
    "prefectureNumber": 44,
    "prefecture": "大分県",
    "city": "大分市",
    "town": "椿が丘"
  },
  "8701167": {
    "zipcode": "8701167",
    "prefectureCode": "44",
    "prefectureNumber": 44,
    "prefecture": "大分県",
    "city": "大分市",
    "town": "上宗方南"
  },
  "8701168": {
    "zipcode": "8701168",
    "prefectureCode": "44",
    "prefectureNumber": 44,
    "prefecture": "大分県",
    "city": "大分市",
    "town": "松が丘"
  },
  "8701169": {
    "zipcode": "8701169",
    "prefectureCode": "44",
    "prefectureNumber": 44,
    "prefecture": "大分県",
    "city": "大分市",
    "town": "木上台"
  },
  "8701171": {
    "zipcode": "8701171",
    "prefectureCode": "44",
    "prefectureNumber": 44,
    "prefecture": "大分県",
    "city": "大分市",
    "town": "鬼崎"
  },
  "8701172": {
    "zipcode": "8701172",
    "prefectureCode": "44",
    "prefectureNumber": 44,
    "prefecture": "大分県",
    "city": "大分市",
    "town": "緑が丘"
  },
  "8701173": {
    "zipcode": "8701173",
    "prefectureCode": "44",
    "prefectureNumber": 44,
    "prefecture": "大分県",
    "city": "大分市",
    "town": "横瀬"
  },
  "8701174": {
    "zipcode": "8701174",
    "prefectureCode": "44",
    "prefectureNumber": 44,
    "prefecture": "大分県",
    "city": "大分市",
    "town": "萌葱台"
  },
  "8701176": {
    "zipcode": "8701176",
    "prefectureCode": "44",
    "prefectureNumber": 44,
    "prefecture": "大分県",
    "city": "大分市",
    "town": "富士見が丘東"
  },
  "8701177": {
    "zipcode": "8701177",
    "prefectureCode": "44",
    "prefectureNumber": 44,
    "prefecture": "大分県",
    "city": "大分市",
    "town": "富士見が丘西"
  },
  "8701181": {
    "zipcode": "8701181",
    "prefectureCode": "44",
    "prefectureNumber": 44,
    "prefecture": "大分県",
    "city": "大分市",
    "town": "ふじが丘北"
  },
  "8701182": {
    "zipcode": "8701182",
    "prefectureCode": "44",
    "prefectureNumber": 44,
    "prefecture": "大分県",
    "city": "大分市",
    "town": "ふじが丘東"
  },
  "8701183": {
    "zipcode": "8701183",
    "prefectureCode": "44",
    "prefectureNumber": 44,
    "prefecture": "大分県",
    "city": "大分市",
    "town": "ふじが丘南"
  },
  "8701184": {
    "zipcode": "8701184",
    "prefectureCode": "44",
    "prefectureNumber": 44,
    "prefecture": "大分県",
    "city": "大分市",
    "town": "ふじが丘山手"
  },
  "8701185": {
    "zipcode": "8701185",
    "prefectureCode": "44",
    "prefectureNumber": 44,
    "prefecture": "大分県",
    "city": "大分市",
    "town": "ふじが丘西"
  },
  "8701201": {
    "zipcode": "8701201",
    "prefectureCode": "44",
    "prefectureNumber": 44,
    "prefecture": "大分県",
    "city": "大分市",
    "town": "廻栖野（その他）"
  },
  "8701202": {
    "zipcode": "8701202",
    "prefectureCode": "44",
    "prefectureNumber": 44,
    "prefecture": "大分県",
    "city": "大分市",
    "town": "入蔵"
  },
  "8701203": {
    "zipcode": "8701203",
    "prefectureCode": "44",
    "prefectureNumber": 44,
    "prefecture": "大分県",
    "city": "大分市",
    "town": "野津原"
  },
  "8701204": {
    "zipcode": "8701204",
    "prefectureCode": "44",
    "prefectureNumber": 44,
    "prefecture": "大分県",
    "city": "大分市",
    "town": "辻原"
  },
  "8701205": {
    "zipcode": "8701205",
    "prefectureCode": "44",
    "prefectureNumber": 44,
    "prefecture": "大分県",
    "city": "大分市",
    "town": "福宗"
  },
  "8701211": {
    "zipcode": "8701211",
    "prefectureCode": "44",
    "prefectureNumber": 44,
    "prefecture": "大分県",
    "city": "大分市",
    "town": "竹矢"
  },
  "8701212": {
    "zipcode": "8701212",
    "prefectureCode": "44",
    "prefectureNumber": 44,
    "prefecture": "大分県",
    "city": "大分市",
    "town": "沢田"
  },
  "8701213": {
    "zipcode": "8701213",
    "prefectureCode": "44",
    "prefectureNumber": 44,
    "prefecture": "大分県",
    "city": "大分市",
    "town": "下原"
  },
  "8701214": {
    "zipcode": "8701214",
    "prefectureCode": "44",
    "prefectureNumber": 44,
    "prefecture": "大分県",
    "city": "大分市",
    "town": "太田"
  },
  "8701215": {
    "zipcode": "8701215",
    "prefectureCode": "44",
    "prefectureNumber": 44,
    "prefecture": "大分県",
    "city": "大分市",
    "town": "上詰"
  },
  "8701221": {
    "zipcode": "8701221",
    "prefectureCode": "44",
    "prefectureNumber": 44,
    "prefecture": "大分県",
    "city": "大分市",
    "town": "荷尾杵"
  },
  "8701222": {
    "zipcode": "8701222",
    "prefectureCode": "44",
    "prefectureNumber": 44,
    "prefecture": "大分県",
    "city": "大分市",
    "town": "高原"
  },
  "8701223": {
    "zipcode": "8701223",
    "prefectureCode": "44",
    "prefectureNumber": 44,
    "prefecture": "大分県",
    "city": "大分市",
    "town": "今市"
  }
}
