{
  "8710000": {
    "zipcode": "8710000",
    "prefectureCode": "44",
    "prefectureNumber": 44,
    "prefecture": "大分県",
    "city": "中津市",
    "town": "以下に掲載がない場合"
  },
  "8710001": {
    "zipcode": "8710001",
    "prefectureCode": "44",
    "prefectureNumber": 44,
    "prefecture": "大分県",
    "city": "中津市",
    "town": "大新田"
  },
  "8710002": {
    "zipcode": "8710002",
    "prefectureCode": "44",
    "prefectureNumber": 44,
    "prefecture": "大分県",
    "city": "中津市",
    "town": "全徳"
  },
  "8710003": {
    "zipcode": "8710003",
    "prefectureCode": "44",
    "prefectureNumber": 44,
    "prefecture": "大分県",
    "city": "中津市",
    "town": "是則"
  },
  "8710004": {
    "zipcode": "8710004",
    "prefectureCode": "44",
    "prefectureNumber": 44,
    "prefecture": "大分県",
    "city": "中津市",
    "town": "上如水"
  },
  "8710005": {
    "zipcode": "8710005",
    "prefectureCode": "44",
    "prefectureNumber": 44,
    "prefecture": "大分県",
    "city": "中津市",
    "town": "合馬"
  },
  "8710006": {
    "zipcode": "8710006",
    "prefectureCode": "44",
    "prefectureNumber": 44,
    "prefecture": "大分県",
    "city": "中津市",
    "town": "東浜"
  },
  "8710007": {
    "zipcode": "8710007",
    "prefectureCode": "44",
    "prefectureNumber": 44,
    "prefecture": "大分県",
    "city": "中津市",
    "town": "蛎瀬"
  },
  "8710008": {
    "zipcode": "8710008",
    "prefectureCode": "44",
    "prefectureNumber": 44,
    "prefecture": "大分県",
    "city": "中津市",
    "town": "大塚"
  },
  "8710009": {
    "zipcode": "8710009",
    "prefectureCode": "44",
    "prefectureNumber": 44,
    "prefecture": "大分県",
    "city": "中津市",
    "town": "新大塚町"
  },
  "8710011": {
    "zipcode": "8710011",
    "prefectureCode": "44",
    "prefectureNumber": 44,
    "prefecture": "大分県",
    "city": "中津市",
    "town": "下池永"
  },
  "8710012": {
    "zipcode": "8710012",
    "prefectureCode": "44",
    "prefectureNumber": 44,
    "prefecture": "大分県",
    "city": "中津市",
    "town": "宮夫"
  },
  "8710013": {
    "zipcode": "8710013",
    "prefectureCode": "44",
    "prefectureNumber": 44,
    "prefecture": "大分県",
    "city": "中津市",
    "town": "金手"
  },
  "8710014": {
    "zipcode": "8710014",
    "prefectureCode": "44",
    "prefectureNumber": 44,
    "prefecture": "大分県",
    "city": "中津市",
    "town": "一ツ松"
  },
  "8710015": {
    "zipcode": "8710015",
    "prefectureCode": "44",
    "prefectureNumber": 44,
    "prefecture": "大分県",
    "city": "中津市",
    "town": "牛神"
  },
  "8710016": {
    "zipcode": "8710016",
    "prefectureCode": "44",
    "prefectureNumber": 44,
    "prefecture": "大分県",
    "city": "中津市",
    "town": "牛神町"
  },
  "8710021": {
    "zipcode": "8710021",
    "prefectureCode": "44",
    "prefectureNumber": 44,
    "prefecture": "大分県",
    "city": "中津市",
    "town": "沖代町"
  },
  "8710022": {
    "zipcode": "8710022",
    "prefectureCode": "44",
    "prefectureNumber": 44,
    "prefecture": "大分県",
    "city": "中津市",
    "town": "相原（その他）"
  },
  "8710023": {
    "zipcode": "8710023",
    "prefectureCode": "44",
    "prefectureNumber": 44,
    "prefecture": "大分県",
    "city": "中津市",
    "town": "湯屋"
  },
  "8710024": {
    "zipcode": "8710024",
    "prefectureCode": "44",
    "prefectureNumber": 44,
    "prefecture": "大分県",
    "city": "中津市",
    "town": "中央町"
  },
  "8710025": {
    "zipcode": "8710025",
    "prefectureCode": "44",
    "prefectureNumber": 44,
    "prefecture": "大分県",
    "city": "中津市",
    "town": "万田"
  },
  "8710026": {
    "zipcode": "8710026",
    "prefectureCode": "44",
    "prefectureNumber": 44,
    "prefecture": "大分県",
    "city": "中津市",
    "town": "高瀬"
  },
  "8710027": {
    "zipcode": "8710027",
    "prefectureCode": "44",
    "prefectureNumber": 44,
    "prefecture": "大分県",
    "city": "中津市",
    "town": "上宮永"
  },
  "8710028": {
    "zipcode": "8710028",
    "prefectureCode": "44",
    "prefectureNumber": 44,
    "prefecture": "大分県",
    "city": "中津市",
    "town": "角木町"
  },
  "8710029": {
    "zipcode": "8710029",
    "prefectureCode": "44",
    "prefectureNumber": 44,
    "prefecture": "大分県",
    "city": "中津市",
    "town": "下宮永"
  },
  "8710030": {
    "zipcode": "8710030",
    "prefectureCode": "44",
    "prefectureNumber": 44,
    "prefecture": "大分県",
    "city": "中津市",
    "town": "中殿町"
  },
  "8710031": {
    "zipcode": "8710031",
    "prefectureCode": "44",
    "prefectureNumber": 44,
    "prefecture": "大分県",
    "city": "中津市",
    "town": "中殿"
  },
  "8710032": {
    "zipcode": "8710032",
    "prefectureCode": "44",
    "prefectureNumber": 44,
    "prefecture": "大分県",
    "city": "中津市",
    "town": "東本町"
  },
  "8710033": {
    "zipcode": "8710033",
    "prefectureCode": "44",
    "prefectureNumber": 44,
    "prefecture": "大分県",
    "city": "中津市",
    "town": "島田"
  },
  "8710034": {
    "zipcode": "8710034",
    "prefectureCode": "44",
    "prefectureNumber": 44,
    "prefecture": "大分県",
    "city": "中津市",
    "town": "日ノ出町"
  },
  "8710035": {
    "zipcode": "8710035",
    "prefectureCode": "44",
    "prefectureNumber": 44,
    "prefecture": "大分県",
    "city": "中津市",
    "town": "島田仲町"
  },
  "8710036": {
    "zipcode": "8710036",
    "prefectureCode": "44",
    "prefectureNumber": 44,
    "prefecture": "大分県",
    "city": "中津市",
    "town": "島田本町"
  },
  "8710037": {
    "zipcode": "8710037",
    "prefectureCode": "44",
    "prefectureNumber": 44,
    "prefecture": "大分県",
    "city": "中津市",
    "town": "宮島町"
  },
  "8710038": {
    "zipcode": "8710038",
    "prefectureCode": "44",
    "prefectureNumber": 44,
    "prefecture": "大分県",
    "city": "中津市",
    "town": "枝町"
  },
  "8710039": {
    "zipcode": "8710039",
    "prefectureCode": "44",
    "prefectureNumber": 44,
    "prefecture": "大分県",
    "city": "中津市",
    "town": "天神町"
  },
  "8710041": {
    "zipcode": "8710041",
    "prefectureCode": "44",
    "prefectureNumber": 44,
    "prefecture": "大分県",
    "city": "中津市",
    "town": "新博多町"
  },
  "8710042": {
    "zipcode": "8710042",
    "prefectureCode": "44",
    "prefectureNumber": 44,
    "prefecture": "大分県",
    "city": "中津市",
    "town": "上博多町"
  },
  "8710043": {
    "zipcode": "8710043",
    "prefectureCode": "44",
    "prefectureNumber": 44,
    "prefecture": "大分県",
    "city": "中津市",
    "town": "栄町"
  },
  "8710044": {
    "zipcode": "8710044",
    "prefectureCode": "44",
    "prefectureNumber": 44,
    "prefecture": "大分県",
    "city": "中津市",
    "town": "江三竹町"
  },
  "8710045": {
    "zipcode": "8710045",
    "prefectureCode": "44",
    "prefectureNumber": 44,
    "prefecture": "大分県",
    "city": "中津市",
    "town": "萱津町"
  },
  "8710046": {
    "zipcode": "8710046",
    "prefectureCode": "44",
    "prefectureNumber": 44,
    "prefecture": "大分県",
    "city": "中津市",
    "town": "古金谷"
  },
  "8710047": {
    "zipcode": "8710047",
    "prefectureCode": "44",
    "prefectureNumber": 44,
    "prefecture": "大分県",
    "city": "中津市",
    "town": "丸山町"
  },
  "8710048": {
    "zipcode": "8710048",
    "prefectureCode": "44",
    "prefectureNumber": 44,
    "prefecture": "大分県",
    "city": "中津市",
    "town": "新魚町"
  },
  "8710049": {
    "zipcode": "8710049",
    "prefectureCode": "44",
    "prefectureNumber": 44,
    "prefecture": "大分県",
    "city": "中津市",
    "town": "諸町"
  },
  "8710050": {
    "zipcode": "8710050",
    "prefectureCode": "44",
    "prefectureNumber": 44,
    "prefecture": "大分県",
    "city": "中津市",
    "town": "二ノ丁"
  },
  "8710051": {
    "zipcode": "8710051",
    "prefectureCode": "44",
    "prefectureNumber": 44,
    "prefecture": "大分県",
    "city": "中津市",
    "town": "古博多町"
  },
  "8710053": {
    "zipcode": "8710053",
    "prefectureCode": "44",
    "prefectureNumber": 44,
    "prefecture": "大分県",
    "city": "中津市",
    "town": "古魚町"
  },
  "8710054": {
    "zipcode": "8710054",
    "prefectureCode": "44",
    "prefectureNumber": 44,
    "prefecture": "大分県",
    "city": "中津市",
    "town": "京町"
  },
  "8710055": {
    "zipcode": "8710055",
    "prefectureCode": "44",
    "prefectureNumber": 44,
    "prefecture": "大分県",
    "city": "中津市",
    "town": "殿町"
  },
  "8710056": {
    "zipcode": "8710056",
    "prefectureCode": "44",
    "prefectureNumber": 44,
    "prefecture": "大分県",
    "city": "中津市",
    "town": "片端町"
  },
  "8710057": {
    "zipcode": "8710057",
    "prefectureCode": "44",
    "prefectureNumber": 44,
    "prefecture": "大分県",
    "city": "中津市",
    "town": "三ノ丁"
  },
  "8710058": {
    "zipcode": "8710058",
    "prefectureCode": "44",
    "prefectureNumber": 44,
    "prefecture": "大分県",
    "city": "中津市",
    "town": "豊田町"
  },
  "8710059": {
    "zipcode": "8710059",
    "prefectureCode": "44",
    "prefectureNumber": 44,
    "prefecture": "大分県",
    "city": "中津市",
    "town": "外馬場"
  },
  "8710060": {
    "zipcode": "8710060",
    "prefectureCode": "44",
    "prefectureNumber": 44,
    "prefecture": "大分県",
    "city": "中津市",
    "town": "北稲堀"
  },
  "8710061": {
    "zipcode": "8710061",
    "prefectureCode": "44",
    "prefectureNumber": 44,
    "prefecture": "大分県",
    "city": "中津市",
    "town": "南稲堀"
  },
  "8710062": {
    "zipcode": "8710062",
    "prefectureCode": "44",
    "prefectureNumber": 44,
    "prefecture": "大分県",
    "city": "中津市",
    "town": "山下"
  },
  "8710063": {
    "zipcode": "8710063",
    "prefectureCode": "44",
    "prefectureNumber": 44,
    "prefecture": "大分県",
    "city": "中津市",
    "town": "袋町"
  },
  "8710064": {
    "zipcode": "8710064",
    "prefectureCode": "44",
    "prefectureNumber": 44,
    "prefecture": "大分県",
    "city": "中津市",
    "town": "餌指町"
  },
  "8710065": {
    "zipcode": "8710065",
    "prefectureCode": "44",
    "prefectureNumber": 44,
    "prefecture": "大分県",
    "city": "中津市",
    "town": "蛭子町"
  },
  "8710066": {
    "zipcode": "8710066",
    "prefectureCode": "44",
    "prefectureNumber": 44,
    "prefecture": "大分県",
    "city": "中津市",
    "town": "鷹匠町"
  },
  "8710067": {
    "zipcode": "8710067",
    "prefectureCode": "44",
    "prefectureNumber": 44,
    "prefecture": "大分県",
    "city": "中津市",
    "town": "仲間町"
  },
  "8710068": {
    "zipcode": "8710068",
    "prefectureCode": "44",
    "prefectureNumber": 44,
    "prefecture": "大分県",
    "city": "中津市",
    "town": "豊後町"
  },
  "8710069": {
    "zipcode": "8710069",
    "prefectureCode": "44",
    "prefectureNumber": 44,
    "prefecture": "大分県",
    "city": "中津市",
    "town": "新堀"
  },
  "8710071": {
    "zipcode": "8710071",
    "prefectureCode": "44",
    "prefectureNumber": 44,
    "prefecture": "大分県",
    "city": "中津市",
    "town": "鷹部屋"
  },
  "8710072": {
    "zipcode": "8710072",
    "prefectureCode": "44",
    "prefectureNumber": 44,
    "prefecture": "大分県",
    "city": "中津市",
    "town": "船町"
  },
  "8710073": {
    "zipcode": "8710073",
    "prefectureCode": "44",
    "prefectureNumber": 44,
    "prefecture": "大分県",
    "city": "中津市",
    "town": "塩町"
  },
  "8710074": {
    "zipcode": "8710074",
    "prefectureCode": "44",
    "prefectureNumber": 44,
    "prefecture": "大分県",
    "city": "中津市",
    "town": "桜町"
  },
  "8710075": {
    "zipcode": "8710075",
    "prefectureCode": "44",
    "prefectureNumber": 44,
    "prefecture": "大分県",
    "city": "中津市",
    "town": "寺町"
  },
  "8710076": {
    "zipcode": "8710076",
    "prefectureCode": "44",
    "prefectureNumber": 44,
    "prefecture": "大分県",
    "city": "中津市",
    "town": "米町"
  },
  "8710077": {
    "zipcode": "8710077",
    "prefectureCode": "44",
    "prefectureNumber": 44,
    "prefecture": "大分県",
    "city": "中津市",
    "town": "姫路町"
  },
  "8710078": {
    "zipcode": "8710078",
    "prefectureCode": "44",
    "prefectureNumber": 44,
    "prefecture": "大分県",
    "city": "中津市",
    "town": "小祝（上方町、中島町、本町、港町）"
  },
  "8710079": {
    "zipcode": "8710079",
    "prefectureCode": "44",
    "prefectureNumber": 44,
    "prefecture": "大分県",
    "city": "中津市",
    "town": "北門通"
  },
  "8710080": {
    "zipcode": "8710080",
    "prefectureCode": "44",
    "prefectureNumber": 44,
    "prefecture": "大分県",
    "city": "中津市",
    "town": "小祝新町"
  },
  "8710081": {
    "zipcode": "8710081",
    "prefectureCode": "44",
    "prefectureNumber": 44,
    "prefecture": "大分県",
    "city": "中津市",
    "town": "北堀川町"
  },
  "8710082": {
    "zipcode": "8710082",
    "prefectureCode": "44",
    "prefectureNumber": 44,
    "prefecture": "大分県",
    "city": "中津市",
    "town": "水主町"
  },
  "8710083": {
    "zipcode": "8710083",
    "prefectureCode": "44",
    "prefectureNumber": 44,
    "prefecture": "大分県",
    "city": "中津市",
    "town": "矢場"
  },
  "8710084": {
    "zipcode": "8710084",
    "prefectureCode": "44",
    "prefectureNumber": 44,
    "prefecture": "大分県",
    "city": "中津市",
    "town": "小堀"
  },
  "8710085": {
    "zipcode": "8710085",
    "prefectureCode": "44",
    "prefectureNumber": 44,
    "prefecture": "大分県",
    "city": "中津市",
    "town": "弓町"
  },
  "8710086": {
    "zipcode": "8710086",
    "prefectureCode": "44",
    "prefectureNumber": 44,
    "prefecture": "大分県",
    "city": "中津市",
    "town": "船頭町"
  },
  "8710087": {
    "zipcode": "8710087",
    "prefectureCode": "44",
    "prefectureNumber": 44,
    "prefecture": "大分県",
    "city": "中津市",
    "town": "南堀川町"
  },
  "8710088": {
    "zipcode": "8710088",
    "prefectureCode": "44",
    "prefectureNumber": 44,
    "prefecture": "大分県",
    "city": "中津市",
    "town": "留守居町"
  },
  "8710089": {
    "zipcode": "8710089",
    "prefectureCode": "44",
    "prefectureNumber": 44,
    "prefecture": "大分県",
    "city": "中津市",
    "town": "船場町"
  },
  "8710090": {
    "zipcode": "8710090",
    "prefectureCode": "44",
    "prefectureNumber": 44,
    "prefecture": "大分県",
    "city": "中津市",
    "town": "北新地"
  },
  "8710091": {
    "zipcode": "8710091",
    "prefectureCode": "44",
    "prefectureNumber": 44,
    "prefecture": "大分県",
    "city": "中津市",
    "town": "角木"
  },
  "8710092": {
    "zipcode": "8710092",
    "prefectureCode": "44",
    "prefectureNumber": 44,
    "prefecture": "大分県",
    "city": "中津市",
    "town": "南新地"
  },
  "8710093": {
    "zipcode": "8710093",
    "prefectureCode": "44",
    "prefectureNumber": 44,
    "prefecture": "大分県",
    "city": "中津市",
    "town": "浦町"
  },
  "8710094": {
    "zipcode": "8710094",
    "prefectureCode": "44",
    "prefectureNumber": 44,
    "prefecture": "大分県",
    "city": "中津市",
    "town": "北浦町"
  },
  "8710095": {
    "zipcode": "8710095",
    "prefectureCode": "44",
    "prefectureNumber": 44,
    "prefecture": "大分県",
    "city": "中津市",
    "town": "角木新町"
  },
  "8710096": {
    "zipcode": "8710096",
    "prefectureCode": "44",
    "prefectureNumber": 44,
    "prefecture": "大分県",
    "city": "中津市",
    "town": "竜王町"
  },
  "8710097": {
    "zipcode": "8710097",
    "prefectureCode": "44",
    "prefectureNumber": 44,
    "prefecture": "大分県",
    "city": "中津市",
    "town": "下正路"
  },
  "8710098": {
    "zipcode": "8710098",
    "prefectureCode": "44",
    "prefectureNumber": 44,
    "prefecture": "大分県",
    "city": "中津市",
    "town": "市場"
  },
  "8710099": {
    "zipcode": "8710099",
    "prefectureCode": "44",
    "prefectureNumber": 44,
    "prefecture": "大分県",
    "city": "中津市",
    "town": "中津市の次に番地がくる場合"
  },
  "8710101": {
    "zipcode": "8710101",
    "prefectureCode": "44",
    "prefectureNumber": 44,
    "prefecture": "大分県",
    "city": "中津市",
    "town": "三光森山"
  },
  "8710102": {
    "zipcode": "8710102",
    "prefectureCode": "44",
    "prefectureNumber": 44,
    "prefecture": "大分県",
    "city": "中津市",
    "town": "三光成恒"
  },
  "8710103": {
    "zipcode": "8710103",
    "prefectureCode": "44",
    "prefectureNumber": 44,
    "prefecture": "大分県",
    "city": "中津市",
    "town": "三光田口"
  },
  "8710104": {
    "zipcode": "8710104",
    "prefectureCode": "44",
    "prefectureNumber": 44,
    "prefecture": "大分県",
    "city": "中津市",
    "town": "三光諌山"
  },
  "8710105": {
    "zipcode": "8710105",
    "prefectureCode": "44",
    "prefectureNumber": 44,
    "prefecture": "大分県",
    "city": "中津市",
    "town": "三光原口"
  },
  "8710111": {
    "zipcode": "8710111",
    "prefectureCode": "44",
    "prefectureNumber": 44,
    "prefecture": "大分県",
    "city": "中津市",
    "town": "三光佐知"
  },
  "8710112": {
    "zipcode": "8710112",
    "prefectureCode": "44",
    "prefectureNumber": 44,
    "prefecture": "大分県",
    "city": "中津市",
    "town": "三光臼木"
  },
  "8710113": {
    "zipcode": "8710113",
    "prefectureCode": "44",
    "prefectureNumber": 44,
    "prefecture": "大分県",
    "city": "中津市",
    "town": "三光土田"
  },
  "8710114": {
    "zipcode": "8710114",
    "prefectureCode": "44",
    "prefectureNumber": 44,
    "prefecture": "大分県",
    "city": "中津市",
    "town": "三光小袋"
  },
  "8710122": {
    "zipcode": "8710122",
    "prefectureCode": "44",
    "prefectureNumber": 44,
    "prefecture": "大分県",
    "city": "中津市",
    "town": "相原（２８０３−１、２８０３−２４、２８０３−２５、２８０３−２７、２８０３−３７、２８０３−３８、２８０３−３９、２８０３−４３、２８０３−６９、２８０３−７７、２８０３−９１、２８１８、２８２８、２９２５−７）"
  },
  "8710151": {
    "zipcode": "8710151",
    "prefectureCode": "44",
    "prefectureNumber": 44,
    "prefecture": "大分県",
    "city": "中津市",
    "town": "大悟法"
  },
  "8710152": {
    "zipcode": "8710152",
    "prefectureCode": "44",
    "prefectureNumber": 44,
    "prefecture": "大分県",
    "city": "中津市",
    "town": "加来"
  },
  "8710153": {
    "zipcode": "8710153",
    "prefectureCode": "44",
    "prefectureNumber": 44,
    "prefecture": "大分県",
    "city": "中津市",
    "town": "大貞"
  },
  "8710154": {
    "zipcode": "8710154",
    "prefectureCode": "44",
    "prefectureNumber": 44,
    "prefecture": "大分県",
    "city": "中津市",
    "town": "古城"
  },
  "8710155": {
    "zipcode": "8710155",
    "prefectureCode": "44",
    "prefectureNumber": 44,
    "prefecture": "大分県",
    "city": "中津市",
    "town": "八幡町"
  },
  "8710156": {
    "zipcode": "8710156",
    "prefectureCode": "44",
    "prefectureNumber": 44,
    "prefecture": "大分県",
    "city": "中津市",
    "town": "榊原町"
  },
  "8710157": {
    "zipcode": "8710157",
    "prefectureCode": "44",
    "prefectureNumber": 44,
    "prefecture": "大分県",
    "city": "中津市",
    "town": "中原"
  },
  "8710161": {
    "zipcode": "8710161",
    "prefectureCode": "44",
    "prefectureNumber": 44,
    "prefecture": "大分県",
    "city": "中津市",
    "town": "上池永"
  },
  "8710162": {
    "zipcode": "8710162",
    "prefectureCode": "44",
    "prefectureNumber": 44,
    "prefecture": "大分県",
    "city": "中津市",
    "town": "永添"
  },
  "8710163": {
    "zipcode": "8710163",
    "prefectureCode": "44",
    "prefectureNumber": 44,
    "prefecture": "大分県",
    "city": "中津市",
    "town": "西永添"
  },
  "8710164": {
    "zipcode": "8710164",
    "prefectureCode": "44",
    "prefectureNumber": 44,
    "prefecture": "大分県",
    "city": "中津市",
    "town": "下永添"
  },
  "8710201": {
    "zipcode": "8710201",
    "prefectureCode": "44",
    "prefectureNumber": 44,
    "prefecture": "大分県",
    "city": "中津市",
    "town": "本耶馬渓町樋田"
  },
  "8710202": {
    "zipcode": "8710202",
    "prefectureCode": "44",
    "prefectureNumber": 44,
    "prefecture": "大分県",
    "city": "中津市",
    "town": "本耶馬渓町曽木"
  },
  "8710203": {
    "zipcode": "8710203",
    "prefectureCode": "44",
    "prefectureNumber": 44,
    "prefecture": "大分県",
    "city": "中津市",
    "town": "本耶馬渓町多志田"
  },
  "8710204": {
    "zipcode": "8710204",
    "prefectureCode": "44",
    "prefectureNumber": 44,
    "prefecture": "大分県",
    "city": "中津市",
    "town": "本耶馬渓町冠石野"
  },
  "8710205": {
    "zipcode": "8710205",
    "prefectureCode": "44",
    "prefectureNumber": 44,
    "prefecture": "大分県",
    "city": "中津市",
    "town": "本耶馬渓町下屋形"
  },
  "8710206": {
    "zipcode": "8710206",
    "prefectureCode": "44",
    "prefectureNumber": 44,
    "prefecture": "大分県",
    "city": "中津市",
    "town": "本耶馬渓町今行"
  },
  "8710207": {
    "zipcode": "8710207",
    "prefectureCode": "44",
    "prefectureNumber": 44,
    "prefecture": "大分県",
    "city": "中津市",
    "town": "本耶馬渓町東屋形"
  },
  "8710208": {
    "zipcode": "8710208",
    "prefectureCode": "44",
    "prefectureNumber": 44,
    "prefecture": "大分県",
    "city": "中津市",
    "town": "本耶馬渓町西屋形"
  },
  "8710226": {
    "zipcode": "8710226",
    "prefectureCode": "40",
    "prefectureNumber": 40,
    "prefecture": "福岡県",
    "city": "築上郡上毛町",
    "town": "原井（有野）"
  },
  "8710311": {
    "zipcode": "8710311",
    "prefectureCode": "44",
    "prefectureNumber": 44,
    "prefecture": "大分県",
    "city": "中津市",
    "town": "本耶馬渓町跡田"
  },
  "8710312": {
    "zipcode": "8710312",
    "prefectureCode": "44",
    "prefectureNumber": 44,
    "prefecture": "大分県",
    "city": "中津市",
    "town": "本耶馬渓町折元"
  },
  "8710313": {
    "zipcode": "8710313",
    "prefectureCode": "44",
    "prefectureNumber": 44,
    "prefecture": "大分県",
    "city": "中津市",
    "town": "本耶馬渓町落合"
  },
  "8710314": {
    "zipcode": "8710314",
    "prefectureCode": "44",
    "prefectureNumber": 44,
    "prefecture": "大分県",
    "city": "中津市",
    "town": "本耶馬渓町西谷"
  },
  "8710315": {
    "zipcode": "8710315",
    "prefectureCode": "44",
    "prefectureNumber": 44,
    "prefecture": "大分県",
    "city": "中津市",
    "town": "本耶馬渓町東谷"
  },
  "8710401": {
    "zipcode": "8710401",
    "prefectureCode": "44",
    "prefectureNumber": 44,
    "prefecture": "大分県",
    "city": "中津市",
    "town": "耶馬溪町平田"
  },
  "8710402": {
    "zipcode": "8710402",
    "prefectureCode": "44",
    "prefectureNumber": 44,
    "prefecture": "大分県",
    "city": "中津市",
    "town": "耶馬溪町冠石野"
  },
  "8710403": {
    "zipcode": "8710403",
    "prefectureCode": "44",
    "prefectureNumber": 44,
    "prefecture": "大分県",
    "city": "中津市",
    "town": "耶馬溪町多志田"
  },
  "8710404": {
    "zipcode": "8710404",
    "prefectureCode": "44",
    "prefectureNumber": 44,
    "prefecture": "大分県",
    "city": "中津市",
    "town": "耶馬溪町戸原"
  },
  "8710405": {
    "zipcode": "8710405",
    "prefectureCode": "44",
    "prefectureNumber": 44,
    "prefecture": "大分県",
    "city": "中津市",
    "town": "耶馬溪町柿坂"
  },
  "8710406": {
    "zipcode": "8710406",
    "prefectureCode": "44",
    "prefectureNumber": 44,
    "prefecture": "大分県",
    "city": "中津市",
    "town": "耶馬溪町小友田"
  },
  "8710407": {
    "zipcode": "8710407",
    "prefectureCode": "44",
    "prefectureNumber": 44,
    "prefecture": "大分県",
    "city": "中津市",
    "town": "耶馬溪町三尾母"
  },
  "8710408": {
    "zipcode": "8710408",
    "prefectureCode": "44",
    "prefectureNumber": 44,
    "prefecture": "大分県",
    "city": "中津市",
    "town": "耶馬溪町福土"
  },
  "8710411": {
    "zipcode": "8710411",
    "prefectureCode": "44",
    "prefectureNumber": 44,
    "prefecture": "大分県",
    "city": "中津市",
    "town": "耶馬溪町中畑"
  },
  "8710412": {
    "zipcode": "8710412",
    "prefectureCode": "44",
    "prefectureNumber": 44,
    "prefecture": "大分県",
    "city": "中津市",
    "town": "耶馬溪町栃木"
  },
  "8710413": {
    "zipcode": "8710413",
    "prefectureCode": "44",
    "prefectureNumber": 44,
    "prefecture": "大分県",
    "city": "中津市",
    "town": "耶馬溪町大野"
  },
  "8710414": {
    "zipcode": "8710414",
    "prefectureCode": "44",
    "prefectureNumber": 44,
    "prefecture": "大分県",
    "city": "中津市",
    "town": "耶馬溪町川原口"
  },
  "8710421": {
    "zipcode": "8710421",
    "prefectureCode": "44",
    "prefectureNumber": 44,
    "prefecture": "大分県",
    "city": "中津市",
    "town": "耶馬溪町山移"
  },
  "8710422": {
    "zipcode": "8710422",
    "prefectureCode": "44",
    "prefectureNumber": 44,
    "prefecture": "大分県",
    "city": "中津市",
    "town": "耶馬溪町深耶馬"
  },
  "8710431": {
    "zipcode": "8710431",
    "prefectureCode": "44",
    "prefectureNumber": 44,
    "prefecture": "大分県",
    "city": "中津市",
    "town": "耶馬溪町大島"
  },
  "8710432": {
    "zipcode": "8710432",
    "prefectureCode": "44",
    "prefectureNumber": 44,
    "prefecture": "大分県",
    "city": "中津市",
    "town": "耶馬溪町金吉"
  },
  "8710433": {
    "zipcode": "8710433",
    "prefectureCode": "44",
    "prefectureNumber": 44,
    "prefecture": "大分県",
    "city": "中津市",
    "town": "耶馬溪町宮園"
  },
  "8710434": {
    "zipcode": "8710434",
    "prefectureCode": "44",
    "prefectureNumber": 44,
    "prefecture": "大分県",
    "city": "中津市",
    "town": "耶馬溪町樋山路"
  },
  "8710701": {
    "zipcode": "8710701",
    "prefectureCode": "44",
    "prefectureNumber": 44,
    "prefecture": "大分県",
    "city": "中津市",
    "town": "山国町槻木"
  },
  "8710702": {
    "zipcode": "8710702",
    "prefectureCode": "44",
    "prefectureNumber": 44,
    "prefecture": "大分県",
    "city": "中津市",
    "town": "山国町草本"
  },
  "8710703": {
    "zipcode": "8710703",
    "prefectureCode": "44",
    "prefectureNumber": 44,
    "prefecture": "大分県",
    "city": "中津市",
    "town": "山国町小屋川"
  },
  "8710704": {
    "zipcode": "8710704",
    "prefectureCode": "44",
    "prefectureNumber": 44,
    "prefecture": "大分県",
    "city": "中津市",
    "town": "山国町吉野"
  },
  "8710711": {
    "zipcode": "8710711",
    "prefectureCode": "44",
    "prefectureNumber": 44,
    "prefecture": "大分県",
    "city": "中津市",
    "town": "山国町平小野"
  },
  "8710712": {
    "zipcode": "8710712",
    "prefectureCode": "44",
    "prefectureNumber": 44,
    "prefecture": "大分県",
    "city": "中津市",
    "town": "山国町守実"
  },
  "8710713": {
    "zipcode": "8710713",
    "prefectureCode": "44",
    "prefectureNumber": 44,
    "prefecture": "大分県",
    "city": "中津市",
    "town": "山国町藤野木"
  },
  "8710714": {
    "zipcode": "8710714",
    "prefectureCode": "44",
    "prefectureNumber": 44,
    "prefecture": "大分県",
    "city": "中津市",
    "town": "山国町長尾野"
  },
  "8710715": {
    "zipcode": "8710715",
    "prefectureCode": "44",
    "prefectureNumber": 44,
    "prefecture": "大分県",
    "city": "中津市",
    "town": "山国町宇曽"
  },
  "8710716": {
    "zipcode": "8710716",
    "prefectureCode": "44",
    "prefectureNumber": 44,
    "prefecture": "大分県",
    "city": "中津市",
    "town": "山国町中摩"
  },
  "8710801": {
    "zipcode": "8710801",
    "prefectureCode": "40",
    "prefectureNumber": 40,
    "prefecture": "福岡県",
    "city": "築上郡吉富町",
    "town": "小祝"
  },
  "8710802": {
    "zipcode": "8710802",
    "prefectureCode": "40",
    "prefectureNumber": 40,
    "prefecture": "福岡県",
    "city": "築上郡吉富町",
    "town": "小犬丸"
  },
  "8710811": {
    "zipcode": "8710811",
    "prefectureCode": "40",
    "prefectureNumber": 40,
    "prefecture": "福岡県",
    "city": "築上郡吉富町",
    "town": "広津"
  },
  "8710821": {
    "zipcode": "8710821",
    "prefectureCode": "40",
    "prefectureNumber": 40,
    "prefecture": "福岡県",
    "city": "築上郡吉富町",
    "town": "幸子"
  },
  "8710822": {
    "zipcode": "8710822",
    "prefectureCode": "40",
    "prefectureNumber": 40,
    "prefecture": "福岡県",
    "city": "築上郡吉富町",
    "town": "今吉"
  },
  "8710823": {
    "zipcode": "8710823",
    "prefectureCode": "40",
    "prefectureNumber": 40,
    "prefecture": "福岡県",
    "city": "築上郡吉富町",
    "town": "別府"
  },
  "8710831": {
    "zipcode": "8710831",
    "prefectureCode": "40",
    "prefectureNumber": 40,
    "prefecture": "福岡県",
    "city": "築上郡吉富町",
    "town": "直江"
  },
  "8710832": {
    "zipcode": "8710832",
    "prefectureCode": "40",
    "prefectureNumber": 40,
    "prefecture": "福岡県",
    "city": "築上郡吉富町",
    "town": "鈴熊"
  },
  "8710833": {
    "zipcode": "8710833",
    "prefectureCode": "40",
    "prefectureNumber": 40,
    "prefecture": "福岡県",
    "city": "築上郡吉富町",
    "town": "楡生"
  },
  "8710834": {
    "zipcode": "8710834",
    "prefectureCode": "40",
    "prefectureNumber": 40,
    "prefecture": "福岡県",
    "city": "築上郡吉富町",
    "town": "土屋"
  },
  "8710900": {
    "zipcode": "8710900",
    "prefectureCode": "40",
    "prefectureNumber": 40,
    "prefecture": "福岡県",
    "city": "築上郡上毛町",
    "town": "以下に掲載がない場合"
  },
  "8710901": {
    "zipcode": "8710901",
    "prefectureCode": "40",
    "prefectureNumber": 40,
    "prefecture": "福岡県",
    "city": "築上郡上毛町",
    "town": "成恒"
  },
  "8710902": {
    "zipcode": "8710902",
    "prefectureCode": "40",
    "prefectureNumber": 40,
    "prefecture": "福岡県",
    "city": "築上郡上毛町",
    "town": "大ノ瀬"
  },
  "8710903": {
    "zipcode": "8710903",
    "prefectureCode": "40",
    "prefectureNumber": 40,
    "prefecture": "福岡県",
    "city": "築上郡上毛町",
    "town": "八ツ並"
  },
  "8710904": {
    "zipcode": "8710904",
    "prefectureCode": "40",
    "prefectureNumber": 40,
    "prefecture": "福岡県",
    "city": "築上郡上毛町",
    "town": "安雲"
  },
  "8710905": {
    "zipcode": "8710905",
    "prefectureCode": "40",
    "prefectureNumber": 40,
    "prefecture": "福岡県",
    "city": "築上郡上毛町",
    "town": "尻高"
  },
  "8710906": {
    "zipcode": "8710906",
    "prefectureCode": "40",
    "prefectureNumber": 40,
    "prefecture": "福岡県",
    "city": "築上郡上毛町",
    "town": "矢方"
  },
  "8710907": {
    "zipcode": "8710907",
    "prefectureCode": "40",
    "prefectureNumber": 40,
    "prefecture": "福岡県",
    "city": "築上郡上毛町",
    "town": "緒方"
  },
  "8710911": {
    "zipcode": "8710911",
    "prefectureCode": "40",
    "prefectureNumber": 40,
    "prefecture": "福岡県",
    "city": "築上郡上毛町",
    "town": "中村"
  },
  "8710912": {
    "zipcode": "8710912",
    "prefectureCode": "40",
    "prefectureNumber": 40,
    "prefecture": "福岡県",
    "city": "築上郡上毛町",
    "town": "吉岡"
  },
  "8710913": {
    "zipcode": "8710913",
    "prefectureCode": "40",
    "prefectureNumber": 40,
    "prefecture": "福岡県",
    "city": "築上郡上毛町",
    "town": "垂水"
  },
  "8710914": {
    "zipcode": "8710914",
    "prefectureCode": "40",
    "prefectureNumber": 40,
    "prefecture": "福岡県",
    "city": "築上郡上毛町",
    "town": "宇野"
  },
  "8710921": {
    "zipcode": "8710921",
    "prefectureCode": "40",
    "prefectureNumber": 40,
    "prefecture": "福岡県",
    "city": "築上郡上毛町",
    "town": "土佐井"
  },
  "8710922": {
    "zipcode": "8710922",
    "prefectureCode": "40",
    "prefectureNumber": 40,
    "prefecture": "福岡県",
    "city": "築上郡上毛町",
    "town": "東下"
  },
  "8710923": {
    "zipcode": "8710923",
    "prefectureCode": "40",
    "prefectureNumber": 40,
    "prefecture": "福岡県",
    "city": "築上郡上毛町",
    "town": "下唐原"
  },
  "8710924": {
    "zipcode": "8710924",
    "prefectureCode": "40",
    "prefectureNumber": 40,
    "prefecture": "福岡県",
    "city": "築上郡上毛町",
    "town": "上唐原"
  },
  "8710925": {
    "zipcode": "8710925",
    "prefectureCode": "40",
    "prefectureNumber": 40,
    "prefecture": "福岡県",
    "city": "築上郡上毛町",
    "town": "百留"
  },
  "8710926": {
    "zipcode": "8710926",
    "prefectureCode": "40",
    "prefectureNumber": 40,
    "prefecture": "福岡県",
    "city": "築上郡上毛町",
    "town": "原井（その他）"
  },
  "8710927": {
    "zipcode": "8710927",
    "prefectureCode": "40",
    "prefectureNumber": 40,
    "prefecture": "福岡県",
    "city": "築上郡上毛町",
    "town": "東上"
  },
  "8710928": {
    "zipcode": "8710928",
    "prefectureCode": "40",
    "prefectureNumber": 40,
    "prefecture": "福岡県",
    "city": "築上郡上毛町",
    "town": "西友枝"
  }
}
