{
  "8720000": {
    "zipcode": "8720000",
    "prefectureCode": "44",
    "prefectureNumber": 44,
    "prefecture": "大分県",
    "city": "宇佐市",
    "town": "以下に掲載がない場合"
  },
  "8720001": {
    "zipcode": "8720001",
    "prefectureCode": "44",
    "prefectureNumber": 44,
    "prefecture": "大分県",
    "city": "宇佐市",
    "town": "長洲"
  },
  "8720011": {
    "zipcode": "8720011",
    "prefectureCode": "44",
    "prefectureNumber": 44,
    "prefecture": "大分県",
    "city": "宇佐市",
    "town": "岩保新田"
  },
  "8720012": {
    "zipcode": "8720012",
    "prefectureCode": "44",
    "prefectureNumber": 44,
    "prefecture": "大分県",
    "city": "宇佐市",
    "town": "久兵衛新田"
  },
  "8720013": {
    "zipcode": "8720013",
    "prefectureCode": "44",
    "prefectureNumber": 44,
    "prefecture": "大分県",
    "city": "宇佐市",
    "town": "北鶴田新田"
  },
  "8720014": {
    "zipcode": "8720014",
    "prefectureCode": "44",
    "prefectureNumber": 44,
    "prefecture": "大分県",
    "city": "宇佐市",
    "town": "南鶴田新田"
  },
  "8720015": {
    "zipcode": "8720015",
    "prefectureCode": "44",
    "prefectureNumber": 44,
    "prefecture": "大分県",
    "city": "宇佐市",
    "town": "松崎"
  },
  "8720016": {
    "zipcode": "8720016",
    "prefectureCode": "44",
    "prefectureNumber": 44,
    "prefecture": "大分県",
    "city": "宇佐市",
    "town": "佐々礼"
  },
  "8720021": {
    "zipcode": "8720021",
    "prefectureCode": "44",
    "prefectureNumber": 44,
    "prefecture": "大分県",
    "city": "宇佐市",
    "town": "金屋"
  },
  "8720022": {
    "zipcode": "8720022",
    "prefectureCode": "44",
    "prefectureNumber": 44,
    "prefecture": "大分県",
    "city": "宇佐市",
    "town": "西大堀"
  },
  "8720023": {
    "zipcode": "8720023",
    "prefectureCode": "44",
    "prefectureNumber": 44,
    "prefecture": "大分県",
    "city": "宇佐市",
    "town": "蜷木"
  },
  "8720031": {
    "zipcode": "8720031",
    "prefectureCode": "44",
    "prefectureNumber": 44,
    "prefecture": "大分県",
    "city": "宇佐市",
    "town": "沖須町"
  },
  "8720032": {
    "zipcode": "8720032",
    "prefectureCode": "44",
    "prefectureNumber": 44,
    "prefecture": "大分県",
    "city": "宇佐市",
    "town": "江須賀"
  },
  "8720033": {
    "zipcode": "8720033",
    "prefectureCode": "44",
    "prefectureNumber": 44,
    "prefecture": "大分県",
    "city": "宇佐市",
    "town": "住吉町"
  },
  "8720041": {
    "zipcode": "8720041",
    "prefectureCode": "44",
    "prefectureNumber": 44,
    "prefecture": "大分県",
    "city": "宇佐市",
    "town": "神子山新田"
  },
  "8720042": {
    "zipcode": "8720042",
    "prefectureCode": "44",
    "prefectureNumber": 44,
    "prefecture": "大分県",
    "city": "宇佐市",
    "town": "貴船町"
  },
  "8720043": {
    "zipcode": "8720043",
    "prefectureCode": "44",
    "prefectureNumber": 44,
    "prefecture": "大分県",
    "city": "宇佐市",
    "town": "子安町"
  },
  "8720044": {
    "zipcode": "8720044",
    "prefectureCode": "44",
    "prefectureNumber": 44,
    "prefecture": "大分県",
    "city": "宇佐市",
    "town": "住江"
  },
  "8720045": {
    "zipcode": "8720045",
    "prefectureCode": "44",
    "prefectureNumber": 44,
    "prefecture": "大分県",
    "city": "宇佐市",
    "town": "郡中新田"
  },
  "8720046": {
    "zipcode": "8720046",
    "prefectureCode": "44",
    "prefectureNumber": 44,
    "prefecture": "大分県",
    "city": "宇佐市",
    "town": "高砂新田"
  },
  "8720047": {
    "zipcode": "8720047",
    "prefectureCode": "44",
    "prefectureNumber": 44,
    "prefecture": "大分県",
    "city": "宇佐市",
    "town": "順風新田"
  },
  "8720101": {
    "zipcode": "8720101",
    "prefectureCode": "44",
    "prefectureNumber": 44,
    "prefecture": "大分県",
    "city": "宇佐市",
    "town": "高森"
  },
  "8720102": {
    "zipcode": "8720102",
    "prefectureCode": "44",
    "prefectureNumber": 44,
    "prefecture": "大分県",
    "city": "宇佐市",
    "town": "南宇佐"
  },
  "8720103": {
    "zipcode": "8720103",
    "prefectureCode": "44",
    "prefectureNumber": 44,
    "prefecture": "大分県",
    "city": "宇佐市",
    "town": "北宇佐"
  },
  "8720104": {
    "zipcode": "8720104",
    "prefectureCode": "44",
    "prefectureNumber": 44,
    "prefecture": "大分県",
    "city": "宇佐市",
    "town": "小向野"
  },
  "8720111": {
    "zipcode": "8720111",
    "prefectureCode": "44",
    "prefectureNumber": 44,
    "prefecture": "大分県",
    "city": "宇佐市",
    "town": "下矢部"
  },
  "8720112": {
    "zipcode": "8720112",
    "prefectureCode": "44",
    "prefectureNumber": 44,
    "prefecture": "大分県",
    "city": "宇佐市",
    "town": "上矢部"
  },
  "8720113": {
    "zipcode": "8720113",
    "prefectureCode": "44",
    "prefectureNumber": 44,
    "prefecture": "大分県",
    "city": "宇佐市",
    "town": "正覚寺"
  },
  "8720114": {
    "zipcode": "8720114",
    "prefectureCode": "44",
    "prefectureNumber": 44,
    "prefecture": "大分県",
    "city": "宇佐市",
    "town": "熊"
  },
  "8720301": {
    "zipcode": "8720301",
    "prefectureCode": "44",
    "prefectureNumber": 44,
    "prefecture": "大分県",
    "city": "宇佐市",
    "town": "院内町御沓"
  },
  "8720302": {
    "zipcode": "8720302",
    "prefectureCode": "44",
    "prefectureNumber": 44,
    "prefecture": "大分県",
    "city": "宇佐市",
    "town": "院内町二日市"
  },
  "8720311": {
    "zipcode": "8720311",
    "prefectureCode": "44",
    "prefectureNumber": 44,
    "prefecture": "大分県",
    "city": "宇佐市",
    "town": "院内町香下"
  },
  "8720312": {
    "zipcode": "8720312",
    "prefectureCode": "44",
    "prefectureNumber": 44,
    "prefecture": "大分県",
    "city": "宇佐市",
    "town": "院内町櫛野"
  },
  "8720313": {
    "zipcode": "8720313",
    "prefectureCode": "44",
    "prefectureNumber": 44,
    "prefecture": "大分県",
    "city": "宇佐市",
    "town": "院内町新洞"
  },
  "8720314": {
    "zipcode": "8720314",
    "prefectureCode": "44",
    "prefectureNumber": 44,
    "prefecture": "大分県",
    "city": "宇佐市",
    "town": "院内町沖"
  },
  "8720315": {
    "zipcode": "8720315",
    "prefectureCode": "44",
    "prefectureNumber": 44,
    "prefecture": "大分県",
    "city": "宇佐市",
    "town": "院内町北山"
  },
  "8720316": {
    "zipcode": "8720316",
    "prefectureCode": "44",
    "prefectureNumber": 44,
    "prefecture": "大分県",
    "city": "宇佐市",
    "town": "院内町小坂"
  },
  "8720317": {
    "zipcode": "8720317",
    "prefectureCode": "44",
    "prefectureNumber": 44,
    "prefecture": "大分県",
    "city": "宇佐市",
    "town": "院内町広瀬"
  },
  "8720318": {
    "zipcode": "8720318",
    "prefectureCode": "44",
    "prefectureNumber": 44,
    "prefecture": "大分県",
    "city": "宇佐市",
    "town": "院内町副"
  },
  "8720321": {
    "zipcode": "8720321",
    "prefectureCode": "44",
    "prefectureNumber": 44,
    "prefecture": "大分県",
    "city": "宇佐市",
    "town": "院内町五名"
  },
  "8720322": {
    "zipcode": "8720322",
    "prefectureCode": "44",
    "prefectureNumber": 44,
    "prefecture": "大分県",
    "city": "宇佐市",
    "town": "院内町日岳"
  },
  "8720323": {
    "zipcode": "8720323",
    "prefectureCode": "44",
    "prefectureNumber": 44,
    "prefecture": "大分県",
    "city": "宇佐市",
    "town": "院内町大重見"
  },
  "8720324": {
    "zipcode": "8720324",
    "prefectureCode": "44",
    "prefectureNumber": 44,
    "prefecture": "大分県",
    "city": "宇佐市",
    "town": "院内町小野川内"
  },
  "8720325": {
    "zipcode": "8720325",
    "prefectureCode": "44",
    "prefectureNumber": 44,
    "prefecture": "大分県",
    "city": "宇佐市",
    "town": "院内町小稲"
  },
  "8720326": {
    "zipcode": "8720326",
    "prefectureCode": "44",
    "prefectureNumber": 44,
    "prefecture": "大分県",
    "city": "宇佐市",
    "town": "院内町上船木"
  },
  "8720327": {
    "zipcode": "8720327",
    "prefectureCode": "44",
    "prefectureNumber": 44,
    "prefecture": "大分県",
    "city": "宇佐市",
    "town": "院内町下船木"
  },
  "8720328": {
    "zipcode": "8720328",
    "prefectureCode": "44",
    "prefectureNumber": 44,
    "prefecture": "大分県",
    "city": "宇佐市",
    "town": "院内町高並"
  },
  "8720331": {
    "zipcode": "8720331",
    "prefectureCode": "44",
    "prefectureNumber": 44,
    "prefecture": "大分県",
    "city": "宇佐市",
    "town": "院内町大副"
  },
  "8720332": {
    "zipcode": "8720332",
    "prefectureCode": "44",
    "prefectureNumber": 44,
    "prefecture": "大分県",
    "city": "宇佐市",
    "town": "院内町山城"
  },
  "8720333": {
    "zipcode": "8720333",
    "prefectureCode": "44",
    "prefectureNumber": 44,
    "prefecture": "大分県",
    "city": "宇佐市",
    "town": "院内町原口"
  },
  "8720334": {
    "zipcode": "8720334",
    "prefectureCode": "44",
    "prefectureNumber": 44,
    "prefecture": "大分県",
    "city": "宇佐市",
    "town": "院内町落狩倉"
  },
  "8720341": {
    "zipcode": "8720341",
    "prefectureCode": "44",
    "prefectureNumber": 44,
    "prefecture": "大分県",
    "city": "宇佐市",
    "town": "院内町斎藤"
  },
  "8720342": {
    "zipcode": "8720342",
    "prefectureCode": "44",
    "prefectureNumber": 44,
    "prefecture": "大分県",
    "city": "宇佐市",
    "town": "院内町景平"
  },
  "8720343": {
    "zipcode": "8720343",
    "prefectureCode": "44",
    "prefectureNumber": 44,
    "prefecture": "大分県",
    "city": "宇佐市",
    "town": "院内町宮原"
  },
  "8720344": {
    "zipcode": "8720344",
    "prefectureCode": "44",
    "prefectureNumber": 44,
    "prefecture": "大分県",
    "city": "宇佐市",
    "town": "院内町大門"
  },
  "8720345": {
    "zipcode": "8720345",
    "prefectureCode": "44",
    "prefectureNumber": 44,
    "prefecture": "大分県",
    "city": "宇佐市",
    "town": "院内町月俣"
  },
  "8720346": {
    "zipcode": "8720346",
    "prefectureCode": "44",
    "prefectureNumber": 44,
    "prefecture": "大分県",
    "city": "宇佐市",
    "town": "院内町定別当"
  },
  "8720366": {
    "zipcode": "8720366",
    "prefectureCode": "44",
    "prefectureNumber": 44,
    "prefecture": "大分県",
    "city": "宇佐市",
    "town": "上拝田（新洞）"
  },
  "8720451": {
    "zipcode": "8720451",
    "prefectureCode": "44",
    "prefectureNumber": 44,
    "prefecture": "大分県",
    "city": "宇佐市",
    "town": "院内町下余"
  },
  "8720452": {
    "zipcode": "8720452",
    "prefectureCode": "44",
    "prefectureNumber": 44,
    "prefecture": "大分県",
    "city": "宇佐市",
    "town": "院内町上納持"
  },
  "8720453": {
    "zipcode": "8720453",
    "prefectureCode": "44",
    "prefectureNumber": 44,
    "prefecture": "大分県",
    "city": "宇佐市",
    "town": "院内町平原"
  },
  "8720454": {
    "zipcode": "8720454",
    "prefectureCode": "44",
    "prefectureNumber": 44,
    "prefecture": "大分県",
    "city": "宇佐市",
    "town": "院内町滝貞"
  },
  "8720455": {
    "zipcode": "8720455",
    "prefectureCode": "44",
    "prefectureNumber": 44,
    "prefecture": "大分県",
    "city": "宇佐市",
    "town": "院内町小平"
  },
  "8720456": {
    "zipcode": "8720456",
    "prefectureCode": "44",
    "prefectureNumber": 44,
    "prefecture": "大分県",
    "city": "宇佐市",
    "town": "院内町栗山"
  },
  "8720457": {
    "zipcode": "8720457",
    "prefectureCode": "44",
    "prefectureNumber": 44,
    "prefecture": "大分県",
    "city": "宇佐市",
    "town": "院内町岡"
  },
  "8720458": {
    "zipcode": "8720458",
    "prefectureCode": "44",
    "prefectureNumber": 44,
    "prefecture": "大分県",
    "city": "宇佐市",
    "town": "院内町大坪"
  },
  "8720459": {
    "zipcode": "8720459",
    "prefectureCode": "44",
    "prefectureNumber": 44,
    "prefecture": "大分県",
    "city": "宇佐市",
    "town": "院内町上余"
  },
  "8720461": {
    "zipcode": "8720461",
    "prefectureCode": "44",
    "prefectureNumber": 44,
    "prefecture": "大分県",
    "city": "宇佐市",
    "town": "院内町台"
  },
  "8720462": {
    "zipcode": "8720462",
    "prefectureCode": "44",
    "prefectureNumber": 44,
    "prefecture": "大分県",
    "city": "宇佐市",
    "town": "院内町羽馬礼"
  },
  "8720463": {
    "zipcode": "8720463",
    "prefectureCode": "44",
    "prefectureNumber": 44,
    "prefecture": "大分県",
    "city": "宇佐市",
    "town": "院内町和田"
  },
  "8720464": {
    "zipcode": "8720464",
    "prefectureCode": "44",
    "prefectureNumber": 44,
    "prefecture": "大分県",
    "city": "宇佐市",
    "town": "院内町西椎屋"
  },
  "8720465": {
    "zipcode": "8720465",
    "prefectureCode": "44",
    "prefectureNumber": 44,
    "prefecture": "大分県",
    "city": "宇佐市",
    "town": "院内町田平"
  },
  "8720466": {
    "zipcode": "8720466",
    "prefectureCode": "44",
    "prefectureNumber": 44,
    "prefecture": "大分県",
    "city": "宇佐市",
    "town": "院内町来鉢"
  },
  "8720471": {
    "zipcode": "8720471",
    "prefectureCode": "44",
    "prefectureNumber": 44,
    "prefecture": "大分県",
    "city": "宇佐市",
    "town": "院内町温見"
  },
  "8720472": {
    "zipcode": "8720472",
    "prefectureCode": "44",
    "prefectureNumber": 44,
    "prefecture": "大分県",
    "city": "宇佐市",
    "town": "院内町野地"
  },
  "8720473": {
    "zipcode": "8720473",
    "prefectureCode": "44",
    "prefectureNumber": 44,
    "prefecture": "大分県",
    "city": "宇佐市",
    "town": "院内町田所"
  },
  "8720481": {
    "zipcode": "8720481",
    "prefectureCode": "44",
    "prefectureNumber": 44,
    "prefecture": "大分県",
    "city": "宇佐市",
    "town": "院内町下恵良"
  },
  "8720482": {
    "zipcode": "8720482",
    "prefectureCode": "44",
    "prefectureNumber": 44,
    "prefecture": "大分県",
    "city": "宇佐市",
    "town": "院内町荻迫"
  },
  "8720483": {
    "zipcode": "8720483",
    "prefectureCode": "44",
    "prefectureNumber": 44,
    "prefecture": "大分県",
    "city": "宇佐市",
    "town": "院内町土岩屋"
  },
  "8720484": {
    "zipcode": "8720484",
    "prefectureCode": "44",
    "prefectureNumber": 44,
    "prefecture": "大分県",
    "city": "宇佐市",
    "town": "院内町上恵良"
  },
  "8720501": {
    "zipcode": "8720501",
    "prefectureCode": "44",
    "prefectureNumber": 44,
    "prefecture": "大分県",
    "city": "宇佐市",
    "town": "安心院町原"
  },
  "8720502": {
    "zipcode": "8720502",
    "prefectureCode": "44",
    "prefectureNumber": 44,
    "prefecture": "大分県",
    "city": "宇佐市",
    "town": "安心院町飯田"
  },
  "8720503": {
    "zipcode": "8720503",
    "prefectureCode": "44",
    "prefectureNumber": 44,
    "prefecture": "大分県",
    "city": "宇佐市",
    "town": "安心院町新原"
  },
  "8720504": {
    "zipcode": "8720504",
    "prefectureCode": "44",
    "prefectureNumber": 44,
    "prefecture": "大分県",
    "city": "宇佐市",
    "town": "安心院町荘"
  },
  "8720505": {
    "zipcode": "8720505",
    "prefectureCode": "44",
    "prefectureNumber": 44,
    "prefecture": "大分県",
    "city": "宇佐市",
    "town": "安心院町戸方"
  },
  "8720506": {
    "zipcode": "8720506",
    "prefectureCode": "44",
    "prefectureNumber": 44,
    "prefecture": "大分県",
    "city": "宇佐市",
    "town": "安心院町妻垣"
  },
  "8720507": {
    "zipcode": "8720507",
    "prefectureCode": "44",
    "prefectureNumber": 44,
    "prefecture": "大分県",
    "city": "宇佐市",
    "town": "安心院町木裳"
  },
  "8720510": {
    "zipcode": "8720510",
    "prefectureCode": "44",
    "prefectureNumber": 44,
    "prefecture": "大分県",
    "city": "宇佐市",
    "town": "安心院町有徳原"
  },
  "8720511": {
    "zipcode": "8720511",
    "prefectureCode": "44",
    "prefectureNumber": 44,
    "prefecture": "大分県",
    "city": "宇佐市",
    "town": "安心院町上市"
  },
  "8720512": {
    "zipcode": "8720512",
    "prefectureCode": "44",
    "prefectureNumber": 44,
    "prefecture": "大分県",
    "city": "宇佐市",
    "town": "安心院町古市"
  },
  "8720513": {
    "zipcode": "8720513",
    "prefectureCode": "44",
    "prefectureNumber": 44,
    "prefecture": "大分県",
    "city": "宇佐市",
    "town": "安心院町龍王"
  },
  "8720514": {
    "zipcode": "8720514",
    "prefectureCode": "44",
    "prefectureNumber": 44,
    "prefecture": "大分県",
    "city": "宇佐市",
    "town": "安心院町鳥越"
  },
  "8720515": {
    "zipcode": "8720515",
    "prefectureCode": "44",
    "prefectureNumber": 44,
    "prefecture": "大分県",
    "city": "宇佐市",
    "town": "安心院町野山"
  },
  "8720516": {
    "zipcode": "8720516",
    "prefectureCode": "44",
    "prefectureNumber": 44,
    "prefecture": "大分県",
    "city": "宇佐市",
    "town": "安心院町森"
  },
  "8720517": {
    "zipcode": "8720517",
    "prefectureCode": "44",
    "prefectureNumber": 44,
    "prefecture": "大分県",
    "city": "宇佐市",
    "town": "安心院町大"
  },
  "8720518": {
    "zipcode": "8720518",
    "prefectureCode": "44",
    "prefectureNumber": 44,
    "prefecture": "大分県",
    "city": "宇佐市",
    "town": "安心院町今井"
  },
  "8720519": {
    "zipcode": "8720519",
    "prefectureCode": "44",
    "prefectureNumber": 44,
    "prefecture": "大分県",
    "city": "宇佐市",
    "town": "安心院町西衲"
  },
  "8720521": {
    "zipcode": "8720521",
    "prefectureCode": "44",
    "prefectureNumber": 44,
    "prefecture": "大分県",
    "city": "宇佐市",
    "town": "安心院町下毛"
  },
  "8720522": {
    "zipcode": "8720522",
    "prefectureCode": "44",
    "prefectureNumber": 44,
    "prefecture": "大分県",
    "city": "宇佐市",
    "town": "安心院町折敷田"
  },
  "8720523": {
    "zipcode": "8720523",
    "prefectureCode": "44",
    "prefectureNumber": 44,
    "prefecture": "大分県",
    "city": "宇佐市",
    "town": "安心院町大佛"
  },
  "8720524": {
    "zipcode": "8720524",
    "prefectureCode": "44",
    "prefectureNumber": 44,
    "prefecture": "大分県",
    "city": "宇佐市",
    "town": "安心院町恒松"
  },
  "8720525": {
    "zipcode": "8720525",
    "prefectureCode": "44",
    "prefectureNumber": 44,
    "prefecture": "大分県",
    "city": "宇佐市",
    "town": "安心院町中山"
  },
  "8720526": {
    "zipcode": "8720526",
    "prefectureCode": "44",
    "prefectureNumber": 44,
    "prefecture": "大分県",
    "city": "宇佐市",
    "town": "安心院町田ノ口"
  },
  "8720527": {
    "zipcode": "8720527",
    "prefectureCode": "44",
    "prefectureNumber": 44,
    "prefecture": "大分県",
    "city": "宇佐市",
    "town": "安心院町辻"
  },
  "8720541": {
    "zipcode": "8720541",
    "prefectureCode": "44",
    "prefectureNumber": 44,
    "prefecture": "大分県",
    "city": "宇佐市",
    "town": "安心院町熊"
  },
  "8720542": {
    "zipcode": "8720542",
    "prefectureCode": "44",
    "prefectureNumber": 44,
    "prefecture": "大分県",
    "city": "宇佐市",
    "town": "安心院町正覚寺"
  },
  "8720543": {
    "zipcode": "8720543",
    "prefectureCode": "44",
    "prefectureNumber": 44,
    "prefecture": "大分県",
    "city": "宇佐市",
    "town": "安心院町平ケ倉"
  },
  "8720651": {
    "zipcode": "8720651",
    "prefectureCode": "44",
    "prefectureNumber": 44,
    "prefecture": "大分県",
    "city": "宇佐市",
    "town": "安心院町佐田"
  },
  "8720652": {
    "zipcode": "8720652",
    "prefectureCode": "44",
    "prefectureNumber": 44,
    "prefecture": "大分県",
    "city": "宇佐市",
    "town": "安心院町山蔵"
  },
  "8720653": {
    "zipcode": "8720653",
    "prefectureCode": "44",
    "prefectureNumber": 44,
    "prefecture": "大分県",
    "city": "宇佐市",
    "town": "安心院町房ケ畑"
  },
  "8720654": {
    "zipcode": "8720654",
    "prefectureCode": "44",
    "prefectureNumber": 44,
    "prefecture": "大分県",
    "city": "宇佐市",
    "town": "安心院町内川野"
  },
  "8720655": {
    "zipcode": "8720655",
    "prefectureCode": "44",
    "prefectureNumber": 44,
    "prefecture": "大分県",
    "city": "宇佐市",
    "town": "安心院町古川"
  },
  "8720661": {
    "zipcode": "8720661",
    "prefectureCode": "44",
    "prefectureNumber": 44,
    "prefecture": "大分県",
    "city": "宇佐市",
    "town": "安心院町笹ケ平"
  },
  "8720662": {
    "zipcode": "8720662",
    "prefectureCode": "44",
    "prefectureNumber": 44,
    "prefecture": "大分県",
    "city": "宇佐市",
    "town": "安心院町矢津"
  },
  "8720663": {
    "zipcode": "8720663",
    "prefectureCode": "44",
    "prefectureNumber": 44,
    "prefecture": "大分県",
    "city": "宇佐市",
    "town": "安心院町大見尾"
  },
  "8720664": {
    "zipcode": "8720664",
    "prefectureCode": "44",
    "prefectureNumber": 44,
    "prefecture": "大分県",
    "city": "宇佐市",
    "town": "安心院町塔尾"
  },
  "8720671": {
    "zipcode": "8720671",
    "prefectureCode": "44",
    "prefectureNumber": 44,
    "prefecture": "大分県",
    "city": "宇佐市",
    "town": "安心院町且尾"
  },
  "8720672": {
    "zipcode": "8720672",
    "prefectureCode": "44",
    "prefectureNumber": 44,
    "prefecture": "大分県",
    "city": "宇佐市",
    "town": "安心院町広谷"
  },
  "8720673": {
    "zipcode": "8720673",
    "prefectureCode": "44",
    "prefectureNumber": 44,
    "prefecture": "大分県",
    "city": "宇佐市",
    "town": "安心院町口ノ坪"
  },
  "8720674": {
    "zipcode": "8720674",
    "prefectureCode": "44",
    "prefectureNumber": 44,
    "prefecture": "大分県",
    "city": "宇佐市",
    "town": "安心院町久井田"
  },
  "8720675": {
    "zipcode": "8720675",
    "prefectureCode": "44",
    "prefectureNumber": 44,
    "prefecture": "大分県",
    "city": "宇佐市",
    "town": "安心院町矢崎"
  },
  "8720701": {
    "zipcode": "8720701",
    "prefectureCode": "44",
    "prefectureNumber": 44,
    "prefecture": "大分県",
    "city": "宇佐市",
    "town": "安心院町楢本"
  },
  "8720702": {
    "zipcode": "8720702",
    "prefectureCode": "44",
    "prefectureNumber": 44,
    "prefecture": "大分県",
    "city": "宇佐市",
    "town": "安心院町東恵良"
  },
  "8720703": {
    "zipcode": "8720703",
    "prefectureCode": "44",
    "prefectureNumber": 44,
    "prefecture": "大分県",
    "city": "宇佐市",
    "town": "安心院町尾立"
  },
  "8720711": {
    "zipcode": "8720711",
    "prefectureCode": "44",
    "prefectureNumber": 44,
    "prefecture": "大分県",
    "city": "宇佐市",
    "town": "安心院町六郎丸"
  },
  "8720712": {
    "zipcode": "8720712",
    "prefectureCode": "44",
    "prefectureNumber": 44,
    "prefecture": "大分県",
    "city": "宇佐市",
    "town": "安心院町五郎丸"
  },
  "8720721": {
    "zipcode": "8720721",
    "prefectureCode": "44",
    "prefectureNumber": 44,
    "prefecture": "大分県",
    "city": "宇佐市",
    "town": "安心院町若林"
  },
  "8720722": {
    "zipcode": "8720722",
    "prefectureCode": "44",
    "prefectureNumber": 44,
    "prefecture": "大分県",
    "city": "宇佐市",
    "town": "安心院町南畑"
  },
  "8720723": {
    "zipcode": "8720723",
    "prefectureCode": "44",
    "prefectureNumber": 44,
    "prefecture": "大分県",
    "city": "宇佐市",
    "town": "安心院町萱籠"
  },
  "8720724": {
    "zipcode": "8720724",
    "prefectureCode": "44",
    "prefectureNumber": 44,
    "prefecture": "大分県",
    "city": "宇佐市",
    "town": "安心院町東椎屋"
  },
  "8720731": {
    "zipcode": "8720731",
    "prefectureCode": "44",
    "prefectureNumber": 44,
    "prefecture": "大分県",
    "city": "宇佐市",
    "town": "安心院町川崎"
  },
  "8720732": {
    "zipcode": "8720732",
    "prefectureCode": "44",
    "prefectureNumber": 44,
    "prefecture": "大分県",
    "city": "宇佐市",
    "town": "安心院町板場"
  },
  "8720733": {
    "zipcode": "8720733",
    "prefectureCode": "44",
    "prefectureNumber": 44,
    "prefecture": "大分県",
    "city": "宇佐市",
    "town": "安心院町松本"
  },
  "8720841": {
    "zipcode": "8720841",
    "prefectureCode": "44",
    "prefectureNumber": 44,
    "prefecture": "大分県",
    "city": "宇佐市",
    "town": "安心院町矢畑"
  },
  "8720842": {
    "zipcode": "8720842",
    "prefectureCode": "44",
    "prefectureNumber": 44,
    "prefecture": "大分県",
    "city": "宇佐市",
    "town": "安心院町下内河野"
  },
  "8720843": {
    "zipcode": "8720843",
    "prefectureCode": "44",
    "prefectureNumber": 44,
    "prefecture": "大分県",
    "city": "宇佐市",
    "town": "安心院町筌ノ口"
  },
  "8720851": {
    "zipcode": "8720851",
    "prefectureCode": "44",
    "prefectureNumber": 44,
    "prefecture": "大分県",
    "city": "宇佐市",
    "town": "安心院町広連"
  },
  "8720852": {
    "zipcode": "8720852",
    "prefectureCode": "44",
    "prefectureNumber": 44,
    "prefecture": "大分県",
    "city": "宇佐市",
    "town": "安心院町上内河野"
  },
  "8720853": {
    "zipcode": "8720853",
    "prefectureCode": "44",
    "prefectureNumber": 44,
    "prefecture": "大分県",
    "city": "宇佐市",
    "town": "安心院町元"
  },
  "8720854": {
    "zipcode": "8720854",
    "prefectureCode": "44",
    "prefectureNumber": 44,
    "prefecture": "大分県",
    "city": "宇佐市",
    "town": "安心院町寒水"
  },
  "8720855": {
    "zipcode": "8720855",
    "prefectureCode": "44",
    "prefectureNumber": 44,
    "prefecture": "大分県",
    "city": "宇佐市",
    "town": "安心院町福貴野"
  },
  "8720856": {
    "zipcode": "8720856",
    "prefectureCode": "44",
    "prefectureNumber": 44,
    "prefecture": "大分県",
    "city": "宇佐市",
    "town": "安心院町山ノ口"
  },
  "8720857": {
    "zipcode": "8720857",
    "prefectureCode": "44",
    "prefectureNumber": 44,
    "prefecture": "大分県",
    "city": "宇佐市",
    "town": "安心院町畳石"
  },
  "8720858": {
    "zipcode": "8720858",
    "prefectureCode": "44",
    "prefectureNumber": 44,
    "prefecture": "大分県",
    "city": "宇佐市",
    "town": "安心院町水車"
  },
  "8720861": {
    "zipcode": "8720861",
    "prefectureCode": "44",
    "prefectureNumber": 44,
    "prefecture": "大分県",
    "city": "宇佐市",
    "town": "安心院町境ノ坪"
  },
  "8720862": {
    "zipcode": "8720862",
    "prefectureCode": "44",
    "prefectureNumber": 44,
    "prefecture": "大分県",
    "city": "宇佐市",
    "town": "安心院町川底"
  },
  "8720863": {
    "zipcode": "8720863",
    "prefectureCode": "44",
    "prefectureNumber": 44,
    "prefecture": "大分県",
    "city": "宇佐市",
    "town": "安心院町村部"
  },
  "8720864": {
    "zipcode": "8720864",
    "prefectureCode": "44",
    "prefectureNumber": 44,
    "prefecture": "大分県",
    "city": "宇佐市",
    "town": "安心院町番木"
  },
  "8720865": {
    "zipcode": "8720865",
    "prefectureCode": "44",
    "prefectureNumber": 44,
    "prefecture": "大分県",
    "city": "宇佐市",
    "town": "安心院町佛木"
  },
  "8720871": {
    "zipcode": "8720871",
    "prefectureCode": "44",
    "prefectureNumber": 44,
    "prefecture": "大分県",
    "city": "宇佐市",
    "town": "安心院町平山"
  },
  "8720872": {
    "zipcode": "8720872",
    "prefectureCode": "44",
    "prefectureNumber": 44,
    "prefecture": "大分県",
    "city": "宇佐市",
    "town": "安心院町舟板"
  },
  "8720873": {
    "zipcode": "8720873",
    "prefectureCode": "44",
    "prefectureNumber": 44,
    "prefecture": "大分県",
    "city": "宇佐市",
    "town": "安心院町新貝"
  },
  "8721101": {
    "zipcode": "8721101",
    "prefectureCode": "44",
    "prefectureNumber": 44,
    "prefecture": "大分県",
    "city": "豊後高田市",
    "town": "中真玉"
  },
  "8721102": {
    "zipcode": "8721102",
    "prefectureCode": "44",
    "prefectureNumber": 44,
    "prefecture": "大分県",
    "city": "豊後高田市",
    "town": "大岩屋"
  },
  "8721103": {
    "zipcode": "8721103",
    "prefectureCode": "44",
    "prefectureNumber": 44,
    "prefecture": "大分県",
    "city": "豊後高田市",
    "town": "黒土"
  },
  "8721104": {
    "zipcode": "8721104",
    "prefectureCode": "44",
    "prefectureNumber": 44,
    "prefecture": "大分県",
    "city": "豊後高田市",
    "town": "城前"
  },
  "8721105": {
    "zipcode": "8721105",
    "prefectureCode": "44",
    "prefectureNumber": 44,
    "prefecture": "大分県",
    "city": "豊後高田市",
    "town": "西真玉"
  },
  "8721106": {
    "zipcode": "8721106",
    "prefectureCode": "44",
    "prefectureNumber": 44,
    "prefecture": "大分県",
    "city": "豊後高田市",
    "town": "大平"
  },
  "8721107": {
    "zipcode": "8721107",
    "prefectureCode": "44",
    "prefectureNumber": 44,
    "prefecture": "大分県",
    "city": "豊後高田市",
    "town": "臼野"
  },
  "8721201": {
    "zipcode": "8721201",
    "prefectureCode": "44",
    "prefectureNumber": 44,
    "prefecture": "大分県",
    "city": "豊後高田市",
    "town": "夷"
  },
  "8721202": {
    "zipcode": "8721202",
    "prefectureCode": "44",
    "prefectureNumber": 44,
    "prefecture": "大分県",
    "city": "豊後高田市",
    "town": "香々地"
  },
  "8721203": {
    "zipcode": "8721203",
    "prefectureCode": "44",
    "prefectureNumber": 44,
    "prefecture": "大分県",
    "city": "豊後高田市",
    "town": "堅来"
  },
  "8721204": {
    "zipcode": "8721204",
    "prefectureCode": "44",
    "prefectureNumber": 44,
    "prefecture": "大分県",
    "city": "豊後高田市",
    "town": "上香々地"
  },
  "8721205": {
    "zipcode": "8721205",
    "prefectureCode": "44",
    "prefectureNumber": 44,
    "prefecture": "大分県",
    "city": "豊後高田市",
    "town": "小畑"
  },
  "8721206": {
    "zipcode": "8721206",
    "prefectureCode": "44",
    "prefectureNumber": 44,
    "prefecture": "大分県",
    "city": "豊後高田市",
    "town": "羽根"
  },
  "8721207": {
    "zipcode": "8721207",
    "prefectureCode": "44",
    "prefectureNumber": 44,
    "prefecture": "大分県",
    "city": "豊後高田市",
    "town": "見目"
  },
  "8721321": {
    "zipcode": "8721321",
    "prefectureCode": "44",
    "prefectureNumber": 44,
    "prefecture": "大分県",
    "city": "国東市",
    "town": "国見町竹田津"
  },
  "8721322": {
    "zipcode": "8721322",
    "prefectureCode": "44",
    "prefectureNumber": 44,
    "prefecture": "大分県",
    "city": "国東市",
    "town": "国見町西方寺"
  },
  "8721323": {
    "zipcode": "8721323",
    "prefectureCode": "44",
    "prefectureNumber": 44,
    "prefecture": "大分県",
    "city": "国東市",
    "town": "国見町鬼籠"
  },
  "8721324": {
    "zipcode": "8721324",
    "prefectureCode": "44",
    "prefectureNumber": 44,
    "prefecture": "大分県",
    "city": "国東市",
    "town": "国見町櫛海"
  },
  "8721401": {
    "zipcode": "8721401",
    "prefectureCode": "44",
    "prefectureNumber": 44,
    "prefecture": "大分県",
    "city": "国東市",
    "town": "国見町伊美"
  },
  "8721402": {
    "zipcode": "8721402",
    "prefectureCode": "44",
    "prefectureNumber": 44,
    "prefecture": "大分県",
    "city": "国東市",
    "town": "国見町中"
  },
  "8721403": {
    "zipcode": "8721403",
    "prefectureCode": "44",
    "prefectureNumber": 44,
    "prefecture": "大分県",
    "city": "国東市",
    "town": "国見町野田"
  },
  "8721404": {
    "zipcode": "8721404",
    "prefectureCode": "44",
    "prefectureNumber": 44,
    "prefecture": "大分県",
    "city": "国東市",
    "town": "国見町千燈"
  },
  "8721405": {
    "zipcode": "8721405",
    "prefectureCode": "44",
    "prefectureNumber": 44,
    "prefecture": "大分県",
    "city": "国東市",
    "town": "国見町赤根"
  },
  "8721406": {
    "zipcode": "8721406",
    "prefectureCode": "44",
    "prefectureNumber": 44,
    "prefecture": "大分県",
    "city": "国東市",
    "town": "国見町櫛来"
  },
  "8721501": {
    "zipcode": "8721501",
    "prefectureCode": "44",
    "prefectureNumber": 44,
    "prefecture": "大分県",
    "city": "東国東郡姫島村",
    "town": "姫島村一円"
  },
  "8721611": {
    "zipcode": "8721611",
    "prefectureCode": "44",
    "prefectureNumber": 44,
    "prefecture": "大分県",
    "city": "国東市",
    "town": "国見町向田"
  },
  "8721612": {
    "zipcode": "8721612",
    "prefectureCode": "44",
    "prefectureNumber": 44,
    "prefecture": "大分県",
    "city": "国東市",
    "town": "国見町大熊毛"
  },
  "8721613": {
    "zipcode": "8721613",
    "prefectureCode": "44",
    "prefectureNumber": 44,
    "prefecture": "大分県",
    "city": "国東市",
    "town": "国見町小熊毛"
  },
  "8721614": {
    "zipcode": "8721614",
    "prefectureCode": "44",
    "prefectureNumber": 44,
    "prefecture": "大分県",
    "city": "国東市",
    "town": "国見町岐部"
  },
  "8721651": {
    "zipcode": "8721651",
    "prefectureCode": "44",
    "prefectureNumber": 44,
    "prefecture": "大分県",
    "city": "国東市",
    "town": "国東町浜"
  },
  "8721652": {
    "zipcode": "8721652",
    "prefectureCode": "44",
    "prefectureNumber": 44,
    "prefecture": "大分県",
    "city": "国東市",
    "town": "国東町来浦"
  },
  "8721653": {
    "zipcode": "8721653",
    "prefectureCode": "44",
    "prefectureNumber": 44,
    "prefecture": "大分県",
    "city": "国東市",
    "town": "国東町岩戸寺"
  }
}
