{
  "8730000": {
    "zipcode": "8730000",
    "prefectureCode": "44",
    "prefectureNumber": 44,
    "prefecture": "大分県",
    "city": "杵築市",
    "town": "以下に掲載がない場合"
  },
  "8730001": {
    "zipcode": "8730001",
    "prefectureCode": "44",
    "prefectureNumber": 44,
    "prefecture": "大分県",
    "city": "杵築市",
    "town": "杵築"
  },
  "8730002": {
    "zipcode": "8730002",
    "prefectureCode": "44",
    "prefectureNumber": 44,
    "prefecture": "大分県",
    "city": "杵築市",
    "town": "南杵築"
  },
  "8730003": {
    "zipcode": "8730003",
    "prefectureCode": "44",
    "prefectureNumber": 44,
    "prefecture": "大分県",
    "city": "杵築市",
    "town": "馬場尾"
  },
  "8730004": {
    "zipcode": "8730004",
    "prefectureCode": "44",
    "prefectureNumber": 44,
    "prefecture": "大分県",
    "city": "杵築市",
    "town": "宮司"
  },
  "8730005": {
    "zipcode": "8730005",
    "prefectureCode": "44",
    "prefectureNumber": 44,
    "prefecture": "大分県",
    "city": "杵築市",
    "town": "猪尾"
  },
  "8730006": {
    "zipcode": "8730006",
    "prefectureCode": "44",
    "prefectureNumber": 44,
    "prefecture": "大分県",
    "city": "杵築市",
    "town": "大内"
  },
  "8730007": {
    "zipcode": "8730007",
    "prefectureCode": "44",
    "prefectureNumber": 44,
    "prefecture": "大分県",
    "city": "杵築市",
    "town": "片野"
  },
  "8730008": {
    "zipcode": "8730008",
    "prefectureCode": "44",
    "prefectureNumber": 44,
    "prefecture": "大分県",
    "city": "杵築市",
    "town": "熊野"
  },
  "8730011": {
    "zipcode": "8730011",
    "prefectureCode": "44",
    "prefectureNumber": 44,
    "prefecture": "大分県",
    "city": "杵築市",
    "town": "相原"
  },
  "8730012": {
    "zipcode": "8730012",
    "prefectureCode": "44",
    "prefectureNumber": 44,
    "prefecture": "大分県",
    "city": "杵築市",
    "town": "中"
  },
  "8730013": {
    "zipcode": "8730013",
    "prefectureCode": "44",
    "prefectureNumber": 44,
    "prefecture": "大分県",
    "city": "杵築市",
    "town": "日野"
  },
  "8730014": {
    "zipcode": "8730014",
    "prefectureCode": "44",
    "prefectureNumber": 44,
    "prefecture": "大分県",
    "city": "杵築市",
    "town": "本庄"
  },
  "8730015": {
    "zipcode": "8730015",
    "prefectureCode": "44",
    "prefectureNumber": 44,
    "prefecture": "大分県",
    "city": "杵築市",
    "town": "八坂"
  },
  "8730021": {
    "zipcode": "8730021",
    "prefectureCode": "44",
    "prefectureNumber": 44,
    "prefecture": "大分県",
    "city": "杵築市",
    "town": "岩谷"
  },
  "8730022": {
    "zipcode": "8730022",
    "prefectureCode": "44",
    "prefectureNumber": 44,
    "prefecture": "大分県",
    "city": "杵築市",
    "town": "大片平"
  },
  "8730023": {
    "zipcode": "8730023",
    "prefectureCode": "44",
    "prefectureNumber": 44,
    "prefecture": "大分県",
    "city": "杵築市",
    "town": "鴨川"
  },
  "8730024": {
    "zipcode": "8730024",
    "prefectureCode": "44",
    "prefectureNumber": 44,
    "prefecture": "大分県",
    "city": "杵築市",
    "town": "船部"
  },
  "8730025": {
    "zipcode": "8730025",
    "prefectureCode": "44",
    "prefectureNumber": 44,
    "prefecture": "大分県",
    "city": "杵築市",
    "town": "溝井"
  },
  "8730031": {
    "zipcode": "8730031",
    "prefectureCode": "44",
    "prefectureNumber": 44,
    "prefecture": "大分県",
    "city": "杵築市",
    "town": "狩宿"
  },
  "8730032": {
    "zipcode": "8730032",
    "prefectureCode": "44",
    "prefectureNumber": 44,
    "prefecture": "大分県",
    "city": "杵築市",
    "town": "奈多"
  },
  "8730033": {
    "zipcode": "8730033",
    "prefectureCode": "44",
    "prefectureNumber": 44,
    "prefecture": "大分県",
    "city": "杵築市",
    "town": "守江"
  },
  "8730034": {
    "zipcode": "8730034",
    "prefectureCode": "44",
    "prefectureNumber": 44,
    "prefecture": "大分県",
    "city": "杵築市",
    "town": "横城"
  },
  "8730041": {
    "zipcode": "8730041",
    "prefectureCode": "44",
    "prefectureNumber": 44,
    "prefecture": "大分県",
    "city": "杵築市",
    "town": "大田俣水（天堤）"
  },
  "8730053": {
    "zipcode": "8730053",
    "prefectureCode": "44",
    "prefectureNumber": 44,
    "prefecture": "大分県",
    "city": "国東市",
    "town": "安岐町矢川（天堤）"
  },
  "8730201": {
    "zipcode": "8730201",
    "prefectureCode": "44",
    "prefectureNumber": 44,
    "prefecture": "大分県",
    "city": "国東市",
    "town": "安岐町吉松"
  },
  "8730202": {
    "zipcode": "8730202",
    "prefectureCode": "44",
    "prefectureNumber": 44,
    "prefecture": "大分県",
    "city": "国東市",
    "town": "安岐町瀬戸田"
  },
  "8730203": {
    "zipcode": "8730203",
    "prefectureCode": "44",
    "prefectureNumber": 44,
    "prefecture": "大分県",
    "city": "国東市",
    "town": "安岐町中園"
  },
  "8730204": {
    "zipcode": "8730204",
    "prefectureCode": "44",
    "prefectureNumber": 44,
    "prefecture": "大分県",
    "city": "国東市",
    "town": "安岐町成久"
  },
  "8730205": {
    "zipcode": "8730205",
    "prefectureCode": "44",
    "prefectureNumber": 44,
    "prefecture": "大分県",
    "city": "国東市",
    "town": "安岐町掛樋"
  },
  "8730206": {
    "zipcode": "8730206",
    "prefectureCode": "44",
    "prefectureNumber": 44,
    "prefecture": "大分県",
    "city": "国東市",
    "town": "安岐町山浦"
  },
  "8730207": {
    "zipcode": "8730207",
    "prefectureCode": "44",
    "prefectureNumber": 44,
    "prefecture": "大分県",
    "city": "国東市",
    "town": "安岐町油留木"
  },
  "8730211": {
    "zipcode": "8730211",
    "prefectureCode": "44",
    "prefectureNumber": 44,
    "prefecture": "大分県",
    "city": "国東市",
    "town": "安岐町馬場"
  },
  "8730212": {
    "zipcode": "8730212",
    "prefectureCode": "44",
    "prefectureNumber": 44,
    "prefecture": "大分県",
    "city": "国東市",
    "town": "安岐町塩屋"
  },
  "8730221": {
    "zipcode": "8730221",
    "prefectureCode": "44",
    "prefectureNumber": 44,
    "prefecture": "大分県",
    "city": "国東市",
    "town": "安岐町西本"
  },
  "8730222": {
    "zipcode": "8730222",
    "prefectureCode": "44",
    "prefectureNumber": 44,
    "prefecture": "大分県",
    "city": "国東市",
    "town": "安岐町下山口"
  },
  "8730223": {
    "zipcode": "8730223",
    "prefectureCode": "44",
    "prefectureNumber": 44,
    "prefecture": "大分県",
    "city": "国東市",
    "town": "安岐町大添"
  },
  "8730224": {
    "zipcode": "8730224",
    "prefectureCode": "44",
    "prefectureNumber": 44,
    "prefecture": "大分県",
    "city": "国東市",
    "town": "安岐町山口"
  },
  "8730231": {
    "zipcode": "8730231",
    "prefectureCode": "44",
    "prefectureNumber": 44,
    "prefecture": "大分県",
    "city": "国東市",
    "town": "安岐町下原"
  },
  "8730232": {
    "zipcode": "8730232",
    "prefectureCode": "44",
    "prefectureNumber": 44,
    "prefecture": "大分県",
    "city": "国東市",
    "town": "安岐町向陽台"
  },
  "8730351": {
    "zipcode": "8730351",
    "prefectureCode": "44",
    "prefectureNumber": 44,
    "prefecture": "大分県",
    "city": "国東市",
    "town": "安岐町朝来"
  },
  "8730352": {
    "zipcode": "8730352",
    "prefectureCode": "44",
    "prefectureNumber": 44,
    "prefecture": "大分県",
    "city": "国東市",
    "town": "安岐町明治"
  },
  "8730353": {
    "zipcode": "8730353",
    "prefectureCode": "44",
    "prefectureNumber": 44,
    "prefecture": "大分県",
    "city": "国東市",
    "town": "安岐町矢川（その他）"
  },
  "8730354": {
    "zipcode": "8730354",
    "prefectureCode": "44",
    "prefectureNumber": 44,
    "prefecture": "大分県",
    "city": "国東市",
    "town": "安岐町糸永"
  },
  "8730355": {
    "zipcode": "8730355",
    "prefectureCode": "44",
    "prefectureNumber": 44,
    "prefecture": "大分県",
    "city": "国東市",
    "town": "安岐町富清"
  },
  "8730356": {
    "zipcode": "8730356",
    "prefectureCode": "44",
    "prefectureNumber": 44,
    "prefecture": "大分県",
    "city": "国東市",
    "town": "安岐町両子"
  },
  "8730401": {
    "zipcode": "8730401",
    "prefectureCode": "44",
    "prefectureNumber": 44,
    "prefecture": "大分県",
    "city": "国東市",
    "town": "武蔵町池ノ内"
  },
  "8730402": {
    "zipcode": "8730402",
    "prefectureCode": "44",
    "prefectureNumber": 44,
    "prefecture": "大分県",
    "city": "国東市",
    "town": "武蔵町内田"
  },
  "8730404": {
    "zipcode": "8730404",
    "prefectureCode": "44",
    "prefectureNumber": 44,
    "prefecture": "大分県",
    "city": "国東市",
    "town": "武蔵町成吉"
  },
  "8730405": {
    "zipcode": "8730405",
    "prefectureCode": "44",
    "prefectureNumber": 44,
    "prefecture": "大分県",
    "city": "国東市",
    "town": "武蔵町麻田"
  },
  "8730406": {
    "zipcode": "8730406",
    "prefectureCode": "44",
    "prefectureNumber": 44,
    "prefecture": "大分県",
    "city": "国東市",
    "town": "武蔵町丸小野"
  },
  "8730407": {
    "zipcode": "8730407",
    "prefectureCode": "44",
    "prefectureNumber": 44,
    "prefecture": "大分県",
    "city": "国東市",
    "town": "武蔵町狭間"
  },
  "8730412": {
    "zipcode": "8730412",
    "prefectureCode": "44",
    "prefectureNumber": 44,
    "prefecture": "大分県",
    "city": "国東市",
    "town": "武蔵町古市"
  },
  "8730414": {
    "zipcode": "8730414",
    "prefectureCode": "44",
    "prefectureNumber": 44,
    "prefecture": "大分県",
    "city": "国東市",
    "town": "武蔵町手野"
  },
  "8730415": {
    "zipcode": "8730415",
    "prefectureCode": "44",
    "prefectureNumber": 44,
    "prefecture": "大分県",
    "city": "国東市",
    "town": "武蔵町吉広"
  },
  "8730421": {
    "zipcode": "8730421",
    "prefectureCode": "44",
    "prefectureNumber": 44,
    "prefecture": "大分県",
    "city": "国東市",
    "town": "武蔵町糸原"
  },
  "8730422": {
    "zipcode": "8730422",
    "prefectureCode": "44",
    "prefectureNumber": 44,
    "prefecture": "大分県",
    "city": "国東市",
    "town": "武蔵町小城"
  },
  "8730423": {
    "zipcode": "8730423",
    "prefectureCode": "44",
    "prefectureNumber": 44,
    "prefecture": "大分県",
    "city": "国東市",
    "town": "武蔵町三井寺"
  },
  "8730424": {
    "zipcode": "8730424",
    "prefectureCode": "44",
    "prefectureNumber": 44,
    "prefecture": "大分県",
    "city": "国東市",
    "town": "武蔵町志和利"
  },
  "8730432": {
    "zipcode": "8730432",
    "prefectureCode": "44",
    "prefectureNumber": 44,
    "prefecture": "大分県",
    "city": "国東市",
    "town": "武蔵町向陽台"
  },
  "8730500": {
    "zipcode": "8730500",
    "prefectureCode": "44",
    "prefectureNumber": 44,
    "prefecture": "大分県",
    "city": "国東市",
    "town": "以下に掲載がない場合"
  },
  "8730501": {
    "zipcode": "8730501",
    "prefectureCode": "44",
    "prefectureNumber": 44,
    "prefecture": "大分県",
    "city": "国東市",
    "town": "国東町北江"
  },
  "8730502": {
    "zipcode": "8730502",
    "prefectureCode": "44",
    "prefectureNumber": 44,
    "prefecture": "大分県",
    "city": "国東市",
    "town": "国東町田深"
  },
  "8730503": {
    "zipcode": "8730503",
    "prefectureCode": "44",
    "prefectureNumber": 44,
    "prefecture": "大分県",
    "city": "国東市",
    "town": "国東町鶴川"
  },
  "8730504": {
    "zipcode": "8730504",
    "prefectureCode": "44",
    "prefectureNumber": 44,
    "prefecture": "大分県",
    "city": "国東市",
    "town": "国東町安国寺"
  },
  "8730511": {
    "zipcode": "8730511",
    "prefectureCode": "44",
    "prefectureNumber": 44,
    "prefecture": "大分県",
    "city": "国東市",
    "town": "国東町小原"
  },
  "8730512": {
    "zipcode": "8730512",
    "prefectureCode": "44",
    "prefectureNumber": 44,
    "prefecture": "大分県",
    "city": "国東市",
    "town": "国東町治郎丸"
  },
  "8730513": {
    "zipcode": "8730513",
    "prefectureCode": "44",
    "prefectureNumber": 44,
    "prefecture": "大分県",
    "city": "国東市",
    "town": "国東町綱井"
  },
  "8730514": {
    "zipcode": "8730514",
    "prefectureCode": "44",
    "prefectureNumber": 44,
    "prefecture": "大分県",
    "city": "国東市",
    "town": "国東町重藤"
  },
  "8730521": {
    "zipcode": "8730521",
    "prefectureCode": "44",
    "prefectureNumber": 44,
    "prefecture": "大分県",
    "city": "国東市",
    "town": "国東町原"
  },
  "8730522": {
    "zipcode": "8730522",
    "prefectureCode": "44",
    "prefectureNumber": 44,
    "prefecture": "大分県",
    "city": "国東市",
    "town": "国東町岩屋"
  },
  "8730523": {
    "zipcode": "8730523",
    "prefectureCode": "44",
    "prefectureNumber": 44,
    "prefecture": "大分県",
    "city": "国東市",
    "town": "国東町赤松"
  },
  "8730524": {
    "zipcode": "8730524",
    "prefectureCode": "44",
    "prefectureNumber": 44,
    "prefecture": "大分県",
    "city": "国東市",
    "town": "国東町横手"
  },
  "8730531": {
    "zipcode": "8730531",
    "prefectureCode": "44",
    "prefectureNumber": 44,
    "prefecture": "大分県",
    "city": "国東市",
    "town": "国東町川原"
  },
  "8730532": {
    "zipcode": "8730532",
    "prefectureCode": "44",
    "prefectureNumber": 44,
    "prefecture": "大分県",
    "city": "国東市",
    "town": "国東町中田"
  },
  "8730533": {
    "zipcode": "8730533",
    "prefectureCode": "44",
    "prefectureNumber": 44,
    "prefecture": "大分県",
    "city": "国東市",
    "town": "国東町見地"
  },
  "8730534": {
    "zipcode": "8730534",
    "prefectureCode": "44",
    "prefectureNumber": 44,
    "prefecture": "大分県",
    "city": "国東市",
    "town": "国東町下成仏"
  },
  "8730535": {
    "zipcode": "8730535",
    "prefectureCode": "44",
    "prefectureNumber": 44,
    "prefecture": "大分県",
    "city": "国東市",
    "town": "国東町成仏"
  },
  "8730641": {
    "zipcode": "8730641",
    "prefectureCode": "44",
    "prefectureNumber": 44,
    "prefecture": "大分県",
    "city": "国東市",
    "town": "国東町深江"
  },
  "8730642": {
    "zipcode": "8730642",
    "prefectureCode": "44",
    "prefectureNumber": 44,
    "prefecture": "大分県",
    "city": "国東市",
    "town": "国東町東堅来"
  },
  "8730643": {
    "zipcode": "8730643",
    "prefectureCode": "44",
    "prefectureNumber": 44,
    "prefecture": "大分県",
    "city": "国東市",
    "town": "国東町富来浦"
  },
  "8730644": {
    "zipcode": "8730644",
    "prefectureCode": "44",
    "prefectureNumber": 44,
    "prefecture": "大分県",
    "city": "国東市",
    "town": "国東町浜崎"
  },
  "8730645": {
    "zipcode": "8730645",
    "prefectureCode": "44",
    "prefectureNumber": 44,
    "prefecture": "大分県",
    "city": "国東市",
    "town": "国東町富来"
  },
  "8730646": {
    "zipcode": "8730646",
    "prefectureCode": "44",
    "prefectureNumber": 44,
    "prefecture": "大分県",
    "city": "国東市",
    "town": "国東町大恩寺"
  }
}
