{
  "8760000": {
    "zipcode": "8760000",
    "prefectureCode": "44",
    "prefectureNumber": 44,
    "prefecture": "大分県",
    "city": "佐伯市",
    "town": "以下に掲載がない場合"
  },
  "8760001": {
    "zipcode": "8760001",
    "prefectureCode": "44",
    "prefectureNumber": 44,
    "prefecture": "大分県",
    "city": "佐伯市",
    "town": "高松浦"
  },
  "8760002": {
    "zipcode": "8760002",
    "prefectureCode": "44",
    "prefectureNumber": 44,
    "prefecture": "大分県",
    "city": "佐伯市",
    "town": "日向泊浦"
  },
  "8760003": {
    "zipcode": "8760003",
    "prefectureCode": "44",
    "prefectureNumber": 44,
    "prefecture": "大分県",
    "city": "佐伯市",
    "town": "塩内浦"
  },
  "8760004": {
    "zipcode": "8760004",
    "prefectureCode": "44",
    "prefectureNumber": 44,
    "prefecture": "大分県",
    "city": "佐伯市",
    "town": "荒網代浦"
  },
  "8760005": {
    "zipcode": "8760005",
    "prefectureCode": "44",
    "prefectureNumber": 44,
    "prefecture": "大分県",
    "city": "佐伯市",
    "town": "石間浦"
  },
  "8760006": {
    "zipcode": "8760006",
    "prefectureCode": "44",
    "prefectureNumber": 44,
    "prefecture": "大分県",
    "city": "佐伯市",
    "town": "守後浦"
  },
  "8760007": {
    "zipcode": "8760007",
    "prefectureCode": "44",
    "prefectureNumber": 44,
    "prefecture": "大分県",
    "city": "佐伯市",
    "town": "久保浦"
  },
  "8760008": {
    "zipcode": "8760008",
    "prefectureCode": "44",
    "prefectureNumber": 44,
    "prefecture": "大分県",
    "city": "佐伯市",
    "town": "片神浦"
  },
  "8760011": {
    "zipcode": "8760011",
    "prefectureCode": "44",
    "prefectureNumber": 44,
    "prefecture": "大分県",
    "city": "佐伯市",
    "town": "坂の浦"
  },
  "8760012": {
    "zipcode": "8760012",
    "prefectureCode": "44",
    "prefectureNumber": 44,
    "prefecture": "大分県",
    "city": "佐伯市",
    "town": "鶴望"
  },
  "8760013": {
    "zipcode": "8760013",
    "prefectureCode": "44",
    "prefectureNumber": 44,
    "prefecture": "大分県",
    "city": "佐伯市",
    "town": "若宮町"
  },
  "8760014": {
    "zipcode": "8760014",
    "prefectureCode": "44",
    "prefectureNumber": 44,
    "prefecture": "大分県",
    "city": "佐伯市",
    "town": "白方"
  },
  "8760015": {
    "zipcode": "8760015",
    "prefectureCode": "44",
    "prefectureNumber": 44,
    "prefecture": "大分県",
    "city": "佐伯市",
    "town": "百谷"
  },
  "8760016": {
    "zipcode": "8760016",
    "prefectureCode": "44",
    "prefectureNumber": 44,
    "prefecture": "大分県",
    "city": "佐伯市",
    "town": "王子丸"
  },
  "8760017": {
    "zipcode": "8760017",
    "prefectureCode": "44",
    "prefectureNumber": 44,
    "prefecture": "大分県",
    "city": "佐伯市",
    "town": "野口"
  },
  "8760018": {
    "zipcode": "8760018",
    "prefectureCode": "44",
    "prefectureNumber": 44,
    "prefecture": "大分県",
    "city": "佐伯市",
    "town": "平"
  },
  "8760021": {
    "zipcode": "8760021",
    "prefectureCode": "44",
    "prefectureNumber": 44,
    "prefecture": "大分県",
    "city": "佐伯市",
    "town": "東灘"
  },
  "8760022": {
    "zipcode": "8760022",
    "prefectureCode": "44",
    "prefectureNumber": 44,
    "prefecture": "大分県",
    "city": "佐伯市",
    "town": "上灘"
  },
  "8760023": {
    "zipcode": "8760023",
    "prefectureCode": "44",
    "prefectureNumber": 44,
    "prefecture": "大分県",
    "city": "佐伯市",
    "town": "蛇崎"
  },
  "8760024": {
    "zipcode": "8760024",
    "prefectureCode": "44",
    "prefectureNumber": 44,
    "prefecture": "大分県",
    "city": "佐伯市",
    "town": "下久部"
  },
  "8760025": {
    "zipcode": "8760025",
    "prefectureCode": "44",
    "prefectureNumber": 44,
    "prefecture": "大分県",
    "city": "佐伯市",
    "town": "池田"
  },
  "8760026": {
    "zipcode": "8760026",
    "prefectureCode": "44",
    "prefectureNumber": 44,
    "prefecture": "大分県",
    "city": "佐伯市",
    "town": "匠南"
  },
  "8760027": {
    "zipcode": "8760027",
    "prefectureCode": "44",
    "prefectureNumber": 44,
    "prefecture": "大分県",
    "city": "佐伯市",
    "town": "上久部"
  },
  "8760031": {
    "zipcode": "8760031",
    "prefectureCode": "44",
    "prefectureNumber": 44,
    "prefecture": "大分県",
    "city": "佐伯市",
    "town": "川原"
  },
  "8760032": {
    "zipcode": "8760032",
    "prefectureCode": "44",
    "prefectureNumber": 44,
    "prefecture": "大分県",
    "city": "佐伯市",
    "town": "中山"
  },
  "8760033": {
    "zipcode": "8760033",
    "prefectureCode": "44",
    "prefectureNumber": 44,
    "prefecture": "大分県",
    "city": "佐伯市",
    "town": "下城"
  },
  "8760034": {
    "zipcode": "8760034",
    "prefectureCode": "44",
    "prefectureNumber": 44,
    "prefecture": "大分県",
    "city": "佐伯市",
    "town": "上城"
  },
  "8760035": {
    "zipcode": "8760035",
    "prefectureCode": "44",
    "prefectureNumber": 44,
    "prefecture": "大分県",
    "city": "佐伯市",
    "town": "岸河内"
  },
  "8760036": {
    "zipcode": "8760036",
    "prefectureCode": "44",
    "prefectureNumber": 44,
    "prefecture": "大分県",
    "city": "佐伯市",
    "town": "大越"
  },
  "8760037": {
    "zipcode": "8760037",
    "prefectureCode": "44",
    "prefectureNumber": 44,
    "prefecture": "大分県",
    "city": "佐伯市",
    "town": "長谷"
  },
  "8760041": {
    "zipcode": "8760041",
    "prefectureCode": "44",
    "prefectureNumber": 44,
    "prefecture": "大分県",
    "city": "佐伯市",
    "town": "長瀬"
  },
  "8760042": {
    "zipcode": "8760042",
    "prefectureCode": "44",
    "prefectureNumber": 44,
    "prefecture": "大分県",
    "city": "佐伯市",
    "town": "稲垣"
  },
  "8760043": {
    "zipcode": "8760043",
    "prefectureCode": "44",
    "prefectureNumber": 44,
    "prefecture": "大分県",
    "city": "佐伯市",
    "town": "樫野"
  },
  "8760044": {
    "zipcode": "8760044",
    "prefectureCode": "44",
    "prefectureNumber": 44,
    "prefecture": "大分県",
    "city": "佐伯市",
    "town": "高畠"
  },
  "8760045": {
    "zipcode": "8760045",
    "prefectureCode": "44",
    "prefectureNumber": 44,
    "prefecture": "大分県",
    "city": "佐伯市",
    "town": "上岡"
  },
  "8760046": {
    "zipcode": "8760046",
    "prefectureCode": "44",
    "prefectureNumber": 44,
    "prefecture": "大分県",
    "city": "佐伯市",
    "town": "脇"
  },
  "8760047": {
    "zipcode": "8760047",
    "prefectureCode": "44",
    "prefectureNumber": 44,
    "prefecture": "大分県",
    "city": "佐伯市",
    "town": "鶴岡西町"
  },
  "8760051": {
    "zipcode": "8760051",
    "prefectureCode": "44",
    "prefectureNumber": 44,
    "prefecture": "大分県",
    "city": "佐伯市",
    "town": "寺田"
  },
  "8760052": {
    "zipcode": "8760052",
    "prefectureCode": "44",
    "prefectureNumber": 44,
    "prefecture": "大分県",
    "city": "佐伯市",
    "town": "坂山"
  },
  "8760053": {
    "zipcode": "8760053",
    "prefectureCode": "44",
    "prefectureNumber": 44,
    "prefecture": "大分県",
    "city": "佐伯市",
    "town": "高畑"
  },
  "8760061": {
    "zipcode": "8760061",
    "prefectureCode": "44",
    "prefectureNumber": 44,
    "prefecture": "大分県",
    "city": "佐伯市",
    "town": "門前"
  },
  "8760062": {
    "zipcode": "8760062",
    "prefectureCode": "44",
    "prefectureNumber": 44,
    "prefecture": "大分県",
    "city": "佐伯市",
    "town": "古市"
  },
  "8760063": {
    "zipcode": "8760063",
    "prefectureCode": "44",
    "prefectureNumber": 44,
    "prefecture": "大分県",
    "city": "佐伯市",
    "town": "城西区"
  },
  "8760064": {
    "zipcode": "8760064",
    "prefectureCode": "44",
    "prefectureNumber": 44,
    "prefecture": "大分県",
    "city": "佐伯市",
    "town": "八迫区"
  },
  "8760101": {
    "zipcode": "8760101",
    "prefectureCode": "44",
    "prefectureNumber": 44,
    "prefecture": "大分県",
    "city": "佐伯市",
    "town": "弥生大坂本"
  },
  "8760102": {
    "zipcode": "8760102",
    "prefectureCode": "44",
    "prefectureNumber": 44,
    "prefecture": "大分県",
    "city": "佐伯市",
    "town": "弥生尺間"
  },
  "8760103": {
    "zipcode": "8760103",
    "prefectureCode": "44",
    "prefectureNumber": 44,
    "prefecture": "大分県",
    "city": "佐伯市",
    "town": "弥生床木"
  },
  "8760111": {
    "zipcode": "8760111",
    "prefectureCode": "44",
    "prefectureNumber": 44,
    "prefecture": "大分県",
    "city": "佐伯市",
    "town": "弥生井崎"
  },
  "8760112": {
    "zipcode": "8760112",
    "prefectureCode": "44",
    "prefectureNumber": 44,
    "prefecture": "大分県",
    "city": "佐伯市",
    "town": "弥生上小倉"
  },
  "8760113": {
    "zipcode": "8760113",
    "prefectureCode": "44",
    "prefectureNumber": 44,
    "prefecture": "大分県",
    "city": "佐伯市",
    "town": "弥生山梨子"
  },
  "8760121": {
    "zipcode": "8760121",
    "prefectureCode": "44",
    "prefectureNumber": 44,
    "prefecture": "大分県",
    "city": "佐伯市",
    "town": "弥生小田"
  },
  "8760122": {
    "zipcode": "8760122",
    "prefectureCode": "44",
    "prefectureNumber": 44,
    "prefecture": "大分県",
    "city": "佐伯市",
    "town": "弥生門田"
  },
  "8760123": {
    "zipcode": "8760123",
    "prefectureCode": "44",
    "prefectureNumber": 44,
    "prefecture": "大分県",
    "city": "佐伯市",
    "town": "弥生平井"
  },
  "8760124": {
    "zipcode": "8760124",
    "prefectureCode": "44",
    "prefectureNumber": 44,
    "prefecture": "大分県",
    "city": "佐伯市",
    "town": "弥生細田"
  },
  "8760125": {
    "zipcode": "8760125",
    "prefectureCode": "44",
    "prefectureNumber": 44,
    "prefecture": "大分県",
    "city": "佐伯市",
    "town": "弥生江良"
  },
  "8760126": {
    "zipcode": "8760126",
    "prefectureCode": "44",
    "prefectureNumber": 44,
    "prefecture": "大分県",
    "city": "佐伯市",
    "town": "弥生提内"
  },
  "8760201": {
    "zipcode": "8760201",
    "prefectureCode": "44",
    "prefectureNumber": 44,
    "prefecture": "大分県",
    "city": "佐伯市",
    "town": "本匠風戸"
  },
  "8760202": {
    "zipcode": "8760202",
    "prefectureCode": "44",
    "prefectureNumber": 44,
    "prefecture": "大分県",
    "city": "佐伯市",
    "town": "本匠笠掛"
  },
  "8760203": {
    "zipcode": "8760203",
    "prefectureCode": "44",
    "prefectureNumber": 44,
    "prefecture": "大分県",
    "city": "佐伯市",
    "town": "本匠三股"
  },
  "8760204": {
    "zipcode": "8760204",
    "prefectureCode": "44",
    "prefectureNumber": 44,
    "prefecture": "大分県",
    "city": "佐伯市",
    "town": "本匠宇津々"
  },
  "8760205": {
    "zipcode": "8760205",
    "prefectureCode": "44",
    "prefectureNumber": 44,
    "prefecture": "大分県",
    "city": "佐伯市",
    "town": "本匠波寄"
  },
  "8760206": {
    "zipcode": "8760206",
    "prefectureCode": "44",
    "prefectureNumber": 44,
    "prefecture": "大分県",
    "city": "佐伯市",
    "town": "本匠小川"
  },
  "8760211": {
    "zipcode": "8760211",
    "prefectureCode": "44",
    "prefectureNumber": 44,
    "prefecture": "大分県",
    "city": "佐伯市",
    "town": "本匠井ノ上"
  },
  "8760212": {
    "zipcode": "8760212",
    "prefectureCode": "44",
    "prefectureNumber": 44,
    "prefecture": "大分県",
    "city": "佐伯市",
    "town": "本匠因尾"
  },
  "8760213": {
    "zipcode": "8760213",
    "prefectureCode": "44",
    "prefectureNumber": 44,
    "prefecture": "大分県",
    "city": "佐伯市",
    "town": "本匠堂ノ間"
  },
  "8760214": {
    "zipcode": "8760214",
    "prefectureCode": "44",
    "prefectureNumber": 44,
    "prefecture": "大分県",
    "city": "佐伯市",
    "town": "本匠上津川"
  },
  "8760215": {
    "zipcode": "8760215",
    "prefectureCode": "44",
    "prefectureNumber": 44,
    "prefecture": "大分県",
    "city": "佐伯市",
    "town": "本匠小半"
  },
  "8760216": {
    "zipcode": "8760216",
    "prefectureCode": "44",
    "prefectureNumber": 44,
    "prefecture": "大分県",
    "city": "佐伯市",
    "town": "本匠山部"
  },
  "8760801": {
    "zipcode": "8760801",
    "prefectureCode": "44",
    "prefectureNumber": 44,
    "prefecture": "大分県",
    "city": "佐伯市",
    "town": "葛港"
  },
  "8760802": {
    "zipcode": "8760802",
    "prefectureCode": "44",
    "prefectureNumber": 44,
    "prefecture": "大分県",
    "city": "佐伯市",
    "town": "日の出町"
  },
  "8760803": {
    "zipcode": "8760803",
    "prefectureCode": "44",
    "prefectureNumber": 44,
    "prefecture": "大分県",
    "city": "佐伯市",
    "town": "駅前"
  },
  "8760804": {
    "zipcode": "8760804",
    "prefectureCode": "44",
    "prefectureNumber": 44,
    "prefecture": "大分県",
    "city": "佐伯市",
    "town": "蟹田"
  },
  "8760805": {
    "zipcode": "8760805",
    "prefectureCode": "44",
    "prefectureNumber": 44,
    "prefecture": "大分県",
    "city": "佐伯市",
    "town": "平野町"
  },
  "8760806": {
    "zipcode": "8760806",
    "prefectureCode": "44",
    "prefectureNumber": 44,
    "prefecture": "大分県",
    "city": "佐伯市",
    "town": "春日町"
  },
  "8760807": {
    "zipcode": "8760807",
    "prefectureCode": "44",
    "prefectureNumber": 44,
    "prefecture": "大分県",
    "city": "佐伯市",
    "town": "田の浦町"
  },
  "8760811": {
    "zipcode": "8760811",
    "prefectureCode": "44",
    "prefectureNumber": 44,
    "prefecture": "大分県",
    "city": "佐伯市",
    "town": "鶴谷町"
  },
  "8760812": {
    "zipcode": "8760812",
    "prefectureCode": "44",
    "prefectureNumber": 44,
    "prefecture": "大分県",
    "city": "佐伯市",
    "town": "中江町"
  },
  "8760813": {
    "zipcode": "8760813",
    "prefectureCode": "44",
    "prefectureNumber": 44,
    "prefecture": "大分県",
    "city": "佐伯市",
    "town": "長島町"
  },
  "8760814": {
    "zipcode": "8760814",
    "prefectureCode": "44",
    "prefectureNumber": 44,
    "prefecture": "大分県",
    "city": "佐伯市",
    "town": "東町"
  },
  "8760815": {
    "zipcode": "8760815",
    "prefectureCode": "44",
    "prefectureNumber": 44,
    "prefecture": "大分県",
    "city": "佐伯市",
    "town": "野岡町"
  },
  "8760821": {
    "zipcode": "8760821",
    "prefectureCode": "44",
    "prefectureNumber": 44,
    "prefecture": "大分県",
    "city": "佐伯市",
    "town": "東浜"
  },
  "8760822": {
    "zipcode": "8760822",
    "prefectureCode": "44",
    "prefectureNumber": 44,
    "prefecture": "大分県",
    "city": "佐伯市",
    "town": "西浜"
  },
  "8760823": {
    "zipcode": "8760823",
    "prefectureCode": "44",
    "prefectureNumber": 44,
    "prefecture": "大分県",
    "city": "佐伯市",
    "town": "女島"
  },
  "8760824": {
    "zipcode": "8760824",
    "prefectureCode": "44",
    "prefectureNumber": 44,
    "prefecture": "大分県",
    "city": "佐伯市",
    "town": "新女島"
  },
  "8760831": {
    "zipcode": "8760831",
    "prefectureCode": "44",
    "prefectureNumber": 44,
    "prefecture": "大分県",
    "city": "佐伯市",
    "town": "大手町"
  },
  "8760832": {
    "zipcode": "8760832",
    "prefectureCode": "44",
    "prefectureNumber": 44,
    "prefecture": "大分県",
    "city": "佐伯市",
    "town": "船頭町"
  },
  "8760833": {
    "zipcode": "8760833",
    "prefectureCode": "44",
    "prefectureNumber": 44,
    "prefecture": "大分県",
    "city": "佐伯市",
    "town": "池船町"
  },
  "8760834": {
    "zipcode": "8760834",
    "prefectureCode": "44",
    "prefectureNumber": 44,
    "prefecture": "大分県",
    "city": "佐伯市",
    "town": "城南町"
  },
  "8760835": {
    "zipcode": "8760835",
    "prefectureCode": "44",
    "prefectureNumber": 44,
    "prefecture": "大分県",
    "city": "佐伯市",
    "town": "鶴岡町"
  },
  "8760836": {
    "zipcode": "8760836",
    "prefectureCode": "44",
    "prefectureNumber": 44,
    "prefecture": "大分県",
    "city": "佐伯市",
    "town": "西谷町"
  },
  "8760841": {
    "zipcode": "8760841",
    "prefectureCode": "44",
    "prefectureNumber": 44,
    "prefecture": "大分県",
    "city": "佐伯市",
    "town": "来島町"
  },
  "8760842": {
    "zipcode": "8760842",
    "prefectureCode": "44",
    "prefectureNumber": 44,
    "prefecture": "大分県",
    "city": "佐伯市",
    "town": "中ノ島東町"
  },
  "8760843": {
    "zipcode": "8760843",
    "prefectureCode": "44",
    "prefectureNumber": 44,
    "prefecture": "大分県",
    "city": "佐伯市",
    "town": "中の島"
  },
  "8760844": {
    "zipcode": "8760844",
    "prefectureCode": "44",
    "prefectureNumber": 44,
    "prefecture": "大分県",
    "city": "佐伯市",
    "town": "向島"
  },
  "8760845": {
    "zipcode": "8760845",
    "prefectureCode": "44",
    "prefectureNumber": 44,
    "prefecture": "大分県",
    "city": "佐伯市",
    "town": "内町"
  },
  "8760846": {
    "zipcode": "8760846",
    "prefectureCode": "44",
    "prefectureNumber": 44,
    "prefecture": "大分県",
    "city": "佐伯市",
    "town": "城東町"
  },
  "8760847": {
    "zipcode": "8760847",
    "prefectureCode": "44",
    "prefectureNumber": 44,
    "prefecture": "大分県",
    "city": "佐伯市",
    "town": "城下西町"
  },
  "8760848": {
    "zipcode": "8760848",
    "prefectureCode": "44",
    "prefectureNumber": 44,
    "prefecture": "大分県",
    "city": "佐伯市",
    "town": "城下東町"
  },
  "8760849": {
    "zipcode": "8760849",
    "prefectureCode": "44",
    "prefectureNumber": 44,
    "prefecture": "大分県",
    "city": "佐伯市",
    "town": "臼坪"
  },
  "8760851": {
    "zipcode": "8760851",
    "prefectureCode": "44",
    "prefectureNumber": 44,
    "prefecture": "大分県",
    "city": "佐伯市",
    "town": "常盤東町"
  },
  "8760852": {
    "zipcode": "8760852",
    "prefectureCode": "44",
    "prefectureNumber": 44,
    "prefecture": "大分県",
    "city": "佐伯市",
    "town": "常盤南町"
  },
  "8760853": {
    "zipcode": "8760853",
    "prefectureCode": "44",
    "prefectureNumber": 44,
    "prefecture": "大分県",
    "city": "佐伯市",
    "town": "中村東町"
  },
  "8760854": {
    "zipcode": "8760854",
    "prefectureCode": "44",
    "prefectureNumber": 44,
    "prefecture": "大分県",
    "city": "佐伯市",
    "town": "中村南町"
  },
  "8760855": {
    "zipcode": "8760855",
    "prefectureCode": "44",
    "prefectureNumber": 44,
    "prefecture": "大分県",
    "city": "佐伯市",
    "town": "中村西町"
  },
  "8760856": {
    "zipcode": "8760856",
    "prefectureCode": "44",
    "prefectureNumber": 44,
    "prefecture": "大分県",
    "city": "佐伯市",
    "town": "中村北町"
  },
  "8760857": {
    "zipcode": "8760857",
    "prefectureCode": "44",
    "prefectureNumber": 44,
    "prefecture": "大分県",
    "city": "佐伯市",
    "town": "常盤西町"
  },
  "8761101": {
    "zipcode": "8761101",
    "prefectureCode": "44",
    "prefectureNumber": 44,
    "prefecture": "大分県",
    "city": "佐伯市",
    "town": "狩生"
  },
  "8761102": {
    "zipcode": "8761102",
    "prefectureCode": "44",
    "prefectureNumber": 44,
    "prefecture": "大分県",
    "city": "佐伯市",
    "town": "二栄"
  },
  "8761103": {
    "zipcode": "8761103",
    "prefectureCode": "44",
    "prefectureNumber": 44,
    "prefecture": "大分県",
    "city": "佐伯市",
    "town": "護江"
  },
  "8761104": {
    "zipcode": "8761104",
    "prefectureCode": "44",
    "prefectureNumber": 44,
    "prefecture": "大分県",
    "city": "佐伯市",
    "town": "霞ケ浦"
  },
  "8761105": {
    "zipcode": "8761105",
    "prefectureCode": "44",
    "prefectureNumber": 44,
    "prefecture": "大分県",
    "city": "佐伯市",
    "town": "海崎"
  },
  "8761106": {
    "zipcode": "8761106",
    "prefectureCode": "44",
    "prefectureNumber": 44,
    "prefecture": "大分県",
    "city": "佐伯市",
    "town": "戸穴"
  },
  "8761201": {
    "zipcode": "8761201",
    "prefectureCode": "44",
    "prefectureNumber": 44,
    "prefecture": "大分県",
    "city": "佐伯市",
    "town": "鶴見吹浦"
  },
  "8761202": {
    "zipcode": "8761202",
    "prefectureCode": "44",
    "prefectureNumber": 44,
    "prefecture": "大分県",
    "city": "佐伯市",
    "town": "鶴見地松浦"
  },
  "8761203": {
    "zipcode": "8761203",
    "prefectureCode": "44",
    "prefectureNumber": 44,
    "prefecture": "大分県",
    "city": "佐伯市",
    "town": "鶴見沖松浦"
  },
  "8761204": {
    "zipcode": "8761204",
    "prefectureCode": "44",
    "prefectureNumber": 44,
    "prefecture": "大分県",
    "city": "佐伯市",
    "town": "鶴見有明浦"
  },
  "8761205": {
    "zipcode": "8761205",
    "prefectureCode": "44",
    "prefectureNumber": 44,
    "prefecture": "大分県",
    "city": "佐伯市",
    "town": "鶴見羽出浦"
  },
  "8761206": {
    "zipcode": "8761206",
    "prefectureCode": "44",
    "prefectureNumber": 44,
    "prefecture": "大分県",
    "city": "佐伯市",
    "town": "鶴見中越浦（その他）"
  },
  "8761301": {
    "zipcode": "8761301",
    "prefectureCode": "44",
    "prefectureNumber": 44,
    "prefecture": "大分県",
    "city": "佐伯市",
    "town": "米水津浦代浦（間越、芳ケ浦）"
  },
  "8761306": {
    "zipcode": "8761306",
    "prefectureCode": "44",
    "prefectureNumber": 44,
    "prefecture": "大分県",
    "city": "佐伯市",
    "town": "鶴見中越浦（猿戸、広浦）"
  },
  "8761311": {
    "zipcode": "8761311",
    "prefectureCode": "44",
    "prefectureNumber": 44,
    "prefecture": "大分県",
    "city": "佐伯市",
    "town": "鶴見丹賀浦"
  },
  "8761312": {
    "zipcode": "8761312",
    "prefectureCode": "44",
    "prefectureNumber": 44,
    "prefecture": "大分県",
    "city": "佐伯市",
    "town": "鶴見梶寄浦"
  },
  "8761313": {
    "zipcode": "8761313",
    "prefectureCode": "44",
    "prefectureNumber": 44,
    "prefecture": "大分県",
    "city": "佐伯市",
    "town": "鶴見大島"
  },
  "8761401": {
    "zipcode": "8761401",
    "prefectureCode": "44",
    "prefectureNumber": 44,
    "prefecture": "大分県",
    "city": "佐伯市",
    "town": "米水津浦代浦（その他）"
  },
  "8761402": {
    "zipcode": "8761402",
    "prefectureCode": "44",
    "prefectureNumber": 44,
    "prefecture": "大分県",
    "city": "佐伯市",
    "town": "米水津色利浦"
  },
  "8761403": {
    "zipcode": "8761403",
    "prefectureCode": "44",
    "prefectureNumber": 44,
    "prefecture": "大分県",
    "city": "佐伯市",
    "town": "米水津宮野浦"
  },
  "8761404": {
    "zipcode": "8761404",
    "prefectureCode": "44",
    "prefectureNumber": 44,
    "prefecture": "大分県",
    "city": "佐伯市",
    "town": "米水津小浦"
  },
  "8761405": {
    "zipcode": "8761405",
    "prefectureCode": "44",
    "prefectureNumber": 44,
    "prefecture": "大分県",
    "city": "佐伯市",
    "town": "米水津竹野浦"
  },
  "8761511": {
    "zipcode": "8761511",
    "prefectureCode": "44",
    "prefectureNumber": 44,
    "prefecture": "大分県",
    "city": "佐伯市",
    "town": "長良"
  },
  "8761512": {
    "zipcode": "8761512",
    "prefectureCode": "44",
    "prefectureNumber": 44,
    "prefecture": "大分県",
    "city": "佐伯市",
    "town": "堅田"
  },
  "8761513": {
    "zipcode": "8761513",
    "prefectureCode": "44",
    "prefectureNumber": 44,
    "prefecture": "大分県",
    "city": "佐伯市",
    "town": "青山"
  },
  "8762121": {
    "zipcode": "8762121",
    "prefectureCode": "44",
    "prefectureNumber": 44,
    "prefecture": "大分県",
    "city": "佐伯市",
    "town": "木立"
  },
  "8762201": {
    "zipcode": "8762201",
    "prefectureCode": "44",
    "prefectureNumber": 44,
    "prefecture": "大分県",
    "city": "佐伯市",
    "town": "蒲江畑野浦"
  },
  "8762202": {
    "zipcode": "8762202",
    "prefectureCode": "44",
    "prefectureNumber": 44,
    "prefecture": "大分県",
    "city": "佐伯市",
    "town": "蒲江尾浦"
  },
  "8762203": {
    "zipcode": "8762203",
    "prefectureCode": "44",
    "prefectureNumber": 44,
    "prefecture": "大分県",
    "city": "佐伯市",
    "town": "蒲江楠本浦"
  },
  "8762301": {
    "zipcode": "8762301",
    "prefectureCode": "44",
    "prefectureNumber": 44,
    "prefecture": "大分県",
    "city": "佐伯市",
    "town": "蒲江竹野浦河内"
  },
  "8762302": {
    "zipcode": "8762302",
    "prefectureCode": "44",
    "prefectureNumber": 44,
    "prefecture": "大分県",
    "city": "佐伯市",
    "town": "蒲江西野浦"
  },
  "8762401": {
    "zipcode": "8762401",
    "prefectureCode": "44",
    "prefectureNumber": 44,
    "prefecture": "大分県",
    "city": "佐伯市",
    "town": "蒲江蒲江浦"
  },
  "8762402": {
    "zipcode": "8762402",
    "prefectureCode": "44",
    "prefectureNumber": 44,
    "prefecture": "大分県",
    "city": "佐伯市",
    "town": "蒲江猪串浦"
  },
  "8762403": {
    "zipcode": "8762403",
    "prefectureCode": "44",
    "prefectureNumber": 44,
    "prefecture": "大分県",
    "city": "佐伯市",
    "town": "蒲江野々河内浦"
  },
  "8762404": {
    "zipcode": "8762404",
    "prefectureCode": "44",
    "prefectureNumber": 44,
    "prefecture": "大分県",
    "city": "佐伯市",
    "town": "蒲江森崎浦"
  },
  "8762405": {
    "zipcode": "8762405",
    "prefectureCode": "44",
    "prefectureNumber": 44,
    "prefecture": "大分県",
    "city": "佐伯市",
    "town": "蒲江丸市尾浦"
  },
  "8762406": {
    "zipcode": "8762406",
    "prefectureCode": "44",
    "prefectureNumber": 44,
    "prefecture": "大分県",
    "city": "佐伯市",
    "town": "蒲江葛原浦"
  },
  "8762407": {
    "zipcode": "8762407",
    "prefectureCode": "44",
    "prefectureNumber": 44,
    "prefecture": "大分県",
    "city": "佐伯市",
    "town": "蒲江波当津浦"
  }
}
