{
  "8770000": {
    "zipcode": "8770000",
    "prefectureCode": "44",
    "prefectureNumber": 44,
    "prefecture": "大分県",
    "city": "日田市",
    "town": "以下に掲載がない場合"
  },
  "8770001": {
    "zipcode": "8770001",
    "prefectureCode": "44",
    "prefectureNumber": 44,
    "prefecture": "大分県",
    "city": "日田市",
    "town": "秋山町"
  },
  "8770002": {
    "zipcode": "8770002",
    "prefectureCode": "44",
    "prefectureNumber": 44,
    "prefecture": "大分県",
    "city": "日田市",
    "town": "城内新町"
  },
  "8770003": {
    "zipcode": "8770003",
    "prefectureCode": "44",
    "prefectureNumber": 44,
    "prefecture": "大分県",
    "city": "日田市",
    "town": "上城内町"
  },
  "8770004": {
    "zipcode": "8770004",
    "prefectureCode": "44",
    "prefectureNumber": 44,
    "prefecture": "大分県",
    "city": "日田市",
    "town": "城町"
  },
  "8770005": {
    "zipcode": "8770005",
    "prefectureCode": "44",
    "prefectureNumber": 44,
    "prefecture": "大分県",
    "city": "日田市",
    "town": "豆田町"
  },
  "8770006": {
    "zipcode": "8770006",
    "prefectureCode": "44",
    "prefectureNumber": 44,
    "prefecture": "大分県",
    "city": "日田市",
    "town": "港町"
  },
  "8770007": {
    "zipcode": "8770007",
    "prefectureCode": "44",
    "prefectureNumber": 44,
    "prefecture": "大分県",
    "city": "日田市",
    "town": "丸の内町"
  },
  "8770008": {
    "zipcode": "8770008",
    "prefectureCode": "44",
    "prefectureNumber": 44,
    "prefecture": "大分県",
    "city": "日田市",
    "town": "丸山"
  },
  "8770011": {
    "zipcode": "8770011",
    "prefectureCode": "44",
    "prefectureNumber": 44,
    "prefecture": "大分県",
    "city": "日田市",
    "town": "中城町"
  },
  "8770012": {
    "zipcode": "8770012",
    "prefectureCode": "44",
    "prefectureNumber": 44,
    "prefecture": "大分県",
    "city": "日田市",
    "town": "淡窓"
  },
  "8770013": {
    "zipcode": "8770013",
    "prefectureCode": "44",
    "prefectureNumber": 44,
    "prefecture": "大分県",
    "city": "日田市",
    "town": "元町"
  },
  "8770014": {
    "zipcode": "8770014",
    "prefectureCode": "44",
    "prefectureNumber": 44,
    "prefecture": "大分県",
    "city": "日田市",
    "town": "本町"
  },
  "8770015": {
    "zipcode": "8770015",
    "prefectureCode": "44",
    "prefectureNumber": 44,
    "prefecture": "大分県",
    "city": "日田市",
    "town": "中央"
  },
  "8770016": {
    "zipcode": "8770016",
    "prefectureCode": "44",
    "prefectureNumber": 44,
    "prefecture": "大分県",
    "city": "日田市",
    "town": "三本松"
  },
  "8770017": {
    "zipcode": "8770017",
    "prefectureCode": "44",
    "prefectureNumber": 44,
    "prefecture": "大分県",
    "city": "日田市",
    "town": "三本松新町"
  },
  "8770021": {
    "zipcode": "8770021",
    "prefectureCode": "44",
    "prefectureNumber": 44,
    "prefecture": "大分県",
    "city": "日田市",
    "town": "求町"
  },
  "8770022": {
    "zipcode": "8770022",
    "prefectureCode": "44",
    "prefectureNumber": 44,
    "prefecture": "大分県",
    "city": "日田市",
    "town": "神来町"
  },
  "8770023": {
    "zipcode": "8770023",
    "prefectureCode": "44",
    "prefectureNumber": 44,
    "prefecture": "大分県",
    "city": "日田市",
    "town": "田島（大字）"
  },
  "8770024": {
    "zipcode": "8770024",
    "prefectureCode": "44",
    "prefectureNumber": 44,
    "prefecture": "大分県",
    "city": "日田市",
    "town": "南元町"
  },
  "8770025": {
    "zipcode": "8770025",
    "prefectureCode": "44",
    "prefectureNumber": 44,
    "prefecture": "大分県",
    "city": "日田市",
    "town": "田島（丁目）"
  },
  "8770026": {
    "zipcode": "8770026",
    "prefectureCode": "44",
    "prefectureNumber": 44,
    "prefecture": "大分県",
    "city": "日田市",
    "town": "田島本町"
  },
  "8770031": {
    "zipcode": "8770031",
    "prefectureCode": "44",
    "prefectureNumber": 44,
    "prefecture": "大分県",
    "city": "日田市",
    "town": "古金町"
  },
  "8770032": {
    "zipcode": "8770032",
    "prefectureCode": "44",
    "prefectureNumber": 44,
    "prefecture": "大分県",
    "city": "日田市",
    "town": "小ケ瀬町"
  },
  "8770033": {
    "zipcode": "8770033",
    "prefectureCode": "44",
    "prefectureNumber": 44,
    "prefecture": "大分県",
    "city": "日田市",
    "town": "大部町"
  },
  "8770034": {
    "zipcode": "8770034",
    "prefectureCode": "44",
    "prefectureNumber": 44,
    "prefecture": "大分県",
    "city": "日田市",
    "town": "桃山町"
  },
  "8770035": {
    "zipcode": "8770035",
    "prefectureCode": "44",
    "prefectureNumber": 44,
    "prefecture": "大分県",
    "city": "日田市",
    "town": "日高町"
  },
  "8770036": {
    "zipcode": "8770036",
    "prefectureCode": "44",
    "prefectureNumber": 44,
    "prefecture": "大分県",
    "city": "日田市",
    "town": "三芳小渕町"
  },
  "8770037": {
    "zipcode": "8770037",
    "prefectureCode": "44",
    "prefectureNumber": 44,
    "prefecture": "大分県",
    "city": "日田市",
    "town": "若宮町"
  },
  "8770038": {
    "zipcode": "8770038",
    "prefectureCode": "44",
    "prefectureNumber": 44,
    "prefecture": "大分県",
    "city": "日田市",
    "town": "下井手町"
  },
  "8770039": {
    "zipcode": "8770039",
    "prefectureCode": "44",
    "prefectureNumber": 44,
    "prefecture": "大分県",
    "city": "日田市",
    "town": "刃連町"
  },
  "8770041": {
    "zipcode": "8770041",
    "prefectureCode": "44",
    "prefectureNumber": 44,
    "prefecture": "大分県",
    "city": "日田市",
    "town": "竹田新町"
  },
  "8770042": {
    "zipcode": "8770042",
    "prefectureCode": "44",
    "prefectureNumber": 44,
    "prefecture": "大分県",
    "city": "日田市",
    "town": "東町"
  },
  "8770043": {
    "zipcode": "8770043",
    "prefectureCode": "44",
    "prefectureNumber": 44,
    "prefecture": "大分県",
    "city": "日田市",
    "town": "川原町"
  },
  "8770044": {
    "zipcode": "8770044",
    "prefectureCode": "44",
    "prefectureNumber": 44,
    "prefecture": "大分県",
    "city": "日田市",
    "town": "隈"
  },
  "8770045": {
    "zipcode": "8770045",
    "prefectureCode": "44",
    "prefectureNumber": 44,
    "prefecture": "大分県",
    "city": "日田市",
    "town": "亀山町"
  },
  "8770046": {
    "zipcode": "8770046",
    "prefectureCode": "44",
    "prefectureNumber": 44,
    "prefecture": "大分県",
    "city": "日田市",
    "town": "本庄町"
  },
  "8770047": {
    "zipcode": "8770047",
    "prefectureCode": "44",
    "prefectureNumber": 44,
    "prefecture": "大分県",
    "city": "日田市",
    "town": "中本町"
  },
  "8770051": {
    "zipcode": "8770051",
    "prefectureCode": "44",
    "prefectureNumber": 44,
    "prefecture": "大分県",
    "city": "日田市",
    "town": "京町"
  },
  "8770052": {
    "zipcode": "8770052",
    "prefectureCode": "44",
    "prefectureNumber": 44,
    "prefecture": "大分県",
    "city": "日田市",
    "town": "銭渕町"
  },
  "8770053": {
    "zipcode": "8770053",
    "prefectureCode": "44",
    "prefectureNumber": 44,
    "prefecture": "大分県",
    "city": "日田市",
    "town": "高瀬本町"
  },
  "8770054": {
    "zipcode": "8770054",
    "prefectureCode": "44",
    "prefectureNumber": 44,
    "prefecture": "大分県",
    "city": "日田市",
    "town": "琴平町"
  },
  "8770055": {
    "zipcode": "8770055",
    "prefectureCode": "44",
    "prefectureNumber": 44,
    "prefecture": "大分県",
    "city": "日田市",
    "town": "大宮町"
  },
  "8770056": {
    "zipcode": "8770056",
    "prefectureCode": "44",
    "prefectureNumber": 44,
    "prefecture": "大分県",
    "city": "日田市",
    "town": "誠和町"
  },
  "8770057": {
    "zipcode": "8770057",
    "prefectureCode": "44",
    "prefectureNumber": 44,
    "prefecture": "大分県",
    "city": "日田市",
    "town": "八幡町"
  },
  "8770058": {
    "zipcode": "8770058",
    "prefectureCode": "44",
    "prefectureNumber": 44,
    "prefecture": "大分県",
    "city": "日田市",
    "town": "南部町"
  },
  "8770059": {
    "zipcode": "8770059",
    "prefectureCode": "44",
    "prefectureNumber": 44,
    "prefecture": "大分県",
    "city": "日田市",
    "town": "大日町"
  },
  "8770061": {
    "zipcode": "8770061",
    "prefectureCode": "44",
    "prefectureNumber": 44,
    "prefecture": "大分県",
    "city": "日田市",
    "town": "石井"
  },
  "8770062": {
    "zipcode": "8770062",
    "prefectureCode": "44",
    "prefectureNumber": 44,
    "prefecture": "大分県",
    "city": "日田市",
    "town": "上野町"
  },
  "8770063": {
    "zipcode": "8770063",
    "prefectureCode": "44",
    "prefectureNumber": 44,
    "prefecture": "大分県",
    "city": "日田市",
    "town": "串川町"
  },
  "8770064": {
    "zipcode": "8770064",
    "prefectureCode": "44",
    "prefectureNumber": 44,
    "prefecture": "大分県",
    "city": "日田市",
    "town": "小山町"
  },
  "8770065": {
    "zipcode": "8770065",
    "prefectureCode": "44",
    "prefectureNumber": 44,
    "prefecture": "大分県",
    "city": "日田市",
    "town": "緑町"
  },
  "8770066": {
    "zipcode": "8770066",
    "prefectureCode": "44",
    "prefectureNumber": 44,
    "prefecture": "大分県",
    "city": "日田市",
    "town": "川下"
  },
  "8770067": {
    "zipcode": "8770067",
    "prefectureCode": "44",
    "prefectureNumber": 44,
    "prefecture": "大分県",
    "city": "日田市",
    "town": "高井町"
  },
  "8770068": {
    "zipcode": "8770068",
    "prefectureCode": "44",
    "prefectureNumber": 44,
    "prefecture": "大分県",
    "city": "日田市",
    "town": "内河町"
  },
  "8770071": {
    "zipcode": "8770071",
    "prefectureCode": "44",
    "prefectureNumber": 44,
    "prefecture": "大分県",
    "city": "日田市",
    "town": "玉川町"
  },
  "8770072": {
    "zipcode": "8770072",
    "prefectureCode": "44",
    "prefectureNumber": 44,
    "prefecture": "大分県",
    "city": "日田市",
    "town": "新治町"
  },
  "8770073": {
    "zipcode": "8770073",
    "prefectureCode": "44",
    "prefectureNumber": 44,
    "prefecture": "大分県",
    "city": "日田市",
    "town": "日ノ隈町"
  },
  "8770074": {
    "zipcode": "8770074",
    "prefectureCode": "44",
    "prefectureNumber": 44,
    "prefecture": "大分県",
    "city": "日田市",
    "town": "中ノ島町"
  },
  "8770075": {
    "zipcode": "8770075",
    "prefectureCode": "44",
    "prefectureNumber": 44,
    "prefecture": "大分県",
    "city": "日田市",
    "town": "中釣町"
  },
  "8770076": {
    "zipcode": "8770076",
    "prefectureCode": "44",
    "prefectureNumber": 44,
    "prefecture": "大分県",
    "city": "日田市",
    "town": "亀川町"
  },
  "8770077": {
    "zipcode": "8770077",
    "prefectureCode": "44",
    "prefectureNumber": 44,
    "prefecture": "大分県",
    "city": "日田市",
    "town": "南友田町"
  },
  "8770078": {
    "zipcode": "8770078",
    "prefectureCode": "44",
    "prefectureNumber": 44,
    "prefecture": "大分県",
    "city": "日田市",
    "town": "北友田"
  },
  "8770081": {
    "zipcode": "8770081",
    "prefectureCode": "44",
    "prefectureNumber": 44,
    "prefecture": "大分県",
    "city": "日田市",
    "town": "清岸寺町"
  },
  "8770082": {
    "zipcode": "8770082",
    "prefectureCode": "44",
    "prefectureNumber": 44,
    "prefecture": "大分県",
    "city": "日田市",
    "town": "日ノ出町"
  },
  "8770083": {
    "zipcode": "8770083",
    "prefectureCode": "44",
    "prefectureNumber": 44,
    "prefecture": "大分県",
    "city": "日田市",
    "town": "吹上町"
  },
  "8770084": {
    "zipcode": "8770084",
    "prefectureCode": "44",
    "prefectureNumber": 44,
    "prefecture": "大分県",
    "city": "日田市",
    "town": "朝日ケ丘"
  },
  "8770085": {
    "zipcode": "8770085",
    "prefectureCode": "44",
    "prefectureNumber": 44,
    "prefecture": "大分県",
    "city": "日田市",
    "town": "朝日町"
  },
  "8770086": {
    "zipcode": "8770086",
    "prefectureCode": "44",
    "prefectureNumber": 44,
    "prefecture": "大分県",
    "city": "日田市",
    "town": "二串町"
  },
  "8770087": {
    "zipcode": "8770087",
    "prefectureCode": "44",
    "prefectureNumber": 44,
    "prefecture": "大分県",
    "city": "日田市",
    "town": "君迫町"
  },
  "8770088": {
    "zipcode": "8770088",
    "prefectureCode": "44",
    "prefectureNumber": 44,
    "prefecture": "大分県",
    "city": "日田市",
    "town": "小迫町"
  },
  "8770089": {
    "zipcode": "8770089",
    "prefectureCode": "44",
    "prefectureNumber": 44,
    "prefecture": "大分県",
    "city": "日田市",
    "town": "山田町"
  },
  "8770111": {
    "zipcode": "8770111",
    "prefectureCode": "44",
    "prefectureNumber": 44,
    "prefecture": "大分県",
    "city": "日田市",
    "town": "天瀬町五馬市"
  },
  "8770112": {
    "zipcode": "8770112",
    "prefectureCode": "44",
    "prefectureNumber": 44,
    "prefecture": "大分県",
    "city": "日田市",
    "town": "天瀬町本城"
  },
  "8770113": {
    "zipcode": "8770113",
    "prefectureCode": "44",
    "prefectureNumber": 44,
    "prefecture": "大分県",
    "city": "日田市",
    "town": "天瀬町塚田"
  },
  "8770114": {
    "zipcode": "8770114",
    "prefectureCode": "44",
    "prefectureNumber": 44,
    "prefecture": "大分県",
    "city": "日田市",
    "town": "天瀬町出口"
  },
  "8770201": {
    "zipcode": "8770201",
    "prefectureCode": "44",
    "prefectureNumber": 44,
    "prefecture": "大分県",
    "city": "日田市",
    "town": "大山町西大山"
  },
  "8770202": {
    "zipcode": "8770202",
    "prefectureCode": "44",
    "prefectureNumber": 44,
    "prefecture": "大分県",
    "city": "日田市",
    "town": "大山町東大山"
  },
  "8770211": {
    "zipcode": "8770211",
    "prefectureCode": "44",
    "prefectureNumber": 44,
    "prefecture": "大分県",
    "city": "日田市",
    "town": "前津江町赤石"
  },
  "8770212": {
    "zipcode": "8770212",
    "prefectureCode": "44",
    "prefectureNumber": 44,
    "prefecture": "大分県",
    "city": "日田市",
    "town": "前津江町大野"
  },
  "8770221": {
    "zipcode": "8770221",
    "prefectureCode": "44",
    "prefectureNumber": 44,
    "prefecture": "大分県",
    "city": "日田市",
    "town": "前津江町柚木（その他）"
  },
  "8770301": {
    "zipcode": "8770301",
    "prefectureCode": "44",
    "prefectureNumber": 44,
    "prefecture": "大分県",
    "city": "日田市",
    "town": "中津江村栃野"
  },
  "8770302": {
    "zipcode": "8770302",
    "prefectureCode": "44",
    "prefectureNumber": 44,
    "prefecture": "大分県",
    "city": "日田市",
    "town": "中津江村合瀬"
  },
  "8770311": {
    "zipcode": "8770311",
    "prefectureCode": "44",
    "prefectureNumber": 44,
    "prefecture": "大分県",
    "city": "日田市",
    "town": "上津江町川原"
  },
  "8770312": {
    "zipcode": "8770312",
    "prefectureCode": "44",
    "prefectureNumber": 44,
    "prefecture": "大分県",
    "city": "日田市",
    "town": "上津江町上野田"
  },
  "8771101": {
    "zipcode": "8771101",
    "prefectureCode": "44",
    "prefectureNumber": 44,
    "prefecture": "大分県",
    "city": "日田市",
    "town": "鶴城町"
  },
  "8771102": {
    "zipcode": "8771102",
    "prefectureCode": "44",
    "prefectureNumber": 44,
    "prefecture": "大分県",
    "city": "日田市",
    "town": "上宮町"
  },
  "8771103": {
    "zipcode": "8771103",
    "prefectureCode": "44",
    "prefectureNumber": 44,
    "prefecture": "大分県",
    "city": "日田市",
    "town": "鶴河内町"
  },
  "8771104": {
    "zipcode": "8771104",
    "prefectureCode": "44",
    "prefectureNumber": 44,
    "prefecture": "大分県",
    "city": "日田市",
    "town": "大鶴本町"
  },
  "8771105": {
    "zipcode": "8771105",
    "prefectureCode": "44",
    "prefectureNumber": 44,
    "prefecture": "大分県",
    "city": "日田市",
    "town": "大肥町"
  },
  "8771106": {
    "zipcode": "8771106",
    "prefectureCode": "44",
    "prefectureNumber": 44,
    "prefecture": "大分県",
    "city": "日田市",
    "town": "大肥本町"
  },
  "8771107": {
    "zipcode": "8771107",
    "prefectureCode": "44",
    "prefectureNumber": 44,
    "prefecture": "大分県",
    "city": "日田市",
    "town": "大鶴町"
  },
  "8771111": {
    "zipcode": "8771111",
    "prefectureCode": "44",
    "prefectureNumber": 44,
    "prefecture": "大分県",
    "city": "日田市",
    "town": "夜明上町"
  },
  "8771112": {
    "zipcode": "8771112",
    "prefectureCode": "44",
    "prefectureNumber": 44,
    "prefecture": "大分県",
    "city": "日田市",
    "town": "夜明中町"
  },
  "8771113": {
    "zipcode": "8771113",
    "prefectureCode": "44",
    "prefectureNumber": 44,
    "prefecture": "大分県",
    "city": "日田市",
    "town": "夜明関町"
  },
  "8771121": {
    "zipcode": "8771121",
    "prefectureCode": "44",
    "prefectureNumber": 44,
    "prefecture": "大分県",
    "city": "日田市",
    "town": "源栄町（池ノ鶴、皿山）"
  },
  "8771221": {
    "zipcode": "8771221",
    "prefectureCode": "44",
    "prefectureNumber": 44,
    "prefecture": "大分県",
    "city": "日田市",
    "town": "伏木町"
  },
  "8771222": {
    "zipcode": "8771222",
    "prefectureCode": "44",
    "prefectureNumber": 44,
    "prefecture": "大分県",
    "city": "日田市",
    "town": "小河内町"
  },
  "8771223": {
    "zipcode": "8771223",
    "prefectureCode": "44",
    "prefectureNumber": 44,
    "prefecture": "大分県",
    "city": "日田市",
    "town": "市ノ瀬町"
  },
  "8771224": {
    "zipcode": "8771224",
    "prefectureCode": "44",
    "prefectureNumber": 44,
    "prefecture": "大分県",
    "city": "日田市",
    "town": "秋原町"
  },
  "8771225": {
    "zipcode": "8771225",
    "prefectureCode": "44",
    "prefectureNumber": 44,
    "prefecture": "大分県",
    "city": "日田市",
    "town": "藤山町"
  },
  "8771231": {
    "zipcode": "8771231",
    "prefectureCode": "44",
    "prefectureNumber": 44,
    "prefecture": "大分県",
    "city": "日田市",
    "town": "財津町"
  },
  "8771232": {
    "zipcode": "8771232",
    "prefectureCode": "44",
    "prefectureNumber": 44,
    "prefecture": "大分県",
    "city": "日田市",
    "town": "清水町"
  },
  "8771233": {
    "zipcode": "8771233",
    "prefectureCode": "44",
    "prefectureNumber": 44,
    "prefecture": "大分県",
    "city": "日田市",
    "town": "三和団地"
  },
  "8771234": {
    "zipcode": "8771234",
    "prefectureCode": "44",
    "prefectureNumber": 44,
    "prefecture": "大分県",
    "city": "日田市",
    "town": "天神町"
  },
  "8771241": {
    "zipcode": "8771241",
    "prefectureCode": "44",
    "prefectureNumber": 44,
    "prefecture": "大分県",
    "city": "日田市",
    "town": "源栄町（その他）"
  },
  "8771242": {
    "zipcode": "8771242",
    "prefectureCode": "44",
    "prefectureNumber": 44,
    "prefecture": "大分県",
    "city": "日田市",
    "town": "殿町"
  },
  "8771243": {
    "zipcode": "8771243",
    "prefectureCode": "44",
    "prefectureNumber": 44,
    "prefecture": "大分県",
    "city": "日田市",
    "town": "鈴連町"
  },
  "8771244": {
    "zipcode": "8771244",
    "prefectureCode": "44",
    "prefectureNumber": 44,
    "prefecture": "大分県",
    "city": "日田市",
    "town": "三河町"
  },
  "8771351": {
    "zipcode": "8771351",
    "prefectureCode": "44",
    "prefectureNumber": 44,
    "prefecture": "大分県",
    "city": "日田市",
    "town": "三ノ宮町"
  },
  "8771352": {
    "zipcode": "8771352",
    "prefectureCode": "44",
    "prefectureNumber": 44,
    "prefecture": "大分県",
    "city": "日田市",
    "town": "石松町"
  },
  "8771353": {
    "zipcode": "8771353",
    "prefectureCode": "44",
    "prefectureNumber": 44,
    "prefecture": "大分県",
    "city": "日田市",
    "town": "上手町"
  },
  "8771354": {
    "zipcode": "8771354",
    "prefectureCode": "44",
    "prefectureNumber": 44,
    "prefecture": "大分県",
    "city": "日田市",
    "town": "坂井町"
  },
  "8771361": {
    "zipcode": "8771361",
    "prefectureCode": "44",
    "prefectureNumber": 44,
    "prefecture": "大分県",
    "city": "日田市",
    "town": "有田町"
  },
  "8771362": {
    "zipcode": "8771362",
    "prefectureCode": "44",
    "prefectureNumber": 44,
    "prefecture": "大分県",
    "city": "日田市",
    "town": "尾当町"
  },
  "8771363": {
    "zipcode": "8771363",
    "prefectureCode": "44",
    "prefectureNumber": 44,
    "prefecture": "大分県",
    "city": "日田市",
    "town": "中尾町"
  },
  "8771364": {
    "zipcode": "8771364",
    "prefectureCode": "44",
    "prefectureNumber": 44,
    "prefecture": "大分県",
    "city": "日田市",
    "town": "三池町"
  },
  "8771365": {
    "zipcode": "8771365",
    "prefectureCode": "44",
    "prefectureNumber": 44,
    "prefecture": "大分県",
    "city": "日田市",
    "town": "水目町"
  },
  "8771366": {
    "zipcode": "8771366",
    "prefectureCode": "44",
    "prefectureNumber": 44,
    "prefecture": "大分県",
    "city": "日田市",
    "town": "あやめ台"
  },
  "8771371": {
    "zipcode": "8771371",
    "prefectureCode": "44",
    "prefectureNumber": 44,
    "prefecture": "大分県",
    "city": "日田市",
    "town": "諸留町"
  },
  "8771372": {
    "zipcode": "8771372",
    "prefectureCode": "44",
    "prefectureNumber": 44,
    "prefecture": "大分県",
    "city": "日田市",
    "town": "上諸留町"
  },
  "8771373": {
    "zipcode": "8771373",
    "prefectureCode": "44",
    "prefectureNumber": 44,
    "prefecture": "大分県",
    "city": "日田市",
    "town": "月出町"
  },
  "8771374": {
    "zipcode": "8771374",
    "prefectureCode": "44",
    "prefectureNumber": 44,
    "prefecture": "大分県",
    "city": "日田市",
    "town": "松野町"
  },
  "8771375": {
    "zipcode": "8771375",
    "prefectureCode": "44",
    "prefectureNumber": 44,
    "prefecture": "大分県",
    "city": "日田市",
    "town": "池辺町"
  },
  "8771381": {
    "zipcode": "8771381",
    "prefectureCode": "44",
    "prefectureNumber": 44,
    "prefecture": "大分県",
    "city": "日田市",
    "town": "東羽田町"
  },
  "8771382": {
    "zipcode": "8771382",
    "prefectureCode": "44",
    "prefectureNumber": 44,
    "prefecture": "大分県",
    "city": "日田市",
    "town": "日の本町"
  },
  "8771383": {
    "zipcode": "8771383",
    "prefectureCode": "44",
    "prefectureNumber": 44,
    "prefecture": "大分県",
    "city": "日田市",
    "town": "岩美町"
  },
  "8771384": {
    "zipcode": "8771384",
    "prefectureCode": "44",
    "prefectureNumber": 44,
    "prefecture": "大分県",
    "city": "日田市",
    "town": "羽田町"
  }
}
