{
  "8780000": {
    "zipcode": "8780000",
    "prefectureCode": "44",
    "prefectureNumber": 44,
    "prefecture": "大分県",
    "city": "竹田市",
    "town": "以下に掲載がない場合"
  },
  "8780001": {
    "zipcode": "8780001",
    "prefectureCode": "44",
    "prefectureNumber": 44,
    "prefecture": "大分県",
    "city": "竹田市",
    "town": "植木"
  },
  "8780002": {
    "zipcode": "8780002",
    "prefectureCode": "44",
    "prefectureNumber": 44,
    "prefecture": "大分県",
    "city": "竹田市",
    "town": "枝"
  },
  "8780003": {
    "zipcode": "8780003",
    "prefectureCode": "44",
    "prefectureNumber": 44,
    "prefecture": "大分県",
    "city": "竹田市",
    "town": "片ケ瀬"
  },
  "8780004": {
    "zipcode": "8780004",
    "prefectureCode": "44",
    "prefectureNumber": 44,
    "prefecture": "大分県",
    "city": "竹田市",
    "town": "中"
  },
  "8780005": {
    "zipcode": "8780005",
    "prefectureCode": "44",
    "prefectureNumber": 44,
    "prefecture": "大分県",
    "city": "竹田市",
    "town": "挾田"
  },
  "8780006": {
    "zipcode": "8780006",
    "prefectureCode": "44",
    "prefectureNumber": 44,
    "prefecture": "大分県",
    "city": "竹田市",
    "town": "平田"
  },
  "8780007": {
    "zipcode": "8780007",
    "prefectureCode": "44",
    "prefectureNumber": 44,
    "prefecture": "大分県",
    "city": "竹田市",
    "town": "三宅"
  },
  "8780011": {
    "zipcode": "8780011",
    "prefectureCode": "44",
    "prefectureNumber": 44,
    "prefecture": "大分県",
    "city": "竹田市",
    "town": "会々"
  },
  "8780012": {
    "zipcode": "8780012",
    "prefectureCode": "44",
    "prefectureNumber": 44,
    "prefecture": "大分県",
    "city": "竹田市",
    "town": "竹田町"
  },
  "8780013": {
    "zipcode": "8780013",
    "prefectureCode": "44",
    "prefectureNumber": 44,
    "prefecture": "大分県",
    "city": "竹田市",
    "town": "竹田"
  },
  "8780021": {
    "zipcode": "8780021",
    "prefectureCode": "44",
    "prefectureNumber": 44,
    "prefecture": "大分県",
    "city": "竹田市",
    "town": "穴井迫"
  },
  "8780022": {
    "zipcode": "8780022",
    "prefectureCode": "44",
    "prefectureNumber": 44,
    "prefecture": "大分県",
    "city": "竹田市",
    "town": "岩瀬"
  },
  "8780023": {
    "zipcode": "8780023",
    "prefectureCode": "44",
    "prefectureNumber": 44,
    "prefecture": "大分県",
    "city": "竹田市",
    "town": "君ケ園"
  },
  "8780024": {
    "zipcode": "8780024",
    "prefectureCode": "44",
    "prefectureNumber": 44,
    "prefecture": "大分県",
    "city": "竹田市",
    "town": "玉来"
  },
  "8780025": {
    "zipcode": "8780025",
    "prefectureCode": "44",
    "prefectureNumber": 44,
    "prefecture": "大分県",
    "city": "竹田市",
    "town": "拝田原"
  },
  "8780026": {
    "zipcode": "8780026",
    "prefectureCode": "44",
    "prefectureNumber": 44,
    "prefecture": "大分県",
    "city": "竹田市",
    "town": "飛田川"
  },
  "8780027": {
    "zipcode": "8780027",
    "prefectureCode": "44",
    "prefectureNumber": 44,
    "prefecture": "大分県",
    "city": "竹田市",
    "town": "向山田"
  },
  "8780028": {
    "zipcode": "8780028",
    "prefectureCode": "44",
    "prefectureNumber": 44,
    "prefecture": "大分県",
    "city": "竹田市",
    "town": "渡瀬"
  },
  "8780031": {
    "zipcode": "8780031",
    "prefectureCode": "44",
    "prefectureNumber": 44,
    "prefecture": "大分県",
    "city": "竹田市",
    "town": "岩本"
  },
  "8780032": {
    "zipcode": "8780032",
    "prefectureCode": "44",
    "prefectureNumber": 44,
    "prefecture": "大分県",
    "city": "竹田市",
    "town": "太田"
  },
  "8780033": {
    "zipcode": "8780033",
    "prefectureCode": "44",
    "prefectureNumber": 44,
    "prefecture": "大分県",
    "city": "竹田市",
    "town": "入田"
  },
  "8780034": {
    "zipcode": "8780034",
    "prefectureCode": "44",
    "prefectureNumber": 44,
    "prefecture": "大分県",
    "city": "竹田市",
    "town": "門田"
  },
  "8780035": {
    "zipcode": "8780035",
    "prefectureCode": "44",
    "prefectureNumber": 44,
    "prefecture": "大分県",
    "city": "竹田市",
    "town": "吉田"
  },
  "8780141": {
    "zipcode": "8780141",
    "prefectureCode": "44",
    "prefectureNumber": 44,
    "prefecture": "大分県",
    "city": "竹田市",
    "town": "小川"
  },
  "8780142": {
    "zipcode": "8780142",
    "prefectureCode": "44",
    "prefectureNumber": 44,
    "prefecture": "大分県",
    "city": "竹田市",
    "town": "福原"
  },
  "8780143": {
    "zipcode": "8780143",
    "prefectureCode": "44",
    "prefectureNumber": 44,
    "prefecture": "大分県",
    "city": "竹田市",
    "town": "城原"
  },
  "8780144": {
    "zipcode": "8780144",
    "prefectureCode": "44",
    "prefectureNumber": 44,
    "prefecture": "大分県",
    "city": "竹田市",
    "town": "高伏"
  },
  "8780145": {
    "zipcode": "8780145",
    "prefectureCode": "44",
    "prefectureNumber": 44,
    "prefecture": "大分県",
    "city": "竹田市",
    "town": "米納"
  },
  "8780146": {
    "zipcode": "8780146",
    "prefectureCode": "44",
    "prefectureNumber": 44,
    "prefecture": "大分県",
    "city": "竹田市",
    "town": "古園"
  },
  "8780151": {
    "zipcode": "8780151",
    "prefectureCode": "44",
    "prefectureNumber": 44,
    "prefecture": "大分県",
    "city": "竹田市",
    "town": "下坂田"
  },
  "8780152": {
    "zipcode": "8780152",
    "prefectureCode": "44",
    "prefectureNumber": 44,
    "prefecture": "大分県",
    "city": "竹田市",
    "town": "下志土知"
  },
  "8780153": {
    "zipcode": "8780153",
    "prefectureCode": "44",
    "prefectureNumber": 44,
    "prefecture": "大分県",
    "city": "竹田市",
    "town": "市用"
  },
  "8780154": {
    "zipcode": "8780154",
    "prefectureCode": "44",
    "prefectureNumber": 44,
    "prefecture": "大分県",
    "city": "竹田市",
    "town": "川床"
  },
  "8780155": {
    "zipcode": "8780155",
    "prefectureCode": "44",
    "prefectureNumber": 44,
    "prefecture": "大分県",
    "city": "竹田市",
    "town": "志土知"
  },
  "8780156": {
    "zipcode": "8780156",
    "prefectureCode": "44",
    "prefectureNumber": 44,
    "prefecture": "大分県",
    "city": "竹田市",
    "town": "久保（その他）"
  },
  "8780161": {
    "zipcode": "8780161",
    "prefectureCode": "44",
    "prefectureNumber": 44,
    "prefecture": "大分県",
    "city": "竹田市",
    "town": "上坂田"
  },
  "8780162": {
    "zipcode": "8780162",
    "prefectureCode": "44",
    "prefectureNumber": 44,
    "prefecture": "大分県",
    "city": "竹田市",
    "town": "炭竈"
  },
  "8780163": {
    "zipcode": "8780163",
    "prefectureCode": "44",
    "prefectureNumber": 44,
    "prefecture": "大分県",
    "city": "竹田市",
    "town": "上畑"
  },
  "8780164": {
    "zipcode": "8780164",
    "prefectureCode": "44",
    "prefectureNumber": 44,
    "prefecture": "大分県",
    "city": "竹田市",
    "town": "刈小野"
  },
  "8780201": {
    "zipcode": "8780201",
    "prefectureCode": "44",
    "prefectureNumber": 44,
    "prefecture": "大分県",
    "city": "竹田市",
    "town": "久住町久住"
  },
  "8780202": {
    "zipcode": "8780202",
    "prefectureCode": "44",
    "prefectureNumber": 44,
    "prefecture": "大分県",
    "city": "竹田市",
    "town": "久住町有氏"
  },
  "8780203": {
    "zipcode": "8780203",
    "prefectureCode": "44",
    "prefectureNumber": 44,
    "prefecture": "大分県",
    "city": "竹田市",
    "town": "久住町仏原"
  },
  "8780204": {
    "zipcode": "8780204",
    "prefectureCode": "44",
    "prefectureNumber": 44,
    "prefecture": "大分県",
    "city": "竹田市",
    "town": "久住町栢木"
  },
  "8780205": {
    "zipcode": "8780205",
    "prefectureCode": "44",
    "prefectureNumber": 44,
    "prefecture": "大分県",
    "city": "竹田市",
    "town": "久住町白丹"
  },
  "8780206": {
    "zipcode": "8780206",
    "prefectureCode": "44",
    "prefectureNumber": 44,
    "prefecture": "大分県",
    "city": "竹田市",
    "town": "久住町添ケ津留"
  },
  "8780256": {
    "zipcode": "8780256",
    "prefectureCode": "44",
    "prefectureNumber": 44,
    "prefecture": "大分県",
    "city": "竹田市",
    "town": "久保（１４４９番地）"
  },
  "8780401": {
    "zipcode": "8780401",
    "prefectureCode": "44",
    "prefectureNumber": 44,
    "prefecture": "大分県",
    "city": "竹田市",
    "town": "直入町神堤"
  },
  "8780402": {
    "zipcode": "8780402",
    "prefectureCode": "44",
    "prefectureNumber": 44,
    "prefecture": "大分県",
    "city": "竹田市",
    "town": "直入町長湯"
  },
  "8780403": {
    "zipcode": "8780403",
    "prefectureCode": "44",
    "prefectureNumber": 44,
    "prefecture": "大分県",
    "city": "竹田市",
    "town": "直入町上田北"
  },
  "8780404": {
    "zipcode": "8780404",
    "prefectureCode": "44",
    "prefectureNumber": 44,
    "prefecture": "大分県",
    "city": "竹田市",
    "town": "直入町下田北"
  },
  "8780571": {
    "zipcode": "8780571",
    "prefectureCode": "44",
    "prefectureNumber": 44,
    "prefecture": "大分県",
    "city": "竹田市",
    "town": "次倉"
  },
  "8780572": {
    "zipcode": "8780572",
    "prefectureCode": "44",
    "prefectureNumber": 44,
    "prefecture": "大分県",
    "city": "竹田市",
    "town": "九重野"
  },
  "8780573": {
    "zipcode": "8780573",
    "prefectureCode": "44",
    "prefectureNumber": 44,
    "prefecture": "大分県",
    "city": "竹田市",
    "town": "中角"
  },
  "8780574": {
    "zipcode": "8780574",
    "prefectureCode": "44",
    "prefectureNumber": 44,
    "prefecture": "大分県",
    "city": "竹田市",
    "town": "神原"
  },
  "8780575": {
    "zipcode": "8780575",
    "prefectureCode": "44",
    "prefectureNumber": 44,
    "prefecture": "大分県",
    "city": "竹田市",
    "town": "田井"
  },
  "8780576": {
    "zipcode": "8780576",
    "prefectureCode": "44",
    "prefectureNumber": 44,
    "prefecture": "大分県",
    "city": "竹田市",
    "town": "倉木"
  }
}
