{
  "8790101": {
    "zipcode": "8790101",
    "prefectureCode": "44",
    "prefectureNumber": 44,
    "prefecture": "大分県",
    "city": "中津市",
    "town": "今津"
  },
  "8790102": {
    "zipcode": "8790102",
    "prefectureCode": "44",
    "prefectureNumber": 44,
    "prefecture": "大分県",
    "city": "中津市",
    "town": "鍋島"
  },
  "8790103": {
    "zipcode": "8790103",
    "prefectureCode": "44",
    "prefectureNumber": 44,
    "prefecture": "大分県",
    "city": "中津市",
    "town": "植野"
  },
  "8790104": {
    "zipcode": "8790104",
    "prefectureCode": "44",
    "prefectureNumber": 44,
    "prefecture": "大分県",
    "city": "中津市",
    "town": "野依"
  },
  "8790105": {
    "zipcode": "8790105",
    "prefectureCode": "44",
    "prefectureNumber": 44,
    "prefecture": "大分県",
    "city": "中津市",
    "town": "犬丸"
  },
  "8790106": {
    "zipcode": "8790106",
    "prefectureCode": "44",
    "prefectureNumber": 44,
    "prefecture": "大分県",
    "city": "中津市",
    "town": "赤迫"
  },
  "8790107": {
    "zipcode": "8790107",
    "prefectureCode": "44",
    "prefectureNumber": 44,
    "prefecture": "大分県",
    "city": "中津市",
    "town": "昭和新田"
  },
  "8790111": {
    "zipcode": "8790111",
    "prefectureCode": "44",
    "prefectureNumber": 44,
    "prefecture": "大分県",
    "city": "中津市",
    "town": "伊藤田"
  },
  "8790112": {
    "zipcode": "8790112",
    "prefectureCode": "44",
    "prefectureNumber": 44,
    "prefecture": "大分県",
    "city": "中津市",
    "town": "福島"
  },
  "8790113": {
    "zipcode": "8790113",
    "prefectureCode": "44",
    "prefectureNumber": 44,
    "prefecture": "大分県",
    "city": "中津市",
    "town": "北原"
  },
  "8790121": {
    "zipcode": "8790121",
    "prefectureCode": "44",
    "prefectureNumber": 44,
    "prefecture": "大分県",
    "city": "中津市",
    "town": "諸田"
  },
  "8790122": {
    "zipcode": "8790122",
    "prefectureCode": "44",
    "prefectureNumber": 44,
    "prefecture": "大分県",
    "city": "中津市",
    "town": "定留"
  },
  "8790123": {
    "zipcode": "8790123",
    "prefectureCode": "44",
    "prefectureNumber": 44,
    "prefecture": "大分県",
    "city": "中津市",
    "town": "田尻"
  },
  "8790124": {
    "zipcode": "8790124",
    "prefectureCode": "44",
    "prefectureNumber": 44,
    "prefecture": "大分県",
    "city": "中津市",
    "town": "田尻崎"
  },
  "8790151": {
    "zipcode": "8790151",
    "prefectureCode": "44",
    "prefectureNumber": 44,
    "prefecture": "大分県",
    "city": "宇佐市",
    "town": "宮熊"
  },
  "8790152": {
    "zipcode": "8790152",
    "prefectureCode": "44",
    "prefectureNumber": 44,
    "prefecture": "大分県",
    "city": "宇佐市",
    "town": "下庄"
  },
  "8790153": {
    "zipcode": "8790153",
    "prefectureCode": "44",
    "prefectureNumber": 44,
    "prefecture": "大分県",
    "city": "宇佐市",
    "town": "上庄"
  },
  "8790161": {
    "zipcode": "8790161",
    "prefectureCode": "44",
    "prefectureNumber": 44,
    "prefecture": "大分県",
    "city": "宇佐市",
    "town": "下敷田"
  },
  "8790162": {
    "zipcode": "8790162",
    "prefectureCode": "44",
    "prefectureNumber": 44,
    "prefecture": "大分県",
    "city": "宇佐市",
    "town": "中敷田"
  },
  "8790163": {
    "zipcode": "8790163",
    "prefectureCode": "44",
    "prefectureNumber": 44,
    "prefecture": "大分県",
    "city": "宇佐市",
    "town": "上敷田"
  },
  "8790164": {
    "zipcode": "8790164",
    "prefectureCode": "44",
    "prefectureNumber": 44,
    "prefecture": "大分県",
    "city": "宇佐市",
    "town": "富山"
  },
  "8790221": {
    "zipcode": "8790221",
    "prefectureCode": "44",
    "prefectureNumber": 44,
    "prefecture": "大分県",
    "city": "中津市",
    "town": "三光上秣"
  },
  "8790222": {
    "zipcode": "8790222",
    "prefectureCode": "44",
    "prefectureNumber": 44,
    "prefecture": "大分県",
    "city": "中津市",
    "town": "三光西秣"
  },
  "8790223": {
    "zipcode": "8790223",
    "prefectureCode": "44",
    "prefectureNumber": 44,
    "prefecture": "大分県",
    "city": "中津市",
    "town": "三光下秣"
  },
  "8790224": {
    "zipcode": "8790224",
    "prefectureCode": "44",
    "prefectureNumber": 44,
    "prefecture": "大分県",
    "city": "中津市",
    "town": "三光下深水"
  },
  "8790225": {
    "zipcode": "8790225",
    "prefectureCode": "44",
    "prefectureNumber": 44,
    "prefecture": "大分県",
    "city": "中津市",
    "town": "三光上深水"
  },
  "8790231": {
    "zipcode": "8790231",
    "prefectureCode": "44",
    "prefectureNumber": 44,
    "prefecture": "大分県",
    "city": "宇佐市",
    "town": "南敷田"
  },
  "8790232": {
    "zipcode": "8790232",
    "prefectureCode": "44",
    "prefectureNumber": 44,
    "prefecture": "大分県",
    "city": "宇佐市",
    "town": "大根川"
  },
  "8790233": {
    "zipcode": "8790233",
    "prefectureCode": "44",
    "prefectureNumber": 44,
    "prefecture": "大分県",
    "city": "宇佐市",
    "town": "赤尾"
  },
  "8790234": {
    "zipcode": "8790234",
    "prefectureCode": "44",
    "prefectureNumber": 44,
    "prefecture": "大分県",
    "city": "宇佐市",
    "town": "今仁"
  },
  "8790235": {
    "zipcode": "8790235",
    "prefectureCode": "44",
    "prefectureNumber": 44,
    "prefecture": "大分県",
    "city": "宇佐市",
    "town": "木部"
  },
  "8790236": {
    "zipcode": "8790236",
    "prefectureCode": "44",
    "prefectureNumber": 44,
    "prefecture": "大分県",
    "city": "宇佐市",
    "town": "清水"
  },
  "8790237": {
    "zipcode": "8790237",
    "prefectureCode": "44",
    "prefectureNumber": 44,
    "prefecture": "大分県",
    "city": "宇佐市",
    "town": "佐野"
  },
  "8790301": {
    "zipcode": "8790301",
    "prefectureCode": "44",
    "prefectureNumber": 44,
    "prefecture": "大分県",
    "city": "宇佐市",
    "town": "乙女新田"
  },
  "8790302": {
    "zipcode": "8790302",
    "prefectureCode": "44",
    "prefectureNumber": 44,
    "prefecture": "大分県",
    "city": "宇佐市",
    "town": "下乙女"
  },
  "8790303": {
    "zipcode": "8790303",
    "prefectureCode": "44",
    "prefectureNumber": 44,
    "prefecture": "大分県",
    "city": "宇佐市",
    "town": "上乙女"
  },
  "8790304": {
    "zipcode": "8790304",
    "prefectureCode": "44",
    "prefectureNumber": 44,
    "prefecture": "大分県",
    "city": "宇佐市",
    "town": "尾永井"
  },
  "8790305": {
    "zipcode": "8790305",
    "prefectureCode": "44",
    "prefectureNumber": 44,
    "prefecture": "大分県",
    "city": "宇佐市",
    "town": "上高家"
  },
  "8790306": {
    "zipcode": "8790306",
    "prefectureCode": "44",
    "prefectureNumber": 44,
    "prefecture": "大分県",
    "city": "宇佐市",
    "town": "西高家"
  },
  "8790307": {
    "zipcode": "8790307",
    "prefectureCode": "44",
    "prefectureNumber": 44,
    "prefecture": "大分県",
    "city": "宇佐市",
    "town": "浜高家"
  },
  "8790308": {
    "zipcode": "8790308",
    "prefectureCode": "44",
    "prefectureNumber": 44,
    "prefecture": "大分県",
    "city": "宇佐市",
    "town": "下高家"
  },
  "8790309": {
    "zipcode": "8790309",
    "prefectureCode": "44",
    "prefectureNumber": 44,
    "prefecture": "大分県",
    "city": "宇佐市",
    "town": "東高家"
  },
  "8790311": {
    "zipcode": "8790311",
    "prefectureCode": "44",
    "prefectureNumber": 44,
    "prefecture": "大分県",
    "city": "宇佐市",
    "town": "森山"
  },
  "8790312": {
    "zipcode": "8790312",
    "prefectureCode": "44",
    "prefectureNumber": 44,
    "prefecture": "大分県",
    "city": "宇佐市",
    "town": "荒木"
  },
  "8790313": {
    "zipcode": "8790313",
    "prefectureCode": "44",
    "prefectureNumber": 44,
    "prefecture": "大分県",
    "city": "宇佐市",
    "town": "上高"
  },
  "8790314": {
    "zipcode": "8790314",
    "prefectureCode": "44",
    "prefectureNumber": 44,
    "prefecture": "大分県",
    "city": "宇佐市",
    "town": "猿渡"
  },
  "8790315": {
    "zipcode": "8790315",
    "prefectureCode": "44",
    "prefectureNumber": 44,
    "prefecture": "大分県",
    "city": "宇佐市",
    "town": "上時枝"
  },
  "8790316": {
    "zipcode": "8790316",
    "prefectureCode": "44",
    "prefectureNumber": 44,
    "prefecture": "大分県",
    "city": "宇佐市",
    "town": "下時枝"
  },
  "8790317": {
    "zipcode": "8790317",
    "prefectureCode": "44",
    "prefectureNumber": 44,
    "prefecture": "大分県",
    "city": "宇佐市",
    "town": "下高"
  },
  "8790441": {
    "zipcode": "8790441",
    "prefectureCode": "44",
    "prefectureNumber": 44,
    "prefecture": "大分県",
    "city": "宇佐市",
    "town": "吉松"
  },
  "8790442": {
    "zipcode": "8790442",
    "prefectureCode": "44",
    "prefectureNumber": 44,
    "prefecture": "大分県",
    "city": "宇佐市",
    "town": "城井"
  },
  "8790443": {
    "zipcode": "8790443",
    "prefectureCode": "44",
    "prefectureNumber": 44,
    "prefecture": "大分県",
    "city": "宇佐市",
    "town": "葛原"
  },
  "8790444": {
    "zipcode": "8790444",
    "prefectureCode": "44",
    "prefectureNumber": 44,
    "prefecture": "大分県",
    "city": "宇佐市",
    "town": "石田"
  },
  "8790451": {
    "zipcode": "8790451",
    "prefectureCode": "44",
    "prefectureNumber": 44,
    "prefecture": "大分県",
    "city": "宇佐市",
    "town": "畑田"
  },
  "8790452": {
    "zipcode": "8790452",
    "prefectureCode": "44",
    "prefectureNumber": 44,
    "prefecture": "大分県",
    "city": "宇佐市",
    "town": "川部"
  },
  "8790453": {
    "zipcode": "8790453",
    "prefectureCode": "44",
    "prefectureNumber": 44,
    "prefecture": "大分県",
    "city": "宇佐市",
    "town": "上田"
  },
  "8790454": {
    "zipcode": "8790454",
    "prefectureCode": "44",
    "prefectureNumber": 44,
    "prefecture": "大分県",
    "city": "宇佐市",
    "town": "法鏡寺"
  },
  "8790455": {
    "zipcode": "8790455",
    "prefectureCode": "44",
    "prefectureNumber": 44,
    "prefecture": "大分県",
    "city": "宇佐市",
    "town": "閤"
  },
  "8790456": {
    "zipcode": "8790456",
    "prefectureCode": "44",
    "prefectureNumber": 44,
    "prefecture": "大分県",
    "city": "宇佐市",
    "town": "辛島"
  },
  "8790457": {
    "zipcode": "8790457",
    "prefectureCode": "44",
    "prefectureNumber": 44,
    "prefecture": "大分県",
    "city": "宇佐市",
    "town": "芝原"
  },
  "8790461": {
    "zipcode": "8790461",
    "prefectureCode": "44",
    "prefectureNumber": 44,
    "prefecture": "大分県",
    "city": "宇佐市",
    "town": "樋田"
  },
  "8790462": {
    "zipcode": "8790462",
    "prefectureCode": "44",
    "prefectureNumber": 44,
    "prefecture": "大分県",
    "city": "宇佐市",
    "town": "別府"
  },
  "8790463": {
    "zipcode": "8790463",
    "prefectureCode": "44",
    "prefectureNumber": 44,
    "prefecture": "大分県",
    "city": "宇佐市",
    "town": "中原"
  },
  "8790464": {
    "zipcode": "8790464",
    "prefectureCode": "44",
    "prefectureNumber": 44,
    "prefecture": "大分県",
    "city": "宇佐市",
    "town": "大塚"
  },
  "8790465": {
    "zipcode": "8790465",
    "prefectureCode": "44",
    "prefectureNumber": 44,
    "prefecture": "大分県",
    "city": "宇佐市",
    "town": "下拝田"
  },
  "8790466": {
    "zipcode": "8790466",
    "prefectureCode": "44",
    "prefectureNumber": 44,
    "prefecture": "大分県",
    "city": "宇佐市",
    "town": "上拝田（その他）"
  },
  "8790467": {
    "zipcode": "8790467",
    "prefectureCode": "44",
    "prefectureNumber": 44,
    "prefecture": "大分県",
    "city": "宇佐市",
    "town": "山本"
  },
  "8790471": {
    "zipcode": "8790471",
    "prefectureCode": "44",
    "prefectureNumber": 44,
    "prefecture": "大分県",
    "city": "宇佐市",
    "town": "四日市"
  },
  "8790472": {
    "zipcode": "8790472",
    "prefectureCode": "44",
    "prefectureNumber": 44,
    "prefecture": "大分県",
    "city": "宇佐市",
    "town": "上元重"
  },
  "8790473": {
    "zipcode": "8790473",
    "prefectureCode": "44",
    "prefectureNumber": 44,
    "prefecture": "大分県",
    "city": "宇佐市",
    "town": "下元重"
  },
  "8790474": {
    "zipcode": "8790474",
    "prefectureCode": "44",
    "prefectureNumber": 44,
    "prefecture": "大分県",
    "city": "宇佐市",
    "town": "山下"
  },
  "8790501": {
    "zipcode": "8790501",
    "prefectureCode": "44",
    "prefectureNumber": 44,
    "prefecture": "大分県",
    "city": "宇佐市",
    "town": "麻生"
  },
  "8790502": {
    "zipcode": "8790502",
    "prefectureCode": "44",
    "prefectureNumber": 44,
    "prefecture": "大分県",
    "city": "宇佐市",
    "town": "岳ノ首"
  },
  "8790503": {
    "zipcode": "8790503",
    "prefectureCode": "44",
    "prefectureNumber": 44,
    "prefecture": "大分県",
    "city": "宇佐市",
    "town": "灘"
  },
  "8790504": {
    "zipcode": "8790504",
    "prefectureCode": "44",
    "prefectureNumber": 44,
    "prefecture": "大分県",
    "city": "宇佐市",
    "town": "山口"
  },
  "8790511": {
    "zipcode": "8790511",
    "prefectureCode": "44",
    "prefectureNumber": 44,
    "prefecture": "大分県",
    "city": "宇佐市",
    "town": "山袋"
  },
  "8790512": {
    "zipcode": "8790512",
    "prefectureCode": "44",
    "prefectureNumber": 44,
    "prefecture": "大分県",
    "city": "宇佐市",
    "town": "黒"
  },
  "8790513": {
    "zipcode": "8790513",
    "prefectureCode": "44",
    "prefectureNumber": 44,
    "prefecture": "大分県",
    "city": "宇佐市",
    "town": "中"
  },
  "8790514": {
    "zipcode": "8790514",
    "prefectureCode": "44",
    "prefectureNumber": 44,
    "prefecture": "大分県",
    "city": "宇佐市",
    "town": "今成"
  },
  "8790515": {
    "zipcode": "8790515",
    "prefectureCode": "44",
    "prefectureNumber": 44,
    "prefecture": "大分県",
    "city": "宇佐市",
    "town": "末"
  },
  "8790516": {
    "zipcode": "8790516",
    "prefectureCode": "44",
    "prefectureNumber": 44,
    "prefecture": "大分県",
    "city": "宇佐市",
    "town": "木内"
  },
  "8790600": {
    "zipcode": "8790600",
    "prefectureCode": "44",
    "prefectureNumber": 44,
    "prefecture": "大分県",
    "city": "豊後高田市",
    "town": "以下に掲載がない場合"
  },
  "8790601": {
    "zipcode": "8790601",
    "prefectureCode": "44",
    "prefectureNumber": 44,
    "prefecture": "大分県",
    "city": "豊後高田市",
    "town": "草地"
  },
  "8790602": {
    "zipcode": "8790602",
    "prefectureCode": "44",
    "prefectureNumber": 44,
    "prefecture": "大分県",
    "city": "豊後高田市",
    "town": "払田"
  },
  "8790603": {
    "zipcode": "8790603",
    "prefectureCode": "44",
    "prefectureNumber": 44,
    "prefecture": "大分県",
    "city": "豊後高田市",
    "town": "鼎"
  },
  "8790604": {
    "zipcode": "8790604",
    "prefectureCode": "44",
    "prefectureNumber": 44,
    "prefecture": "大分県",
    "city": "豊後高田市",
    "town": "美和"
  },
  "8790605": {
    "zipcode": "8790605",
    "prefectureCode": "44",
    "prefectureNumber": 44,
    "prefecture": "大分県",
    "city": "豊後高田市",
    "town": "御玉"
  },
  "8790606": {
    "zipcode": "8790606",
    "prefectureCode": "44",
    "prefectureNumber": 44,
    "prefecture": "大分県",
    "city": "豊後高田市",
    "town": "玉津"
  },
  "8790607": {
    "zipcode": "8790607",
    "prefectureCode": "44",
    "prefectureNumber": 44,
    "prefecture": "大分県",
    "city": "豊後高田市",
    "town": "新栄"
  },
  "8790608": {
    "zipcode": "8790608",
    "prefectureCode": "44",
    "prefectureNumber": 44,
    "prefecture": "大分県",
    "city": "豊後高田市",
    "town": "呉崎"
  },
  "8790609": {
    "zipcode": "8790609",
    "prefectureCode": "44",
    "prefectureNumber": 44,
    "prefecture": "大分県",
    "city": "豊後高田市",
    "town": "城台"
  },
  "8790611": {
    "zipcode": "8790611",
    "prefectureCode": "44",
    "prefectureNumber": 44,
    "prefecture": "大分県",
    "city": "豊後高田市",
    "town": "森"
  },
  "8790612": {
    "zipcode": "8790612",
    "prefectureCode": "44",
    "prefectureNumber": 44,
    "prefecture": "大分県",
    "city": "豊後高田市",
    "town": "佐野"
  },
  "8790613": {
    "zipcode": "8790613",
    "prefectureCode": "44",
    "prefectureNumber": 44,
    "prefecture": "大分県",
    "city": "豊後高田市",
    "town": "小田原"
  },
  "8790614": {
    "zipcode": "8790614",
    "prefectureCode": "44",
    "prefectureNumber": 44,
    "prefecture": "大分県",
    "city": "豊後高田市",
    "town": "来縄"
  },
  "8790615": {
    "zipcode": "8790615",
    "prefectureCode": "44",
    "prefectureNumber": 44,
    "prefecture": "大分県",
    "city": "豊後高田市",
    "town": "界"
  },
  "8790616": {
    "zipcode": "8790616",
    "prefectureCode": "44",
    "prefectureNumber": 44,
    "prefecture": "大分県",
    "city": "豊後高田市",
    "town": "水崎"
  },
  "8790617": {
    "zipcode": "8790617",
    "prefectureCode": "44",
    "prefectureNumber": 44,
    "prefecture": "大分県",
    "city": "豊後高田市",
    "town": "高田"
  },
  "8790618": {
    "zipcode": "8790618",
    "prefectureCode": "44",
    "prefectureNumber": 44,
    "prefecture": "大分県",
    "city": "豊後高田市",
    "town": "中央通"
  },
  "8790619": {
    "zipcode": "8790619",
    "prefectureCode": "44",
    "prefectureNumber": 44,
    "prefecture": "大分県",
    "city": "豊後高田市",
    "town": "浜町"
  },
  "8790621": {
    "zipcode": "8790621",
    "prefectureCode": "44",
    "prefectureNumber": 44,
    "prefecture": "大分県",
    "city": "豊後高田市",
    "town": "是永町"
  },
  "8790622": {
    "zipcode": "8790622",
    "prefectureCode": "44",
    "prefectureNumber": 44,
    "prefecture": "大分県",
    "city": "豊後高田市",
    "town": "鍛治屋町"
  },
  "8790623": {
    "zipcode": "8790623",
    "prefectureCode": "44",
    "prefectureNumber": 44,
    "prefecture": "大分県",
    "city": "豊後高田市",
    "town": "金谷町"
  },
  "8790624": {
    "zipcode": "8790624",
    "prefectureCode": "44",
    "prefectureNumber": 44,
    "prefecture": "大分県",
    "city": "豊後高田市",
    "town": "本町"
  },
  "8790625": {
    "zipcode": "8790625",
    "prefectureCode": "44",
    "prefectureNumber": 44,
    "prefecture": "大分県",
    "city": "豊後高田市",
    "town": "水取"
  },
  "8790626": {
    "zipcode": "8790626",
    "prefectureCode": "44",
    "prefectureNumber": 44,
    "prefecture": "大分県",
    "city": "豊後高田市",
    "town": "今町"
  },
  "8790627": {
    "zipcode": "8790627",
    "prefectureCode": "44",
    "prefectureNumber": 44,
    "prefecture": "大分県",
    "city": "豊後高田市",
    "town": "新地"
  },
  "8790628": {
    "zipcode": "8790628",
    "prefectureCode": "44",
    "prefectureNumber": 44,
    "prefecture": "大分県",
    "city": "豊後高田市",
    "town": "新町"
  },
  "8790721": {
    "zipcode": "8790721",
    "prefectureCode": "44",
    "prefectureNumber": 44,
    "prefecture": "大分県",
    "city": "豊後高田市",
    "town": "加礼川"
  },
  "8790722": {
    "zipcode": "8790722",
    "prefectureCode": "44",
    "prefectureNumber": 44,
    "prefecture": "大分県",
    "city": "豊後高田市",
    "town": "一畑"
  },
  "8790723": {
    "zipcode": "8790723",
    "prefectureCode": "44",
    "prefectureNumber": 44,
    "prefecture": "大分県",
    "city": "豊後高田市",
    "town": "梅ノ木"
  },
  "8790724": {
    "zipcode": "8790724",
    "prefectureCode": "44",
    "prefectureNumber": 44,
    "prefecture": "大分県",
    "city": "豊後高田市",
    "town": "新城"
  },
  "8790731": {
    "zipcode": "8790731",
    "prefectureCode": "44",
    "prefectureNumber": 44,
    "prefecture": "大分県",
    "city": "豊後高田市",
    "town": "長岩屋"
  },
  "8790732": {
    "zipcode": "8790732",
    "prefectureCode": "44",
    "prefectureNumber": 44,
    "prefecture": "大分県",
    "city": "豊後高田市",
    "town": "大力"
  },
  "8790733": {
    "zipcode": "8790733",
    "prefectureCode": "44",
    "prefectureNumber": 44,
    "prefecture": "大分県",
    "city": "豊後高田市",
    "town": "荒尾"
  },
  "8790734": {
    "zipcode": "8790734",
    "prefectureCode": "44",
    "prefectureNumber": 44,
    "prefecture": "大分県",
    "city": "豊後高田市",
    "town": "築地"
  },
  "8790735": {
    "zipcode": "8790735",
    "prefectureCode": "44",
    "prefectureNumber": 44,
    "prefecture": "大分県",
    "city": "豊後高田市",
    "town": "松行"
  },
  "8790841": {
    "zipcode": "8790841",
    "prefectureCode": "44",
    "prefectureNumber": 44,
    "prefecture": "大分県",
    "city": "豊後高田市",
    "town": "田染蕗"
  },
  "8790842": {
    "zipcode": "8790842",
    "prefectureCode": "44",
    "prefectureNumber": 44,
    "prefecture": "大分県",
    "city": "豊後高田市",
    "town": "田染池部"
  },
  "8790843": {
    "zipcode": "8790843",
    "prefectureCode": "44",
    "prefectureNumber": 44,
    "prefecture": "大分県",
    "city": "豊後高田市",
    "town": "田染相原"
  },
  "8790844": {
    "zipcode": "8790844",
    "prefectureCode": "44",
    "prefectureNumber": 44,
    "prefecture": "大分県",
    "city": "豊後高田市",
    "town": "田染上野"
  },
  "8790851": {
    "zipcode": "8790851",
    "prefectureCode": "44",
    "prefectureNumber": 44,
    "prefecture": "大分県",
    "city": "豊後高田市",
    "town": "田染横嶺"
  },
  "8790852": {
    "zipcode": "8790852",
    "prefectureCode": "44",
    "prefectureNumber": 44,
    "prefecture": "大分県",
    "city": "豊後高田市",
    "town": "田染真中"
  },
  "8790853": {
    "zipcode": "8790853",
    "prefectureCode": "44",
    "prefectureNumber": 44,
    "prefecture": "大分県",
    "city": "豊後高田市",
    "town": "田染平野"
  },
  "8790854": {
    "zipcode": "8790854",
    "prefectureCode": "44",
    "prefectureNumber": 44,
    "prefecture": "大分県",
    "city": "豊後高田市",
    "town": "田染小崎"
  },
  "8790855": {
    "zipcode": "8790855",
    "prefectureCode": "44",
    "prefectureNumber": 44,
    "prefecture": "大分県",
    "city": "豊後高田市",
    "town": "田染真木"
  },
  "8790901": {
    "zipcode": "8790901",
    "prefectureCode": "44",
    "prefectureNumber": 44,
    "prefecture": "大分県",
    "city": "杵築市",
    "town": "大田石丸"
  },
  "8790902": {
    "zipcode": "8790902",
    "prefectureCode": "44",
    "prefectureNumber": 44,
    "prefecture": "大分県",
    "city": "杵築市",
    "town": "大田沓掛"
  },
  "8790903": {
    "zipcode": "8790903",
    "prefectureCode": "44",
    "prefectureNumber": 44,
    "prefecture": "大分県",
    "city": "杵築市",
    "town": "大田永松"
  },
  "8790904": {
    "zipcode": "8790904",
    "prefectureCode": "44",
    "prefectureNumber": 44,
    "prefecture": "大分県",
    "city": "杵築市",
    "town": "大田小野"
  },
  "8790911": {
    "zipcode": "8790911",
    "prefectureCode": "44",
    "prefectureNumber": 44,
    "prefecture": "大分県",
    "city": "杵築市",
    "town": "大田波多方"
  },
  "8790912": {
    "zipcode": "8790912",
    "prefectureCode": "44",
    "prefectureNumber": 44,
    "prefecture": "大分県",
    "city": "杵築市",
    "town": "大田白木原"
  },
  "8790941": {
    "zipcode": "8790941",
    "prefectureCode": "44",
    "prefectureNumber": 44,
    "prefecture": "大分県",
    "city": "杵築市",
    "town": "大田俣水（その他）"
  },
  "8791121": {
    "zipcode": "8791121",
    "prefectureCode": "44",
    "prefectureNumber": 44,
    "prefecture": "大分県",
    "city": "宇佐市",
    "town": "東大堀"
  },
  "8791122": {
    "zipcode": "8791122",
    "prefectureCode": "44",
    "prefectureNumber": 44,
    "prefecture": "大分県",
    "city": "宇佐市",
    "town": "横田"
  },
  "8791123": {
    "zipcode": "8791123",
    "prefectureCode": "44",
    "prefectureNumber": 44,
    "prefecture": "大分県",
    "city": "宇佐市",
    "town": "立石"
  },
  "8791124": {
    "zipcode": "8791124",
    "prefectureCode": "44",
    "prefectureNumber": 44,
    "prefecture": "大分県",
    "city": "宇佐市",
    "town": "山"
  },
  "8791125": {
    "zipcode": "8791125",
    "prefectureCode": "44",
    "prefectureNumber": 44,
    "prefecture": "大分県",
    "city": "宇佐市",
    "town": "両戒"
  },
  "8791126": {
    "zipcode": "8791126",
    "prefectureCode": "44",
    "prefectureNumber": 44,
    "prefecture": "大分県",
    "city": "宇佐市",
    "town": "江熊"
  },
  "8791127": {
    "zipcode": "8791127",
    "prefectureCode": "44",
    "prefectureNumber": 44,
    "prefecture": "大分県",
    "city": "宇佐市",
    "town": "西屋敷"
  },
  "8791128": {
    "zipcode": "8791128",
    "prefectureCode": "44",
    "prefectureNumber": 44,
    "prefecture": "大分県",
    "city": "宇佐市",
    "town": "金丸"
  },
  "8791131": {
    "zipcode": "8791131",
    "prefectureCode": "44",
    "prefectureNumber": 44,
    "prefecture": "大分県",
    "city": "宇佐市",
    "town": "出光"
  },
  "8791132": {
    "zipcode": "8791132",
    "prefectureCode": "44",
    "prefectureNumber": 44,
    "prefecture": "大分県",
    "city": "宇佐市",
    "town": "岩崎"
  },
  "8791133": {
    "zipcode": "8791133",
    "prefectureCode": "44",
    "prefectureNumber": 44,
    "prefecture": "大分県",
    "city": "宇佐市",
    "town": "日足"
  },
  "8791134": {
    "zipcode": "8791134",
    "prefectureCode": "44",
    "prefectureNumber": 44,
    "prefecture": "大分県",
    "city": "宇佐市",
    "town": "橋津"
  },
  "8791135": {
    "zipcode": "8791135",
    "prefectureCode": "44",
    "prefectureNumber": 44,
    "prefecture": "大分県",
    "city": "宇佐市",
    "town": "和気"
  },
  "8791136": {
    "zipcode": "8791136",
    "prefectureCode": "44",
    "prefectureNumber": 44,
    "prefecture": "大分県",
    "city": "宇佐市",
    "town": "西木"
  },
  "8791137": {
    "zipcode": "8791137",
    "prefectureCode": "44",
    "prefectureNumber": 44,
    "prefecture": "大分県",
    "city": "宇佐市",
    "town": "苅宇田"
  },
  "8791138": {
    "zipcode": "8791138",
    "prefectureCode": "44",
    "prefectureNumber": 44,
    "prefecture": "大分県",
    "city": "宇佐市",
    "town": "青森"
  },
  "8791301": {
    "zipcode": "8791301",
    "prefectureCode": "44",
    "prefectureNumber": 44,
    "prefecture": "大分県",
    "city": "杵築市",
    "town": "山香町向野"
  },
  "8791302": {
    "zipcode": "8791302",
    "prefectureCode": "44",
    "prefectureNumber": 44,
    "prefecture": "大分県",
    "city": "杵築市",
    "town": "山香町立石"
  },
  "8791303": {
    "zipcode": "8791303",
    "prefectureCode": "44",
    "prefectureNumber": 44,
    "prefecture": "大分県",
    "city": "杵築市",
    "town": "山香町下"
  },
  "8791304": {
    "zipcode": "8791304",
    "prefectureCode": "44",
    "prefectureNumber": 44,
    "prefecture": "大分県",
    "city": "杵築市",
    "town": "山香町小武"
  },
  "8791305": {
    "zipcode": "8791305",
    "prefectureCode": "44",
    "prefectureNumber": 44,
    "prefecture": "大分県",
    "city": "杵築市",
    "town": "山香町倉成"
  },
  "8791306": {
    "zipcode": "8791306",
    "prefectureCode": "44",
    "prefectureNumber": 44,
    "prefecture": "大分県",
    "city": "杵築市",
    "town": "山香町広瀬"
  },
  "8791307": {
    "zipcode": "8791307",
    "prefectureCode": "44",
    "prefectureNumber": 44,
    "prefecture": "大分県",
    "city": "杵築市",
    "town": "山香町野原"
  },
  "8791311": {
    "zipcode": "8791311",
    "prefectureCode": "44",
    "prefectureNumber": 44,
    "prefecture": "大分県",
    "city": "杵築市",
    "town": "山香町内河野"
  },
  "8791312": {
    "zipcode": "8791312",
    "prefectureCode": "44",
    "prefectureNumber": 44,
    "prefecture": "大分県",
    "city": "杵築市",
    "town": "山香町日指"
  },
  "8791313": {
    "zipcode": "8791313",
    "prefectureCode": "44",
    "prefectureNumber": 44,
    "prefecture": "大分県",
    "city": "杵築市",
    "town": "山香町久木野尾"
  },
  "8791314": {
    "zipcode": "8791314",
    "prefectureCode": "44",
    "prefectureNumber": 44,
    "prefecture": "大分県",
    "city": "杵築市",
    "town": "山香町南畑"
  },
  "8791315": {
    "zipcode": "8791315",
    "prefectureCode": "44",
    "prefectureNumber": 44,
    "prefecture": "大分県",
    "city": "杵築市",
    "town": "山香町山浦"
  },
  "8791316": {
    "zipcode": "8791316",
    "prefectureCode": "44",
    "prefectureNumber": 44,
    "prefecture": "大分県",
    "city": "杵築市",
    "town": "山香町吉野渡"
  },
  "8791500": {
    "zipcode": "8791500",
    "prefectureCode": "44",
    "prefectureNumber": 44,
    "prefecture": "大分県",
    "city": "速見郡日出町",
    "town": "以下に掲載がない場合"
  },
  "8791501": {
    "zipcode": "8791501",
    "prefectureCode": "44",
    "prefectureNumber": 44,
    "prefecture": "大分県",
    "city": "速見郡日出町",
    "town": "広瀬"
  },
  "8791502": {
    "zipcode": "8791502",
    "prefectureCode": "44",
    "prefectureNumber": 44,
    "prefecture": "大分県",
    "city": "速見郡日出町",
    "town": "藤原"
  },
  "8791503": {
    "zipcode": "8791503",
    "prefectureCode": "44",
    "prefectureNumber": 44,
    "prefecture": "大分県",
    "city": "速見郡日出町",
    "town": "真那井"
  },
  "8791504": {
    "zipcode": "8791504",
    "prefectureCode": "44",
    "prefectureNumber": 44,
    "prefecture": "大分県",
    "city": "速見郡日出町",
    "town": "大神"
  },
  "8791505": {
    "zipcode": "8791505",
    "prefectureCode": "44",
    "prefectureNumber": 44,
    "prefecture": "大分県",
    "city": "速見郡日出町",
    "town": "川崎"
  },
  "8791506": {
    "zipcode": "8791506",
    "prefectureCode": "44",
    "prefectureNumber": 44,
    "prefecture": "大分県",
    "city": "速見郡日出町",
    "town": "日出町の次に番地がくる場合"
  },
  "8791507": {
    "zipcode": "8791507",
    "prefectureCode": "44",
    "prefectureNumber": 44,
    "prefecture": "大分県",
    "city": "速見郡日出町",
    "town": "豊岡"
  },
  "8791508": {
    "zipcode": "8791508",
    "prefectureCode": "44",
    "prefectureNumber": 44,
    "prefecture": "大分県",
    "city": "速見郡日出町",
    "town": "平道"
  },
  "8791509": {
    "zipcode": "8791509",
    "prefectureCode": "44",
    "prefectureNumber": 44,
    "prefecture": "大分県",
    "city": "速見郡日出町",
    "town": "南畑"
  },
  "8792111": {
    "zipcode": "8792111",
    "prefectureCode": "44",
    "prefectureNumber": 44,
    "prefecture": "大分県",
    "city": "大分市",
    "town": "本神崎"
  },
  "8792112": {
    "zipcode": "8792112",
    "prefectureCode": "44",
    "prefectureNumber": 44,
    "prefecture": "大分県",
    "city": "大分市",
    "town": "馬場"
  },
  "8792113": {
    "zipcode": "8792113",
    "prefectureCode": "44",
    "prefectureNumber": 44,
    "prefecture": "大分県",
    "city": "大分市",
    "town": "木佐上"
  },
  "8792114": {
    "zipcode": "8792114",
    "prefectureCode": "44",
    "prefectureNumber": 44,
    "prefecture": "大分県",
    "city": "大分市",
    "town": "大平"
  },
  "8792115": {
    "zipcode": "8792115",
    "prefectureCode": "44",
    "prefectureNumber": 44,
    "prefecture": "大分県",
    "city": "大分市",
    "town": "志生木"
  },
  "8792201": {
    "zipcode": "8792201",
    "prefectureCode": "44",
    "prefectureNumber": 44,
    "prefecture": "大分県",
    "city": "大分市",
    "town": "佐賀関"
  },
  "8792202": {
    "zipcode": "8792202",
    "prefectureCode": "44",
    "prefectureNumber": 44,
    "prefecture": "大分県",
    "city": "大分市",
    "town": "白木"
  },
  "8792203": {
    "zipcode": "8792203",
    "prefectureCode": "44",
    "prefectureNumber": 44,
    "prefecture": "大分県",
    "city": "大分市",
    "town": "一尺屋"
  },
  "8792400": {
    "zipcode": "8792400",
    "prefectureCode": "44",
    "prefectureNumber": 44,
    "prefecture": "大分県",
    "city": "津久見市",
    "town": "以下に掲載がない場合"
  },
  "8792401": {
    "zipcode": "8792401",
    "prefectureCode": "44",
    "prefectureNumber": 44,
    "prefecture": "大分県",
    "city": "津久見市",
    "town": "千怒"
  },
  "8792411": {
    "zipcode": "8792411",
    "prefectureCode": "44",
    "prefectureNumber": 44,
    "prefecture": "大分県",
    "city": "津久見市",
    "town": "岩屋町"
  },
  "8792412": {
    "zipcode": "8792412",
    "prefectureCode": "44",
    "prefectureNumber": 44,
    "prefecture": "大分県",
    "city": "津久見市",
    "town": "高洲町"
  },
  "8792413": {
    "zipcode": "8792413",
    "prefectureCode": "44",
    "prefectureNumber": 44,
    "prefecture": "大分県",
    "city": "津久見市",
    "town": "津久見浦"
  },
  "8792421": {
    "zipcode": "8792421",
    "prefectureCode": "44",
    "prefectureNumber": 44,
    "prefecture": "大分県",
    "city": "津久見市",
    "town": "津久見"
  },
  "8792422": {
    "zipcode": "8792422",
    "prefectureCode": "44",
    "prefectureNumber": 44,
    "prefecture": "大分県",
    "city": "津久見市",
    "town": "八戸"
  },
  "8792431": {
    "zipcode": "8792431",
    "prefectureCode": "44",
    "prefectureNumber": 44,
    "prefecture": "大分県",
    "city": "津久見市",
    "town": "大友町"
  },
  "8792432": {
    "zipcode": "8792432",
    "prefectureCode": "44",
    "prefectureNumber": 44,
    "prefecture": "大分県",
    "city": "津久見市",
    "town": "文京町"
  },
  "8792433": {
    "zipcode": "8792433",
    "prefectureCode": "44",
    "prefectureNumber": 44,
    "prefecture": "大分県",
    "city": "津久見市",
    "town": "中田町"
  },
  "8792434": {
    "zipcode": "8792434",
    "prefectureCode": "44",
    "prefectureNumber": 44,
    "prefecture": "大分県",
    "city": "津久見市",
    "town": "立花町"
  },
  "8792435": {
    "zipcode": "8792435",
    "prefectureCode": "44",
    "prefectureNumber": 44,
    "prefecture": "大分県",
    "city": "津久見市",
    "town": "宮本町"
  },
  "8792436": {
    "zipcode": "8792436",
    "prefectureCode": "44",
    "prefectureNumber": 44,
    "prefecture": "大分県",
    "city": "津久見市",
    "town": "上宮本町"
  },
  "8792441": {
    "zipcode": "8792441",
    "prefectureCode": "44",
    "prefectureNumber": 44,
    "prefecture": "大分県",
    "city": "津久見市",
    "town": "中央町"
  },
  "8792442": {
    "zipcode": "8792442",
    "prefectureCode": "44",
    "prefectureNumber": 44,
    "prefecture": "大分県",
    "city": "津久見市",
    "town": "港町"
  },
  "8792443": {
    "zipcode": "8792443",
    "prefectureCode": "44",
    "prefectureNumber": 44,
    "prefecture": "大分県",
    "city": "津久見市",
    "town": "セメント町"
  },
  "8792444": {
    "zipcode": "8792444",
    "prefectureCode": "44",
    "prefectureNumber": 44,
    "prefecture": "大分県",
    "city": "津久見市",
    "town": "元町"
  },
  "8792445": {
    "zipcode": "8792445",
    "prefectureCode": "44",
    "prefectureNumber": 44,
    "prefecture": "大分県",
    "city": "津久見市",
    "town": "井無田町"
  },
  "8792446": {
    "zipcode": "8792446",
    "prefectureCode": "44",
    "prefectureNumber": 44,
    "prefecture": "大分県",
    "city": "津久見市",
    "town": "下青江"
  },
  "8792451": {
    "zipcode": "8792451",
    "prefectureCode": "44",
    "prefectureNumber": 44,
    "prefecture": "大分県",
    "city": "津久見市",
    "town": "新町"
  },
  "8792452": {
    "zipcode": "8792452",
    "prefectureCode": "44",
    "prefectureNumber": 44,
    "prefecture": "大分県",
    "city": "津久見市",
    "town": "中町"
  },
  "8792453": {
    "zipcode": "8792453",
    "prefectureCode": "44",
    "prefectureNumber": 44,
    "prefecture": "大分県",
    "city": "津久見市",
    "town": "小園町"
  },
  "8792454": {
    "zipcode": "8792454",
    "prefectureCode": "44",
    "prefectureNumber": 44,
    "prefecture": "大分県",
    "city": "津久見市",
    "town": "地蔵町"
  },
  "8792455": {
    "zipcode": "8792455",
    "prefectureCode": "44",
    "prefectureNumber": 44,
    "prefecture": "大分県",
    "city": "津久見市",
    "town": "岡町"
  },
  "8792456": {
    "zipcode": "8792456",
    "prefectureCode": "44",
    "prefectureNumber": 44,
    "prefecture": "大分県",
    "city": "津久見市",
    "town": "門前町"
  },
  "8792457": {
    "zipcode": "8792457",
    "prefectureCode": "44",
    "prefectureNumber": 44,
    "prefecture": "大分県",
    "city": "津久見市",
    "town": "志手町"
  },
  "8792458": {
    "zipcode": "8792458",
    "prefectureCode": "44",
    "prefectureNumber": 44,
    "prefecture": "大分県",
    "city": "津久見市",
    "town": "入船西町"
  },
  "8792459": {
    "zipcode": "8792459",
    "prefectureCode": "44",
    "prefectureNumber": 44,
    "prefecture": "大分県",
    "city": "津久見市",
    "town": "入船東町"
  },
  "8792461": {
    "zipcode": "8792461",
    "prefectureCode": "44",
    "prefectureNumber": 44,
    "prefecture": "大分県",
    "city": "津久見市",
    "town": "上青江"
  },
  "8792471": {
    "zipcode": "8792471",
    "prefectureCode": "44",
    "prefectureNumber": 44,
    "prefecture": "大分県",
    "city": "津久見市",
    "town": "合ノ元町"
  },
  "8792472": {
    "zipcode": "8792472",
    "prefectureCode": "44",
    "prefectureNumber": 44,
    "prefecture": "大分県",
    "city": "津久見市",
    "town": "徳浦本町"
  },
  "8792473": {
    "zipcode": "8792473",
    "prefectureCode": "44",
    "prefectureNumber": 44,
    "prefecture": "大分県",
    "city": "津久見市",
    "town": "徳浦宮町"
  },
  "8792474": {
    "zipcode": "8792474",
    "prefectureCode": "44",
    "prefectureNumber": 44,
    "prefecture": "大分県",
    "city": "津久見市",
    "town": "徳浦"
  },
  "8792475": {
    "zipcode": "8792475",
    "prefectureCode": "44",
    "prefectureNumber": 44,
    "prefecture": "大分県",
    "city": "津久見市",
    "town": "堅浦"
  },
  "8792476": {
    "zipcode": "8792476",
    "prefectureCode": "44",
    "prefectureNumber": 44,
    "prefecture": "大分県",
    "city": "津久見市",
    "town": "長目"
  },
  "8792501": {
    "zipcode": "8792501",
    "prefectureCode": "44",
    "prefectureNumber": 44,
    "prefecture": "大分県",
    "city": "津久見市",
    "town": "保戸島"
  },
  "8792601": {
    "zipcode": "8792601",
    "prefectureCode": "44",
    "prefectureNumber": 44,
    "prefecture": "大分県",
    "city": "佐伯市",
    "town": "上浦浅海井浦"
  },
  "8792602": {
    "zipcode": "8792602",
    "prefectureCode": "44",
    "prefectureNumber": 44,
    "prefecture": "大分県",
    "city": "佐伯市",
    "town": "上浦津井浦"
  },
  "8792603": {
    "zipcode": "8792603",
    "prefectureCode": "44",
    "prefectureNumber": 44,
    "prefecture": "大分県",
    "city": "佐伯市",
    "town": "上浦最勝海浦"
  },
  "8792681": {
    "zipcode": "8792681",
    "prefectureCode": "44",
    "prefectureNumber": 44,
    "prefecture": "大分県",
    "city": "津久見市",
    "town": "日見"
  },
  "8792682": {
    "zipcode": "8792682",
    "prefectureCode": "44",
    "prefectureNumber": 44,
    "prefecture": "大分県",
    "city": "津久見市",
    "town": "網代"
  },
  "8792683": {
    "zipcode": "8792683",
    "prefectureCode": "44",
    "prefectureNumber": 44,
    "prefecture": "大分県",
    "city": "津久見市",
    "town": "四浦"
  },
  "8793101": {
    "zipcode": "8793101",
    "prefectureCode": "44",
    "prefectureNumber": 44,
    "prefecture": "大分県",
    "city": "佐伯市",
    "town": "直川赤木"
  },
  "8793102": {
    "zipcode": "8793102",
    "prefectureCode": "44",
    "prefectureNumber": 44,
    "prefecture": "大分県",
    "city": "佐伯市",
    "town": "直川上直見"
  },
  "8793103": {
    "zipcode": "8793103",
    "prefectureCode": "44",
    "prefectureNumber": 44,
    "prefecture": "大分県",
    "city": "佐伯市",
    "town": "直川下直見"
  },
  "8793104": {
    "zipcode": "8793104",
    "prefectureCode": "44",
    "prefectureNumber": 44,
    "prefecture": "大分県",
    "city": "佐伯市",
    "town": "直川仁田原"
  },
  "8793105": {
    "zipcode": "8793105",
    "prefectureCode": "44",
    "prefectureNumber": 44,
    "prefecture": "大分県",
    "city": "佐伯市",
    "town": "直川横川"
  },
  "8793201": {
    "zipcode": "8793201",
    "prefectureCode": "44",
    "prefectureNumber": 44,
    "prefecture": "大分県",
    "city": "佐伯市",
    "town": "宇目大平"
  },
  "8793202": {
    "zipcode": "8793202",
    "prefectureCode": "44",
    "prefectureNumber": 44,
    "prefecture": "大分県",
    "city": "佐伯市",
    "town": "宇目河内"
  },
  "8793203": {
    "zipcode": "8793203",
    "prefectureCode": "44",
    "prefectureNumber": 44,
    "prefecture": "大分県",
    "city": "佐伯市",
    "town": "宇目塩見園"
  },
  "8793204": {
    "zipcode": "8793204",
    "prefectureCode": "44",
    "prefectureNumber": 44,
    "prefecture": "大分県",
    "city": "佐伯市",
    "town": "宇目重岡"
  },
  "8793205": {
    "zipcode": "8793205",
    "prefectureCode": "44",
    "prefectureNumber": 44,
    "prefecture": "大分県",
    "city": "佐伯市",
    "town": "宇目千束"
  },
  "8793301": {
    "zipcode": "8793301",
    "prefectureCode": "44",
    "prefectureNumber": 44,
    "prefecture": "大分県",
    "city": "佐伯市",
    "town": "宇目小野市"
  },
  "8793302": {
    "zipcode": "8793302",
    "prefectureCode": "44",
    "prefectureNumber": 44,
    "prefecture": "大分県",
    "city": "佐伯市",
    "town": "宇目南田原"
  },
  "8793401": {
    "zipcode": "8793401",
    "prefectureCode": "44",
    "prefectureNumber": 44,
    "prefecture": "大分県",
    "city": "佐伯市",
    "town": "宇目木浦鉱山"
  },
  "8793402": {
    "zipcode": "8793402",
    "prefectureCode": "44",
    "prefectureNumber": 44,
    "prefecture": "大分県",
    "city": "佐伯市",
    "town": "宇目木浦内"
  },
  "8794121": {
    "zipcode": "8794121",
    "prefectureCode": "44",
    "prefectureNumber": 44,
    "prefecture": "大分県",
    "city": "日田市",
    "town": "天瀬町馬原"
  },
  "8794122": {
    "zipcode": "8794122",
    "prefectureCode": "44",
    "prefectureNumber": 44,
    "prefecture": "大分県",
    "city": "日田市",
    "town": "天瀬町合田"
  },
  "8794123": {
    "zipcode": "8794123",
    "prefectureCode": "44",
    "prefectureNumber": 44,
    "prefecture": "大分県",
    "city": "日田市",
    "town": "天瀬町女子畑"
  },
  "8794201": {
    "zipcode": "8794201",
    "prefectureCode": "44",
    "prefectureNumber": 44,
    "prefecture": "大分県",
    "city": "日田市",
    "town": "天瀬町桜竹"
  },
  "8794202": {
    "zipcode": "8794202",
    "prefectureCode": "44",
    "prefectureNumber": 44,
    "prefecture": "大分県",
    "city": "日田市",
    "town": "天瀬町赤岩"
  },
  "8794203": {
    "zipcode": "8794203",
    "prefectureCode": "44",
    "prefectureNumber": 44,
    "prefecture": "大分県",
    "city": "日田市",
    "town": "天瀬町湯山"
  },
  "8794301": {
    "zipcode": "8794301",
    "prefectureCode": "44",
    "prefectureNumber": 44,
    "prefecture": "大分県",
    "city": "玖珠郡玖珠町",
    "town": "四日市（その他）"
  },
  "8794331": {
    "zipcode": "8794331",
    "prefectureCode": "44",
    "prefectureNumber": 44,
    "prefecture": "大分県",
    "city": "玖珠郡玖珠町",
    "town": "戸畑"
  },
  "8794332": {
    "zipcode": "8794332",
    "prefectureCode": "44",
    "prefectureNumber": 44,
    "prefecture": "大分県",
    "city": "玖珠郡玖珠町",
    "town": "山浦（秋畑、荻原、下園、下ノ寺、杉河内、千重、早水、中野、中泊里、花香、牧場）"
  },
  "8794400": {
    "zipcode": "8794400",
    "prefectureCode": "44",
    "prefectureNumber": 44,
    "prefecture": "大分県",
    "city": "玖珠郡玖珠町",
    "town": "以下に掲載がない場合"
  },
  "8794401": {
    "zipcode": "8794401",
    "prefectureCode": "44",
    "prefectureNumber": 44,
    "prefecture": "大分県",
    "city": "玖珠郡玖珠町",
    "town": "四日市（１〜８９９番地）"
  },
  "8794402": {
    "zipcode": "8794402",
    "prefectureCode": "44",
    "prefectureNumber": 44,
    "prefecture": "大分県",
    "city": "玖珠郡玖珠町",
    "town": "綾垣"
  },
  "8794403": {
    "zipcode": "8794403",
    "prefectureCode": "44",
    "prefectureNumber": 44,
    "prefecture": "大分県",
    "city": "玖珠郡玖珠町",
    "town": "帆足"
  },
  "8794404": {
    "zipcode": "8794404",
    "prefectureCode": "44",
    "prefectureNumber": 44,
    "prefecture": "大分県",
    "city": "玖珠郡玖珠町",
    "town": "森"
  },
  "8794405": {
    "zipcode": "8794405",
    "prefectureCode": "44",
    "prefectureNumber": 44,
    "prefecture": "大分県",
    "city": "玖珠郡玖珠町",
    "town": "岩室"
  },
  "8794406": {
    "zipcode": "8794406",
    "prefectureCode": "44",
    "prefectureNumber": 44,
    "prefecture": "大分県",
    "city": "玖珠郡玖珠町",
    "town": "日出生"
  },
  "8794411": {
    "zipcode": "8794411",
    "prefectureCode": "44",
    "prefectureNumber": 44,
    "prefecture": "大分県",
    "city": "玖珠郡玖珠町",
    "town": "小田"
  },
  "8794412": {
    "zipcode": "8794412",
    "prefectureCode": "44",
    "prefectureNumber": 44,
    "prefecture": "大分県",
    "city": "玖珠郡玖珠町",
    "town": "山田"
  },
  "8794413": {
    "zipcode": "8794413",
    "prefectureCode": "44",
    "prefectureNumber": 44,
    "prefecture": "大分県",
    "city": "玖珠郡玖珠町",
    "town": "塚脇"
  },
  "8794414": {
    "zipcode": "8794414",
    "prefectureCode": "44",
    "prefectureNumber": 44,
    "prefecture": "大分県",
    "city": "玖珠郡玖珠町",
    "town": "大隈"
  },
  "8794521": {
    "zipcode": "8794521",
    "prefectureCode": "44",
    "prefectureNumber": 44,
    "prefecture": "大分県",
    "city": "玖珠郡玖珠町",
    "town": "太田"
  },
  "8794522": {
    "zipcode": "8794522",
    "prefectureCode": "44",
    "prefectureNumber": 44,
    "prefecture": "大分県",
    "city": "玖珠郡玖珠町",
    "town": "山下"
  },
  "8794523": {
    "zipcode": "8794523",
    "prefectureCode": "44",
    "prefectureNumber": 44,
    "prefecture": "大分県",
    "city": "玖珠郡玖珠町",
    "town": "古後"
  },
  "8794601": {
    "zipcode": "8794601",
    "prefectureCode": "44",
    "prefectureNumber": 44,
    "prefecture": "大分県",
    "city": "玖珠郡九重町",
    "town": "右田（その他）"
  },
  "8794631": {
    "zipcode": "8794631",
    "prefectureCode": "44",
    "prefectureNumber": 44,
    "prefecture": "大分県",
    "city": "玖珠郡九重町",
    "town": "恵良"
  },
  "8794632": {
    "zipcode": "8794632",
    "prefectureCode": "44",
    "prefectureNumber": 44,
    "prefecture": "大分県",
    "city": "玖珠郡九重町",
    "town": "松木"
  },
  "8794721": {
    "zipcode": "8794721",
    "prefectureCode": "44",
    "prefectureNumber": 44,
    "prefecture": "大分県",
    "city": "玖珠郡九重町",
    "town": "粟野"
  },
  "8794722": {
    "zipcode": "8794722",
    "prefectureCode": "44",
    "prefectureNumber": 44,
    "prefecture": "大分県",
    "city": "玖珠郡九重町",
    "town": "引治"
  },
  "8794723": {
    "zipcode": "8794723",
    "prefectureCode": "44",
    "prefectureNumber": 44,
    "prefecture": "大分県",
    "city": "玖珠郡九重町",
    "town": "町田"
  },
  "8794724": {
    "zipcode": "8794724",
    "prefectureCode": "44",
    "prefectureNumber": 44,
    "prefecture": "大分県",
    "city": "玖珠郡九重町",
    "town": "菅原"
  },
  "8794732": {
    "zipcode": "8794732",
    "prefectureCode": "44",
    "prefectureNumber": 44,
    "prefecture": "大分県",
    "city": "玖珠郡玖珠町",
    "town": "山浦（第一大原野、第二大原野、阿蘇釣）"
  },
  "8794800": {
    "zipcode": "8794800",
    "prefectureCode": "44",
    "prefectureNumber": 44,
    "prefecture": "大分県",
    "city": "玖珠郡九重町",
    "town": "以下に掲載がない場合"
  },
  "8794801": {
    "zipcode": "8794801",
    "prefectureCode": "44",
    "prefectureNumber": 44,
    "prefecture": "大分県",
    "city": "玖珠郡九重町",
    "town": "右田（１〜１４６４番地）"
  },
  "8794802": {
    "zipcode": "8794802",
    "prefectureCode": "44",
    "prefectureNumber": 44,
    "prefecture": "大分県",
    "city": "玖珠郡九重町",
    "town": "野上"
  },
  "8794803": {
    "zipcode": "8794803",
    "prefectureCode": "44",
    "prefectureNumber": 44,
    "prefecture": "大分県",
    "city": "玖珠郡九重町",
    "town": "後野上"
  },
  "8794911": {
    "zipcode": "8794911",
    "prefectureCode": "44",
    "prefectureNumber": 44,
    "prefecture": "大分県",
    "city": "玖珠郡九重町",
    "town": "田野"
  },
  "8794912": {
    "zipcode": "8794912",
    "prefectureCode": "44",
    "prefectureNumber": 44,
    "prefecture": "大分県",
    "city": "玖珠郡九重町",
    "town": "湯坪"
  },
  "8795101": {
    "zipcode": "8795101",
    "prefectureCode": "44",
    "prefectureNumber": 44,
    "prefecture": "大分県",
    "city": "由布市",
    "town": "湯布院町塚原"
  },
  "8795102": {
    "zipcode": "8795102",
    "prefectureCode": "44",
    "prefectureNumber": 44,
    "prefecture": "大分県",
    "city": "由布市",
    "town": "湯布院町川上"
  },
  "8795103": {
    "zipcode": "8795103",
    "prefectureCode": "44",
    "prefectureNumber": 44,
    "prefecture": "大分県",
    "city": "由布市",
    "town": "湯布院町川南"
  },
  "8795104": {
    "zipcode": "8795104",
    "prefectureCode": "44",
    "prefectureNumber": 44,
    "prefecture": "大分県",
    "city": "由布市",
    "town": "湯布院町中川"
  },
  "8795111": {
    "zipcode": "8795111",
    "prefectureCode": "44",
    "prefectureNumber": 44,
    "prefecture": "大分県",
    "city": "由布市",
    "town": "湯布院町下湯平"
  },
  "8795112": {
    "zipcode": "8795112",
    "prefectureCode": "44",
    "prefectureNumber": 44,
    "prefecture": "大分県",
    "city": "由布市",
    "town": "湯布院町湯平"
  },
  "8795113": {
    "zipcode": "8795113",
    "prefectureCode": "44",
    "prefectureNumber": 44,
    "prefecture": "大分県",
    "city": "由布市",
    "town": "湯布院町川西"
  },
  "8795114": {
    "zipcode": "8795114",
    "prefectureCode": "44",
    "prefectureNumber": 44,
    "prefecture": "大分県",
    "city": "由布市",
    "town": "湯布院町川北"
  },
  "8795400": {
    "zipcode": "8795400",
    "prefectureCode": "44",
    "prefectureNumber": 44,
    "prefecture": "大分県",
    "city": "由布市",
    "town": "以下に掲載がない場合"
  },
  "8795401": {
    "zipcode": "8795401",
    "prefectureCode": "44",
    "prefectureNumber": 44,
    "prefecture": "大分県",
    "city": "由布市",
    "town": "庄内町北大津留"
  },
  "8795402": {
    "zipcode": "8795402",
    "prefectureCode": "44",
    "prefectureNumber": 44,
    "prefecture": "大分県",
    "city": "由布市",
    "town": "庄内町小挾間"
  },
  "8795403": {
    "zipcode": "8795403",
    "prefectureCode": "44",
    "prefectureNumber": 44,
    "prefecture": "大分県",
    "city": "由布市",
    "town": "庄内町東大津留"
  },
  "8795404": {
    "zipcode": "8795404",
    "prefectureCode": "44",
    "prefectureNumber": 44,
    "prefecture": "大分県",
    "city": "由布市",
    "town": "庄内町櫟木"
  },
  "8795405": {
    "zipcode": "8795405",
    "prefectureCode": "44",
    "prefectureNumber": 44,
    "prefecture": "大分県",
    "city": "由布市",
    "town": "庄内町東長宝"
  },
  "8795406": {
    "zipcode": "8795406",
    "prefectureCode": "44",
    "prefectureNumber": 44,
    "prefecture": "大分県",
    "city": "由布市",
    "town": "庄内町西長宝"
  },
  "8795407": {
    "zipcode": "8795407",
    "prefectureCode": "44",
    "prefectureNumber": 44,
    "prefecture": "大分県",
    "city": "由布市",
    "town": "庄内町南大津留"
  },
  "8795408": {
    "zipcode": "8795408",
    "prefectureCode": "44",
    "prefectureNumber": 44,
    "prefecture": "大分県",
    "city": "由布市",
    "town": "庄内町西大津留"
  },
  "8795411": {
    "zipcode": "8795411",
    "prefectureCode": "44",
    "prefectureNumber": 44,
    "prefecture": "大分県",
    "city": "由布市",
    "town": "庄内町龍原"
  },
  "8795412": {
    "zipcode": "8795412",
    "prefectureCode": "44",
    "prefectureNumber": 44,
    "prefecture": "大分県",
    "city": "由布市",
    "town": "庄内町五ケ瀬"
  },
  "8795413": {
    "zipcode": "8795413",
    "prefectureCode": "44",
    "prefectureNumber": 44,
    "prefecture": "大分県",
    "city": "由布市",
    "town": "庄内町大龍"
  },
  "8795421": {
    "zipcode": "8795421",
    "prefectureCode": "44",
    "prefectureNumber": 44,
    "prefecture": "大分県",
    "city": "由布市",
    "town": "庄内町柿原"
  },
  "8795422": {
    "zipcode": "8795422",
    "prefectureCode": "44",
    "prefectureNumber": 44,
    "prefecture": "大分県",
    "city": "由布市",
    "town": "庄内町野畑"
  },
  "8795423": {
    "zipcode": "8795423",
    "prefectureCode": "44",
    "prefectureNumber": 44,
    "prefecture": "大分県",
    "city": "由布市",
    "town": "庄内町阿蘇野"
  },
  "8795424": {
    "zipcode": "8795424",
    "prefectureCode": "44",
    "prefectureNumber": 44,
    "prefecture": "大分県",
    "city": "由布市",
    "town": "庄内町直野内山"
  },
  "8795425": {
    "zipcode": "8795425",
    "prefectureCode": "44",
    "prefectureNumber": 44,
    "prefecture": "大分県",
    "city": "由布市",
    "town": "庄内町渕"
  },
  "8795431": {
    "zipcode": "8795431",
    "prefectureCode": "44",
    "prefectureNumber": 44,
    "prefecture": "大分県",
    "city": "由布市",
    "town": "庄内町長野"
  },
  "8795432": {
    "zipcode": "8795432",
    "prefectureCode": "44",
    "prefectureNumber": 44,
    "prefecture": "大分県",
    "city": "由布市",
    "town": "庄内町畑田"
  },
  "8795433": {
    "zipcode": "8795433",
    "prefectureCode": "44",
    "prefectureNumber": 44,
    "prefecture": "大分県",
    "city": "由布市",
    "town": "庄内町高岡"
  },
  "8795434": {
    "zipcode": "8795434",
    "prefectureCode": "44",
    "prefectureNumber": 44,
    "prefecture": "大分県",
    "city": "由布市",
    "town": "庄内町庄内原"
  },
  "8795435": {
    "zipcode": "8795435",
    "prefectureCode": "44",
    "prefectureNumber": 44,
    "prefecture": "大分県",
    "city": "由布市",
    "town": "庄内町中"
  },
  "8795436": {
    "zipcode": "8795436",
    "prefectureCode": "44",
    "prefectureNumber": 44,
    "prefecture": "大分県",
    "city": "由布市",
    "town": "庄内町西"
  },
  "8795437": {
    "zipcode": "8795437",
    "prefectureCode": "44",
    "prefectureNumber": 44,
    "prefecture": "大分県",
    "city": "由布市",
    "town": "庄内町平石"
  },
  "8795501": {
    "zipcode": "8795501",
    "prefectureCode": "44",
    "prefectureNumber": 44,
    "prefecture": "大分県",
    "city": "由布市",
    "town": "挾間町鬼崎"
  },
  "8795502": {
    "zipcode": "8795502",
    "prefectureCode": "44",
    "prefectureNumber": 44,
    "prefecture": "大分県",
    "city": "由布市",
    "town": "挾間町向原"
  },
  "8795503": {
    "zipcode": "8795503",
    "prefectureCode": "44",
    "prefectureNumber": 44,
    "prefecture": "大分県",
    "city": "由布市",
    "town": "挾間町医大ケ丘"
  },
  "8795504": {
    "zipcode": "8795504",
    "prefectureCode": "44",
    "prefectureNumber": 44,
    "prefecture": "大分県",
    "city": "由布市",
    "town": "挾間町下市"
  },
  "8795506": {
    "zipcode": "8795506",
    "prefectureCode": "44",
    "prefectureNumber": 44,
    "prefecture": "大分県",
    "city": "由布市",
    "town": "挾間町挾間"
  },
  "8795510": {
    "zipcode": "8795510",
    "prefectureCode": "44",
    "prefectureNumber": 44,
    "prefecture": "大分県",
    "city": "由布市",
    "town": "挾間町東院"
  },
  "8795511": {
    "zipcode": "8795511",
    "prefectureCode": "44",
    "prefectureNumber": 44,
    "prefecture": "大分県",
    "city": "由布市",
    "town": "挾間町古野"
  },
  "8795512": {
    "zipcode": "8795512",
    "prefectureCode": "44",
    "prefectureNumber": 44,
    "prefecture": "大分県",
    "city": "由布市",
    "town": "挾間町来鉢"
  },
  "8795513": {
    "zipcode": "8795513",
    "prefectureCode": "44",
    "prefectureNumber": 44,
    "prefecture": "大分県",
    "city": "由布市",
    "town": "挾間町高崎"
  },
  "8795514": {
    "zipcode": "8795514",
    "prefectureCode": "44",
    "prefectureNumber": 44,
    "prefecture": "大分県",
    "city": "由布市",
    "town": "挾間町七蔵司"
  },
  "8795515": {
    "zipcode": "8795515",
    "prefectureCode": "44",
    "prefectureNumber": 44,
    "prefecture": "大分県",
    "city": "由布市",
    "town": "挾間町三船"
  },
  "8795516": {
    "zipcode": "8795516",
    "prefectureCode": "44",
    "prefectureNumber": 44,
    "prefecture": "大分県",
    "city": "由布市",
    "town": "挾間町赤野"
  },
  "8795517": {
    "zipcode": "8795517",
    "prefectureCode": "44",
    "prefectureNumber": 44,
    "prefecture": "大分県",
    "city": "由布市",
    "town": "挾間町内成"
  },
  "8795518": {
    "zipcode": "8795518",
    "prefectureCode": "44",
    "prefectureNumber": 44,
    "prefecture": "大分県",
    "city": "由布市",
    "town": "挾間町北方"
  },
  "8795519": {
    "zipcode": "8795519",
    "prefectureCode": "44",
    "prefectureNumber": 44,
    "prefecture": "大分県",
    "city": "由布市",
    "town": "挾間町田代"
  },
  "8795521": {
    "zipcode": "8795521",
    "prefectureCode": "44",
    "prefectureNumber": 44,
    "prefecture": "大分県",
    "city": "由布市",
    "town": "挾間町鬼瀬"
  },
  "8795522": {
    "zipcode": "8795522",
    "prefectureCode": "44",
    "prefectureNumber": 44,
    "prefecture": "大分県",
    "city": "由布市",
    "town": "挾間町小野"
  },
  "8795523": {
    "zipcode": "8795523",
    "prefectureCode": "44",
    "prefectureNumber": 44,
    "prefecture": "大分県",
    "city": "由布市",
    "town": "挾間町篠原"
  },
  "8795524": {
    "zipcode": "8795524",
    "prefectureCode": "44",
    "prefectureNumber": 44,
    "prefecture": "大分県",
    "city": "由布市",
    "town": "挾間町時松"
  },
  "8795525": {
    "zipcode": "8795525",
    "prefectureCode": "44",
    "prefectureNumber": 44,
    "prefecture": "大分県",
    "city": "由布市",
    "town": "挾間町朴木"
  },
  "8795531": {
    "zipcode": "8795531",
    "prefectureCode": "44",
    "prefectureNumber": 44,
    "prefecture": "大分県",
    "city": "由布市",
    "town": "挾間町谷"
  },
  "8795532": {
    "zipcode": "8795532",
    "prefectureCode": "44",
    "prefectureNumber": 44,
    "prefecture": "大分県",
    "city": "由布市",
    "town": "挾間町筒口"
  },
  "8795551": {
    "zipcode": "8795551",
    "prefectureCode": "44",
    "prefectureNumber": 44,
    "prefecture": "大分県",
    "city": "別府市",
    "town": "内成"
  },
  "8795552": {
    "zipcode": "8795552",
    "prefectureCode": "44",
    "prefectureNumber": 44,
    "prefecture": "大分県",
    "city": "別府市",
    "town": "古賀原"
  },
  "8796101": {
    "zipcode": "8796101",
    "prefectureCode": "44",
    "prefectureNumber": 44,
    "prefecture": "大分県",
    "city": "竹田市",
    "town": "荻町木下"
  },
  "8796102": {
    "zipcode": "8796102",
    "prefectureCode": "44",
    "prefectureNumber": 44,
    "prefecture": "大分県",
    "city": "竹田市",
    "town": "荻町政所"
  },
  "8796103": {
    "zipcode": "8796103",
    "prefectureCode": "44",
    "prefectureNumber": 44,
    "prefecture": "大分県",
    "city": "竹田市",
    "town": "荻町新藤"
  },
  "8796104": {
    "zipcode": "8796104",
    "prefectureCode": "44",
    "prefectureNumber": 44,
    "prefecture": "大分県",
    "city": "竹田市",
    "town": "荻町藤渡"
  },
  "8796111": {
    "zipcode": "8796111",
    "prefectureCode": "44",
    "prefectureNumber": 44,
    "prefecture": "大分県",
    "city": "竹田市",
    "town": "荻町南河内"
  },
  "8796112": {
    "zipcode": "8796112",
    "prefectureCode": "44",
    "prefectureNumber": 44,
    "prefecture": "大分県",
    "city": "竹田市",
    "town": "荻町馬背野"
  },
  "8796113": {
    "zipcode": "8796113",
    "prefectureCode": "44",
    "prefectureNumber": 44,
    "prefecture": "大分県",
    "city": "竹田市",
    "town": "荻町恵良原"
  },
  "8796115": {
    "zipcode": "8796115",
    "prefectureCode": "44",
    "prefectureNumber": 44,
    "prefecture": "大分県",
    "city": "竹田市",
    "town": "荻町馬場"
  },
  "8796116": {
    "zipcode": "8796116",
    "prefectureCode": "44",
    "prefectureNumber": 44,
    "prefecture": "大分県",
    "city": "竹田市",
    "town": "荻町高城"
  },
  "8796121": {
    "zipcode": "8796121",
    "prefectureCode": "44",
    "prefectureNumber": 44,
    "prefecture": "大分県",
    "city": "竹田市",
    "town": "荻町桑木"
  },
  "8796122": {
    "zipcode": "8796122",
    "prefectureCode": "44",
    "prefectureNumber": 44,
    "prefecture": "大分県",
    "city": "竹田市",
    "town": "荻町柏原"
  },
  "8796123": {
    "zipcode": "8796123",
    "prefectureCode": "44",
    "prefectureNumber": 44,
    "prefecture": "大分県",
    "city": "竹田市",
    "town": "荻町宮平"
  },
  "8796124": {
    "zipcode": "8796124",
    "prefectureCode": "44",
    "prefectureNumber": 44,
    "prefecture": "大分県",
    "city": "竹田市",
    "town": "荻町陽目"
  },
  "8796125": {
    "zipcode": "8796125",
    "prefectureCode": "44",
    "prefectureNumber": 44,
    "prefecture": "大分県",
    "city": "竹田市",
    "town": "荻町仏面"
  },
  "8796126": {
    "zipcode": "8796126",
    "prefectureCode": "44",
    "prefectureNumber": 44,
    "prefecture": "大分県",
    "city": "竹田市",
    "town": "荻町大平"
  },
  "8796127": {
    "zipcode": "8796127",
    "prefectureCode": "44",
    "prefectureNumber": 44,
    "prefecture": "大分県",
    "city": "竹田市",
    "town": "荻町叶野"
  },
  "8796128": {
    "zipcode": "8796128",
    "prefectureCode": "44",
    "prefectureNumber": 44,
    "prefecture": "大分県",
    "city": "竹田市",
    "town": "荻町高練木"
  },
  "8796131": {
    "zipcode": "8796131",
    "prefectureCode": "44",
    "prefectureNumber": 44,
    "prefecture": "大分県",
    "city": "竹田市",
    "town": "荻町鴫田"
  },
  "8796132": {
    "zipcode": "8796132",
    "prefectureCode": "44",
    "prefectureNumber": 44,
    "prefecture": "大分県",
    "city": "竹田市",
    "town": "荻町西福寺"
  },
  "8796133": {
    "zipcode": "8796133",
    "prefectureCode": "44",
    "prefectureNumber": 44,
    "prefecture": "大分県",
    "city": "竹田市",
    "town": "荻町田代"
  },
  "8796134": {
    "zipcode": "8796134",
    "prefectureCode": "44",
    "prefectureNumber": 44,
    "prefecture": "大分県",
    "city": "竹田市",
    "town": "荻町瓜作"
  },
  "8796135": {
    "zipcode": "8796135",
    "prefectureCode": "44",
    "prefectureNumber": 44,
    "prefecture": "大分県",
    "city": "竹田市",
    "town": "荻町北原"
  },
  "8796181": {
    "zipcode": "8796181",
    "prefectureCode": "44",
    "prefectureNumber": 44,
    "prefecture": "大分県",
    "city": "竹田市",
    "town": "小塚"
  },
  "8796182": {
    "zipcode": "8796182",
    "prefectureCode": "44",
    "prefectureNumber": 44,
    "prefecture": "大分県",
    "city": "竹田市",
    "town": "今"
  },
  "8796183": {
    "zipcode": "8796183",
    "prefectureCode": "44",
    "prefectureNumber": 44,
    "prefecture": "大分県",
    "city": "竹田市",
    "town": "戸上"
  },
  "8796184": {
    "zipcode": "8796184",
    "prefectureCode": "44",
    "prefectureNumber": 44,
    "prefecture": "大分県",
    "city": "竹田市",
    "town": "菅生"
  },
  "8796201": {
    "zipcode": "8796201",
    "prefectureCode": "44",
    "prefectureNumber": 44,
    "prefecture": "大分県",
    "city": "豊後大野市",
    "town": "朝地町市万田"
  },
  "8796202": {
    "zipcode": "8796202",
    "prefectureCode": "44",
    "prefectureNumber": 44,
    "prefecture": "大分県",
    "city": "豊後大野市",
    "town": "朝地町下野"
  },
  "8796211": {
    "zipcode": "8796211",
    "prefectureCode": "44",
    "prefectureNumber": 44,
    "prefecture": "大分県",
    "city": "豊後大野市",
    "town": "朝地町宮生"
  },
  "8796212": {
    "zipcode": "8796212",
    "prefectureCode": "44",
    "prefectureNumber": 44,
    "prefecture": "大分県",
    "city": "豊後大野市",
    "town": "朝地町志賀"
  },
  "8796213": {
    "zipcode": "8796213",
    "prefectureCode": "44",
    "prefectureNumber": 44,
    "prefecture": "大分県",
    "city": "豊後大野市",
    "town": "朝地町上尾塚"
  },
  "8796221": {
    "zipcode": "8796221",
    "prefectureCode": "44",
    "prefectureNumber": 44,
    "prefecture": "大分県",
    "city": "豊後大野市",
    "town": "朝地町坪泉"
  },
  "8796222": {
    "zipcode": "8796222",
    "prefectureCode": "44",
    "prefectureNumber": 44,
    "prefecture": "大分県",
    "city": "豊後大野市",
    "town": "朝地町朝地"
  },
  "8796223": {
    "zipcode": "8796223",
    "prefectureCode": "44",
    "prefectureNumber": 44,
    "prefecture": "大分県",
    "city": "豊後大野市",
    "town": "朝地町板井迫"
  },
  "8796224": {
    "zipcode": "8796224",
    "prefectureCode": "44",
    "prefectureNumber": 44,
    "prefecture": "大分県",
    "city": "豊後大野市",
    "town": "朝地町池田"
  },
  "8796331": {
    "zipcode": "8796331",
    "prefectureCode": "44",
    "prefectureNumber": 44,
    "prefecture": "大分県",
    "city": "豊後大野市",
    "town": "朝地町鳥田"
  },
  "8796332": {
    "zipcode": "8796332",
    "prefectureCode": "44",
    "prefectureNumber": 44,
    "prefecture": "大分県",
    "city": "豊後大野市",
    "town": "朝地町綿田"
  },
  "8796333": {
    "zipcode": "8796333",
    "prefectureCode": "44",
    "prefectureNumber": 44,
    "prefecture": "大分県",
    "city": "豊後大野市",
    "town": "朝地町栗林"
  },
  "8796334": {
    "zipcode": "8796334",
    "prefectureCode": "44",
    "prefectureNumber": 44,
    "prefecture": "大分県",
    "city": "豊後大野市",
    "town": "朝地町梨小"
  },
  "8796401": {
    "zipcode": "8796401",
    "prefectureCode": "44",
    "prefectureNumber": 44,
    "prefecture": "大分県",
    "city": "豊後大野市",
    "town": "大野町安藤"
  },
  "8796402": {
    "zipcode": "8796402",
    "prefectureCode": "44",
    "prefectureNumber": 44,
    "prefecture": "大分県",
    "city": "豊後大野市",
    "town": "大野町中土師"
  },
  "8796403": {
    "zipcode": "8796403",
    "prefectureCode": "44",
    "prefectureNumber": 44,
    "prefecture": "大分県",
    "city": "豊後大野市",
    "town": "大野町長畑"
  },
  "8796404": {
    "zipcode": "8796404",
    "prefectureCode": "44",
    "prefectureNumber": 44,
    "prefecture": "大分県",
    "city": "豊後大野市",
    "town": "大野町後田"
  },
  "8796405": {
    "zipcode": "8796405",
    "prefectureCode": "44",
    "prefectureNumber": 44,
    "prefecture": "大分県",
    "city": "豊後大野市",
    "town": "大野町代三五"
  },
  "8796406": {
    "zipcode": "8796406",
    "prefectureCode": "44",
    "prefectureNumber": 44,
    "prefecture": "大分県",
    "city": "豊後大野市",
    "town": "大野町杉園"
  },
  "8796407": {
    "zipcode": "8796407",
    "prefectureCode": "44",
    "prefectureNumber": 44,
    "prefecture": "大分県",
    "city": "豊後大野市",
    "town": "大野町十時"
  },
  "8796408": {
    "zipcode": "8796408",
    "prefectureCode": "44",
    "prefectureNumber": 44,
    "prefecture": "大分県",
    "city": "豊後大野市",
    "town": "大野町沢田"
  },
  "8796421": {
    "zipcode": "8796421",
    "prefectureCode": "44",
    "prefectureNumber": 44,
    "prefecture": "大分県",
    "city": "豊後大野市",
    "town": "大野町中原"
  },
  "8796422": {
    "zipcode": "8796422",
    "prefectureCode": "44",
    "prefectureNumber": 44,
    "prefecture": "大分県",
    "city": "豊後大野市",
    "town": "大野町小倉木"
  },
  "8796423": {
    "zipcode": "8796423",
    "prefectureCode": "44",
    "prefectureNumber": 44,
    "prefecture": "大分県",
    "city": "豊後大野市",
    "town": "大野町矢田"
  },
  "8796424": {
    "zipcode": "8796424",
    "prefectureCode": "44",
    "prefectureNumber": 44,
    "prefecture": "大分県",
    "city": "豊後大野市",
    "town": "大野町夏足"
  },
  "8796425": {
    "zipcode": "8796425",
    "prefectureCode": "44",
    "prefectureNumber": 44,
    "prefecture": "大分県",
    "city": "豊後大野市",
    "town": "大野町両家"
  },
  "8796426": {
    "zipcode": "8796426",
    "prefectureCode": "44",
    "prefectureNumber": 44,
    "prefecture": "大分県",
    "city": "豊後大野市",
    "town": "大野町郡山"
  },
  "8796431": {
    "zipcode": "8796431",
    "prefectureCode": "44",
    "prefectureNumber": 44,
    "prefecture": "大分県",
    "city": "豊後大野市",
    "town": "大野町酒井寺"
  },
  "8796432": {
    "zipcode": "8796432",
    "prefectureCode": "44",
    "prefectureNumber": 44,
    "prefecture": "大分県",
    "city": "豊後大野市",
    "town": "大野町屋原"
  },
  "8796433": {
    "zipcode": "8796433",
    "prefectureCode": "44",
    "prefectureNumber": 44,
    "prefecture": "大分県",
    "city": "豊後大野市",
    "town": "大野町大原"
  },
  "8796434": {
    "zipcode": "8796434",
    "prefectureCode": "44",
    "prefectureNumber": 44,
    "prefecture": "大分県",
    "city": "豊後大野市",
    "town": "大野町桑原"
  },
  "8796435": {
    "zipcode": "8796435",
    "prefectureCode": "44",
    "prefectureNumber": 44,
    "prefecture": "大分県",
    "city": "豊後大野市",
    "town": "大野町北園"
  },
  "8796441": {
    "zipcode": "8796441",
    "prefectureCode": "44",
    "prefectureNumber": 44,
    "prefecture": "大分県",
    "city": "豊後大野市",
    "town": "大野町田中"
  },
  "8796442": {
    "zipcode": "8796442",
    "prefectureCode": "44",
    "prefectureNumber": 44,
    "prefecture": "大分県",
    "city": "豊後大野市",
    "town": "大野町藤北"
  },
  "8796443": {
    "zipcode": "8796443",
    "prefectureCode": "44",
    "prefectureNumber": 44,
    "prefecture": "大分県",
    "city": "豊後大野市",
    "town": "大野町宮迫"
  },
  "8796444": {
    "zipcode": "8796444",
    "prefectureCode": "44",
    "prefectureNumber": 44,
    "prefecture": "大分県",
    "city": "豊後大野市",
    "town": "大野町田代"
  },
  "8796445": {
    "zipcode": "8796445",
    "prefectureCode": "44",
    "prefectureNumber": 44,
    "prefecture": "大分県",
    "city": "豊後大野市",
    "town": "大野町片島"
  },
  "8796601": {
    "zipcode": "8796601",
    "prefectureCode": "44",
    "prefectureNumber": 44,
    "prefecture": "大分県",
    "city": "豊後大野市",
    "town": "緒方町馬場"
  },
  "8796602": {
    "zipcode": "8796602",
    "prefectureCode": "44",
    "prefectureNumber": 44,
    "prefecture": "大分県",
    "city": "豊後大野市",
    "town": "緒方町志賀"
  },
  "8796611": {
    "zipcode": "8796611",
    "prefectureCode": "44",
    "prefectureNumber": 44,
    "prefecture": "大分県",
    "city": "豊後大野市",
    "town": "緒方町夏足"
  },
  "8796612": {
    "zipcode": "8796612",
    "prefectureCode": "44",
    "prefectureNumber": 44,
    "prefecture": "大分県",
    "city": "豊後大野市",
    "town": "緒方町越生"
  },
  "8796613": {
    "zipcode": "8796613",
    "prefectureCode": "44",
    "prefectureNumber": 44,
    "prefecture": "大分県",
    "city": "豊後大野市",
    "town": "緒方町井上"
  },
  "8796614": {
    "zipcode": "8796614",
    "prefectureCode": "44",
    "prefectureNumber": 44,
    "prefecture": "大分県",
    "city": "豊後大野市",
    "town": "緒方町知田"
  },
  "8796615": {
    "zipcode": "8796615",
    "prefectureCode": "44",
    "prefectureNumber": 44,
    "prefecture": "大分県",
    "city": "豊後大野市",
    "town": "緒方町鮒川"
  },
  "8796616": {
    "zipcode": "8796616",
    "prefectureCode": "44",
    "prefectureNumber": 44,
    "prefecture": "大分県",
    "city": "豊後大野市",
    "town": "緒方町久土知"
  },
  "8796621": {
    "zipcode": "8796621",
    "prefectureCode": "44",
    "prefectureNumber": 44,
    "prefecture": "大分県",
    "city": "豊後大野市",
    "town": "緒方町野尻"
  },
  "8796622": {
    "zipcode": "8796622",
    "prefectureCode": "44",
    "prefectureNumber": 44,
    "prefecture": "大分県",
    "city": "豊後大野市",
    "town": "緒方町天神"
  },
  "8796623": {
    "zipcode": "8796623",
    "prefectureCode": "44",
    "prefectureNumber": 44,
    "prefecture": "大分県",
    "city": "豊後大野市",
    "town": "緒方町馬背畑"
  },
  "8796624": {
    "zipcode": "8796624",
    "prefectureCode": "44",
    "prefectureNumber": 44,
    "prefecture": "大分県",
    "city": "豊後大野市",
    "town": "緒方町平石"
  },
  "8796625": {
    "zipcode": "8796625",
    "prefectureCode": "44",
    "prefectureNumber": 44,
    "prefecture": "大分県",
    "city": "豊後大野市",
    "town": "緒方町上犬塚"
  },
  "8796626": {
    "zipcode": "8796626",
    "prefectureCode": "44",
    "prefectureNumber": 44,
    "prefecture": "大分県",
    "city": "豊後大野市",
    "town": "緒方町大化"
  },
  "8796631": {
    "zipcode": "8796631",
    "prefectureCode": "44",
    "prefectureNumber": 44,
    "prefecture": "大分県",
    "city": "豊後大野市",
    "town": "緒方町原尻"
  },
  "8796632": {
    "zipcode": "8796632",
    "prefectureCode": "44",
    "prefectureNumber": 44,
    "prefecture": "大分県",
    "city": "豊後大野市",
    "town": "緒方町辻"
  },
  "8796633": {
    "zipcode": "8796633",
    "prefectureCode": "44",
    "prefectureNumber": 44,
    "prefecture": "大分県",
    "city": "豊後大野市",
    "town": "緒方町小宛"
  },
  "8796634": {
    "zipcode": "8796634",
    "prefectureCode": "44",
    "prefectureNumber": 44,
    "prefecture": "大分県",
    "city": "豊後大野市",
    "town": "緒方町寺原"
  },
  "8796635": {
    "zipcode": "8796635",
    "prefectureCode": "44",
    "prefectureNumber": 44,
    "prefecture": "大分県",
    "city": "豊後大野市",
    "town": "緒方町軸丸"
  },
  "8796641": {
    "zipcode": "8796641",
    "prefectureCode": "44",
    "prefectureNumber": 44,
    "prefecture": "大分県",
    "city": "豊後大野市",
    "town": "緒方町草深野"
  },
  "8796642": {
    "zipcode": "8796642",
    "prefectureCode": "44",
    "prefectureNumber": 44,
    "prefecture": "大分県",
    "city": "豊後大野市",
    "town": "緒方町上自在"
  },
  "8796643": {
    "zipcode": "8796643",
    "prefectureCode": "44",
    "prefectureNumber": 44,
    "prefecture": "大分県",
    "city": "豊後大野市",
    "town": "緒方町下自在"
  },
  "8796751": {
    "zipcode": "8796751",
    "prefectureCode": "44",
    "prefectureNumber": 44,
    "prefecture": "大分県",
    "city": "豊後大野市",
    "town": "緒方町上年野"
  },
  "8796752": {
    "zipcode": "8796752",
    "prefectureCode": "44",
    "prefectureNumber": 44,
    "prefecture": "大分県",
    "city": "豊後大野市",
    "town": "緒方町柚木"
  },
  "8796753": {
    "zipcode": "8796753",
    "prefectureCode": "44",
    "prefectureNumber": 44,
    "prefecture": "大分県",
    "city": "豊後大野市",
    "town": "緒方町下徳田"
  },
  "8796754": {
    "zipcode": "8796754",
    "prefectureCode": "44",
    "prefectureNumber": 44,
    "prefecture": "大分県",
    "city": "豊後大野市",
    "town": "緒方町冬原"
  },
  "8796755": {
    "zipcode": "8796755",
    "prefectureCode": "44",
    "prefectureNumber": 44,
    "prefecture": "大分県",
    "city": "豊後大野市",
    "town": "緒方町上冬原"
  },
  "8796756": {
    "zipcode": "8796756",
    "prefectureCode": "44",
    "prefectureNumber": 44,
    "prefecture": "大分県",
    "city": "豊後大野市",
    "town": "緒方町徳田"
  },
  "8796757": {
    "zipcode": "8796757",
    "prefectureCode": "44",
    "prefectureNumber": 44,
    "prefecture": "大分県",
    "city": "豊後大野市",
    "town": "緒方町木野"
  },
  "8796758": {
    "zipcode": "8796758",
    "prefectureCode": "44",
    "prefectureNumber": 44,
    "prefecture": "大分県",
    "city": "豊後大野市",
    "town": "緒方町中野"
  },
  "8796759": {
    "zipcode": "8796759",
    "prefectureCode": "44",
    "prefectureNumber": 44,
    "prefecture": "大分県",
    "city": "豊後大野市",
    "town": "緒方町大石"
  },
  "8796861": {
    "zipcode": "8796861",
    "prefectureCode": "44",
    "prefectureNumber": 44,
    "prefecture": "大分県",
    "city": "豊後大野市",
    "town": "緒方町小原"
  },
  "8796862": {
    "zipcode": "8796862",
    "prefectureCode": "44",
    "prefectureNumber": 44,
    "prefecture": "大分県",
    "city": "豊後大野市",
    "town": "緒方町栗生"
  },
  "8796863": {
    "zipcode": "8796863",
    "prefectureCode": "44",
    "prefectureNumber": 44,
    "prefecture": "大分県",
    "city": "豊後大野市",
    "town": "緒方町滞迫"
  },
  "8796864": {
    "zipcode": "8796864",
    "prefectureCode": "44",
    "prefectureNumber": 44,
    "prefecture": "大分県",
    "city": "豊後大野市",
    "town": "緒方町上畑"
  },
  "8796865": {
    "zipcode": "8796865",
    "prefectureCode": "44",
    "prefectureNumber": 44,
    "prefecture": "大分県",
    "city": "豊後大野市",
    "town": "緒方町尾平鉱山"
  },
  "8796901": {
    "zipcode": "8796901",
    "prefectureCode": "44",
    "prefectureNumber": 44,
    "prefecture": "大分県",
    "city": "豊後大野市",
    "town": "清川町臼尾"
  },
  "8796902": {
    "zipcode": "8796902",
    "prefectureCode": "44",
    "prefectureNumber": 44,
    "prefecture": "大分県",
    "city": "豊後大野市",
    "town": "清川町雨堤"
  },
  "8796903": {
    "zipcode": "8796903",
    "prefectureCode": "44",
    "prefectureNumber": 44,
    "prefecture": "大分県",
    "city": "豊後大野市",
    "town": "清川町砂田"
  },
  "8796904": {
    "zipcode": "8796904",
    "prefectureCode": "44",
    "prefectureNumber": 44,
    "prefecture": "大分県",
    "city": "豊後大野市",
    "town": "清川町天神"
  },
  "8796905": {
    "zipcode": "8796905",
    "prefectureCode": "44",
    "prefectureNumber": 44,
    "prefecture": "大分県",
    "city": "豊後大野市",
    "town": "清川町三玉"
  },
  "8796911": {
    "zipcode": "8796911",
    "prefectureCode": "44",
    "prefectureNumber": 44,
    "prefecture": "大分県",
    "city": "豊後大野市",
    "town": "清川町宇田枝"
  },
  "8796912": {
    "zipcode": "8796912",
    "prefectureCode": "44",
    "prefectureNumber": 44,
    "prefecture": "大分県",
    "city": "豊後大野市",
    "town": "清川町六種"
  },
  "8796913": {
    "zipcode": "8796913",
    "prefectureCode": "44",
    "prefectureNumber": 44,
    "prefecture": "大分県",
    "city": "豊後大野市",
    "town": "清川町平石"
  },
  "8796914": {
    "zipcode": "8796914",
    "prefectureCode": "44",
    "prefectureNumber": 44,
    "prefecture": "大分県",
    "city": "豊後大野市",
    "town": "清川町左右知"
  },
  "8796921": {
    "zipcode": "8796921",
    "prefectureCode": "44",
    "prefectureNumber": 44,
    "prefecture": "大分県",
    "city": "豊後大野市",
    "town": "清川町伏野"
  },
  "8796922": {
    "zipcode": "8796922",
    "prefectureCode": "44",
    "prefectureNumber": 44,
    "prefecture": "大分県",
    "city": "豊後大野市",
    "town": "清川町大白谷"
  },
  "8797100": {
    "zipcode": "8797100",
    "prefectureCode": "44",
    "prefectureNumber": 44,
    "prefecture": "大分県",
    "city": "豊後大野市",
    "town": "以下に掲載がない場合"
  },
  "8797101": {
    "zipcode": "8797101",
    "prefectureCode": "44",
    "prefectureNumber": 44,
    "prefecture": "大分県",
    "city": "豊後大野市",
    "town": "三重町宮野"
  },
  "8797102": {
    "zipcode": "8797102",
    "prefectureCode": "44",
    "prefectureNumber": 44,
    "prefecture": "大分県",
    "city": "豊後大野市",
    "town": "三重町菅生"
  },
  "8797103": {
    "zipcode": "8797103",
    "prefectureCode": "44",
    "prefectureNumber": 44,
    "prefecture": "大分県",
    "city": "豊後大野市",
    "town": "三重町西畑"
  },
  "8797104": {
    "zipcode": "8797104",
    "prefectureCode": "44",
    "prefectureNumber": 44,
    "prefecture": "大分県",
    "city": "豊後大野市",
    "town": "三重町小坂"
  },
  "8797105": {
    "zipcode": "8797105",
    "prefectureCode": "44",
    "prefectureNumber": 44,
    "prefecture": "大分県",
    "city": "豊後大野市",
    "town": "三重町芦刈"
  },
  "8797106": {
    "zipcode": "8797106",
    "prefectureCode": "44",
    "prefectureNumber": 44,
    "prefecture": "大分県",
    "city": "豊後大野市",
    "town": "三重町井迫"
  },
  "8797107": {
    "zipcode": "8797107",
    "prefectureCode": "44",
    "prefectureNumber": 44,
    "prefecture": "大分県",
    "city": "豊後大野市",
    "town": "三重町上田原"
  },
  "8797108": {
    "zipcode": "8797108",
    "prefectureCode": "44",
    "prefectureNumber": 44,
    "prefecture": "大分県",
    "city": "豊後大野市",
    "town": "三重町浅瀬"
  },
  "8797111": {
    "zipcode": "8797111",
    "prefectureCode": "44",
    "prefectureNumber": 44,
    "prefecture": "大分県",
    "city": "豊後大野市",
    "town": "三重町赤嶺"
  },
  "8797121": {
    "zipcode": "8797121",
    "prefectureCode": "44",
    "prefectureNumber": 44,
    "prefecture": "大分県",
    "city": "豊後大野市",
    "town": "三重町山部"
  },
  "8797122": {
    "zipcode": "8797122",
    "prefectureCode": "44",
    "prefectureNumber": 44,
    "prefecture": "大分県",
    "city": "豊後大野市",
    "town": "三重町鷲谷"
  },
  "8797123": {
    "zipcode": "8797123",
    "prefectureCode": "44",
    "prefectureNumber": 44,
    "prefecture": "大分県",
    "city": "豊後大野市",
    "town": "三重町松尾"
  },
  "8797124": {
    "zipcode": "8797124",
    "prefectureCode": "44",
    "prefectureNumber": 44,
    "prefecture": "大分県",
    "city": "豊後大野市",
    "town": "三重町内山"
  },
  "8797125": {
    "zipcode": "8797125",
    "prefectureCode": "44",
    "prefectureNumber": 44,
    "prefecture": "大分県",
    "city": "豊後大野市",
    "town": "三重町内田"
  },
  "8797131": {
    "zipcode": "8797131",
    "prefectureCode": "44",
    "prefectureNumber": 44,
    "prefecture": "大分県",
    "city": "豊後大野市",
    "town": "三重町市場"
  },
  "8797141": {
    "zipcode": "8797141",
    "prefectureCode": "44",
    "prefectureNumber": 44,
    "prefecture": "大分県",
    "city": "豊後大野市",
    "town": "三重町秋葉"
  },
  "8797142": {
    "zipcode": "8797142",
    "prefectureCode": "44",
    "prefectureNumber": 44,
    "prefecture": "大分県",
    "city": "豊後大野市",
    "town": "三重町小田"
  },
  "8797143": {
    "zipcode": "8797143",
    "prefectureCode": "44",
    "prefectureNumber": 44,
    "prefecture": "大分県",
    "city": "豊後大野市",
    "town": "三重町久田"
  },
  "8797144": {
    "zipcode": "8797144",
    "prefectureCode": "44",
    "prefectureNumber": 44,
    "prefecture": "大分県",
    "city": "豊後大野市",
    "town": "三重町本城"
  },
  "8797151": {
    "zipcode": "8797151",
    "prefectureCode": "44",
    "prefectureNumber": 44,
    "prefecture": "大分県",
    "city": "豊後大野市",
    "town": "三重町西泉"
  },
  "8797152": {
    "zipcode": "8797152",
    "prefectureCode": "44",
    "prefectureNumber": 44,
    "prefecture": "大分県",
    "city": "豊後大野市",
    "town": "三重町百枝"
  },
  "8797153": {
    "zipcode": "8797153",
    "prefectureCode": "44",
    "prefectureNumber": 44,
    "prefecture": "大分県",
    "city": "豊後大野市",
    "town": "三重町玉田"
  },
  "8797154": {
    "zipcode": "8797154",
    "prefectureCode": "44",
    "prefectureNumber": 44,
    "prefecture": "大分県",
    "city": "豊後大野市",
    "town": "三重町川辺"
  },
  "8797155": {
    "zipcode": "8797155",
    "prefectureCode": "44",
    "prefectureNumber": 44,
    "prefecture": "大分県",
    "city": "豊後大野市",
    "town": "三重町向野"
  },
  "8797261": {
    "zipcode": "8797261",
    "prefectureCode": "44",
    "prefectureNumber": 44,
    "prefecture": "大分県",
    "city": "豊後大野市",
    "town": "三重町伏野"
  },
  "8797262": {
    "zipcode": "8797262",
    "prefectureCode": "44",
    "prefectureNumber": 44,
    "prefecture": "大分県",
    "city": "豊後大野市",
    "town": "三重町奥畑"
  },
  "8797263": {
    "zipcode": "8797263",
    "prefectureCode": "44",
    "prefectureNumber": 44,
    "prefecture": "大分県",
    "city": "豊後大野市",
    "town": "三重町中津留"
  },
  "8797264": {
    "zipcode": "8797264",
    "prefectureCode": "44",
    "prefectureNumber": 44,
    "prefecture": "大分県",
    "city": "豊後大野市",
    "town": "三重町大白谷"
  },
  "8797301": {
    "zipcode": "8797301",
    "prefectureCode": "44",
    "prefectureNumber": 44,
    "prefecture": "大分県",
    "city": "豊後大野市",
    "town": "犬飼町犬飼"
  },
  "8797302": {
    "zipcode": "8797302",
    "prefectureCode": "44",
    "prefectureNumber": 44,
    "prefecture": "大分県",
    "city": "豊後大野市",
    "town": "犬飼町久原"
  },
  "8797303": {
    "zipcode": "8797303",
    "prefectureCode": "44",
    "prefectureNumber": 44,
    "prefecture": "大分県",
    "city": "豊後大野市",
    "town": "犬飼町柚野木"
  },
  "8797304": {
    "zipcode": "8797304",
    "prefectureCode": "44",
    "prefectureNumber": 44,
    "prefecture": "大分県",
    "city": "豊後大野市",
    "town": "犬飼町大寒"
  },
  "8797305": {
    "zipcode": "8797305",
    "prefectureCode": "44",
    "prefectureNumber": 44,
    "prefecture": "大分県",
    "city": "豊後大野市",
    "town": "犬飼町田原"
  },
  "8797306": {
    "zipcode": "8797306",
    "prefectureCode": "44",
    "prefectureNumber": 44,
    "prefecture": "大分県",
    "city": "豊後大野市",
    "town": "犬飼町下津尾"
  },
  "8797307": {
    "zipcode": "8797307",
    "prefectureCode": "44",
    "prefectureNumber": 44,
    "prefecture": "大分県",
    "city": "豊後大野市",
    "town": "犬飼町西寒田"
  },
  "8797311": {
    "zipcode": "8797311",
    "prefectureCode": "44",
    "prefectureNumber": 44,
    "prefecture": "大分県",
    "city": "豊後大野市",
    "town": "犬飼町柴北"
  },
  "8797312": {
    "zipcode": "8797312",
    "prefectureCode": "44",
    "prefectureNumber": 44,
    "prefecture": "大分県",
    "city": "豊後大野市",
    "town": "犬飼町高津原"
  },
  "8797313": {
    "zipcode": "8797313",
    "prefectureCode": "44",
    "prefectureNumber": 44,
    "prefecture": "大分県",
    "city": "豊後大野市",
    "town": "犬飼町黒松"
  },
  "8797314": {
    "zipcode": "8797314",
    "prefectureCode": "44",
    "prefectureNumber": 44,
    "prefecture": "大分県",
    "city": "豊後大野市",
    "town": "犬飼町栗ケ畑"
  },
  "8797315": {
    "zipcode": "8797315",
    "prefectureCode": "44",
    "prefectureNumber": 44,
    "prefecture": "大分県",
    "city": "豊後大野市",
    "town": "犬飼町山内"
  },
  "8797316": {
    "zipcode": "8797316",
    "prefectureCode": "44",
    "prefectureNumber": 44,
    "prefecture": "大分県",
    "city": "豊後大野市",
    "town": "犬飼町長畑"
  },
  "8797401": {
    "zipcode": "8797401",
    "prefectureCode": "44",
    "prefectureNumber": 44,
    "prefecture": "大分県",
    "city": "豊後大野市",
    "town": "千歳町新殿"
  },
  "8797402": {
    "zipcode": "8797402",
    "prefectureCode": "44",
    "prefectureNumber": 44,
    "prefecture": "大分県",
    "city": "豊後大野市",
    "town": "千歳町船田"
  },
  "8797403": {
    "zipcode": "8797403",
    "prefectureCode": "44",
    "prefectureNumber": 44,
    "prefecture": "大分県",
    "city": "豊後大野市",
    "town": "千歳町石田"
  },
  "8797404": {
    "zipcode": "8797404",
    "prefectureCode": "44",
    "prefectureNumber": 44,
    "prefecture": "大分県",
    "city": "豊後大野市",
    "town": "千歳町長峰"
  },
  "8797411": {
    "zipcode": "8797411",
    "prefectureCode": "44",
    "prefectureNumber": 44,
    "prefecture": "大分県",
    "city": "豊後大野市",
    "town": "千歳町柴山"
  },
  "8797412": {
    "zipcode": "8797412",
    "prefectureCode": "44",
    "prefectureNumber": 44,
    "prefecture": "大分県",
    "city": "豊後大野市",
    "town": "千歳町高畑"
  },
  "8797413": {
    "zipcode": "8797413",
    "prefectureCode": "44",
    "prefectureNumber": 44,
    "prefecture": "大分県",
    "city": "豊後大野市",
    "town": "千歳町下山"
  },
  "8797414": {
    "zipcode": "8797414",
    "prefectureCode": "44",
    "prefectureNumber": 44,
    "prefecture": "大分県",
    "city": "豊後大野市",
    "town": "千歳町前田"
  },
  "8797501": {
    "zipcode": "8797501",
    "prefectureCode": "44",
    "prefectureNumber": 44,
    "prefecture": "大分県",
    "city": "大分市",
    "town": "竹中"
  },
  "8797502": {
    "zipcode": "8797502",
    "prefectureCode": "44",
    "prefectureNumber": 44,
    "prefecture": "大分県",
    "city": "大分市",
    "town": "端登"
  },
  "8797503": {
    "zipcode": "8797503",
    "prefectureCode": "44",
    "prefectureNumber": 44,
    "prefecture": "大分県",
    "city": "大分市",
    "town": "河原内"
  },
  "8797504": {
    "zipcode": "8797504",
    "prefectureCode": "44",
    "prefectureNumber": 44,
    "prefecture": "大分県",
    "city": "大分市",
    "town": "安藤"
  },
  "8797761": {
    "zipcode": "8797761",
    "prefectureCode": "44",
    "prefectureNumber": 44,
    "prefecture": "大分県",
    "city": "大分市",
    "town": "中戸次"
  },
  "8797762": {
    "zipcode": "8797762",
    "prefectureCode": "44",
    "prefectureNumber": 44,
    "prefecture": "大分県",
    "city": "大分市",
    "town": "けやき台"
  },
  "8797763": {
    "zipcode": "8797763",
    "prefectureCode": "44",
    "prefectureNumber": 44,
    "prefecture": "大分県",
    "city": "大分市",
    "town": "下戸次"
  },
  "8797764": {
    "zipcode": "8797764",
    "prefectureCode": "44",
    "prefectureNumber": 44,
    "prefecture": "大分県",
    "city": "大分市",
    "town": "上戸次"
  },
  "8797765": {
    "zipcode": "8797765",
    "prefectureCode": "44",
    "prefectureNumber": 44,
    "prefecture": "大分県",
    "city": "大分市",
    "town": "美園団地"
  },
  "8797871": {
    "zipcode": "8797871",
    "prefectureCode": "44",
    "prefectureNumber": 44,
    "prefecture": "大分県",
    "city": "大分市",
    "town": "辻"
  },
  "8797872": {
    "zipcode": "8797872",
    "prefectureCode": "44",
    "prefectureNumber": 44,
    "prefecture": "大分県",
    "city": "大分市",
    "town": "月形"
  },
  "8797873": {
    "zipcode": "8797873",
    "prefectureCode": "44",
    "prefectureNumber": 44,
    "prefecture": "大分県",
    "city": "大分市",
    "town": "宮尾"
  },
  "8797874": {
    "zipcode": "8797874",
    "prefectureCode": "44",
    "prefectureNumber": 44,
    "prefecture": "大分県",
    "city": "大分市",
    "town": "福良"
  },
  "8797875": {
    "zipcode": "8797875",
    "prefectureCode": "44",
    "prefectureNumber": 44,
    "prefecture": "大分県",
    "city": "大分市",
    "town": "吉野原"
  },
  "8797881": {
    "zipcode": "8797881",
    "prefectureCode": "44",
    "prefectureNumber": 44,
    "prefecture": "大分県",
    "city": "大分市",
    "town": "奥"
  },
  "8797882": {
    "zipcode": "8797882",
    "prefectureCode": "44",
    "prefectureNumber": 44,
    "prefecture": "大分県",
    "city": "大分市",
    "town": "杉原"
  },
  "8797883": {
    "zipcode": "8797883",
    "prefectureCode": "44",
    "prefectureNumber": 44,
    "prefecture": "大分県",
    "city": "大分市",
    "town": "萩尾"
  },
  "8797884": {
    "zipcode": "8797884",
    "prefectureCode": "44",
    "prefectureNumber": 44,
    "prefecture": "大分県",
    "city": "大分市",
    "town": "志津留"
  },
  "8797885": {
    "zipcode": "8797885",
    "prefectureCode": "44",
    "prefectureNumber": 44,
    "prefecture": "大分県",
    "city": "大分市",
    "town": "梅が丘"
  }
}
