{
  "8800000": {
    "zipcode": "8800000",
    "prefectureCode": "45",
    "prefectureNumber": 45,
    "prefecture": "宮崎県",
    "city": "宮崎市",
    "town": "以下に掲載がない場合"
  },
  "8800001": {
    "zipcode": "8800001",
    "prefectureCode": "45",
    "prefectureNumber": 45,
    "prefecture": "宮崎県",
    "city": "宮崎市",
    "town": "橘通西"
  },
  "8800002": {
    "zipcode": "8800002",
    "prefectureCode": "45",
    "prefectureNumber": 45,
    "prefecture": "宮崎県",
    "city": "宮崎市",
    "town": "中央通"
  },
  "8800003": {
    "zipcode": "8800003",
    "prefectureCode": "45",
    "prefectureNumber": 45,
    "prefecture": "宮崎県",
    "city": "宮崎市",
    "town": "高松町"
  },
  "8800004": {
    "zipcode": "8800004",
    "prefectureCode": "45",
    "prefectureNumber": 45,
    "prefecture": "宮崎県",
    "city": "宮崎市",
    "town": "元宮町"
  },
  "8800005": {
    "zipcode": "8800005",
    "prefectureCode": "45",
    "prefectureNumber": 45,
    "prefecture": "宮崎県",
    "city": "宮崎市",
    "town": "南高松町"
  },
  "8800006": {
    "zipcode": "8800006",
    "prefectureCode": "45",
    "prefectureNumber": 45,
    "prefecture": "宮崎県",
    "city": "宮崎市",
    "town": "千草町"
  },
  "8800007": {
    "zipcode": "8800007",
    "prefectureCode": "45",
    "prefectureNumber": 45,
    "prefecture": "宮崎県",
    "city": "宮崎市",
    "town": "原町"
  },
  "8800011": {
    "zipcode": "8800011",
    "prefectureCode": "45",
    "prefectureNumber": 45,
    "prefecture": "宮崎県",
    "city": "宮崎市",
    "town": "上野町"
  },
  "8800012": {
    "zipcode": "8800012",
    "prefectureCode": "45",
    "prefectureNumber": 45,
    "prefecture": "宮崎県",
    "city": "宮崎市",
    "town": "末広"
  },
  "8800013": {
    "zipcode": "8800013",
    "prefectureCode": "45",
    "prefectureNumber": 45,
    "prefecture": "宮崎県",
    "city": "宮崎市",
    "town": "松橋"
  },
  "8800014": {
    "zipcode": "8800014",
    "prefectureCode": "45",
    "prefectureNumber": 45,
    "prefecture": "宮崎県",
    "city": "宮崎市",
    "town": "鶴島"
  },
  "8800015": {
    "zipcode": "8800015",
    "prefectureCode": "45",
    "prefectureNumber": 45,
    "prefecture": "宮崎県",
    "city": "宮崎市",
    "town": "大工"
  },
  "8800016": {
    "zipcode": "8800016",
    "prefectureCode": "45",
    "prefectureNumber": 45,
    "prefecture": "宮崎県",
    "city": "宮崎市",
    "town": "西高松町"
  },
  "8800017": {
    "zipcode": "8800017",
    "prefectureCode": "45",
    "prefectureNumber": 45,
    "prefecture": "宮崎県",
    "city": "宮崎市",
    "town": "北高松町"
  },
  "8800021": {
    "zipcode": "8800021",
    "prefectureCode": "45",
    "prefectureNumber": 45,
    "prefecture": "宮崎県",
    "city": "宮崎市",
    "town": "清水"
  },
  "8800022": {
    "zipcode": "8800022",
    "prefectureCode": "45",
    "prefectureNumber": 45,
    "prefecture": "宮崎県",
    "city": "宮崎市",
    "town": "大橋"
  },
  "8800023": {
    "zipcode": "8800023",
    "prefectureCode": "45",
    "prefectureNumber": 45,
    "prefecture": "宮崎県",
    "city": "宮崎市",
    "town": "和知川原"
  },
  "8800024": {
    "zipcode": "8800024",
    "prefectureCode": "45",
    "prefectureNumber": 45,
    "prefecture": "宮崎県",
    "city": "宮崎市",
    "town": "祇園"
  },
  "8800025": {
    "zipcode": "8800025",
    "prefectureCode": "45",
    "prefectureNumber": 45,
    "prefecture": "宮崎県",
    "city": "宮崎市",
    "town": "中津瀬町"
  },
  "8800026": {
    "zipcode": "8800026",
    "prefectureCode": "45",
    "prefectureNumber": 45,
    "prefecture": "宮崎県",
    "city": "宮崎市",
    "town": "花殿町"
  },
  "8800027": {
    "zipcode": "8800027",
    "prefectureCode": "45",
    "prefectureNumber": 45,
    "prefecture": "宮崎県",
    "city": "宮崎市",
    "town": "西池町"
  },
  "8800031": {
    "zipcode": "8800031",
    "prefectureCode": "45",
    "prefectureNumber": 45,
    "prefecture": "宮崎県",
    "city": "宮崎市",
    "town": "船塚"
  },
  "8800032": {
    "zipcode": "8800032",
    "prefectureCode": "45",
    "prefectureNumber": 45,
    "prefecture": "宮崎県",
    "city": "宮崎市",
    "town": "霧島"
  },
  "8800033": {
    "zipcode": "8800033",
    "prefectureCode": "45",
    "prefectureNumber": 45,
    "prefecture": "宮崎県",
    "city": "宮崎市",
    "town": "神宮西"
  },
  "8800034": {
    "zipcode": "8800034",
    "prefectureCode": "45",
    "prefectureNumber": 45,
    "prefecture": "宮崎県",
    "city": "宮崎市",
    "town": "矢の先町"
  },
  "8800035": {
    "zipcode": "8800035",
    "prefectureCode": "45",
    "prefectureNumber": 45,
    "prefecture": "宮崎県",
    "city": "宮崎市",
    "town": "下北方町"
  },
  "8800036": {
    "zipcode": "8800036",
    "prefectureCode": "45",
    "prefectureNumber": 45,
    "prefecture": "宮崎県",
    "city": "宮崎市",
    "town": "花ケ島町"
  },
  "8800037": {
    "zipcode": "8800037",
    "prefectureCode": "45",
    "prefectureNumber": 45,
    "prefecture": "宮崎県",
    "city": "宮崎市",
    "town": "南方町"
  },
  "8800041": {
    "zipcode": "8800041",
    "prefectureCode": "45",
    "prefectureNumber": 45,
    "prefecture": "宮崎県",
    "city": "宮崎市",
    "town": "池内町"
  },
  "8800042": {
    "zipcode": "8800042",
    "prefectureCode": "45",
    "prefectureNumber": 45,
    "prefecture": "宮崎県",
    "city": "宮崎市",
    "town": "平和が丘東町"
  },
  "8800043": {
    "zipcode": "8800043",
    "prefectureCode": "45",
    "prefectureNumber": 45,
    "prefecture": "宮崎県",
    "city": "宮崎市",
    "town": "上北方"
  },
  "8800044": {
    "zipcode": "8800044",
    "prefectureCode": "45",
    "prefectureNumber": 45,
    "prefecture": "宮崎県",
    "city": "宮崎市",
    "town": "瓜生野（その他）"
  },
  "8800045": {
    "zipcode": "8800045",
    "prefectureCode": "45",
    "prefectureNumber": 45,
    "prefecture": "宮崎県",
    "city": "宮崎市",
    "town": "大瀬町（その他）"
  },
  "8800046": {
    "zipcode": "8800046",
    "prefectureCode": "45",
    "prefectureNumber": 45,
    "prefecture": "宮崎県",
    "city": "宮崎市",
    "town": "平和が丘北町"
  },
  "8800047": {
    "zipcode": "8800047",
    "prefectureCode": "45",
    "prefectureNumber": 45,
    "prefecture": "宮崎県",
    "city": "宮崎市",
    "town": "平和が丘西町"
  },
  "8800051": {
    "zipcode": "8800051",
    "prefectureCode": "45",
    "prefectureNumber": 45,
    "prefecture": "宮崎県",
    "city": "宮崎市",
    "town": "江平西"
  },
  "8800052": {
    "zipcode": "8800052",
    "prefectureCode": "45",
    "prefectureNumber": 45,
    "prefecture": "宮崎県",
    "city": "宮崎市",
    "town": "丸山"
  },
  "8800053": {
    "zipcode": "8800053",
    "prefectureCode": "45",
    "prefectureNumber": 45,
    "prefecture": "宮崎県",
    "city": "宮崎市",
    "town": "神宮"
  },
  "8800054": {
    "zipcode": "8800054",
    "prefectureCode": "45",
    "prefectureNumber": 45,
    "prefecture": "宮崎県",
    "city": "宮崎市",
    "town": "神宮町"
  },
  "8800055": {
    "zipcode": "8800055",
    "prefectureCode": "45",
    "prefectureNumber": 45,
    "prefecture": "宮崎県",
    "city": "宮崎市",
    "town": "南花ケ島町"
  },
  "8800056": {
    "zipcode": "8800056",
    "prefectureCode": "45",
    "prefectureNumber": 45,
    "prefecture": "宮崎県",
    "city": "宮崎市",
    "town": "神宮東"
  },
  "8800057": {
    "zipcode": "8800057",
    "prefectureCode": "45",
    "prefectureNumber": 45,
    "prefecture": "宮崎県",
    "city": "宮崎市",
    "town": "桜町"
  },
  "8800121": {
    "zipcode": "8800121",
    "prefectureCode": "45",
    "prefectureNumber": 45,
    "prefecture": "宮崎県",
    "city": "宮崎市",
    "town": "島之内"
  },
  "8800122": {
    "zipcode": "8800122",
    "prefectureCode": "45",
    "prefectureNumber": 45,
    "prefecture": "宮崎県",
    "city": "宮崎市",
    "town": "塩路"
  },
  "8800123": {
    "zipcode": "8800123",
    "prefectureCode": "45",
    "prefectureNumber": 45,
    "prefecture": "宮崎県",
    "city": "宮崎市",
    "town": "芳士"
  },
  "8800124": {
    "zipcode": "8800124",
    "prefectureCode": "45",
    "prefectureNumber": 45,
    "prefecture": "宮崎県",
    "city": "宮崎市",
    "town": "新名爪"
  },
  "8800125": {
    "zipcode": "8800125",
    "prefectureCode": "45",
    "prefectureNumber": 45,
    "prefecture": "宮崎県",
    "city": "宮崎市",
    "town": "広原"
  },
  "8800204": {
    "zipcode": "8800204",
    "prefectureCode": "45",
    "prefectureNumber": 45,
    "prefecture": "宮崎県",
    "city": "宮崎市",
    "town": "佐土原町下富田"
  },
  "8800211": {
    "zipcode": "8800211",
    "prefectureCode": "45",
    "prefectureNumber": 45,
    "prefecture": "宮崎県",
    "city": "宮崎市",
    "town": "佐土原町下田島"
  },
  "8800212": {
    "zipcode": "8800212",
    "prefectureCode": "45",
    "prefectureNumber": 45,
    "prefecture": "宮崎県",
    "city": "宮崎市",
    "town": "佐土原町下那珂"
  },
  "8800213": {
    "zipcode": "8800213",
    "prefectureCode": "45",
    "prefectureNumber": 45,
    "prefecture": "宮崎県",
    "city": "宮崎市",
    "town": "佐土原町石崎"
  },
  "8800214": {
    "zipcode": "8800214",
    "prefectureCode": "45",
    "prefectureNumber": 45,
    "prefecture": "宮崎県",
    "city": "宮崎市",
    "town": "佐土原町松小路"
  },
  "8800301": {
    "zipcode": "8800301",
    "prefectureCode": "45",
    "prefectureNumber": 45,
    "prefecture": "宮崎県",
    "city": "宮崎市",
    "town": "佐土原町上田島"
  },
  "8800302": {
    "zipcode": "8800302",
    "prefectureCode": "45",
    "prefectureNumber": 45,
    "prefecture": "宮崎県",
    "city": "宮崎市",
    "town": "佐土原町西上那珂"
  },
  "8800303": {
    "zipcode": "8800303",
    "prefectureCode": "45",
    "prefectureNumber": 45,
    "prefecture": "宮崎県",
    "city": "宮崎市",
    "town": "佐土原町東上那珂"
  },
  "8800341": {
    "zipcode": "8800341",
    "prefectureCode": "45",
    "prefectureNumber": 45,
    "prefecture": "宮崎県",
    "city": "西都市",
    "town": "現王島"
  },
  "8800344": {
    "zipcode": "8800344",
    "prefectureCode": "45",
    "prefectureNumber": 45,
    "prefecture": "宮崎県",
    "city": "宮崎市",
    "town": "瓜生野（下畑）"
  },
  "8800345": {
    "zipcode": "8800345",
    "prefectureCode": "45",
    "prefectureNumber": 45,
    "prefecture": "宮崎県",
    "city": "宮崎市",
    "town": "大瀬町（上畑）"
  },
  "8800801": {
    "zipcode": "8800801",
    "prefectureCode": "45",
    "prefectureNumber": 45,
    "prefecture": "宮崎県",
    "city": "宮崎市",
    "town": "老松"
  },
  "8800802": {
    "zipcode": "8800802",
    "prefectureCode": "45",
    "prefectureNumber": 45,
    "prefecture": "宮崎県",
    "city": "宮崎市",
    "town": "別府町"
  },
  "8800803": {
    "zipcode": "8800803",
    "prefectureCode": "45",
    "prefectureNumber": 45,
    "prefecture": "宮崎県",
    "city": "宮崎市",
    "town": "旭"
  },
  "8800804": {
    "zipcode": "8800804",
    "prefectureCode": "45",
    "prefectureNumber": 45,
    "prefecture": "宮崎県",
    "city": "宮崎市",
    "town": "宮田町"
  },
  "8800805": {
    "zipcode": "8800805",
    "prefectureCode": "45",
    "prefectureNumber": 45,
    "prefecture": "宮崎県",
    "city": "宮崎市",
    "town": "橘通東"
  },
  "8800806": {
    "zipcode": "8800806",
    "prefectureCode": "45",
    "prefectureNumber": 45,
    "prefecture": "宮崎県",
    "city": "宮崎市",
    "town": "広島"
  },
  "8800811": {
    "zipcode": "8800811",
    "prefectureCode": "45",
    "prefectureNumber": 45,
    "prefecture": "宮崎県",
    "city": "宮崎市",
    "town": "錦町"
  },
  "8800812": {
    "zipcode": "8800812",
    "prefectureCode": "45",
    "prefectureNumber": 45,
    "prefecture": "宮崎県",
    "city": "宮崎市",
    "town": "高千穂通"
  },
  "8800813": {
    "zipcode": "8800813",
    "prefectureCode": "45",
    "prefectureNumber": 45,
    "prefecture": "宮崎県",
    "city": "宮崎市",
    "town": "丸島町"
  },
  "8800814": {
    "zipcode": "8800814",
    "prefectureCode": "45",
    "prefectureNumber": 45,
    "prefecture": "宮崎県",
    "city": "宮崎市",
    "town": "江平中町"
  },
  "8800815": {
    "zipcode": "8800815",
    "prefectureCode": "45",
    "prefectureNumber": 45,
    "prefecture": "宮崎県",
    "city": "宮崎市",
    "town": "江平町"
  },
  "8800816": {
    "zipcode": "8800816",
    "prefectureCode": "45",
    "prefectureNumber": 45,
    "prefecture": "宮崎県",
    "city": "宮崎市",
    "town": "江平東"
  },
  "8800817": {
    "zipcode": "8800817",
    "prefectureCode": "45",
    "prefectureNumber": 45,
    "prefecture": "宮崎県",
    "city": "宮崎市",
    "town": "江平東町"
  },
  "8800818": {
    "zipcode": "8800818",
    "prefectureCode": "45",
    "prefectureNumber": 45,
    "prefecture": "宮崎県",
    "city": "宮崎市",
    "town": "錦本町"
  },
  "8800821": {
    "zipcode": "8800821",
    "prefectureCode": "45",
    "prefectureNumber": 45,
    "prefecture": "宮崎県",
    "city": "宮崎市",
    "town": "浮城町"
  },
  "8800822": {
    "zipcode": "8800822",
    "prefectureCode": "45",
    "prefectureNumber": 45,
    "prefecture": "宮崎県",
    "city": "宮崎市",
    "town": "権現町"
  },
  "8800823": {
    "zipcode": "8800823",
    "prefectureCode": "45",
    "prefectureNumber": 45,
    "prefecture": "宮崎県",
    "city": "宮崎市",
    "town": "北権現町"
  },
  "8800824": {
    "zipcode": "8800824",
    "prefectureCode": "45",
    "prefectureNumber": 45,
    "prefecture": "宮崎県",
    "city": "宮崎市",
    "town": "大島町"
  },
  "8800825": {
    "zipcode": "8800825",
    "prefectureCode": "45",
    "prefectureNumber": 45,
    "prefecture": "宮崎県",
    "city": "宮崎市",
    "town": "東大宮"
  },
  "8800826": {
    "zipcode": "8800826",
    "prefectureCode": "45",
    "prefectureNumber": 45,
    "prefecture": "宮崎県",
    "city": "宮崎市",
    "town": "波島"
  },
  "8800831": {
    "zipcode": "8800831",
    "prefectureCode": "45",
    "prefectureNumber": 45,
    "prefecture": "宮崎県",
    "city": "宮崎市",
    "town": "新栄町"
  },
  "8800832": {
    "zipcode": "8800832",
    "prefectureCode": "45",
    "prefectureNumber": 45,
    "prefecture": "宮崎県",
    "city": "宮崎市",
    "town": "稗原町"
  },
  "8800833": {
    "zipcode": "8800833",
    "prefectureCode": "45",
    "prefectureNumber": 45,
    "prefecture": "宮崎県",
    "city": "宮崎市",
    "town": "昭栄町"
  },
  "8800834": {
    "zipcode": "8800834",
    "prefectureCode": "45",
    "prefectureNumber": 45,
    "prefecture": "宮崎県",
    "city": "宮崎市",
    "town": "新別府町"
  },
  "8800835": {
    "zipcode": "8800835",
    "prefectureCode": "45",
    "prefectureNumber": 45,
    "prefecture": "宮崎県",
    "city": "宮崎市",
    "town": "阿波岐原町"
  },
  "8800836": {
    "zipcode": "8800836",
    "prefectureCode": "45",
    "prefectureNumber": 45,
    "prefecture": "宮崎県",
    "city": "宮崎市",
    "town": "山崎町"
  },
  "8800837": {
    "zipcode": "8800837",
    "prefectureCode": "45",
    "prefectureNumber": 45,
    "prefecture": "宮崎県",
    "city": "宮崎市",
    "town": "村角町"
  },
  "8800841": {
    "zipcode": "8800841",
    "prefectureCode": "45",
    "prefectureNumber": 45,
    "prefecture": "宮崎県",
    "city": "宮崎市",
    "town": "吉村町"
  },
  "8800842": {
    "zipcode": "8800842",
    "prefectureCode": "45",
    "prefectureNumber": 45,
    "prefecture": "宮崎県",
    "city": "宮崎市",
    "town": "青葉町"
  },
  "8800843": {
    "zipcode": "8800843",
    "prefectureCode": "45",
    "prefectureNumber": 45,
    "prefecture": "宮崎県",
    "city": "宮崎市",
    "town": "下原町"
  },
  "8800844": {
    "zipcode": "8800844",
    "prefectureCode": "45",
    "prefectureNumber": 45,
    "prefecture": "宮崎県",
    "city": "宮崎市",
    "town": "柳丸町"
  },
  "8800845": {
    "zipcode": "8800845",
    "prefectureCode": "45",
    "prefectureNumber": 45,
    "prefecture": "宮崎県",
    "city": "宮崎市",
    "town": "新城町"
  },
  "8800851": {
    "zipcode": "8800851",
    "prefectureCode": "45",
    "prefectureNumber": 45,
    "prefecture": "宮崎県",
    "city": "宮崎市",
    "town": "港東"
  },
  "8800852": {
    "zipcode": "8800852",
    "prefectureCode": "45",
    "prefectureNumber": 45,
    "prefecture": "宮崎県",
    "city": "宮崎市",
    "town": "高洲町"
  },
  "8800853": {
    "zipcode": "8800853",
    "prefectureCode": "45",
    "prefectureNumber": 45,
    "prefecture": "宮崎県",
    "city": "宮崎市",
    "town": "中西町"
  },
  "8800854": {
    "zipcode": "8800854",
    "prefectureCode": "45",
    "prefectureNumber": 45,
    "prefecture": "宮崎県",
    "city": "宮崎市",
    "town": "一の宮町"
  },
  "8800855": {
    "zipcode": "8800855",
    "prefectureCode": "45",
    "prefectureNumber": 45,
    "prefecture": "宮崎県",
    "city": "宮崎市",
    "town": "田代町"
  },
  "8800856": {
    "zipcode": "8800856",
    "prefectureCode": "45",
    "prefectureNumber": 45,
    "prefecture": "宮崎県",
    "city": "宮崎市",
    "town": "日ノ出町"
  },
  "8800857": {
    "zipcode": "8800857",
    "prefectureCode": "45",
    "prefectureNumber": 45,
    "prefecture": "宮崎県",
    "city": "宮崎市",
    "town": "小戸町"
  },
  "8800858": {
    "zipcode": "8800858",
    "prefectureCode": "45",
    "prefectureNumber": 45,
    "prefecture": "宮崎県",
    "city": "宮崎市",
    "town": "港"
  },
  "8800861": {
    "zipcode": "8800861",
    "prefectureCode": "45",
    "prefectureNumber": 45,
    "prefecture": "宮崎県",
    "city": "宮崎市",
    "town": "出来島町"
  },
  "8800862": {
    "zipcode": "8800862",
    "prefectureCode": "45",
    "prefectureNumber": 45,
    "prefecture": "宮崎県",
    "city": "宮崎市",
    "town": "潮見町"
  },
  "8800863": {
    "zipcode": "8800863",
    "prefectureCode": "45",
    "prefectureNumber": 45,
    "prefecture": "宮崎県",
    "city": "宮崎市",
    "town": "前原町"
  },
  "8800864": {
    "zipcode": "8800864",
    "prefectureCode": "45",
    "prefectureNumber": 45,
    "prefecture": "宮崎県",
    "city": "宮崎市",
    "town": "吾妻町"
  },
  "8800865": {
    "zipcode": "8800865",
    "prefectureCode": "45",
    "prefectureNumber": 45,
    "prefecture": "宮崎県",
    "city": "宮崎市",
    "town": "松山"
  },
  "8800866": {
    "zipcode": "8800866",
    "prefectureCode": "45",
    "prefectureNumber": 45,
    "prefecture": "宮崎県",
    "city": "宮崎市",
    "town": "川原町"
  },
  "8800867": {
    "zipcode": "8800867",
    "prefectureCode": "45",
    "prefectureNumber": 45,
    "prefecture": "宮崎県",
    "city": "宮崎市",
    "town": "瀬頭"
  },
  "8800868": {
    "zipcode": "8800868",
    "prefectureCode": "45",
    "prefectureNumber": 45,
    "prefecture": "宮崎県",
    "city": "宮崎市",
    "town": "瀬頭町"
  },
  "8800871": {
    "zipcode": "8800871",
    "prefectureCode": "45",
    "prefectureNumber": 45,
    "prefecture": "宮崎県",
    "city": "宮崎市",
    "town": "大王町"
  },
  "8800872": {
    "zipcode": "8800872",
    "prefectureCode": "45",
    "prefectureNumber": 45,
    "prefecture": "宮崎県",
    "city": "宮崎市",
    "town": "永楽町"
  },
  "8800873": {
    "zipcode": "8800873",
    "prefectureCode": "45",
    "prefectureNumber": 45,
    "prefecture": "宮崎県",
    "city": "宮崎市",
    "town": "堀川町"
  },
  "8800874": {
    "zipcode": "8800874",
    "prefectureCode": "45",
    "prefectureNumber": 45,
    "prefecture": "宮崎県",
    "city": "宮崎市",
    "town": "昭和町"
  },
  "8800875": {
    "zipcode": "8800875",
    "prefectureCode": "45",
    "prefectureNumber": 45,
    "prefecture": "宮崎県",
    "city": "宮崎市",
    "town": "曽師町"
  },
  "8800876": {
    "zipcode": "8800876",
    "prefectureCode": "45",
    "prefectureNumber": 45,
    "prefecture": "宮崎県",
    "city": "宮崎市",
    "town": "浄土江町"
  },
  "8800877": {
    "zipcode": "8800877",
    "prefectureCode": "45",
    "prefectureNumber": 45,
    "prefecture": "宮崎県",
    "city": "宮崎市",
    "town": "宮脇町"
  },
  "8800878": {
    "zipcode": "8800878",
    "prefectureCode": "45",
    "prefectureNumber": 45,
    "prefecture": "宮崎県",
    "city": "宮崎市",
    "town": "大和町"
  },
  "8800879": {
    "zipcode": "8800879",
    "prefectureCode": "45",
    "prefectureNumber": 45,
    "prefecture": "宮崎県",
    "city": "宮崎市",
    "town": "宮崎駅東"
  },
  "8800901": {
    "zipcode": "8800901",
    "prefectureCode": "45",
    "prefectureNumber": 45,
    "prefecture": "宮崎県",
    "city": "宮崎市",
    "town": "東大淀"
  },
  "8800902": {
    "zipcode": "8800902",
    "prefectureCode": "45",
    "prefectureNumber": 45,
    "prefecture": "宮崎県",
    "city": "宮崎市",
    "town": "大淀"
  },
  "8800903": {
    "zipcode": "8800903",
    "prefectureCode": "45",
    "prefectureNumber": 45,
    "prefecture": "宮崎県",
    "city": "宮崎市",
    "town": "太田"
  },
  "8800904": {
    "zipcode": "8800904",
    "prefectureCode": "45",
    "prefectureNumber": 45,
    "prefecture": "宮崎県",
    "city": "宮崎市",
    "town": "中村東"
  },
  "8800905": {
    "zipcode": "8800905",
    "prefectureCode": "45",
    "prefectureNumber": 45,
    "prefecture": "宮崎県",
    "city": "宮崎市",
    "town": "中村西"
  },
  "8800906": {
    "zipcode": "8800906",
    "prefectureCode": "45",
    "prefectureNumber": 45,
    "prefecture": "宮崎県",
    "city": "宮崎市",
    "town": "南町"
  },
  "8800907": {
    "zipcode": "8800907",
    "prefectureCode": "45",
    "prefectureNumber": 45,
    "prefecture": "宮崎県",
    "city": "宮崎市",
    "town": "淀川"
  },
  "8800908": {
    "zipcode": "8800908",
    "prefectureCode": "45",
    "prefectureNumber": 45,
    "prefecture": "宮崎県",
    "city": "宮崎市",
    "town": "谷川"
  },
  "8800909": {
    "zipcode": "8800909",
    "prefectureCode": "45",
    "prefectureNumber": 45,
    "prefecture": "宮崎県",
    "city": "宮崎市",
    "town": "谷川町"
  },
  "8800911": {
    "zipcode": "8800911",
    "prefectureCode": "45",
    "prefectureNumber": 45,
    "prefecture": "宮崎県",
    "city": "宮崎市",
    "town": "田吉"
  },
  "8800912": {
    "zipcode": "8800912",
    "prefectureCode": "45",
    "prefectureNumber": 45,
    "prefecture": "宮崎県",
    "city": "宮崎市",
    "town": "赤江"
  },
  "8800913": {
    "zipcode": "8800913",
    "prefectureCode": "45",
    "prefectureNumber": 45,
    "prefecture": "宮崎県",
    "city": "宮崎市",
    "town": "恒久（丁目）"
  },
  "8800914": {
    "zipcode": "8800914",
    "prefectureCode": "45",
    "prefectureNumber": 45,
    "prefecture": "宮崎県",
    "city": "宮崎市",
    "town": "宮の元町"
  },
  "8800915": {
    "zipcode": "8800915",
    "prefectureCode": "45",
    "prefectureNumber": 45,
    "prefecture": "宮崎県",
    "city": "宮崎市",
    "town": "恒久南"
  },
  "8800916": {
    "zipcode": "8800916",
    "prefectureCode": "45",
    "prefectureNumber": 45,
    "prefecture": "宮崎県",
    "city": "宮崎市",
    "town": "恒久（番地）"
  },
  "8800917": {
    "zipcode": "8800917",
    "prefectureCode": "45",
    "prefectureNumber": 45,
    "prefecture": "宮崎県",
    "city": "宮崎市",
    "town": "城ケ崎"
  },
  "8800921": {
    "zipcode": "8800921",
    "prefectureCode": "45",
    "prefectureNumber": 45,
    "prefecture": "宮崎県",
    "city": "宮崎市",
    "town": "本郷南方"
  },
  "8800922": {
    "zipcode": "8800922",
    "prefectureCode": "45",
    "prefectureNumber": 45,
    "prefecture": "宮崎県",
    "city": "宮崎市",
    "town": "本郷"
  },
  "8800923": {
    "zipcode": "8800923",
    "prefectureCode": "45",
    "prefectureNumber": 45,
    "prefecture": "宮崎県",
    "city": "宮崎市",
    "town": "希望ケ丘"
  },
  "8800924": {
    "zipcode": "8800924",
    "prefectureCode": "45",
    "prefectureNumber": 45,
    "prefecture": "宮崎県",
    "city": "宮崎市",
    "town": "郡司分"
  },
  "8800925": {
    "zipcode": "8800925",
    "prefectureCode": "45",
    "prefectureNumber": 45,
    "prefecture": "宮崎県",
    "city": "宮崎市",
    "town": "本郷北方"
  },
  "8800926": {
    "zipcode": "8800926",
    "prefectureCode": "45",
    "prefectureNumber": 45,
    "prefecture": "宮崎県",
    "city": "宮崎市",
    "town": "月見ケ丘"
  },
  "8800927": {
    "zipcode": "8800927",
    "prefectureCode": "45",
    "prefectureNumber": 45,
    "prefecture": "宮崎県",
    "city": "宮崎市",
    "town": "源藤町"
  },
  "8800928": {
    "zipcode": "8800928",
    "prefectureCode": "45",
    "prefectureNumber": 45,
    "prefecture": "宮崎県",
    "city": "宮崎市",
    "town": "東宮"
  },
  "8800929": {
    "zipcode": "8800929",
    "prefectureCode": "45",
    "prefectureNumber": 45,
    "prefecture": "宮崎県",
    "city": "宮崎市",
    "town": "まなび野"
  },
  "8800930": {
    "zipcode": "8800930",
    "prefectureCode": "45",
    "prefectureNumber": 45,
    "prefecture": "宮崎県",
    "city": "宮崎市",
    "town": "花山手東"
  },
  "8800931": {
    "zipcode": "8800931",
    "prefectureCode": "45",
    "prefectureNumber": 45,
    "prefecture": "宮崎県",
    "city": "宮崎市",
    "town": "古城町"
  },
  "8800932": {
    "zipcode": "8800932",
    "prefectureCode": "45",
    "prefectureNumber": 45,
    "prefecture": "宮崎県",
    "city": "宮崎市",
    "town": "大坪西"
  },
  "8800933": {
    "zipcode": "8800933",
    "prefectureCode": "45",
    "prefectureNumber": 45,
    "prefecture": "宮崎県",
    "city": "宮崎市",
    "town": "大坪町"
  },
  "8800934": {
    "zipcode": "8800934",
    "prefectureCode": "45",
    "prefectureNumber": 45,
    "prefecture": "宮崎県",
    "city": "宮崎市",
    "town": "大坪東"
  },
  "8800935": {
    "zipcode": "8800935",
    "prefectureCode": "45",
    "prefectureNumber": 45,
    "prefecture": "宮崎県",
    "city": "宮崎市",
    "town": "天満町"
  },
  "8800936": {
    "zipcode": "8800936",
    "prefectureCode": "45",
    "prefectureNumber": 45,
    "prefecture": "宮崎県",
    "city": "宮崎市",
    "town": "天満"
  },
  "8800937": {
    "zipcode": "8800937",
    "prefectureCode": "45",
    "prefectureNumber": 45,
    "prefecture": "宮崎県",
    "city": "宮崎市",
    "town": "京塚"
  },
  "8800938": {
    "zipcode": "8800938",
    "prefectureCode": "45",
    "prefectureNumber": 45,
    "prefecture": "宮崎県",
    "city": "宮崎市",
    "town": "京塚町"
  },
  "8800939": {
    "zipcode": "8800939",
    "prefectureCode": "45",
    "prefectureNumber": 45,
    "prefecture": "宮崎県",
    "city": "宮崎市",
    "town": "花山手西"
  },
  "8800941": {
    "zipcode": "8800941",
    "prefectureCode": "45",
    "prefectureNumber": 45,
    "prefecture": "宮崎県",
    "city": "宮崎市",
    "town": "北川内町"
  },
  "8800942": {
    "zipcode": "8800942",
    "prefectureCode": "45",
    "prefectureNumber": 45,
    "prefecture": "宮崎県",
    "city": "宮崎市",
    "town": "生目台東"
  },
  "8800943": {
    "zipcode": "8800943",
    "prefectureCode": "45",
    "prefectureNumber": 45,
    "prefecture": "宮崎県",
    "city": "宮崎市",
    "town": "生目台西"
  },
  "8800944": {
    "zipcode": "8800944",
    "prefectureCode": "45",
    "prefectureNumber": 45,
    "prefecture": "宮崎県",
    "city": "宮崎市",
    "town": "江南"
  },
  "8800945": {
    "zipcode": "8800945",
    "prefectureCode": "45",
    "prefectureNumber": 45,
    "prefecture": "宮崎県",
    "city": "宮崎市",
    "town": "福島町（番地）"
  },
  "8800946": {
    "zipcode": "8800946",
    "prefectureCode": "45",
    "prefectureNumber": 45,
    "prefecture": "宮崎県",
    "city": "宮崎市",
    "town": "福島町（丁目）"
  },
  "8800947": {
    "zipcode": "8800947",
    "prefectureCode": "45",
    "prefectureNumber": 45,
    "prefecture": "宮崎県",
    "city": "宮崎市",
    "town": "薫る坂"
  },
  "8800951": {
    "zipcode": "8800951",
    "prefectureCode": "45",
    "prefectureNumber": 45,
    "prefecture": "宮崎県",
    "city": "宮崎市",
    "town": "大塚町"
  },
  "8800952": {
    "zipcode": "8800952",
    "prefectureCode": "45",
    "prefectureNumber": 45,
    "prefecture": "宮崎県",
    "city": "宮崎市",
    "town": "大塚台東"
  },
  "8800953": {
    "zipcode": "8800953",
    "prefectureCode": "45",
    "prefectureNumber": 45,
    "prefecture": "宮崎県",
    "city": "宮崎市",
    "town": "小松台東"
  },
  "8800954": {
    "zipcode": "8800954",
    "prefectureCode": "45",
    "prefectureNumber": 45,
    "prefecture": "宮崎県",
    "city": "宮崎市",
    "town": "小松台西"
  },
  "8800955": {
    "zipcode": "8800955",
    "prefectureCode": "45",
    "prefectureNumber": 45,
    "prefecture": "宮崎県",
    "city": "宮崎市",
    "town": "桜ケ丘町"
  },
  "8800956": {
    "zipcode": "8800956",
    "prefectureCode": "45",
    "prefectureNumber": 45,
    "prefecture": "宮崎県",
    "city": "宮崎市",
    "town": "小松台南町"
  },
  "8801100": {
    "zipcode": "8801100",
    "prefectureCode": "45",
    "prefectureNumber": 45,
    "prefecture": "宮崎県",
    "city": "東諸県郡国富町",
    "town": "以下に掲載がない場合"
  },
  "8801101": {
    "zipcode": "8801101",
    "prefectureCode": "45",
    "prefectureNumber": 45,
    "prefecture": "宮崎県",
    "city": "東諸県郡国富町",
    "town": "本庄"
  },
  "8801102": {
    "zipcode": "8801102",
    "prefectureCode": "45",
    "prefectureNumber": 45,
    "prefecture": "宮崎県",
    "city": "東諸県郡国富町",
    "town": "宮王丸"
  },
  "8801103": {
    "zipcode": "8801103",
    "prefectureCode": "45",
    "prefectureNumber": 45,
    "prefecture": "宮崎県",
    "city": "東諸県郡国富町",
    "town": "嵐田"
  },
  "8801104": {
    "zipcode": "8801104",
    "prefectureCode": "45",
    "prefectureNumber": 45,
    "prefecture": "宮崎県",
    "city": "東諸県郡国富町",
    "town": "田尻"
  },
  "8801105": {
    "zipcode": "8801105",
    "prefectureCode": "45",
    "prefectureNumber": 45,
    "prefecture": "宮崎県",
    "city": "東諸県郡国富町",
    "town": "向高"
  },
  "8801106": {
    "zipcode": "8801106",
    "prefectureCode": "45",
    "prefectureNumber": 45,
    "prefecture": "宮崎県",
    "city": "東諸県郡国富町",
    "town": "森永"
  },
  "8801107": {
    "zipcode": "8801107",
    "prefectureCode": "45",
    "prefectureNumber": 45,
    "prefecture": "宮崎県",
    "city": "東諸県郡国富町",
    "town": "竹田"
  },
  "8801108": {
    "zipcode": "8801108",
    "prefectureCode": "45",
    "prefectureNumber": 45,
    "prefecture": "宮崎県",
    "city": "東諸県郡国富町",
    "town": "須志田"
  },
  "8801111": {
    "zipcode": "8801111",
    "prefectureCode": "45",
    "prefectureNumber": 45,
    "prefecture": "宮崎県",
    "city": "東諸県郡国富町",
    "town": "岩知野"
  },
  "8801112": {
    "zipcode": "8801112",
    "prefectureCode": "45",
    "prefectureNumber": 45,
    "prefecture": "宮崎県",
    "city": "東諸県郡国富町",
    "town": "塚原"
  },
  "8801113": {
    "zipcode": "8801113",
    "prefectureCode": "45",
    "prefectureNumber": 45,
    "prefecture": "宮崎県",
    "city": "東諸県郡国富町",
    "town": "木脇"
  },
  "8801114": {
    "zipcode": "8801114",
    "prefectureCode": "45",
    "prefectureNumber": 45,
    "prefecture": "宮崎県",
    "city": "東諸県郡国富町",
    "town": "三名"
  },
  "8801121": {
    "zipcode": "8801121",
    "prefectureCode": "45",
    "prefectureNumber": 45,
    "prefecture": "宮崎県",
    "city": "東諸県郡国富町",
    "town": "伊左生（吹上）"
  },
  "8801221": {
    "zipcode": "8801221",
    "prefectureCode": "45",
    "prefectureNumber": 45,
    "prefecture": "宮崎県",
    "city": "東諸県郡国富町",
    "town": "伊左生（その他）"
  },
  "8801222": {
    "zipcode": "8801222",
    "prefectureCode": "45",
    "prefectureNumber": 45,
    "prefecture": "宮崎県",
    "city": "東諸県郡国富町",
    "town": "八代北俣"
  },
  "8801223": {
    "zipcode": "8801223",
    "prefectureCode": "45",
    "prefectureNumber": 45,
    "prefecture": "宮崎県",
    "city": "東諸県郡国富町",
    "town": "八代南俣"
  },
  "8801224": {
    "zipcode": "8801224",
    "prefectureCode": "45",
    "prefectureNumber": 45,
    "prefecture": "宮崎県",
    "city": "東諸県郡国富町",
    "town": "深年"
  },
  "8801300": {
    "zipcode": "8801300",
    "prefectureCode": "45",
    "prefectureNumber": 45,
    "prefecture": "宮崎県",
    "city": "東諸県郡綾町",
    "town": "以下に掲載がない場合"
  },
  "8801301": {
    "zipcode": "8801301",
    "prefectureCode": "45",
    "prefectureNumber": 45,
    "prefecture": "宮崎県",
    "city": "東諸県郡綾町",
    "town": "入野"
  },
  "8801302": {
    "zipcode": "8801302",
    "prefectureCode": "45",
    "prefectureNumber": 45,
    "prefecture": "宮崎県",
    "city": "東諸県郡綾町",
    "town": "北俣"
  },
  "8801303": {
    "zipcode": "8801303",
    "prefectureCode": "45",
    "prefectureNumber": 45,
    "prefecture": "宮崎県",
    "city": "東諸県郡綾町",
    "town": "南俣"
  },
  "8802101": {
    "zipcode": "8802101",
    "prefectureCode": "45",
    "prefectureNumber": 45,
    "prefecture": "宮崎県",
    "city": "宮崎市",
    "town": "跡江"
  },
  "8802102": {
    "zipcode": "8802102",
    "prefectureCode": "45",
    "prefectureNumber": 45,
    "prefecture": "宮崎県",
    "city": "宮崎市",
    "town": "有田"
  },
  "8802103": {
    "zipcode": "8802103",
    "prefectureCode": "45",
    "prefectureNumber": 45,
    "prefecture": "宮崎県",
    "city": "宮崎市",
    "town": "生目"
  },
  "8802104": {
    "zipcode": "8802104",
    "prefectureCode": "45",
    "prefectureNumber": 45,
    "prefecture": "宮崎県",
    "city": "宮崎市",
    "town": "浮田"
  },
  "8802105": {
    "zipcode": "8802105",
    "prefectureCode": "45",
    "prefectureNumber": 45,
    "prefecture": "宮崎県",
    "city": "宮崎市",
    "town": "大塚台西"
  },
  "8802111": {
    "zipcode": "8802111",
    "prefectureCode": "45",
    "prefectureNumber": 45,
    "prefecture": "宮崎県",
    "city": "宮崎市",
    "town": "柏原"
  },
  "8802112": {
    "zipcode": "8802112",
    "prefectureCode": "45",
    "prefectureNumber": 45,
    "prefecture": "宮崎県",
    "city": "宮崎市",
    "town": "小松"
  },
  "8802113": {
    "zipcode": "8802113",
    "prefectureCode": "45",
    "prefectureNumber": 45,
    "prefecture": "宮崎県",
    "city": "宮崎市",
    "town": "小松台北町"
  },
  "8802114": {
    "zipcode": "8802114",
    "prefectureCode": "45",
    "prefectureNumber": 45,
    "prefecture": "宮崎県",
    "city": "宮崎市",
    "town": "富吉"
  },
  "8802115": {
    "zipcode": "8802115",
    "prefectureCode": "45",
    "prefectureNumber": 45,
    "prefecture": "宮崎県",
    "city": "宮崎市",
    "town": "長嶺"
  },
  "8802116": {
    "zipcode": "8802116",
    "prefectureCode": "45",
    "prefectureNumber": 45,
    "prefecture": "宮崎県",
    "city": "宮崎市",
    "town": "細江（その他）"
  },
  "8802211": {
    "zipcode": "8802211",
    "prefectureCode": "45",
    "prefectureNumber": 45,
    "prefecture": "宮崎県",
    "city": "宮崎市",
    "town": "高岡町花見"
  },
  "8802212": {
    "zipcode": "8802212",
    "prefectureCode": "45",
    "prefectureNumber": 45,
    "prefecture": "宮崎県",
    "city": "宮崎市",
    "town": "高岡町下倉永"
  },
  "8802213": {
    "zipcode": "8802213",
    "prefectureCode": "45",
    "prefectureNumber": 45,
    "prefecture": "宮崎県",
    "city": "宮崎市",
    "town": "高岡町上倉永（その他）"
  },
  "8802214": {
    "zipcode": "8802214",
    "prefectureCode": "45",
    "prefectureNumber": 45,
    "prefecture": "宮崎県",
    "city": "宮崎市",
    "town": "高岡町小山田"
  },
  "8802215": {
    "zipcode": "8802215",
    "prefectureCode": "45",
    "prefectureNumber": 45,
    "prefecture": "宮崎県",
    "city": "宮崎市",
    "town": "高岡町高浜"
  },
  "8802221": {
    "zipcode": "8802221",
    "prefectureCode": "45",
    "prefectureNumber": 45,
    "prefecture": "宮崎県",
    "city": "宮崎市",
    "town": "高岡町内山（１〜３２１４番地）"
  },
  "8802222": {
    "zipcode": "8802222",
    "prefectureCode": "45",
    "prefectureNumber": 45,
    "prefecture": "宮崎県",
    "city": "宮崎市",
    "town": "高岡町五町（１〜３１３７番地）"
  },
  "8802223": {
    "zipcode": "8802223",
    "prefectureCode": "45",
    "prefectureNumber": 45,
    "prefecture": "宮崎県",
    "city": "宮崎市",
    "town": "高岡町浦之名（２７９３〜４３８９番地）"
  },
  "8802224": {
    "zipcode": "8802224",
    "prefectureCode": "45",
    "prefectureNumber": 45,
    "prefecture": "宮崎県",
    "city": "宮崎市",
    "town": "高岡町飯田"
  },
  "8802231": {
    "zipcode": "8802231",
    "prefectureCode": "45",
    "prefectureNumber": 45,
    "prefecture": "宮崎県",
    "city": "宮崎市",
    "town": "糸原"
  },
  "8802232": {
    "zipcode": "8802232",
    "prefectureCode": "45",
    "prefectureNumber": 45,
    "prefecture": "宮崎県",
    "city": "宮崎市",
    "town": "堤内"
  },
  "8802233": {
    "zipcode": "8802233",
    "prefectureCode": "45",
    "prefectureNumber": 45,
    "prefecture": "宮崎県",
    "city": "宮崎市",
    "town": "吉野"
  },
  "8802234": {
    "zipcode": "8802234",
    "prefectureCode": "45",
    "prefectureNumber": 45,
    "prefecture": "宮崎県",
    "city": "宮崎市",
    "town": "金崎"
  },
  "8802303": {
    "zipcode": "8802303",
    "prefectureCode": "45",
    "prefectureNumber": 45,
    "prefecture": "宮崎県",
    "city": "都城市",
    "town": "山之口町山之口（上平野、仲田）"
  },
  "8802321": {
    "zipcode": "8802321",
    "prefectureCode": "45",
    "prefectureNumber": 45,
    "prefecture": "宮崎県",
    "city": "宮崎市",
    "town": "高岡町内山（その他）"
  },
  "8802322": {
    "zipcode": "8802322",
    "prefectureCode": "45",
    "prefectureNumber": 45,
    "prefecture": "宮崎県",
    "city": "宮崎市",
    "town": "高岡町五町（その他）"
  },
  "8802323": {
    "zipcode": "8802323",
    "prefectureCode": "45",
    "prefectureNumber": 45,
    "prefecture": "宮崎県",
    "city": "宮崎市",
    "town": "高岡町浦之名（その他）"
  },
  "8802325": {
    "zipcode": "8802325",
    "prefectureCode": "45",
    "prefectureNumber": 45,
    "prefecture": "宮崎県",
    "city": "宮崎市",
    "town": "高岡町紙屋"
  }
}
