{
  "8820000": {
    "zipcode": "8820000",
    "prefectureCode": "45",
    "prefectureNumber": 45,
    "prefecture": "宮崎県",
    "city": "延岡市",
    "town": "以下に掲載がない場合"
  },
  "8820001": {
    "zipcode": "8820001",
    "prefectureCode": "45",
    "prefectureNumber": 45,
    "prefecture": "宮崎県",
    "city": "延岡市",
    "town": "大峡町"
  },
  "8820002": {
    "zipcode": "8820002",
    "prefectureCode": "45",
    "prefectureNumber": 45,
    "prefecture": "宮崎県",
    "city": "延岡市",
    "town": "差木野町"
  },
  "8820003": {
    "zipcode": "8820003",
    "prefectureCode": "45",
    "prefectureNumber": 45,
    "prefecture": "宮崎県",
    "city": "延岡市",
    "town": "稲葉崎町"
  },
  "8820004": {
    "zipcode": "8820004",
    "prefectureCode": "45",
    "prefectureNumber": 45,
    "prefecture": "宮崎県",
    "city": "延岡市",
    "town": "樫山町"
  },
  "8820005": {
    "zipcode": "8820005",
    "prefectureCode": "45",
    "prefectureNumber": 45,
    "prefecture": "宮崎県",
    "city": "延岡市",
    "town": "夏田町"
  },
  "8820006": {
    "zipcode": "8820006",
    "prefectureCode": "45",
    "prefectureNumber": 45,
    "prefecture": "宮崎県",
    "city": "延岡市",
    "town": "尾崎町"
  },
  "8820007": {
    "zipcode": "8820007",
    "prefectureCode": "45",
    "prefectureNumber": 45,
    "prefecture": "宮崎県",
    "city": "延岡市",
    "town": "桜ケ丘"
  },
  "8820011": {
    "zipcode": "8820011",
    "prefectureCode": "45",
    "prefectureNumber": 45,
    "prefecture": "宮崎県",
    "city": "延岡市",
    "town": "須佐町"
  },
  "8820012": {
    "zipcode": "8820012",
    "prefectureCode": "45",
    "prefectureNumber": 45,
    "prefecture": "宮崎県",
    "city": "延岡市",
    "town": "鹿小路"
  },
  "8820013": {
    "zipcode": "8820013",
    "prefectureCode": "45",
    "prefectureNumber": 45,
    "prefecture": "宮崎県",
    "city": "延岡市",
    "town": "追内町"
  },
  "8820014": {
    "zipcode": "8820014",
    "prefectureCode": "45",
    "prefectureNumber": 45,
    "prefecture": "宮崎県",
    "city": "延岡市",
    "town": "白石町"
  },
  "8820015": {
    "zipcode": "8820015",
    "prefectureCode": "45",
    "prefectureNumber": 45,
    "prefecture": "宮崎県",
    "city": "延岡市",
    "town": "水尻町"
  },
  "8820016": {
    "zipcode": "8820016",
    "prefectureCode": "45",
    "prefectureNumber": 45,
    "prefecture": "宮崎県",
    "city": "延岡市",
    "town": "東海町"
  },
  "8820017": {
    "zipcode": "8820017",
    "prefectureCode": "45",
    "prefectureNumber": 45,
    "prefecture": "宮崎県",
    "city": "延岡市",
    "town": "川島町"
  },
  "8820021": {
    "zipcode": "8820021",
    "prefectureCode": "45",
    "prefectureNumber": 45,
    "prefecture": "宮崎県",
    "city": "延岡市",
    "town": "無鹿町"
  },
  "8820022": {
    "zipcode": "8820022",
    "prefectureCode": "45",
    "prefectureNumber": 45,
    "prefecture": "宮崎県",
    "city": "延岡市",
    "town": "二ツ島町"
  },
  "8820023": {
    "zipcode": "8820023",
    "prefectureCode": "45",
    "prefectureNumber": 45,
    "prefecture": "宮崎県",
    "city": "延岡市",
    "town": "牧町"
  },
  "8820024": {
    "zipcode": "8820024",
    "prefectureCode": "45",
    "prefectureNumber": 45,
    "prefecture": "宮崎県",
    "city": "延岡市",
    "town": "大武町"
  },
  "8820025": {
    "zipcode": "8820025",
    "prefectureCode": "45",
    "prefectureNumber": 45,
    "prefecture": "宮崎県",
    "city": "延岡市",
    "town": "粟野名町"
  },
  "8820026": {
    "zipcode": "8820026",
    "prefectureCode": "45",
    "prefectureNumber": 45,
    "prefecture": "宮崎県",
    "city": "延岡市",
    "town": "柚の木田町"
  },
  "8820027": {
    "zipcode": "8820027",
    "prefectureCode": "45",
    "prefectureNumber": 45,
    "prefecture": "宮崎県",
    "city": "延岡市",
    "town": "大門町"
  },
  "8820031": {
    "zipcode": "8820031",
    "prefectureCode": "45",
    "prefectureNumber": 45,
    "prefecture": "宮崎県",
    "city": "延岡市",
    "town": "中川原町"
  },
  "8820032": {
    "zipcode": "8820032",
    "prefectureCode": "45",
    "prefectureNumber": 45,
    "prefecture": "宮崎県",
    "city": "延岡市",
    "town": "中の瀬町"
  },
  "8820033": {
    "zipcode": "8820033",
    "prefectureCode": "45",
    "prefectureNumber": 45,
    "prefecture": "宮崎県",
    "city": "延岡市",
    "town": "川原崎町"
  },
  "8820034": {
    "zipcode": "8820034",
    "prefectureCode": "45",
    "prefectureNumber": 45,
    "prefecture": "宮崎県",
    "city": "延岡市",
    "town": "昭和町"
  },
  "8820035": {
    "zipcode": "8820035",
    "prefectureCode": "45",
    "prefectureNumber": 45,
    "prefecture": "宮崎県",
    "city": "延岡市",
    "town": "日の出町"
  },
  "8820036": {
    "zipcode": "8820036",
    "prefectureCode": "45",
    "prefectureNumber": 45,
    "prefecture": "宮崎県",
    "city": "延岡市",
    "town": "桜園町"
  },
  "8820037": {
    "zipcode": "8820037",
    "prefectureCode": "45",
    "prefectureNumber": 45,
    "prefecture": "宮崎県",
    "city": "延岡市",
    "town": "山月町"
  },
  "8820041": {
    "zipcode": "8820041",
    "prefectureCode": "45",
    "prefectureNumber": 45,
    "prefecture": "宮崎県",
    "city": "延岡市",
    "town": "北小路"
  },
  "8820042": {
    "zipcode": "8820042",
    "prefectureCode": "45",
    "prefectureNumber": 45,
    "prefecture": "宮崎県",
    "city": "延岡市",
    "town": "高千穂通"
  },
  "8820043": {
    "zipcode": "8820043",
    "prefectureCode": "45",
    "prefectureNumber": 45,
    "prefecture": "宮崎県",
    "city": "延岡市",
    "town": "祗園町"
  },
  "8820044": {
    "zipcode": "8820044",
    "prefectureCode": "45",
    "prefectureNumber": 45,
    "prefecture": "宮崎県",
    "city": "延岡市",
    "town": "博労町"
  },
  "8820045": {
    "zipcode": "8820045",
    "prefectureCode": "45",
    "prefectureNumber": 45,
    "prefecture": "宮崎県",
    "city": "延岡市",
    "town": "瀬之口町"
  },
  "8820046": {
    "zipcode": "8820046",
    "prefectureCode": "45",
    "prefectureNumber": 45,
    "prefecture": "宮崎県",
    "city": "延岡市",
    "town": "恵比須町"
  },
  "8820047": {
    "zipcode": "8820047",
    "prefectureCode": "45",
    "prefectureNumber": 45,
    "prefecture": "宮崎県",
    "city": "延岡市",
    "town": "紺屋町"
  },
  "8820051": {
    "zipcode": "8820051",
    "prefectureCode": "45",
    "prefectureNumber": 45,
    "prefecture": "宮崎県",
    "city": "延岡市",
    "town": "富美山町"
  },
  "8820052": {
    "zipcode": "8820052",
    "prefectureCode": "45",
    "prefectureNumber": 45,
    "prefecture": "宮崎県",
    "city": "延岡市",
    "town": "萩町"
  },
  "8820053": {
    "zipcode": "8820053",
    "prefectureCode": "45",
    "prefectureNumber": 45,
    "prefecture": "宮崎県",
    "city": "延岡市",
    "town": "幸町"
  },
  "8820054": {
    "zipcode": "8820054",
    "prefectureCode": "45",
    "prefectureNumber": 45,
    "prefecture": "宮崎県",
    "city": "延岡市",
    "town": "栄町"
  },
  "8820055": {
    "zipcode": "8820055",
    "prefectureCode": "45",
    "prefectureNumber": 45,
    "prefecture": "宮崎県",
    "city": "延岡市",
    "town": "山下町"
  },
  "8820056": {
    "zipcode": "8820056",
    "prefectureCode": "45",
    "prefectureNumber": 45,
    "prefecture": "宮崎県",
    "city": "延岡市",
    "town": "岡富町"
  },
  "8820057": {
    "zipcode": "8820057",
    "prefectureCode": "45",
    "prefectureNumber": 45,
    "prefecture": "宮崎県",
    "city": "延岡市",
    "town": "岡富山"
  },
  "8820061": {
    "zipcode": "8820061",
    "prefectureCode": "45",
    "prefectureNumber": 45,
    "prefecture": "宮崎県",
    "city": "延岡市",
    "town": "小峰町"
  },
  "8820062": {
    "zipcode": "8820062",
    "prefectureCode": "45",
    "prefectureNumber": 45,
    "prefecture": "宮崎県",
    "city": "延岡市",
    "town": "松山町"
  },
  "8820063": {
    "zipcode": "8820063",
    "prefectureCode": "45",
    "prefectureNumber": 45,
    "prefecture": "宮崎県",
    "city": "延岡市",
    "town": "古川町"
  },
  "8820064": {
    "zipcode": "8820064",
    "prefectureCode": "45",
    "prefectureNumber": 45,
    "prefecture": "宮崎県",
    "city": "延岡市",
    "town": "高野町"
  },
  "8820065": {
    "zipcode": "8820065",
    "prefectureCode": "45",
    "prefectureNumber": 45,
    "prefecture": "宮崎県",
    "city": "延岡市",
    "town": "平田町"
  },
  "8820066": {
    "zipcode": "8820066",
    "prefectureCode": "45",
    "prefectureNumber": 45,
    "prefecture": "宮崎県",
    "city": "延岡市",
    "town": "舞野町"
  },
  "8820071": {
    "zipcode": "8820071",
    "prefectureCode": "45",
    "prefectureNumber": 45,
    "prefecture": "宮崎県",
    "city": "延岡市",
    "town": "天下町"
  },
  "8820072": {
    "zipcode": "8820072",
    "prefectureCode": "45",
    "prefectureNumber": 45,
    "prefecture": "宮崎県",
    "city": "延岡市",
    "town": "吉野町"
  },
  "8820073": {
    "zipcode": "8820073",
    "prefectureCode": "45",
    "prefectureNumber": 45,
    "prefecture": "宮崎県",
    "city": "延岡市",
    "town": "貝の畑町"
  },
  "8820074": {
    "zipcode": "8820074",
    "prefectureCode": "45",
    "prefectureNumber": 45,
    "prefecture": "宮崎県",
    "city": "延岡市",
    "town": "細見町"
  },
  "8820075": {
    "zipcode": "8820075",
    "prefectureCode": "45",
    "prefectureNumber": 45,
    "prefecture": "宮崎県",
    "city": "延岡市",
    "town": "岡元町"
  },
  "8820076": {
    "zipcode": "8820076",
    "prefectureCode": "45",
    "prefectureNumber": 45,
    "prefecture": "宮崎県",
    "city": "延岡市",
    "town": "小川町"
  },
  "8820077": {
    "zipcode": "8820077",
    "prefectureCode": "45",
    "prefectureNumber": 45,
    "prefecture": "宮崎県",
    "city": "延岡市",
    "town": "行縢町"
  },
  "8820081": {
    "zipcode": "8820081",
    "prefectureCode": "45",
    "prefectureNumber": 45,
    "prefecture": "宮崎県",
    "city": "延岡市",
    "town": "佐野町"
  },
  "8820082": {
    "zipcode": "8820082",
    "prefectureCode": "45",
    "prefectureNumber": 45,
    "prefecture": "宮崎県",
    "city": "延岡市",
    "town": "祝子町"
  },
  "8820083": {
    "zipcode": "8820083",
    "prefectureCode": "45",
    "prefectureNumber": 45,
    "prefecture": "宮崎県",
    "city": "延岡市",
    "town": "柚木町"
  },
  "8820084": {
    "zipcode": "8820084",
    "prefectureCode": "45",
    "prefectureNumber": 45,
    "prefecture": "宮崎県",
    "city": "延岡市",
    "town": "宇和田町"
  },
  "8820085": {
    "zipcode": "8820085",
    "prefectureCode": "45",
    "prefectureNumber": 45,
    "prefecture": "宮崎県",
    "city": "延岡市",
    "town": "鹿狩瀬町"
  },
  "8820086": {
    "zipcode": "8820086",
    "prefectureCode": "45",
    "prefectureNumber": 45,
    "prefecture": "宮崎県",
    "city": "延岡市",
    "town": "大野町"
  },
  "8820087": {
    "zipcode": "8820087",
    "prefectureCode": "45",
    "prefectureNumber": 45,
    "prefecture": "宮崎県",
    "city": "延岡市",
    "town": "妙町"
  },
  "8820091": {
    "zipcode": "8820091",
    "prefectureCode": "45",
    "prefectureNumber": 45,
    "prefecture": "宮崎県",
    "city": "延岡市",
    "town": "桑平町"
  },
  "8820092": {
    "zipcode": "8820092",
    "prefectureCode": "45",
    "prefectureNumber": 45,
    "prefecture": "宮崎県",
    "city": "延岡市",
    "town": "宮長町"
  },
  "8820093": {
    "zipcode": "8820093",
    "prefectureCode": "45",
    "prefectureNumber": 45,
    "prefecture": "宮崎県",
    "city": "延岡市",
    "town": "神戸町"
  },
  "8820094": {
    "zipcode": "8820094",
    "prefectureCode": "45",
    "prefectureNumber": 45,
    "prefecture": "宮崎県",
    "city": "延岡市",
    "town": "安井町"
  },
  "8820095": {
    "zipcode": "8820095",
    "prefectureCode": "45",
    "prefectureNumber": 45,
    "prefecture": "宮崎県",
    "city": "延岡市",
    "town": "浦城町"
  },
  "8820096": {
    "zipcode": "8820096",
    "prefectureCode": "45",
    "prefectureNumber": 45,
    "prefecture": "宮崎県",
    "city": "延岡市",
    "town": "島浦町"
  },
  "8820097": {
    "zipcode": "8820097",
    "prefectureCode": "45",
    "prefectureNumber": 45,
    "prefecture": "宮崎県",
    "city": "延岡市",
    "town": "北川町川内名（祝子川）"
  },
  "8820101": {
    "zipcode": "8820101",
    "prefectureCode": "45",
    "prefectureNumber": 45,
    "prefecture": "宮崎県",
    "city": "延岡市",
    "town": "北方町二股"
  },
  "8820104": {
    "zipcode": "8820104",
    "prefectureCode": "45",
    "prefectureNumber": 45,
    "prefecture": "宮崎県",
    "city": "延岡市",
    "town": "北方町角田"
  },
  "8820106": {
    "zipcode": "8820106",
    "prefectureCode": "45",
    "prefectureNumber": 45,
    "prefecture": "宮崎県",
    "city": "延岡市",
    "town": "北方町笠下"
  },
  "8820107": {
    "zipcode": "8820107",
    "prefectureCode": "45",
    "prefectureNumber": 45,
    "prefecture": "宮崎県",
    "city": "延岡市",
    "town": "北方町藤の木"
  },
  "8820121": {
    "zipcode": "8820121",
    "prefectureCode": "45",
    "prefectureNumber": 45,
    "prefecture": "宮崎県",
    "city": "延岡市",
    "town": "北方町板上"
  },
  "8820122": {
    "zipcode": "8820122",
    "prefectureCode": "45",
    "prefectureNumber": 45,
    "prefecture": "宮崎県",
    "city": "延岡市",
    "town": "北方町板下"
  },
  "8820123": {
    "zipcode": "8820123",
    "prefectureCode": "45",
    "prefectureNumber": 45,
    "prefecture": "宮崎県",
    "city": "延岡市",
    "town": "北方町うそ越"
  },
  "8820124": {
    "zipcode": "8820124",
    "prefectureCode": "45",
    "prefectureNumber": 45,
    "prefecture": "宮崎県",
    "city": "延岡市",
    "town": "北方町曽木"
  },
  "8820125": {
    "zipcode": "8820125",
    "prefectureCode": "45",
    "prefectureNumber": 45,
    "prefecture": "宮崎県",
    "city": "延岡市",
    "town": "北方町川水流"
  },
  "8820126": {
    "zipcode": "8820126",
    "prefectureCode": "45",
    "prefectureNumber": 45,
    "prefecture": "宮崎県",
    "city": "延岡市",
    "town": "北方町上崎"
  },
  "8820127": {
    "zipcode": "8820127",
    "prefectureCode": "45",
    "prefectureNumber": 45,
    "prefecture": "宮崎県",
    "city": "延岡市",
    "town": "北方町蔵田"
  },
  "8820128": {
    "zipcode": "8820128",
    "prefectureCode": "45",
    "prefectureNumber": 45,
    "prefecture": "宮崎県",
    "city": "延岡市",
    "town": "北方町南久保山"
  },
  "8820129": {
    "zipcode": "8820129",
    "prefectureCode": "45",
    "prefectureNumber": 45,
    "prefecture": "宮崎県",
    "city": "延岡市",
    "town": "北方町北久保山"
  },
  "8820231": {
    "zipcode": "8820231",
    "prefectureCode": "45",
    "prefectureNumber": 45,
    "prefecture": "宮崎県",
    "city": "延岡市",
    "town": "北方町上鹿川"
  },
  "8820232": {
    "zipcode": "8820232",
    "prefectureCode": "45",
    "prefectureNumber": 45,
    "prefecture": "宮崎県",
    "city": "延岡市",
    "town": "北方町下鹿川"
  },
  "8820233": {
    "zipcode": "8820233",
    "prefectureCode": "45",
    "prefectureNumber": 45,
    "prefecture": "宮崎県",
    "city": "延岡市",
    "town": "北方町菅原"
  },
  "8820234": {
    "zipcode": "8820234",
    "prefectureCode": "45",
    "prefectureNumber": 45,
    "prefecture": "宮崎県",
    "city": "延岡市",
    "town": "北方町美々地"
  },
  "8820235": {
    "zipcode": "8820235",
    "prefectureCode": "45",
    "prefectureNumber": 45,
    "prefecture": "宮崎県",
    "city": "延岡市",
    "town": "北方町槇峰"
  },
  "8820236": {
    "zipcode": "8820236",
    "prefectureCode": "45",
    "prefectureNumber": 45,
    "prefecture": "宮崎県",
    "city": "延岡市",
    "town": "北方町日平"
  },
  "8820237": {
    "zipcode": "8820237",
    "prefectureCode": "45",
    "prefectureNumber": 45,
    "prefecture": "宮崎県",
    "city": "延岡市",
    "town": "北方町椎畑"
  },
  "8820238": {
    "zipcode": "8820238",
    "prefectureCode": "45",
    "prefectureNumber": 45,
    "prefecture": "宮崎県",
    "city": "延岡市",
    "town": "北方町滝下"
  },
  "8820241": {
    "zipcode": "8820241",
    "prefectureCode": "45",
    "prefectureNumber": 45,
    "prefecture": "宮崎県",
    "city": "延岡市",
    "town": "北方町三ケ村"
  },
  "8820242": {
    "zipcode": "8820242",
    "prefectureCode": "45",
    "prefectureNumber": 45,
    "prefecture": "宮崎県",
    "city": "延岡市",
    "town": "北方町八峡"
  },
  "8820243": {
    "zipcode": "8820243",
    "prefectureCode": "45",
    "prefectureNumber": 45,
    "prefecture": "宮崎県",
    "city": "延岡市",
    "town": "北方町早日渡"
  },
  "8820244": {
    "zipcode": "8820244",
    "prefectureCode": "45",
    "prefectureNumber": 45,
    "prefecture": "宮崎県",
    "city": "延岡市",
    "town": "北方町早中"
  },
  "8820245": {
    "zipcode": "8820245",
    "prefectureCode": "45",
    "prefectureNumber": 45,
    "prefecture": "宮崎県",
    "city": "延岡市",
    "town": "北方町早上"
  },
  "8820301": {
    "zipcode": "8820301",
    "prefectureCode": "45",
    "prefectureNumber": 45,
    "prefecture": "宮崎県",
    "city": "西臼杵郡日之影町",
    "town": "七折（阿下、笠戸、椛木、鹿川、新町、滝ノ内、中川、西ノ内、舟ノ尾、八戸、簗崎）"
  },
  "8820302": {
    "zipcode": "8820302",
    "prefectureCode": "45",
    "prefectureNumber": 45,
    "prefecture": "宮崎県",
    "city": "西臼杵郡日之影町",
    "town": "岩井川（境野）"
  },
  "8820304": {
    "zipcode": "8820304",
    "prefectureCode": "45",
    "prefectureNumber": 45,
    "prefecture": "宮崎県",
    "city": "西臼杵郡日之影町",
    "town": "分城"
  },
  "8820400": {
    "zipcode": "8820400",
    "prefectureCode": "45",
    "prefectureNumber": 45,
    "prefecture": "宮崎県",
    "city": "西臼杵郡日之影町",
    "town": "以下に掲載がない場合"
  },
  "8820401": {
    "zipcode": "8820401",
    "prefectureCode": "45",
    "prefectureNumber": 45,
    "prefecture": "宮崎県",
    "city": "西臼杵郡日之影町",
    "town": "七折（その他）"
  },
  "8820402": {
    "zipcode": "8820402",
    "prefectureCode": "45",
    "prefectureNumber": 45,
    "prefecture": "宮崎県",
    "city": "西臼杵郡日之影町",
    "town": "岩井川（その他）"
  },
  "8820403": {
    "zipcode": "8820403",
    "prefectureCode": "45",
    "prefectureNumber": 45,
    "prefecture": "宮崎県",
    "city": "西臼杵郡日之影町",
    "town": "見立"
  },
  "8820801": {
    "zipcode": "8820801",
    "prefectureCode": "45",
    "prefectureNumber": 45,
    "prefecture": "宮崎県",
    "city": "延岡市",
    "town": "野田町"
  },
  "8820802": {
    "zipcode": "8820802",
    "prefectureCode": "45",
    "prefectureNumber": 45,
    "prefecture": "宮崎県",
    "city": "延岡市",
    "town": "野地町"
  },
  "8820803": {
    "zipcode": "8820803",
    "prefectureCode": "45",
    "prefectureNumber": 45,
    "prefecture": "宮崎県",
    "city": "延岡市",
    "town": "大貫町"
  },
  "8820804": {
    "zipcode": "8820804",
    "prefectureCode": "45",
    "prefectureNumber": 45,
    "prefecture": "宮崎県",
    "city": "延岡市",
    "town": "西階町"
  },
  "8820805": {
    "zipcode": "8820805",
    "prefectureCode": "45",
    "prefectureNumber": 45,
    "prefecture": "宮崎県",
    "city": "延岡市",
    "town": "野田"
  },
  "8820811": {
    "zipcode": "8820811",
    "prefectureCode": "45",
    "prefectureNumber": 45,
    "prefecture": "宮崎県",
    "city": "延岡市",
    "town": "天神小路"
  },
  "8820812": {
    "zipcode": "8820812",
    "prefectureCode": "45",
    "prefectureNumber": 45,
    "prefecture": "宮崎県",
    "city": "延岡市",
    "town": "本小路"
  },
  "8820813": {
    "zipcode": "8820813",
    "prefectureCode": "45",
    "prefectureNumber": 45,
    "prefecture": "宮崎県",
    "city": "延岡市",
    "town": "東本小路"
  },
  "8820814": {
    "zipcode": "8820814",
    "prefectureCode": "45",
    "prefectureNumber": 45,
    "prefecture": "宮崎県",
    "city": "延岡市",
    "town": "北町"
  },
  "8820815": {
    "zipcode": "8820815",
    "prefectureCode": "45",
    "prefectureNumber": 45,
    "prefecture": "宮崎県",
    "city": "延岡市",
    "town": "柳沢町"
  },
  "8820816": {
    "zipcode": "8820816",
    "prefectureCode": "45",
    "prefectureNumber": 45,
    "prefecture": "宮崎県",
    "city": "延岡市",
    "town": "桜小路"
  },
  "8820821": {
    "zipcode": "8820821",
    "prefectureCode": "45",
    "prefectureNumber": 45,
    "prefecture": "宮崎県",
    "city": "延岡市",
    "town": "本町"
  },
  "8820822": {
    "zipcode": "8820822",
    "prefectureCode": "45",
    "prefectureNumber": 45,
    "prefecture": "宮崎県",
    "city": "延岡市",
    "town": "南町"
  },
  "8820823": {
    "zipcode": "8820823",
    "prefectureCode": "45",
    "prefectureNumber": 45,
    "prefecture": "宮崎県",
    "city": "延岡市",
    "town": "中町"
  },
  "8820824": {
    "zipcode": "8820824",
    "prefectureCode": "45",
    "prefectureNumber": 45,
    "prefecture": "宮崎県",
    "city": "延岡市",
    "town": "中央通"
  },
  "8820825": {
    "zipcode": "8820825",
    "prefectureCode": "45",
    "prefectureNumber": 45,
    "prefecture": "宮崎県",
    "city": "延岡市",
    "town": "須崎町"
  },
  "8820826": {
    "zipcode": "8820826",
    "prefectureCode": "45",
    "prefectureNumber": 45,
    "prefecture": "宮崎県",
    "city": "延岡市",
    "town": "船倉町"
  },
  "8820827": {
    "zipcode": "8820827",
    "prefectureCode": "45",
    "prefectureNumber": 45,
    "prefecture": "宮崎県",
    "city": "延岡市",
    "town": "新町"
  },
  "8820831": {
    "zipcode": "8820831",
    "prefectureCode": "45",
    "prefectureNumber": 45,
    "prefecture": "宮崎県",
    "city": "延岡市",
    "town": "出口町"
  },
  "8820832": {
    "zipcode": "8820832",
    "prefectureCode": "45",
    "prefectureNumber": 45,
    "prefecture": "宮崎県",
    "city": "延岡市",
    "town": "西小路"
  },
  "8820833": {
    "zipcode": "8820833",
    "prefectureCode": "45",
    "prefectureNumber": 45,
    "prefecture": "宮崎県",
    "city": "延岡市",
    "town": "上大瀬町"
  },
  "8820834": {
    "zipcode": "8820834",
    "prefectureCode": "45",
    "prefectureNumber": 45,
    "prefecture": "宮崎県",
    "city": "延岡市",
    "town": "北新小路"
  },
  "8820835": {
    "zipcode": "8820835",
    "prefectureCode": "45",
    "prefectureNumber": 45,
    "prefecture": "宮崎県",
    "city": "延岡市",
    "town": "新小路"
  },
  "8820836": {
    "zipcode": "8820836",
    "prefectureCode": "45",
    "prefectureNumber": 45,
    "prefecture": "宮崎県",
    "city": "延岡市",
    "town": "恒富町"
  },
  "8820837": {
    "zipcode": "8820837",
    "prefectureCode": "45",
    "prefectureNumber": 45,
    "prefecture": "宮崎県",
    "city": "延岡市",
    "town": "古城町"
  },
  "8820841": {
    "zipcode": "8820841",
    "prefectureCode": "45",
    "prefectureNumber": 45,
    "prefecture": "宮崎県",
    "city": "延岡市",
    "town": "大瀬町"
  },
  "8820842": {
    "zipcode": "8820842",
    "prefectureCode": "45",
    "prefectureNumber": 45,
    "prefecture": "宮崎県",
    "city": "延岡市",
    "town": "三ツ瀬町"
  },
  "8820843": {
    "zipcode": "8820843",
    "prefectureCode": "45",
    "prefectureNumber": 45,
    "prefecture": "宮崎県",
    "city": "延岡市",
    "town": "永池町"
  },
  "8820844": {
    "zipcode": "8820844",
    "prefectureCode": "45",
    "prefectureNumber": 45,
    "prefecture": "宮崎県",
    "city": "延岡市",
    "town": "春日町"
  },
  "8820845": {
    "zipcode": "8820845",
    "prefectureCode": "45",
    "prefectureNumber": 45,
    "prefecture": "宮崎県",
    "city": "延岡市",
    "town": "安賀多町"
  },
  "8820846": {
    "zipcode": "8820846",
    "prefectureCode": "45",
    "prefectureNumber": 45,
    "prefecture": "宮崎県",
    "city": "延岡市",
    "town": "中島町"
  },
  "8820847": {
    "zipcode": "8820847",
    "prefectureCode": "45",
    "prefectureNumber": 45,
    "prefecture": "宮崎県",
    "city": "延岡市",
    "town": "旭町"
  },
  "8820851": {
    "zipcode": "8820851",
    "prefectureCode": "45",
    "prefectureNumber": 45,
    "prefecture": "宮崎県",
    "city": "延岡市",
    "town": "浜砂"
  },
  "8820852": {
    "zipcode": "8820852",
    "prefectureCode": "45",
    "prefectureNumber": 45,
    "prefecture": "宮崎県",
    "city": "延岡市",
    "town": "東浜砂町"
  },
  "8820853": {
    "zipcode": "8820853",
    "prefectureCode": "45",
    "prefectureNumber": 45,
    "prefecture": "宮崎県",
    "city": "延岡市",
    "town": "方財町"
  },
  "8820854": {
    "zipcode": "8820854",
    "prefectureCode": "45",
    "prefectureNumber": 45,
    "prefecture": "宮崎県",
    "city": "延岡市",
    "town": "長浜町"
  },
  "8820855": {
    "zipcode": "8820855",
    "prefectureCode": "45",
    "prefectureNumber": 45,
    "prefecture": "宮崎県",
    "city": "延岡市",
    "town": "卸本町"
  },
  "8820856": {
    "zipcode": "8820856",
    "prefectureCode": "45",
    "prefectureNumber": 45,
    "prefecture": "宮崎県",
    "city": "延岡市",
    "town": "出北"
  },
  "8820857": {
    "zipcode": "8820857",
    "prefectureCode": "45",
    "prefectureNumber": 45,
    "prefecture": "宮崎県",
    "city": "延岡市",
    "town": "惣領町"
  },
  "8820861": {
    "zipcode": "8820861",
    "prefectureCode": "45",
    "prefectureNumber": 45,
    "prefecture": "宮崎県",
    "city": "延岡市",
    "town": "別府町"
  },
  "8820862": {
    "zipcode": "8820862",
    "prefectureCode": "45",
    "prefectureNumber": 45,
    "prefecture": "宮崎県",
    "city": "延岡市",
    "town": "浜町"
  },
  "8820863": {
    "zipcode": "8820863",
    "prefectureCode": "45",
    "prefectureNumber": 45,
    "prefecture": "宮崎県",
    "city": "延岡市",
    "town": "緑ケ丘"
  },
  "8820864": {
    "zipcode": "8820864",
    "prefectureCode": "45",
    "prefectureNumber": 45,
    "prefecture": "宮崎県",
    "city": "延岡市",
    "town": "塩浜町"
  },
  "8820865": {
    "zipcode": "8820865",
    "prefectureCode": "45",
    "prefectureNumber": 45,
    "prefecture": "宮崎県",
    "city": "延岡市",
    "town": "鶴ケ丘"
  },
  "8820866": {
    "zipcode": "8820866",
    "prefectureCode": "45",
    "prefectureNumber": 45,
    "prefecture": "宮崎県",
    "city": "延岡市",
    "town": "平原町"
  },
  "8820867": {
    "zipcode": "8820867",
    "prefectureCode": "45",
    "prefectureNumber": 45,
    "prefecture": "宮崎県",
    "city": "延岡市",
    "town": "構口町"
  },
  "8820871": {
    "zipcode": "8820871",
    "prefectureCode": "45",
    "prefectureNumber": 45,
    "prefecture": "宮崎県",
    "city": "延岡市",
    "town": "愛宕山"
  },
  "8820872": {
    "zipcode": "8820872",
    "prefectureCode": "45",
    "prefectureNumber": 45,
    "prefecture": "宮崎県",
    "city": "延岡市",
    "town": "愛宕町"
  },
  "8820873": {
    "zipcode": "8820873",
    "prefectureCode": "45",
    "prefectureNumber": 45,
    "prefecture": "宮崎県",
    "city": "延岡市",
    "town": "共栄町"
  },
  "8820874": {
    "zipcode": "8820874",
    "prefectureCode": "45",
    "prefectureNumber": 45,
    "prefecture": "宮崎県",
    "city": "延岡市",
    "town": "伊達町"
  },
  "8820875": {
    "zipcode": "8820875",
    "prefectureCode": "45",
    "prefectureNumber": 45,
    "prefecture": "宮崎県",
    "city": "延岡市",
    "town": "若葉町"
  },
  "8820876": {
    "zipcode": "8820876",
    "prefectureCode": "45",
    "prefectureNumber": 45,
    "prefecture": "宮崎県",
    "city": "延岡市",
    "town": "沖田町"
  },
  "8820877": {
    "zipcode": "8820877",
    "prefectureCode": "45",
    "prefectureNumber": 45,
    "prefecture": "宮崎県",
    "city": "延岡市",
    "town": "片田町"
  },
  "8820881": {
    "zipcode": "8820881",
    "prefectureCode": "45",
    "prefectureNumber": 45,
    "prefecture": "宮崎県",
    "city": "延岡市",
    "town": "三須町"
  },
  "8820882": {
    "zipcode": "8820882",
    "prefectureCode": "45",
    "prefectureNumber": 45,
    "prefecture": "宮崎県",
    "city": "延岡市",
    "town": "小野町"
  },
  "8820883": {
    "zipcode": "8820883",
    "prefectureCode": "45",
    "prefectureNumber": 45,
    "prefecture": "宮崎県",
    "city": "延岡市",
    "town": "下三輪町"
  },
  "8820884": {
    "zipcode": "8820884",
    "prefectureCode": "45",
    "prefectureNumber": 45,
    "prefecture": "宮崎県",
    "city": "延岡市",
    "town": "中三輪町"
  },
  "8820885": {
    "zipcode": "8820885",
    "prefectureCode": "45",
    "prefectureNumber": 45,
    "prefecture": "宮崎県",
    "city": "延岡市",
    "town": "上三輪町"
  },
  "8821100": {
    "zipcode": "8821100",
    "prefectureCode": "45",
    "prefectureNumber": 45,
    "prefecture": "宮崎県",
    "city": "西臼杵郡高千穂町",
    "town": "以下に掲載がない場合"
  },
  "8821101": {
    "zipcode": "8821101",
    "prefectureCode": "45",
    "prefectureNumber": 45,
    "prefecture": "宮崎県",
    "city": "西臼杵郡高千穂町",
    "town": "三田井"
  },
  "8821102": {
    "zipcode": "8821102",
    "prefectureCode": "45",
    "prefectureNumber": 45,
    "prefecture": "宮崎県",
    "city": "西臼杵郡高千穂町",
    "town": "押方"
  },
  "8821103": {
    "zipcode": "8821103",
    "prefectureCode": "45",
    "prefectureNumber": 45,
    "prefecture": "宮崎県",
    "city": "西臼杵郡高千穂町",
    "town": "向山"
  },
  "8821200": {
    "zipcode": "8821200",
    "prefectureCode": "45",
    "prefectureNumber": 45,
    "prefecture": "宮崎県",
    "city": "西臼杵郡五ヶ瀬町",
    "town": "以下に掲載がない場合"
  },
  "8821201": {
    "zipcode": "8821201",
    "prefectureCode": "45",
    "prefectureNumber": 45,
    "prefecture": "宮崎県",
    "city": "西臼杵郡五ヶ瀬町",
    "town": "鞍岡"
  },
  "8821202": {
    "zipcode": "8821202",
    "prefectureCode": "45",
    "prefectureNumber": 45,
    "prefecture": "宮崎県",
    "city": "西臼杵郡五ヶ瀬町",
    "town": "桑野内"
  },
  "8821203": {
    "zipcode": "8821203",
    "prefectureCode": "45",
    "prefectureNumber": 45,
    "prefecture": "宮崎県",
    "city": "西臼杵郡五ヶ瀬町",
    "town": "三ヶ所"
  },
  "8821411": {
    "zipcode": "8821411",
    "prefectureCode": "45",
    "prefectureNumber": 45,
    "prefecture": "宮崎県",
    "city": "西臼杵郡高千穂町",
    "town": "上野"
  },
  "8821412": {
    "zipcode": "8821412",
    "prefectureCode": "45",
    "prefectureNumber": 45,
    "prefecture": "宮崎県",
    "city": "西臼杵郡高千穂町",
    "town": "下野"
  },
  "8821413": {
    "zipcode": "8821413",
    "prefectureCode": "45",
    "prefectureNumber": 45,
    "prefecture": "宮崎県",
    "city": "西臼杵郡高千穂町",
    "town": "田原"
  },
  "8821414": {
    "zipcode": "8821414",
    "prefectureCode": "45",
    "prefectureNumber": 45,
    "prefecture": "宮崎県",
    "city": "西臼杵郡高千穂町",
    "town": "河内"
  },
  "8821415": {
    "zipcode": "8821415",
    "prefectureCode": "45",
    "prefectureNumber": 45,
    "prefecture": "宮崎県",
    "city": "西臼杵郡高千穂町",
    "town": "五ケ所"
  },
  "8821621": {
    "zipcode": "8821621",
    "prefectureCode": "45",
    "prefectureNumber": 45,
    "prefecture": "宮崎県",
    "city": "西臼杵郡高千穂町",
    "town": "岩戸"
  },
  "8821622": {
    "zipcode": "8821622",
    "prefectureCode": "45",
    "prefectureNumber": 45,
    "prefecture": "宮崎県",
    "city": "西臼杵郡高千穂町",
    "town": "上岩戸"
  }
}
