{
  "8830000": {
    "zipcode": "8830000",
    "prefectureCode": "45",
    "prefectureNumber": 45,
    "prefecture": "宮崎県",
    "city": "日向市",
    "town": "以下に掲載がない場合"
  },
  "8830001": {
    "zipcode": "8830001",
    "prefectureCode": "45",
    "prefectureNumber": 45,
    "prefecture": "宮崎県",
    "city": "日向市",
    "town": "細島"
  },
  "8830002": {
    "zipcode": "8830002",
    "prefectureCode": "45",
    "prefectureNumber": 45,
    "prefecture": "宮崎県",
    "city": "日向市",
    "town": "平野町"
  },
  "8830003": {
    "zipcode": "8830003",
    "prefectureCode": "45",
    "prefectureNumber": 45,
    "prefecture": "宮崎県",
    "city": "日向市",
    "town": "伊勢ケ浜"
  },
  "8830004": {
    "zipcode": "8830004",
    "prefectureCode": "45",
    "prefectureNumber": 45,
    "prefecture": "宮崎県",
    "city": "日向市",
    "town": "浜町"
  },
  "8830005": {
    "zipcode": "8830005",
    "prefectureCode": "45",
    "prefectureNumber": 45,
    "prefecture": "宮崎県",
    "city": "日向市",
    "town": "中堀町"
  },
  "8830006": {
    "zipcode": "8830006",
    "prefectureCode": "45",
    "prefectureNumber": 45,
    "prefecture": "宮崎県",
    "city": "日向市",
    "town": "山手町"
  },
  "8830011": {
    "zipcode": "8830011",
    "prefectureCode": "45",
    "prefectureNumber": 45,
    "prefecture": "宮崎県",
    "city": "日向市",
    "town": "曽根町"
  },
  "8830012": {
    "zipcode": "8830012",
    "prefectureCode": "45",
    "prefectureNumber": 45,
    "prefecture": "宮崎県",
    "city": "日向市",
    "town": "江良町"
  },
  "8830013": {
    "zipcode": "8830013",
    "prefectureCode": "45",
    "prefectureNumber": 45,
    "prefecture": "宮崎県",
    "city": "日向市",
    "town": "新生町"
  },
  "8830014": {
    "zipcode": "8830014",
    "prefectureCode": "45",
    "prefectureNumber": 45,
    "prefecture": "宮崎県",
    "city": "日向市",
    "town": "原町"
  },
  "8830015": {
    "zipcode": "8830015",
    "prefectureCode": "45",
    "prefectureNumber": 45,
    "prefecture": "宮崎県",
    "city": "日向市",
    "town": "永江町"
  },
  "8830021": {
    "zipcode": "8830021",
    "prefectureCode": "45",
    "prefectureNumber": 45,
    "prefecture": "宮崎県",
    "city": "日向市",
    "town": "財光寺"
  },
  "8830022": {
    "zipcode": "8830022",
    "prefectureCode": "45",
    "prefectureNumber": 45,
    "prefecture": "宮崎県",
    "city": "日向市",
    "town": "平岩"
  },
  "8830023": {
    "zipcode": "8830023",
    "prefectureCode": "45",
    "prefectureNumber": 45,
    "prefecture": "宮崎県",
    "city": "日向市",
    "town": "財光寺沖町"
  },
  "8830024": {
    "zipcode": "8830024",
    "prefectureCode": "45",
    "prefectureNumber": 45,
    "prefecture": "宮崎県",
    "city": "日向市",
    "town": "財光寺往還町"
  },
  "8830031": {
    "zipcode": "8830031",
    "prefectureCode": "45",
    "prefectureNumber": 45,
    "prefecture": "宮崎県",
    "city": "日向市",
    "town": "比良町"
  },
  "8830032": {
    "zipcode": "8830032",
    "prefectureCode": "45",
    "prefectureNumber": 45,
    "prefecture": "宮崎県",
    "city": "日向市",
    "town": "山下町"
  },
  "8830033": {
    "zipcode": "8830033",
    "prefectureCode": "45",
    "prefectureNumber": 45,
    "prefecture": "宮崎県",
    "city": "日向市",
    "town": "塩見"
  },
  "8830034": {
    "zipcode": "8830034",
    "prefectureCode": "45",
    "prefectureNumber": 45,
    "prefecture": "宮崎県",
    "city": "日向市",
    "town": "富高"
  },
  "8830035": {
    "zipcode": "8830035",
    "prefectureCode": "45",
    "prefectureNumber": 45,
    "prefecture": "宮崎県",
    "city": "日向市",
    "town": "春原町"
  },
  "8830036": {
    "zipcode": "8830036",
    "prefectureCode": "45",
    "prefectureNumber": 45,
    "prefecture": "宮崎県",
    "city": "日向市",
    "town": "南町"
  },
  "8830037": {
    "zipcode": "8830037",
    "prefectureCode": "45",
    "prefectureNumber": 45,
    "prefecture": "宮崎県",
    "city": "日向市",
    "town": "不動寺"
  },
  "8830038": {
    "zipcode": "8830038",
    "prefectureCode": "45",
    "prefectureNumber": 45,
    "prefecture": "宮崎県",
    "city": "日向市",
    "town": "迎洋園"
  },
  "8830041": {
    "zipcode": "8830041",
    "prefectureCode": "45",
    "prefectureNumber": 45,
    "prefecture": "宮崎県",
    "city": "日向市",
    "town": "北町"
  },
  "8830042": {
    "zipcode": "8830042",
    "prefectureCode": "45",
    "prefectureNumber": 45,
    "prefecture": "宮崎県",
    "city": "日向市",
    "town": "高砂町"
  },
  "8830043": {
    "zipcode": "8830043",
    "prefectureCode": "45",
    "prefectureNumber": 45,
    "prefecture": "宮崎県",
    "city": "日向市",
    "town": "都町"
  },
  "8830044": {
    "zipcode": "8830044",
    "prefectureCode": "45",
    "prefectureNumber": 45,
    "prefecture": "宮崎県",
    "city": "日向市",
    "town": "上町"
  },
  "8830045": {
    "zipcode": "8830045",
    "prefectureCode": "45",
    "prefectureNumber": 45,
    "prefecture": "宮崎県",
    "city": "日向市",
    "town": "本町"
  },
  "8830046": {
    "zipcode": "8830046",
    "prefectureCode": "45",
    "prefectureNumber": 45,
    "prefecture": "宮崎県",
    "city": "日向市",
    "town": "中町"
  },
  "8830051": {
    "zipcode": "8830051",
    "prefectureCode": "45",
    "prefectureNumber": 45,
    "prefecture": "宮崎県",
    "city": "日向市",
    "town": "向江町"
  },
  "8830052": {
    "zipcode": "8830052",
    "prefectureCode": "45",
    "prefectureNumber": 45,
    "prefecture": "宮崎県",
    "city": "日向市",
    "town": "鶴町"
  },
  "8830053": {
    "zipcode": "8830053",
    "prefectureCode": "45",
    "prefectureNumber": 45,
    "prefecture": "宮崎県",
    "city": "日向市",
    "town": "梶木町"
  },
  "8830061": {
    "zipcode": "8830061",
    "prefectureCode": "45",
    "prefectureNumber": 45,
    "prefecture": "宮崎県",
    "city": "日向市",
    "town": "大王町"
  },
  "8830062": {
    "zipcode": "8830062",
    "prefectureCode": "45",
    "prefectureNumber": 45,
    "prefecture": "宮崎県",
    "city": "日向市",
    "town": "日知屋"
  },
  "8830063": {
    "zipcode": "8830063",
    "prefectureCode": "45",
    "prefectureNumber": 45,
    "prefecture": "宮崎県",
    "city": "日向市",
    "town": "竹島町"
  },
  "8830064": {
    "zipcode": "8830064",
    "prefectureCode": "45",
    "prefectureNumber": 45,
    "prefecture": "宮崎県",
    "city": "日向市",
    "town": "日知屋古田町"
  },
  "8830065": {
    "zipcode": "8830065",
    "prefectureCode": "45",
    "prefectureNumber": 45,
    "prefecture": "宮崎県",
    "city": "日向市",
    "town": "船場町"
  },
  "8830066": {
    "zipcode": "8830066",
    "prefectureCode": "45",
    "prefectureNumber": 45,
    "prefecture": "宮崎県",
    "city": "日向市",
    "town": "亀崎"
  },
  "8830067": {
    "zipcode": "8830067",
    "prefectureCode": "45",
    "prefectureNumber": 45,
    "prefecture": "宮崎県",
    "city": "日向市",
    "town": "亀崎東"
  },
  "8830068": {
    "zipcode": "8830068",
    "prefectureCode": "45",
    "prefectureNumber": 45,
    "prefecture": "宮崎県",
    "city": "日向市",
    "town": "亀崎西"
  },
  "8830101": {
    "zipcode": "8830101",
    "prefectureCode": "45",
    "prefectureNumber": 45,
    "prefecture": "宮崎県",
    "city": "日向市",
    "town": "東郷町山陰乙（その他）"
  },
  "8830102": {
    "zipcode": "8830102",
    "prefectureCode": "45",
    "prefectureNumber": 45,
    "prefecture": "宮崎県",
    "city": "日向市",
    "town": "東郷町山陰丙"
  },
  "8830103": {
    "zipcode": "8830103",
    "prefectureCode": "45",
    "prefectureNumber": 45,
    "prefecture": "宮崎県",
    "city": "日向市",
    "town": "東郷町山陰丁"
  },
  "8830104": {
    "zipcode": "8830104",
    "prefectureCode": "45",
    "prefectureNumber": 45,
    "prefecture": "宮崎県",
    "city": "日向市",
    "town": "東郷町山陰戊（５１３の１以内）"
  },
  "8830105": {
    "zipcode": "8830105",
    "prefectureCode": "45",
    "prefectureNumber": 45,
    "prefecture": "宮崎県",
    "city": "日向市",
    "town": "東郷町山陰己"
  },
  "8830106": {
    "zipcode": "8830106",
    "prefectureCode": "45",
    "prefectureNumber": 45,
    "prefecture": "宮崎県",
    "city": "日向市",
    "town": "東郷町山陰辛"
  },
  "8830107": {
    "zipcode": "8830107",
    "prefectureCode": "45",
    "prefectureNumber": 45,
    "prefecture": "宮崎県",
    "city": "日向市",
    "town": "東郷町山陰庚"
  },
  "8830108": {
    "zipcode": "8830108",
    "prefectureCode": "45",
    "prefectureNumber": 45,
    "prefecture": "宮崎県",
    "city": "日向市",
    "town": "東郷町八重原"
  },
  "8830109": {
    "zipcode": "8830109",
    "prefectureCode": "45",
    "prefectureNumber": 45,
    "prefecture": "宮崎県",
    "city": "日向市",
    "town": "東郷町山陰"
  },
  "8830111": {
    "zipcode": "8830111",
    "prefectureCode": "45",
    "prefectureNumber": 45,
    "prefecture": "宮崎県",
    "city": "日向市",
    "town": "東郷町迫野内"
  },
  "8830211": {
    "zipcode": "8830211",
    "prefectureCode": "45",
    "prefectureNumber": 45,
    "prefecture": "宮崎県",
    "city": "日向市",
    "town": "東郷町坪谷"
  },
  "8830212": {
    "zipcode": "8830212",
    "prefectureCode": "45",
    "prefectureNumber": 45,
    "prefecture": "宮崎県",
    "city": "日向市",
    "town": "東郷町山陰戊（その他）"
  },
  "8830213": {
    "zipcode": "8830213",
    "prefectureCode": "45",
    "prefectureNumber": 45,
    "prefecture": "宮崎県",
    "city": "日向市",
    "town": "東郷町下三ケ"
  },
  "8830301": {
    "zipcode": "8830301",
    "prefectureCode": "45",
    "prefectureNumber": 45,
    "prefecture": "宮崎県",
    "city": "東臼杵郡美郷町",
    "town": "南郷水清谷"
  },
  "8830302": {
    "zipcode": "8830302",
    "prefectureCode": "45",
    "prefectureNumber": 45,
    "prefecture": "宮崎県",
    "city": "東臼杵郡美郷町",
    "town": "南郷中渡川"
  },
  "8830303": {
    "zipcode": "8830303",
    "prefectureCode": "45",
    "prefectureNumber": 45,
    "prefecture": "宮崎県",
    "city": "東臼杵郡美郷町",
    "town": "南郷上渡川"
  },
  "8830304": {
    "zipcode": "8830304",
    "prefectureCode": "45",
    "prefectureNumber": 45,
    "prefecture": "宮崎県",
    "city": "東臼杵郡美郷町",
    "town": "南郷鬼神野"
  },
  "8830305": {
    "zipcode": "8830305",
    "prefectureCode": "45",
    "prefectureNumber": 45,
    "prefecture": "宮崎県",
    "city": "東臼杵郡美郷町",
    "town": "南郷山三ヶ"
  },
  "8830306": {
    "zipcode": "8830306",
    "prefectureCode": "45",
    "prefectureNumber": 45,
    "prefecture": "宮崎県",
    "city": "東臼杵郡美郷町",
    "town": "南郷神門"
  },
  "8830402": {
    "zipcode": "8830402",
    "prefectureCode": "45",
    "prefectureNumber": 45,
    "prefecture": "宮崎県",
    "city": "東臼杵郡椎葉村",
    "town": "大河内（１〜１３０２番地）"
  },
  "8831100": {
    "zipcode": "8831100",
    "prefectureCode": "45",
    "prefectureNumber": 45,
    "prefecture": "宮崎県",
    "city": "東臼杵郡美郷町",
    "town": "以下に掲載がない場合"
  },
  "8831101": {
    "zipcode": "8831101",
    "prefectureCode": "45",
    "prefectureNumber": 45,
    "prefecture": "宮崎県",
    "city": "東臼杵郡美郷町",
    "town": "西郷田代"
  },
  "8831102": {
    "zipcode": "8831102",
    "prefectureCode": "45",
    "prefectureNumber": 45,
    "prefecture": "宮崎県",
    "city": "東臼杵郡美郷町",
    "town": "西郷立石"
  },
  "8831211": {
    "zipcode": "8831211",
    "prefectureCode": "45",
    "prefectureNumber": 45,
    "prefecture": "宮崎県",
    "city": "東臼杵郡美郷町",
    "town": "西郷山三ヶ"
  },
  "8831212": {
    "zipcode": "8831212",
    "prefectureCode": "45",
    "prefectureNumber": 45,
    "prefecture": "宮崎県",
    "city": "東臼杵郡美郷町",
    "town": "西郷小原"
  },
  "8831300": {
    "zipcode": "8831300",
    "prefectureCode": "45",
    "prefectureNumber": 45,
    "prefecture": "宮崎県",
    "city": "東臼杵郡諸塚村",
    "town": "以下に掲載がない場合"
  },
  "8831301": {
    "zipcode": "8831301",
    "prefectureCode": "45",
    "prefectureNumber": 45,
    "prefecture": "宮崎県",
    "city": "東臼杵郡諸塚村",
    "town": "家代"
  },
  "8831302": {
    "zipcode": "8831302",
    "prefectureCode": "45",
    "prefectureNumber": 45,
    "prefecture": "宮崎県",
    "city": "東臼杵郡諸塚村",
    "town": "七ツ山（その他）"
  },
  "8831402": {
    "zipcode": "8831402",
    "prefectureCode": "45",
    "prefectureNumber": 45,
    "prefecture": "宮崎県",
    "city": "東臼杵郡諸塚村",
    "town": "七ツ山（飯干、小原井、川内、立岩、八重の平、本村）"
  },
  "8831600": {
    "zipcode": "8831600",
    "prefectureCode": "45",
    "prefectureNumber": 45,
    "prefecture": "宮崎県",
    "city": "東臼杵郡椎葉村",
    "town": "以下に掲載がない場合"
  },
  "8831601": {
    "zipcode": "8831601",
    "prefectureCode": "45",
    "prefectureNumber": 45,
    "prefecture": "宮崎県",
    "city": "東臼杵郡椎葉村",
    "town": "下福良"
  },
  "8831602": {
    "zipcode": "8831602",
    "prefectureCode": "45",
    "prefectureNumber": 45,
    "prefecture": "宮崎県",
    "city": "東臼杵郡椎葉村",
    "town": "大河内（その他）"
  },
  "8831603": {
    "zipcode": "8831603",
    "prefectureCode": "45",
    "prefectureNumber": 45,
    "prefecture": "宮崎県",
    "city": "東臼杵郡椎葉村",
    "town": "不土野"
  },
  "8831604": {
    "zipcode": "8831604",
    "prefectureCode": "45",
    "prefectureNumber": 45,
    "prefecture": "宮崎県",
    "city": "東臼杵郡椎葉村",
    "town": "松尾"
  }
}
