{
  "8840000": {
    "zipcode": "8840000",
    "prefectureCode": "45",
    "prefectureNumber": 45,
    "prefecture": "宮崎県",
    "city": "児湯郡高鍋町",
    "town": "以下に掲載がない場合"
  },
  "8840001": {
    "zipcode": "8840001",
    "prefectureCode": "45",
    "prefectureNumber": 45,
    "prefecture": "宮崎県",
    "city": "児湯郡高鍋町",
    "town": "高鍋町"
  },
  "8840002": {
    "zipcode": "8840002",
    "prefectureCode": "45",
    "prefectureNumber": 45,
    "prefecture": "宮崎県",
    "city": "児湯郡高鍋町",
    "town": "北高鍋"
  },
  "8840003": {
    "zipcode": "8840003",
    "prefectureCode": "45",
    "prefectureNumber": 45,
    "prefecture": "宮崎県",
    "city": "児湯郡高鍋町",
    "town": "南高鍋"
  },
  "8840004": {
    "zipcode": "8840004",
    "prefectureCode": "45",
    "prefectureNumber": 45,
    "prefecture": "宮崎県",
    "city": "児湯郡高鍋町",
    "town": "蚊口浦"
  },
  "8840005": {
    "zipcode": "8840005",
    "prefectureCode": "45",
    "prefectureNumber": 45,
    "prefecture": "宮崎県",
    "city": "児湯郡高鍋町",
    "town": "持田"
  },
  "8840006": {
    "zipcode": "8840006",
    "prefectureCode": "45",
    "prefectureNumber": 45,
    "prefecture": "宮崎県",
    "city": "児湯郡高鍋町",
    "town": "上江"
  },
  "8840100": {
    "zipcode": "8840100",
    "prefectureCode": "45",
    "prefectureNumber": 45,
    "prefecture": "宮崎県",
    "city": "児湯郡木城町",
    "town": "以下に掲載がない場合"
  },
  "8840101": {
    "zipcode": "8840101",
    "prefectureCode": "45",
    "prefectureNumber": 45,
    "prefecture": "宮崎県",
    "city": "児湯郡木城町",
    "town": "高城"
  },
  "8840102": {
    "zipcode": "8840102",
    "prefectureCode": "45",
    "prefectureNumber": 45,
    "prefecture": "宮崎県",
    "city": "児湯郡木城町",
    "town": "椎木"
  },
  "8840103": {
    "zipcode": "8840103",
    "prefectureCode": "45",
    "prefectureNumber": 45,
    "prefecture": "宮崎県",
    "city": "児湯郡木城町",
    "town": "川原"
  },
  "8840104": {
    "zipcode": "8840104",
    "prefectureCode": "45",
    "prefectureNumber": 45,
    "prefecture": "宮崎県",
    "city": "児湯郡木城町",
    "town": "石河内"
  },
  "8840105": {
    "zipcode": "8840105",
    "prefectureCode": "45",
    "prefectureNumber": 45,
    "prefecture": "宮崎県",
    "city": "児湯郡木城町",
    "town": "中之又"
  }
}
