{
  "8860000": {
    "zipcode": "8860000",
    "prefectureCode": "45",
    "prefectureNumber": 45,
    "prefecture": "宮崎県",
    "city": "小林市",
    "town": "以下に掲載がない場合"
  },
  "8860001": {
    "zipcode": "8860001",
    "prefectureCode": "45",
    "prefectureNumber": 45,
    "prefecture": "宮崎県",
    "city": "小林市",
    "town": "東方（その他）"
  },
  "8860002": {
    "zipcode": "8860002",
    "prefectureCode": "45",
    "prefectureNumber": 45,
    "prefecture": "宮崎県",
    "city": "小林市",
    "town": "水流迫"
  },
  "8860003": {
    "zipcode": "8860003",
    "prefectureCode": "45",
    "prefectureNumber": 45,
    "prefecture": "宮崎県",
    "city": "小林市",
    "town": "堤"
  },
  "8860004": {
    "zipcode": "8860004",
    "prefectureCode": "45",
    "prefectureNumber": 45,
    "prefecture": "宮崎県",
    "city": "小林市",
    "town": "細野"
  },
  "8860005": {
    "zipcode": "8860005",
    "prefectureCode": "45",
    "prefectureNumber": 45,
    "prefecture": "宮崎県",
    "city": "小林市",
    "town": "南西方"
  },
  "8860006": {
    "zipcode": "8860006",
    "prefectureCode": "45",
    "prefectureNumber": 45,
    "prefecture": "宮崎県",
    "city": "小林市",
    "town": "北西方"
  },
  "8860007": {
    "zipcode": "8860007",
    "prefectureCode": "45",
    "prefectureNumber": 45,
    "prefecture": "宮崎県",
    "city": "小林市",
    "town": "真方"
  },
  "8860008": {
    "zipcode": "8860008",
    "prefectureCode": "45",
    "prefectureNumber": 45,
    "prefecture": "宮崎県",
    "city": "小林市",
    "town": "本町"
  },
  "8860009": {
    "zipcode": "8860009",
    "prefectureCode": "45",
    "prefectureNumber": 45,
    "prefecture": "宮崎県",
    "city": "小林市",
    "town": "駅南"
  },
  "8860101": {
    "zipcode": "8860101",
    "prefectureCode": "45",
    "prefectureNumber": 45,
    "prefecture": "宮崎県",
    "city": "小林市",
    "town": "東方（５７４１、５８７１番地）"
  },
  "8860111": {
    "zipcode": "8860111",
    "prefectureCode": "45",
    "prefectureNumber": 45,
    "prefecture": "宮崎県",
    "city": "小林市",
    "town": "須木中原"
  },
  "8860112": {
    "zipcode": "8860112",
    "prefectureCode": "45",
    "prefectureNumber": 45,
    "prefecture": "宮崎県",
    "city": "小林市",
    "town": "須木下田"
  },
  "8860113": {
    "zipcode": "8860113",
    "prefectureCode": "45",
    "prefectureNumber": 45,
    "prefecture": "宮崎県",
    "city": "小林市",
    "town": "須木鳥田町"
  },
  "8860114": {
    "zipcode": "8860114",
    "prefectureCode": "45",
    "prefectureNumber": 45,
    "prefecture": "宮崎県",
    "city": "小林市",
    "town": "須木奈佐木"
  },
  "8860115": {
    "zipcode": "8860115",
    "prefectureCode": "45",
    "prefectureNumber": 45,
    "prefecture": "宮崎県",
    "city": "小林市",
    "town": "須木内山"
  },
  "8860211": {
    "zipcode": "8860211",
    "prefectureCode": "45",
    "prefectureNumber": 45,
    "prefecture": "宮崎県",
    "city": "小林市",
    "town": "野尻町紙屋"
  },
  "8860212": {
    "zipcode": "8860212",
    "prefectureCode": "45",
    "prefectureNumber": 45,
    "prefecture": "宮崎県",
    "city": "小林市",
    "town": "野尻町東麓"
  },
  "8860213": {
    "zipcode": "8860213",
    "prefectureCode": "45",
    "prefectureNumber": 45,
    "prefecture": "宮崎県",
    "city": "小林市",
    "town": "野尻町三ケ野山"
  }
}
