{
  "8870000": {
    "zipcode": "8870000",
    "prefectureCode": "45",
    "prefectureNumber": 45,
    "prefecture": "宮崎県",
    "city": "日南市",
    "town": "以下に掲載がない場合"
  },
  "8870001": {
    "zipcode": "8870001",
    "prefectureCode": "45",
    "prefectureNumber": 45,
    "prefecture": "宮崎県",
    "city": "日南市",
    "town": "油津"
  },
  "8870002": {
    "zipcode": "8870002",
    "prefectureCode": "45",
    "prefectureNumber": 45,
    "prefecture": "宮崎県",
    "city": "日南市",
    "town": "西町"
  },
  "8870003": {
    "zipcode": "8870003",
    "prefectureCode": "45",
    "prefectureNumber": 45,
    "prefecture": "宮崎県",
    "city": "日南市",
    "town": "瀬西"
  },
  "8870004": {
    "zipcode": "8870004",
    "prefectureCode": "45",
    "prefectureNumber": 45,
    "prefecture": "宮崎県",
    "city": "日南市",
    "town": "天福"
  },
  "8870005": {
    "zipcode": "8870005",
    "prefectureCode": "45",
    "prefectureNumber": 45,
    "prefecture": "宮崎県",
    "city": "日南市",
    "town": "材木町"
  },
  "8870006": {
    "zipcode": "8870006",
    "prefectureCode": "45",
    "prefectureNumber": 45,
    "prefecture": "宮崎県",
    "city": "日南市",
    "town": "春日町"
  },
  "8870007": {
    "zipcode": "8870007",
    "prefectureCode": "45",
    "prefectureNumber": 45,
    "prefecture": "宮崎県",
    "city": "日南市",
    "town": "乙姫町"
  },
  "8870011": {
    "zipcode": "8870011",
    "prefectureCode": "45",
    "prefectureNumber": 45,
    "prefecture": "宮崎県",
    "city": "日南市",
    "town": "瀬貝"
  },
  "8870012": {
    "zipcode": "8870012",
    "prefectureCode": "45",
    "prefectureNumber": 45,
    "prefecture": "宮崎県",
    "city": "日南市",
    "town": "園田"
  },
  "8870013": {
    "zipcode": "8870013",
    "prefectureCode": "45",
    "prefectureNumber": 45,
    "prefecture": "宮崎県",
    "city": "日南市",
    "town": "木山"
  },
  "8870014": {
    "zipcode": "8870014",
    "prefectureCode": "45",
    "prefectureNumber": 45,
    "prefecture": "宮崎県",
    "city": "日南市",
    "town": "岩崎"
  },
  "8870015": {
    "zipcode": "8870015",
    "prefectureCode": "45",
    "prefectureNumber": 45,
    "prefecture": "宮崎県",
    "city": "日南市",
    "town": "平野"
  },
  "8870016": {
    "zipcode": "8870016",
    "prefectureCode": "45",
    "prefectureNumber": 45,
    "prefecture": "宮崎県",
    "city": "日南市",
    "town": "中平野"
  },
  "8870017": {
    "zipcode": "8870017",
    "prefectureCode": "45",
    "prefectureNumber": 45,
    "prefecture": "宮崎県",
    "city": "日南市",
    "town": "梅ケ浜"
  },
  "8870021": {
    "zipcode": "8870021",
    "prefectureCode": "45",
    "prefectureNumber": 45,
    "prefecture": "宮崎県",
    "city": "日南市",
    "town": "中央通"
  },
  "8870022": {
    "zipcode": "8870022",
    "prefectureCode": "45",
    "prefectureNumber": 45,
    "prefecture": "宮崎県",
    "city": "日南市",
    "town": "上平野町"
  },
  "8870023": {
    "zipcode": "8870023",
    "prefectureCode": "45",
    "prefectureNumber": 45,
    "prefecture": "宮崎県",
    "city": "日南市",
    "town": "隈谷"
  },
  "8870024": {
    "zipcode": "8870024",
    "prefectureCode": "45",
    "prefectureNumber": 45,
    "prefecture": "宮崎県",
    "city": "日南市",
    "town": "西弁分"
  },
  "8870031": {
    "zipcode": "8870031",
    "prefectureCode": "45",
    "prefectureNumber": 45,
    "prefecture": "宮崎県",
    "city": "日南市",
    "town": "戸高"
  },
  "8870032": {
    "zipcode": "8870032",
    "prefectureCode": "45",
    "prefectureNumber": 45,
    "prefecture": "宮崎県",
    "city": "日南市",
    "town": "益安"
  },
  "8870033": {
    "zipcode": "8870033",
    "prefectureCode": "45",
    "prefectureNumber": 45,
    "prefecture": "宮崎県",
    "city": "日南市",
    "town": "平山"
  },
  "8870034": {
    "zipcode": "8870034",
    "prefectureCode": "45",
    "prefectureNumber": 45,
    "prefecture": "宮崎県",
    "city": "日南市",
    "town": "風田"
  },
  "8870041": {
    "zipcode": "8870041",
    "prefectureCode": "45",
    "prefectureNumber": 45,
    "prefecture": "宮崎県",
    "city": "日南市",
    "town": "吾田東（１〜４丁目）"
  },
  "8870101": {
    "zipcode": "8870101",
    "prefectureCode": "45",
    "prefectureNumber": 45,
    "prefecture": "宮崎県",
    "city": "日南市",
    "town": "宮浦"
  },
  "8870102": {
    "zipcode": "8870102",
    "prefectureCode": "45",
    "prefectureNumber": 45,
    "prefecture": "宮崎県",
    "city": "日南市",
    "town": "富土"
  },
  "8870111": {
    "zipcode": "8870111",
    "prefectureCode": "45",
    "prefectureNumber": 45,
    "prefecture": "宮崎県",
    "city": "日南市",
    "town": "伊比井"
  }
}
