{
  "8880000": {
    "zipcode": "8880000",
    "prefectureCode": "45",
    "prefectureNumber": 45,
    "prefecture": "宮崎県",
    "city": "串間市",
    "town": "以下に掲載がない場合"
  },
  "8880001": {
    "zipcode": "8880001",
    "prefectureCode": "45",
    "prefectureNumber": 45,
    "prefecture": "宮崎県",
    "city": "串間市",
    "town": "西方"
  },
  "8880002": {
    "zipcode": "8880002",
    "prefectureCode": "45",
    "prefectureNumber": 45,
    "prefecture": "宮崎県",
    "city": "串間市",
    "town": "高松"
  },
  "8880003": {
    "zipcode": "8880003",
    "prefectureCode": "45",
    "prefectureNumber": 45,
    "prefecture": "宮崎県",
    "city": "串間市",
    "town": "奴久見"
  },
  "8880004": {
    "zipcode": "8880004",
    "prefectureCode": "45",
    "prefectureNumber": 45,
    "prefecture": "宮崎県",
    "city": "串間市",
    "town": "串間"
  },
  "8880005": {
    "zipcode": "8880005",
    "prefectureCode": "45",
    "prefectureNumber": 45,
    "prefecture": "宮崎県",
    "city": "串間市",
    "town": "北方"
  },
  "8880006": {
    "zipcode": "8880006",
    "prefectureCode": "45",
    "prefectureNumber": 45,
    "prefecture": "宮崎県",
    "city": "串間市",
    "town": "秋山"
  },
  "8880007": {
    "zipcode": "8880007",
    "prefectureCode": "45",
    "prefectureNumber": 45,
    "prefecture": "宮崎県",
    "city": "串間市",
    "town": "南方"
  },
  "8880008": {
    "zipcode": "8880008",
    "prefectureCode": "45",
    "prefectureNumber": 45,
    "prefecture": "宮崎県",
    "city": "串間市",
    "town": "本城"
  },
  "8880009": {
    "zipcode": "8880009",
    "prefectureCode": "45",
    "prefectureNumber": 45,
    "prefecture": "宮崎県",
    "city": "串間市",
    "town": "崎田"
  },
  "8880011": {
    "zipcode": "8880011",
    "prefectureCode": "45",
    "prefectureNumber": 45,
    "prefecture": "宮崎県",
    "city": "串間市",
    "town": "寺里"
  },
  "8880012": {
    "zipcode": "8880012",
    "prefectureCode": "45",
    "prefectureNumber": 45,
    "prefecture": "宮崎県",
    "city": "串間市",
    "town": "西浜"
  },
  "8880013": {
    "zipcode": "8880013",
    "prefectureCode": "45",
    "prefectureNumber": 45,
    "prefecture": "宮崎県",
    "city": "串間市",
    "town": "東町"
  },
  "8880221": {
    "zipcode": "8880221",
    "prefectureCode": "45",
    "prefectureNumber": 45,
    "prefecture": "宮崎県",
    "city": "串間市",
    "town": "大納"
  },
  "8880222": {
    "zipcode": "8880222",
    "prefectureCode": "45",
    "prefectureNumber": 45,
    "prefecture": "宮崎県",
    "city": "串間市",
    "town": "都井"
  }
}
