{
  "8890101": {
    "zipcode": "8890101",
    "prefectureCode": "45",
    "prefectureNumber": 45,
    "prefecture": "宮崎県",
    "city": "延岡市",
    "town": "北川町川内名（その他）"
  },
  "8890102": {
    "zipcode": "8890102",
    "prefectureCode": "45",
    "prefectureNumber": 45,
    "prefecture": "宮崎県",
    "city": "延岡市",
    "town": "北川町長井"
  },
  "8890301": {
    "zipcode": "8890301",
    "prefectureCode": "45",
    "prefectureNumber": 45,
    "prefecture": "宮崎県",
    "city": "延岡市",
    "town": "北浦町古江"
  },
  "8890302": {
    "zipcode": "8890302",
    "prefectureCode": "45",
    "prefectureNumber": 45,
    "prefecture": "宮崎県",
    "city": "延岡市",
    "town": "北浦町市振"
  },
  "8890303": {
    "zipcode": "8890303",
    "prefectureCode": "45",
    "prefectureNumber": 45,
    "prefecture": "宮崎県",
    "city": "延岡市",
    "town": "北浦町宮野浦"
  },
  "8890304": {
    "zipcode": "8890304",
    "prefectureCode": "45",
    "prefectureNumber": 45,
    "prefecture": "宮崎県",
    "city": "延岡市",
    "town": "北浦町三川内"
  },
  "8890321": {
    "zipcode": "8890321",
    "prefectureCode": "45",
    "prefectureNumber": 45,
    "prefecture": "宮崎県",
    "city": "延岡市",
    "town": "須美江町"
  },
  "8890322": {
    "zipcode": "8890322",
    "prefectureCode": "45",
    "prefectureNumber": 45,
    "prefecture": "宮崎県",
    "city": "延岡市",
    "town": "熊野江町"
  },
  "8890501": {
    "zipcode": "8890501",
    "prefectureCode": "45",
    "prefectureNumber": 45,
    "prefecture": "宮崎県",
    "city": "延岡市",
    "town": "石田町"
  },
  "8890502": {
    "zipcode": "8890502",
    "prefectureCode": "45",
    "prefectureNumber": 45,
    "prefecture": "宮崎県",
    "city": "延岡市",
    "town": "上伊形町"
  },
  "8890503": {
    "zipcode": "8890503",
    "prefectureCode": "45",
    "prefectureNumber": 45,
    "prefecture": "宮崎県",
    "city": "延岡市",
    "town": "伊形町"
  },
  "8890504": {
    "zipcode": "8890504",
    "prefectureCode": "45",
    "prefectureNumber": 45,
    "prefecture": "宮崎県",
    "city": "延岡市",
    "town": "下伊形町"
  },
  "8890505": {
    "zipcode": "8890505",
    "prefectureCode": "45",
    "prefectureNumber": 45,
    "prefecture": "宮崎県",
    "city": "延岡市",
    "town": "北一ケ岡"
  },
  "8890506": {
    "zipcode": "8890506",
    "prefectureCode": "45",
    "prefectureNumber": 45,
    "prefecture": "宮崎県",
    "city": "延岡市",
    "town": "南一ケ岡"
  },
  "8890507": {
    "zipcode": "8890507",
    "prefectureCode": "45",
    "prefectureNumber": 45,
    "prefecture": "宮崎県",
    "city": "延岡市",
    "town": "旭ケ丘"
  },
  "8890511": {
    "zipcode": "8890511",
    "prefectureCode": "45",
    "prefectureNumber": 45,
    "prefecture": "宮崎県",
    "city": "延岡市",
    "town": "松原町"
  },
  "8890512": {
    "zipcode": "8890512",
    "prefectureCode": "45",
    "prefectureNumber": 45,
    "prefecture": "宮崎県",
    "city": "延岡市",
    "town": "新浜町"
  },
  "8890513": {
    "zipcode": "8890513",
    "prefectureCode": "45",
    "prefectureNumber": 45,
    "prefecture": "宮崎県",
    "city": "延岡市",
    "town": "土々呂町"
  },
  "8890514": {
    "zipcode": "8890514",
    "prefectureCode": "45",
    "prefectureNumber": 45,
    "prefecture": "宮崎県",
    "city": "延岡市",
    "town": "櫛津町"
  },
  "8890515": {
    "zipcode": "8890515",
    "prefectureCode": "45",
    "prefectureNumber": 45,
    "prefecture": "宮崎県",
    "city": "延岡市",
    "town": "妙見町"
  },
  "8890516": {
    "zipcode": "8890516",
    "prefectureCode": "45",
    "prefectureNumber": 45,
    "prefecture": "宮崎県",
    "city": "延岡市",
    "town": "鯛名町"
  },
  "8890517": {
    "zipcode": "8890517",
    "prefectureCode": "45",
    "prefectureNumber": 45,
    "prefecture": "宮崎県",
    "city": "延岡市",
    "town": "赤水町"
  },
  "8890600": {
    "zipcode": "8890600",
    "prefectureCode": "45",
    "prefectureNumber": 45,
    "prefecture": "宮崎県",
    "city": "東臼杵郡門川町",
    "town": "以下に掲載がない場合"
  },
  "8890601": {
    "zipcode": "8890601",
    "prefectureCode": "45",
    "prefectureNumber": 45,
    "prefecture": "宮崎県",
    "city": "東臼杵郡門川町",
    "town": "須賀崎"
  },
  "8890602": {
    "zipcode": "8890602",
    "prefectureCode": "45",
    "prefectureNumber": 45,
    "prefecture": "宮崎県",
    "city": "東臼杵郡門川町",
    "town": "庵川"
  },
  "8890603": {
    "zipcode": "8890603",
    "prefectureCode": "45",
    "prefectureNumber": 45,
    "prefecture": "宮崎県",
    "city": "東臼杵郡門川町",
    "town": "加草"
  },
  "8890604": {
    "zipcode": "8890604",
    "prefectureCode": "45",
    "prefectureNumber": 45,
    "prefecture": "宮崎県",
    "city": "東臼杵郡門川町",
    "town": "川内"
  },
  "8890605": {
    "zipcode": "8890605",
    "prefectureCode": "45",
    "prefectureNumber": 45,
    "prefecture": "宮崎県",
    "city": "東臼杵郡門川町",
    "town": "庵川西"
  },
  "8890611": {
    "zipcode": "8890611",
    "prefectureCode": "45",
    "prefectureNumber": 45,
    "prefecture": "宮崎県",
    "city": "東臼杵郡門川町",
    "town": "門川尾末"
  },
  "8890612": {
    "zipcode": "8890612",
    "prefectureCode": "45",
    "prefectureNumber": 45,
    "prefecture": "宮崎県",
    "city": "東臼杵郡門川町",
    "town": "中須"
  },
  "8890613": {
    "zipcode": "8890613",
    "prefectureCode": "45",
    "prefectureNumber": 45,
    "prefecture": "宮崎県",
    "city": "東臼杵郡門川町",
    "town": "本町"
  },
  "8890614": {
    "zipcode": "8890614",
    "prefectureCode": "45",
    "prefectureNumber": 45,
    "prefecture": "宮崎県",
    "city": "東臼杵郡門川町",
    "town": "上町"
  },
  "8890615": {
    "zipcode": "8890615",
    "prefectureCode": "45",
    "prefectureNumber": 45,
    "prefecture": "宮崎県",
    "city": "東臼杵郡門川町",
    "town": "栄ケ丘"
  },
  "8890616": {
    "zipcode": "8890616",
    "prefectureCode": "45",
    "prefectureNumber": 45,
    "prefecture": "宮崎県",
    "city": "東臼杵郡門川町",
    "town": "南町"
  },
  "8890617": {
    "zipcode": "8890617",
    "prefectureCode": "45",
    "prefectureNumber": 45,
    "prefecture": "宮崎県",
    "city": "東臼杵郡門川町",
    "town": "南ケ丘"
  },
  "8890621": {
    "zipcode": "8890621",
    "prefectureCode": "45",
    "prefectureNumber": 45,
    "prefecture": "宮崎県",
    "city": "東臼杵郡門川町",
    "town": "東栄町"
  },
  "8890622": {
    "zipcode": "8890622",
    "prefectureCode": "45",
    "prefectureNumber": 45,
    "prefecture": "宮崎県",
    "city": "東臼杵郡門川町",
    "town": "西栄町"
  },
  "8890623": {
    "zipcode": "8890623",
    "prefectureCode": "45",
    "prefectureNumber": 45,
    "prefecture": "宮崎県",
    "city": "東臼杵郡門川町",
    "town": "宮ケ原"
  },
  "8890624": {
    "zipcode": "8890624",
    "prefectureCode": "45",
    "prefectureNumber": 45,
    "prefecture": "宮崎県",
    "city": "東臼杵郡門川町",
    "town": "城ケ丘"
  },
  "8890625": {
    "zipcode": "8890625",
    "prefectureCode": "45",
    "prefectureNumber": 45,
    "prefecture": "宮崎県",
    "city": "東臼杵郡門川町",
    "town": "平城東"
  },
  "8890626": {
    "zipcode": "8890626",
    "prefectureCode": "45",
    "prefectureNumber": 45,
    "prefecture": "宮崎県",
    "city": "東臼杵郡門川町",
    "town": "平城西"
  },
  "8890901": {
    "zipcode": "8890901",
    "prefectureCode": "45",
    "prefectureNumber": 45,
    "prefecture": "宮崎県",
    "city": "東臼杵郡美郷町",
    "town": "北郷宇納間"
  },
  "8890902": {
    "zipcode": "8890902",
    "prefectureCode": "45",
    "prefectureNumber": 45,
    "prefecture": "宮崎県",
    "city": "東臼杵郡美郷町",
    "town": "北郷入下"
  },
  "8890903": {
    "zipcode": "8890903",
    "prefectureCode": "45",
    "prefectureNumber": 45,
    "prefecture": "宮崎県",
    "city": "東臼杵郡美郷町",
    "town": "北郷黒木"
  },
  "8891101": {
    "zipcode": "8891101",
    "prefectureCode": "45",
    "prefectureNumber": 45,
    "prefecture": "宮崎県",
    "city": "日向市",
    "town": "東郷町山陰乙（鳥川）"
  },
  "8891111": {
    "zipcode": "8891111",
    "prefectureCode": "45",
    "prefectureNumber": 45,
    "prefecture": "宮崎県",
    "city": "日向市",
    "town": "美々津町"
  },
  "8891112": {
    "zipcode": "8891112",
    "prefectureCode": "45",
    "prefectureNumber": 45,
    "prefecture": "宮崎県",
    "city": "日向市",
    "town": "幸脇"
  },
  "8891121": {
    "zipcode": "8891121",
    "prefectureCode": "45",
    "prefectureNumber": 45,
    "prefecture": "宮崎県",
    "city": "日向市",
    "town": "東郷町山陰甲"
  },
  "8891200": {
    "zipcode": "8891200",
    "prefectureCode": "45",
    "prefectureNumber": 45,
    "prefecture": "宮崎県",
    "city": "児湯郡都農町",
    "town": "以下に掲載がない場合"
  },
  "8891201": {
    "zipcode": "8891201",
    "prefectureCode": "45",
    "prefectureNumber": 45,
    "prefecture": "宮崎県",
    "city": "児湯郡都農町",
    "town": "川北"
  },
  "8891300": {
    "zipcode": "8891300",
    "prefectureCode": "45",
    "prefectureNumber": 45,
    "prefecture": "宮崎県",
    "city": "児湯郡川南町",
    "town": "以下に掲載がない場合"
  },
  "8891301": {
    "zipcode": "8891301",
    "prefectureCode": "45",
    "prefectureNumber": 45,
    "prefecture": "宮崎県",
    "city": "児湯郡川南町",
    "town": "川南"
  },
  "8891302": {
    "zipcode": "8891302",
    "prefectureCode": "45",
    "prefectureNumber": 45,
    "prefecture": "宮崎県",
    "city": "児湯郡川南町",
    "town": "平田"
  },
  "8891400": {
    "zipcode": "8891400",
    "prefectureCode": "45",
    "prefectureNumber": 45,
    "prefecture": "宮崎県",
    "city": "児湯郡新富町",
    "town": "以下に掲載がない場合"
  },
  "8891401": {
    "zipcode": "8891401",
    "prefectureCode": "45",
    "prefectureNumber": 45,
    "prefecture": "宮崎県",
    "city": "児湯郡新富町",
    "town": "日置"
  },
  "8891402": {
    "zipcode": "8891402",
    "prefectureCode": "45",
    "prefectureNumber": 45,
    "prefecture": "宮崎県",
    "city": "児湯郡新富町",
    "town": "三納代"
  },
  "8891403": {
    "zipcode": "8891403",
    "prefectureCode": "45",
    "prefectureNumber": 45,
    "prefecture": "宮崎県",
    "city": "児湯郡新富町",
    "town": "上富田"
  },
  "8891404": {
    "zipcode": "8891404",
    "prefectureCode": "45",
    "prefectureNumber": 45,
    "prefecture": "宮崎県",
    "city": "児湯郡新富町",
    "town": "下富田"
  },
  "8891405": {
    "zipcode": "8891405",
    "prefectureCode": "45",
    "prefectureNumber": 45,
    "prefecture": "宮崎県",
    "city": "児湯郡新富町",
    "town": "伊倉"
  },
  "8891406": {
    "zipcode": "8891406",
    "prefectureCode": "45",
    "prefectureNumber": 45,
    "prefecture": "宮崎県",
    "city": "児湯郡新富町",
    "town": "新田"
  },
  "8891411": {
    "zipcode": "8891411",
    "prefectureCode": "45",
    "prefectureNumber": 45,
    "prefecture": "宮崎県",
    "city": "児湯郡新富町",
    "town": "富田"
  },
  "8891412": {
    "zipcode": "8891412",
    "prefectureCode": "45",
    "prefectureNumber": 45,
    "prefecture": "宮崎県",
    "city": "児湯郡新富町",
    "town": "富田東"
  },
  "8891413": {
    "zipcode": "8891413",
    "prefectureCode": "45",
    "prefectureNumber": 45,
    "prefecture": "宮崎県",
    "city": "児湯郡新富町",
    "town": "富田西"
  },
  "8891414": {
    "zipcode": "8891414",
    "prefectureCode": "45",
    "prefectureNumber": 45,
    "prefecture": "宮崎県",
    "city": "児湯郡新富町",
    "town": "富田南"
  },
  "8891415": {
    "zipcode": "8891415",
    "prefectureCode": "45",
    "prefectureNumber": 45,
    "prefecture": "宮崎県",
    "city": "児湯郡新富町",
    "town": "富田北"
  },
  "8891601": {
    "zipcode": "8891601",
    "prefectureCode": "45",
    "prefectureNumber": 45,
    "prefecture": "宮崎県",
    "city": "宮崎市",
    "town": "清武町木原"
  },
  "8891602": {
    "zipcode": "8891602",
    "prefectureCode": "45",
    "prefectureNumber": 45,
    "prefecture": "宮崎県",
    "city": "宮崎市",
    "town": "清武町今泉"
  },
  "8891603": {
    "zipcode": "8891603",
    "prefectureCode": "45",
    "prefectureNumber": 45,
    "prefecture": "宮崎県",
    "city": "宮崎市",
    "town": "清武町正手"
  },
  "8891604": {
    "zipcode": "8891604",
    "prefectureCode": "45",
    "prefectureNumber": 45,
    "prefecture": "宮崎県",
    "city": "宮崎市",
    "town": "清武町船引"
  },
  "8891605": {
    "zipcode": "8891605",
    "prefectureCode": "45",
    "prefectureNumber": 45,
    "prefecture": "宮崎県",
    "city": "宮崎市",
    "town": "清武町加納（番地）"
  },
  "8891606": {
    "zipcode": "8891606",
    "prefectureCode": "45",
    "prefectureNumber": 45,
    "prefecture": "宮崎県",
    "city": "宮崎市",
    "town": "清武町池田台"
  },
  "8891607": {
    "zipcode": "8891607",
    "prefectureCode": "45",
    "prefectureNumber": 45,
    "prefecture": "宮崎県",
    "city": "宮崎市",
    "town": "清武町加納（丁目）"
  },
  "8891608": {
    "zipcode": "8891608",
    "prefectureCode": "45",
    "prefectureNumber": 45,
    "prefecture": "宮崎県",
    "city": "宮崎市",
    "town": "清武町池田台北"
  },
  "8891609": {
    "zipcode": "8891609",
    "prefectureCode": "45",
    "prefectureNumber": 45,
    "prefecture": "宮崎県",
    "city": "宮崎市",
    "town": "清武町あさひ"
  },
  "8891611": {
    "zipcode": "8891611",
    "prefectureCode": "45",
    "prefectureNumber": 45,
    "prefecture": "宮崎県",
    "city": "宮崎市",
    "town": "清武町新町"
  },
  "8891612": {
    "zipcode": "8891612",
    "prefectureCode": "45",
    "prefectureNumber": 45,
    "prefecture": "宮崎県",
    "city": "宮崎市",
    "town": "清武町岡"
  },
  "8891613": {
    "zipcode": "8891613",
    "prefectureCode": "45",
    "prefectureNumber": 45,
    "prefecture": "宮崎県",
    "city": "宮崎市",
    "town": "清武町西新町"
  },
  "8891701": {
    "zipcode": "8891701",
    "prefectureCode": "45",
    "prefectureNumber": 45,
    "prefecture": "宮崎県",
    "city": "宮崎市",
    "town": "田野町甲"
  },
  "8891702": {
    "zipcode": "8891702",
    "prefectureCode": "45",
    "prefectureNumber": 45,
    "prefecture": "宮崎県",
    "city": "宮崎市",
    "town": "田野町乙"
  },
  "8891703": {
    "zipcode": "8891703",
    "prefectureCode": "45",
    "prefectureNumber": 45,
    "prefecture": "宮崎県",
    "city": "宮崎市",
    "town": "田野町あけぼの"
  },
  "8891704": {
    "zipcode": "8891704",
    "prefectureCode": "45",
    "prefectureNumber": 45,
    "prefecture": "宮崎県",
    "city": "宮崎市",
    "town": "田野町南原"
  },
  "8891713": {
    "zipcode": "8891713",
    "prefectureCode": "45",
    "prefectureNumber": 45,
    "prefecture": "宮崎県",
    "city": "宮崎市",
    "town": "高岡町上倉永（１２０６〜１２６８番地、内の八重）"
  },
  "8891716": {
    "zipcode": "8891716",
    "prefectureCode": "45",
    "prefectureNumber": 45,
    "prefecture": "宮崎県",
    "city": "宮崎市",
    "town": "細江（平和）"
  },
  "8891801": {
    "zipcode": "8891801",
    "prefectureCode": "45",
    "prefectureNumber": 45,
    "prefecture": "宮崎県",
    "city": "都城市",
    "town": "山之口町富吉"
  },
  "8891802": {
    "zipcode": "8891802",
    "prefectureCode": "45",
    "prefectureNumber": 45,
    "prefecture": "宮崎県",
    "city": "都城市",
    "town": "山之口町花木"
  },
  "8891803": {
    "zipcode": "8891803",
    "prefectureCode": "45",
    "prefectureNumber": 45,
    "prefecture": "宮崎県",
    "city": "都城市",
    "town": "山之口町山之口（その他）"
  },
  "8891900": {
    "zipcode": "8891900",
    "prefectureCode": "45",
    "prefectureNumber": 45,
    "prefecture": "宮崎県",
    "city": "北諸県郡三股町",
    "town": "以下に掲載がない場合"
  },
  "8891901": {
    "zipcode": "8891901",
    "prefectureCode": "45",
    "prefectureNumber": 45,
    "prefecture": "宮崎県",
    "city": "北諸県郡三股町",
    "town": "樺山"
  },
  "8891902": {
    "zipcode": "8891902",
    "prefectureCode": "45",
    "prefectureNumber": 45,
    "prefecture": "宮崎県",
    "city": "北諸県郡三股町",
    "town": "五本松"
  },
  "8891903": {
    "zipcode": "8891903",
    "prefectureCode": "45",
    "prefectureNumber": 45,
    "prefecture": "宮崎県",
    "city": "北諸県郡三股町",
    "town": "稗田"
  },
  "8891904": {
    "zipcode": "8891904",
    "prefectureCode": "45",
    "prefectureNumber": 45,
    "prefecture": "宮崎県",
    "city": "北諸県郡三股町",
    "town": "新馬場"
  },
  "8891905": {
    "zipcode": "8891905",
    "prefectureCode": "45",
    "prefectureNumber": 45,
    "prefecture": "宮崎県",
    "city": "北諸県郡三股町",
    "town": "今市"
  },
  "8891906": {
    "zipcode": "8891906",
    "prefectureCode": "45",
    "prefectureNumber": 45,
    "prefecture": "宮崎県",
    "city": "北諸県郡三股町",
    "town": "中原"
  },
  "8891907": {
    "zipcode": "8891907",
    "prefectureCode": "45",
    "prefectureNumber": 45,
    "prefecture": "宮崎県",
    "city": "北諸県郡三股町",
    "town": "花見原"
  },
  "8891911": {
    "zipcode": "8891911",
    "prefectureCode": "45",
    "prefectureNumber": 45,
    "prefecture": "宮崎県",
    "city": "北諸県郡三股町",
    "town": "長田"
  },
  "8891912": {
    "zipcode": "8891912",
    "prefectureCode": "45",
    "prefectureNumber": 45,
    "prefecture": "宮崎県",
    "city": "北諸県郡三股町",
    "town": "宮村"
  },
  "8891913": {
    "zipcode": "8891913",
    "prefectureCode": "45",
    "prefectureNumber": 45,
    "prefecture": "宮崎県",
    "city": "北諸県郡三股町",
    "town": "餅原"
  },
  "8891914": {
    "zipcode": "8891914",
    "prefectureCode": "45",
    "prefectureNumber": 45,
    "prefecture": "宮崎県",
    "city": "北諸県郡三股町",
    "town": "蓼池"
  },
  "8892151": {
    "zipcode": "8892151",
    "prefectureCode": "45",
    "prefectureNumber": 45,
    "prefecture": "宮崎県",
    "city": "宮崎市",
    "town": "熊野"
  },
  "8892152": {
    "zipcode": "8892152",
    "prefectureCode": "45",
    "prefectureNumber": 45,
    "prefecture": "宮崎県",
    "city": "宮崎市",
    "town": "学園木花台北"
  },
  "8892153": {
    "zipcode": "8892153",
    "prefectureCode": "45",
    "prefectureNumber": 45,
    "prefecture": "宮崎県",
    "city": "宮崎市",
    "town": "学園木花台南"
  },
  "8892154": {
    "zipcode": "8892154",
    "prefectureCode": "45",
    "prefectureNumber": 45,
    "prefecture": "宮崎県",
    "city": "宮崎市",
    "town": "学園木花台桜"
  },
  "8892155": {
    "zipcode": "8892155",
    "prefectureCode": "45",
    "prefectureNumber": 45,
    "prefecture": "宮崎県",
    "city": "宮崎市",
    "town": "学園木花台西"
  },
  "8892156": {
    "zipcode": "8892156",
    "prefectureCode": "45",
    "prefectureNumber": 45,
    "prefecture": "宮崎県",
    "city": "宮崎市",
    "town": "鏡洲"
  },
  "8892161": {
    "zipcode": "8892161",
    "prefectureCode": "45",
    "prefectureNumber": 45,
    "prefecture": "宮崎県",
    "city": "宮崎市",
    "town": "加江田"
  },
  "8892162": {
    "zipcode": "8892162",
    "prefectureCode": "45",
    "prefectureNumber": 45,
    "prefecture": "宮崎県",
    "city": "宮崎市",
    "town": "青島"
  },
  "8892163": {
    "zipcode": "8892163",
    "prefectureCode": "45",
    "prefectureNumber": 45,
    "prefecture": "宮崎県",
    "city": "宮崎市",
    "town": "青島西"
  },
  "8892164": {
    "zipcode": "8892164",
    "prefectureCode": "45",
    "prefectureNumber": 45,
    "prefecture": "宮崎県",
    "city": "宮崎市",
    "town": "折生迫"
  },
  "8892301": {
    "zipcode": "8892301",
    "prefectureCode": "45",
    "prefectureNumber": 45,
    "prefecture": "宮崎県",
    "city": "宮崎市",
    "town": "内海"
  },
  "8892401": {
    "zipcode": "8892401",
    "prefectureCode": "45",
    "prefectureNumber": 45,
    "prefecture": "宮崎県",
    "city": "日南市",
    "town": "北郷町大藤"
  },
  "8892402": {
    "zipcode": "8892402",
    "prefectureCode": "45",
    "prefectureNumber": 45,
    "prefecture": "宮崎県",
    "city": "日南市",
    "town": "北郷町郷之原"
  },
  "8892403": {
    "zipcode": "8892403",
    "prefectureCode": "45",
    "prefectureNumber": 45,
    "prefecture": "宮崎県",
    "city": "日南市",
    "town": "北郷町北河内"
  },
  "8892511": {
    "zipcode": "8892511",
    "prefectureCode": "45",
    "prefectureNumber": 45,
    "prefecture": "宮崎県",
    "city": "日南市",
    "town": "酒谷乙"
  },
  "8892512": {
    "zipcode": "8892512",
    "prefectureCode": "45",
    "prefectureNumber": 45,
    "prefecture": "宮崎県",
    "city": "日南市",
    "town": "酒谷甲"
  },
  "8892513": {
    "zipcode": "8892513",
    "prefectureCode": "45",
    "prefectureNumber": 45,
    "prefecture": "宮崎県",
    "city": "日南市",
    "town": "吉野方"
  },
  "8892514": {
    "zipcode": "8892514",
    "prefectureCode": "45",
    "prefectureNumber": 45,
    "prefecture": "宮崎県",
    "city": "日南市",
    "town": "楠原"
  },
  "8892521": {
    "zipcode": "8892521",
    "prefectureCode": "45",
    "prefectureNumber": 45,
    "prefecture": "宮崎県",
    "city": "日南市",
    "town": "東弁分乙"
  },
  "8892522": {
    "zipcode": "8892522",
    "prefectureCode": "45",
    "prefectureNumber": 45,
    "prefecture": "宮崎県",
    "city": "日南市",
    "town": "東弁分甲"
  },
  "8892523": {
    "zipcode": "8892523",
    "prefectureCode": "45",
    "prefectureNumber": 45,
    "prefecture": "宮崎県",
    "city": "日南市",
    "town": "松永"
  },
  "8892524": {
    "zipcode": "8892524",
    "prefectureCode": "45",
    "prefectureNumber": 45,
    "prefecture": "宮崎県",
    "city": "日南市",
    "town": "殿所"
  },
  "8892525": {
    "zipcode": "8892525",
    "prefectureCode": "45",
    "prefectureNumber": 45,
    "prefecture": "宮崎県",
    "city": "日南市",
    "town": "今町"
  },
  "8892531": {
    "zipcode": "8892531",
    "prefectureCode": "45",
    "prefectureNumber": 45,
    "prefecture": "宮崎県",
    "city": "日南市",
    "town": "本町"
  },
  "8892532": {
    "zipcode": "8892532",
    "prefectureCode": "45",
    "prefectureNumber": 45,
    "prefecture": "宮崎県",
    "city": "日南市",
    "town": "板敷"
  },
  "8892533": {
    "zipcode": "8892533",
    "prefectureCode": "45",
    "prefectureNumber": 45,
    "prefecture": "宮崎県",
    "city": "日南市",
    "town": "星倉"
  },
  "8892534": {
    "zipcode": "8892534",
    "prefectureCode": "45",
    "prefectureNumber": 45,
    "prefecture": "宮崎県",
    "city": "日南市",
    "town": "時任町"
  },
  "8892535": {
    "zipcode": "8892535",
    "prefectureCode": "45",
    "prefectureNumber": 45,
    "prefecture": "宮崎県",
    "city": "日南市",
    "town": "飫肥"
  },
  "8892536": {
    "zipcode": "8892536",
    "prefectureCode": "45",
    "prefectureNumber": 45,
    "prefecture": "宮崎県",
    "city": "日南市",
    "town": "吾田西"
  },
  "8892541": {
    "zipcode": "8892541",
    "prefectureCode": "45",
    "prefectureNumber": 45,
    "prefecture": "宮崎県",
    "city": "日南市",
    "town": "吾田東（５〜１１丁目）"
  },
  "8893141": {
    "zipcode": "8893141",
    "prefectureCode": "45",
    "prefectureNumber": 45,
    "prefecture": "宮崎県",
    "city": "日南市",
    "town": "大堂津"
  },
  "8893142": {
    "zipcode": "8893142",
    "prefectureCode": "45",
    "prefectureNumber": 45,
    "prefecture": "宮崎県",
    "city": "日南市",
    "town": "塩鶴"
  },
  "8893143": {
    "zipcode": "8893143",
    "prefectureCode": "45",
    "prefectureNumber": 45,
    "prefecture": "宮崎県",
    "city": "日南市",
    "town": "下方"
  },
  "8893151": {
    "zipcode": "8893151",
    "prefectureCode": "45",
    "prefectureNumber": 45,
    "prefecture": "宮崎県",
    "city": "日南市",
    "town": "上方"
  },
  "8893152": {
    "zipcode": "8893152",
    "prefectureCode": "45",
    "prefectureNumber": 45,
    "prefecture": "宮崎県",
    "city": "日南市",
    "town": "毛吉田"
  },
  "8893153": {
    "zipcode": "8893153",
    "prefectureCode": "45",
    "prefectureNumber": 45,
    "prefecture": "宮崎県",
    "city": "日南市",
    "town": "萩之嶺"
  },
  "8893154": {
    "zipcode": "8893154",
    "prefectureCode": "45",
    "prefectureNumber": 45,
    "prefecture": "宮崎県",
    "city": "日南市",
    "town": "塚田甲"
  },
  "8893155": {
    "zipcode": "8893155",
    "prefectureCode": "45",
    "prefectureNumber": 45,
    "prefecture": "宮崎県",
    "city": "日南市",
    "town": "塚田乙"
  },
  "8893156": {
    "zipcode": "8893156",
    "prefectureCode": "45",
    "prefectureNumber": 45,
    "prefecture": "宮崎県",
    "city": "日南市",
    "town": "大窪"
  },
  "8893201": {
    "zipcode": "8893201",
    "prefectureCode": "45",
    "prefectureNumber": 45,
    "prefecture": "宮崎県",
    "city": "日南市",
    "town": "南郷町津屋野"
  },
  "8893202": {
    "zipcode": "8893202",
    "prefectureCode": "45",
    "prefectureNumber": 45,
    "prefecture": "宮崎県",
    "city": "日南市",
    "town": "南郷町中村甲"
  },
  "8893203": {
    "zipcode": "8893203",
    "prefectureCode": "45",
    "prefectureNumber": 45,
    "prefecture": "宮崎県",
    "city": "日南市",
    "town": "南郷町谷之口"
  },
  "8893204": {
    "zipcode": "8893204",
    "prefectureCode": "45",
    "prefectureNumber": 45,
    "prefecture": "宮崎県",
    "city": "日南市",
    "town": "南郷町中村乙"
  },
  "8893205": {
    "zipcode": "8893205",
    "prefectureCode": "45",
    "prefectureNumber": 45,
    "prefecture": "宮崎県",
    "city": "日南市",
    "town": "南郷町西町"
  },
  "8893206": {
    "zipcode": "8893206",
    "prefectureCode": "45",
    "prefectureNumber": 45,
    "prefecture": "宮崎県",
    "city": "日南市",
    "town": "南郷町南町"
  },
  "8893207": {
    "zipcode": "8893207",
    "prefectureCode": "45",
    "prefectureNumber": 45,
    "prefecture": "宮崎県",
    "city": "日南市",
    "town": "南郷町東町"
  },
  "8893211": {
    "zipcode": "8893211",
    "prefectureCode": "45",
    "prefectureNumber": 45,
    "prefecture": "宮崎県",
    "city": "日南市",
    "town": "南郷町贄波"
  },
  "8893212": {
    "zipcode": "8893212",
    "prefectureCode": "45",
    "prefectureNumber": 45,
    "prefecture": "宮崎県",
    "city": "日南市",
    "town": "南郷町脇本"
  },
  "8893213": {
    "zipcode": "8893213",
    "prefectureCode": "45",
    "prefectureNumber": 45,
    "prefecture": "宮崎県",
    "city": "日南市",
    "town": "南郷町潟上"
  },
  "8893214": {
    "zipcode": "8893214",
    "prefectureCode": "45",
    "prefectureNumber": 45,
    "prefecture": "宮崎県",
    "city": "日南市",
    "town": "南郷町榎原"
  },
  "8893215": {
    "zipcode": "8893215",
    "prefectureCode": "45",
    "prefectureNumber": 45,
    "prefecture": "宮崎県",
    "city": "日南市",
    "town": "南郷町榎原甲"
  },
  "8893216": {
    "zipcode": "8893216",
    "prefectureCode": "45",
    "prefectureNumber": 45,
    "prefecture": "宮崎県",
    "city": "日南市",
    "town": "南郷町榎原乙"
  },
  "8893217": {
    "zipcode": "8893217",
    "prefectureCode": "45",
    "prefectureNumber": 45,
    "prefecture": "宮崎県",
    "city": "日南市",
    "town": "南郷町榎原丙"
  },
  "8893311": {
    "zipcode": "8893311",
    "prefectureCode": "45",
    "prefectureNumber": 45,
    "prefecture": "宮崎県",
    "city": "串間市",
    "town": "市木"
  },
  "8893531": {
    "zipcode": "8893531",
    "prefectureCode": "45",
    "prefectureNumber": 45,
    "prefecture": "宮崎県",
    "city": "串間市",
    "town": "奈留"
  },
  "8893532": {
    "zipcode": "8893532",
    "prefectureCode": "45",
    "prefectureNumber": 45,
    "prefecture": "宮崎県",
    "city": "串間市",
    "town": "大平"
  },
  "8893533": {
    "zipcode": "8893533",
    "prefectureCode": "45",
    "prefectureNumber": 45,
    "prefecture": "宮崎県",
    "city": "串間市",
    "town": "一氏"
  },
  "8893534": {
    "zipcode": "8893534",
    "prefectureCode": "45",
    "prefectureNumber": 45,
    "prefecture": "宮崎県",
    "city": "串間市",
    "town": "大矢取"
  },
  "8894151": {
    "zipcode": "8894151",
    "prefectureCode": "45",
    "prefectureNumber": 45,
    "prefecture": "宮崎県",
    "city": "えびの市",
    "town": "向江"
  },
  "8894152": {
    "zipcode": "8894152",
    "prefectureCode": "45",
    "prefectureNumber": 45,
    "prefecture": "宮崎県",
    "city": "えびの市",
    "town": "島内"
  },
  "8894153": {
    "zipcode": "8894153",
    "prefectureCode": "45",
    "prefectureNumber": 45,
    "prefecture": "宮崎県",
    "city": "えびの市",
    "town": "浦"
  },
  "8894154": {
    "zipcode": "8894154",
    "prefectureCode": "45",
    "prefectureNumber": 45,
    "prefecture": "宮崎県",
    "city": "えびの市",
    "town": "柳水流"
  },
  "8894155": {
    "zipcode": "8894155",
    "prefectureCode": "45",
    "prefectureNumber": 45,
    "prefecture": "宮崎県",
    "city": "えびの市",
    "town": "亀沢"
  },
  "8894161": {
    "zipcode": "8894161",
    "prefectureCode": "45",
    "prefectureNumber": 45,
    "prefecture": "宮崎県",
    "city": "えびの市",
    "town": "岡松"
  },
  "8894162": {
    "zipcode": "8894162",
    "prefectureCode": "45",
    "prefectureNumber": 45,
    "prefecture": "宮崎県",
    "city": "えびの市",
    "town": "内竪"
  },
  "8894163": {
    "zipcode": "8894163",
    "prefectureCode": "45",
    "prefectureNumber": 45,
    "prefecture": "宮崎県",
    "city": "えびの市",
    "town": "水流"
  },
  "8894164": {
    "zipcode": "8894164",
    "prefectureCode": "45",
    "prefectureNumber": 45,
    "prefecture": "宮崎県",
    "city": "えびの市",
    "town": "昌明寺"
  },
  "8894165": {
    "zipcode": "8894165",
    "prefectureCode": "45",
    "prefectureNumber": 45,
    "prefecture": "宮崎県",
    "city": "えびの市",
    "town": "西川北"
  },
  "8894221": {
    "zipcode": "8894221",
    "prefectureCode": "45",
    "prefectureNumber": 45,
    "prefecture": "宮崎県",
    "city": "えびの市",
    "town": "栗下"
  },
  "8894222": {
    "zipcode": "8894222",
    "prefectureCode": "45",
    "prefectureNumber": 45,
    "prefecture": "宮崎県",
    "city": "えびの市",
    "town": "小田"
  },
  "8894231": {
    "zipcode": "8894231",
    "prefectureCode": "45",
    "prefectureNumber": 45,
    "prefecture": "宮崎県",
    "city": "えびの市",
    "town": "東長江浦"
  },
  "8894232": {
    "zipcode": "8894232",
    "prefectureCode": "45",
    "prefectureNumber": 45,
    "prefecture": "宮崎県",
    "city": "えびの市",
    "town": "西長江浦"
  },
  "8894233": {
    "zipcode": "8894233",
    "prefectureCode": "45",
    "prefectureNumber": 45,
    "prefecture": "宮崎県",
    "city": "えびの市",
    "town": "灰塚"
  },
  "8894234": {
    "zipcode": "8894234",
    "prefectureCode": "45",
    "prefectureNumber": 45,
    "prefecture": "宮崎県",
    "city": "えびの市",
    "town": "永山"
  },
  "8894241": {
    "zipcode": "8894241",
    "prefectureCode": "45",
    "prefectureNumber": 45,
    "prefecture": "宮崎県",
    "city": "えびの市",
    "town": "西郷"
  },
  "8894242": {
    "zipcode": "8894242",
    "prefectureCode": "45",
    "prefectureNumber": 45,
    "prefecture": "宮崎県",
    "city": "えびの市",
    "town": "湯田"
  },
  "8894243": {
    "zipcode": "8894243",
    "prefectureCode": "45",
    "prefectureNumber": 45,
    "prefecture": "宮崎県",
    "city": "えびの市",
    "town": "榎田"
  },
  "8894244": {
    "zipcode": "8894244",
    "prefectureCode": "45",
    "prefectureNumber": 45,
    "prefecture": "宮崎県",
    "city": "えびの市",
    "town": "東川北"
  },
  "8894300": {
    "zipcode": "8894300",
    "prefectureCode": "45",
    "prefectureNumber": 45,
    "prefecture": "宮崎県",
    "city": "えびの市",
    "town": "以下に掲載がない場合"
  },
  "8894301": {
    "zipcode": "8894301",
    "prefectureCode": "45",
    "prefectureNumber": 45,
    "prefecture": "宮崎県",
    "city": "えびの市",
    "town": "原田"
  },
  "8894302": {
    "zipcode": "8894302",
    "prefectureCode": "45",
    "prefectureNumber": 45,
    "prefecture": "宮崎県",
    "city": "えびの市",
    "town": "末永"
  },
  "8894303": {
    "zipcode": "8894303",
    "prefectureCode": "45",
    "prefectureNumber": 45,
    "prefecture": "宮崎県",
    "city": "えびの市",
    "town": "池島"
  },
  "8894304": {
    "zipcode": "8894304",
    "prefectureCode": "45",
    "prefectureNumber": 45,
    "prefecture": "宮崎県",
    "city": "えびの市",
    "town": "上江"
  },
  "8894305": {
    "zipcode": "8894305",
    "prefectureCode": "45",
    "prefectureNumber": 45,
    "prefecture": "宮崎県",
    "city": "えびの市",
    "town": "前田"
  },
  "8894306": {
    "zipcode": "8894306",
    "prefectureCode": "45",
    "prefectureNumber": 45,
    "prefecture": "宮崎県",
    "city": "えびの市",
    "town": "今西"
  },
  "8894311": {
    "zipcode": "8894311",
    "prefectureCode": "45",
    "prefectureNumber": 45,
    "prefecture": "宮崎県",
    "city": "えびの市",
    "town": "大明司"
  },
  "8894312": {
    "zipcode": "8894312",
    "prefectureCode": "45",
    "prefectureNumber": 45,
    "prefecture": "宮崎県",
    "city": "えびの市",
    "town": "坂元"
  },
  "8894313": {
    "zipcode": "8894313",
    "prefectureCode": "45",
    "prefectureNumber": 45,
    "prefecture": "宮崎県",
    "city": "えびの市",
    "town": "杉水流"
  },
  "8894314": {
    "zipcode": "8894314",
    "prefectureCode": "45",
    "prefectureNumber": 45,
    "prefecture": "宮崎県",
    "city": "えびの市",
    "town": "大河平"
  },
  "8894400": {
    "zipcode": "8894400",
    "prefectureCode": "45",
    "prefectureNumber": 45,
    "prefecture": "宮崎県",
    "city": "西諸県郡高原町",
    "town": "以下に掲載がない場合"
  },
  "8894411": {
    "zipcode": "8894411",
    "prefectureCode": "45",
    "prefectureNumber": 45,
    "prefecture": "宮崎県",
    "city": "西諸県郡高原町",
    "town": "広原"
  },
  "8894412": {
    "zipcode": "8894412",
    "prefectureCode": "45",
    "prefectureNumber": 45,
    "prefecture": "宮崎県",
    "city": "西諸県郡高原町",
    "town": "西麓"
  },
  "8894413": {
    "zipcode": "8894413",
    "prefectureCode": "45",
    "prefectureNumber": 45,
    "prefecture": "宮崎県",
    "city": "西諸県郡高原町",
    "town": "後川内"
  },
  "8894414": {
    "zipcode": "8894414",
    "prefectureCode": "45",
    "prefectureNumber": 45,
    "prefecture": "宮崎県",
    "city": "西諸県郡高原町",
    "town": "蒲牟田"
  },
  "8894501": {
    "zipcode": "8894501",
    "prefectureCode": "45",
    "prefectureNumber": 45,
    "prefecture": "宮崎県",
    "city": "都城市",
    "town": "高崎町笛水"
  },
  "8894502": {
    "zipcode": "8894502",
    "prefectureCode": "45",
    "prefectureNumber": 45,
    "prefecture": "宮崎県",
    "city": "都城市",
    "town": "高崎町江平"
  },
  "8894503": {
    "zipcode": "8894503",
    "prefectureCode": "45",
    "prefectureNumber": 45,
    "prefecture": "宮崎県",
    "city": "都城市",
    "town": "高崎町縄瀬"
  },
  "8894504": {
    "zipcode": "8894504",
    "prefectureCode": "45",
    "prefectureNumber": 45,
    "prefecture": "宮崎県",
    "city": "都城市",
    "town": "高崎町東霧島"
  },
  "8894505": {
    "zipcode": "8894505",
    "prefectureCode": "45",
    "prefectureNumber": 45,
    "prefecture": "宮崎県",
    "city": "都城市",
    "town": "高崎町大牟田"
  },
  "8894506": {
    "zipcode": "8894506",
    "prefectureCode": "45",
    "prefectureNumber": 45,
    "prefecture": "宮崎県",
    "city": "都城市",
    "town": "高崎町前田"
  },
  "8894601": {
    "zipcode": "8894601",
    "prefectureCode": "45",
    "prefectureNumber": 45,
    "prefecture": "宮崎県",
    "city": "都城市",
    "town": "山田町山田"
  },
  "8894602": {
    "zipcode": "8894602",
    "prefectureCode": "45",
    "prefectureNumber": 45,
    "prefecture": "宮崎県",
    "city": "都城市",
    "town": "山田町中霧島"
  }
}
