{
  "8910101": {
    "zipcode": "8910101",
    "prefectureCode": "46",
    "prefectureNumber": 46,
    "prefecture": "鹿児島県",
    "city": "鹿児島市",
    "town": "五ケ別府町"
  },
  "8910102": {
    "zipcode": "8910102",
    "prefectureCode": "46",
    "prefectureNumber": 46,
    "prefecture": "鹿児島県",
    "city": "鹿児島市",
    "town": "星ケ峯"
  },
  "8910103": {
    "zipcode": "8910103",
    "prefectureCode": "46",
    "prefectureNumber": 46,
    "prefecture": "鹿児島県",
    "city": "鹿児島市",
    "town": "皇徳寺台"
  },
  "8910104": {
    "zipcode": "8910104",
    "prefectureCode": "46",
    "prefectureNumber": 46,
    "prefecture": "鹿児島県",
    "city": "鹿児島市",
    "town": "山田町"
  },
  "8910105": {
    "zipcode": "8910105",
    "prefectureCode": "46",
    "prefectureNumber": 46,
    "prefecture": "鹿児島県",
    "city": "鹿児島市",
    "town": "中山町"
  },
  "8910106": {
    "zipcode": "8910106",
    "prefectureCode": "46",
    "prefectureNumber": 46,
    "prefecture": "鹿児島県",
    "city": "鹿児島市",
    "town": "自由ケ丘"
  },
  "8910107": {
    "zipcode": "8910107",
    "prefectureCode": "46",
    "prefectureNumber": 46,
    "prefecture": "鹿児島県",
    "city": "鹿児島市",
    "town": "希望ケ丘町"
  },
  "8910108": {
    "zipcode": "8910108",
    "prefectureCode": "46",
    "prefectureNumber": 46,
    "prefecture": "鹿児島県",
    "city": "鹿児島市",
    "town": "中山"
  },
  "8910109": {
    "zipcode": "8910109",
    "prefectureCode": "46",
    "prefectureNumber": 46,
    "prefecture": "鹿児島県",
    "city": "鹿児島市",
    "town": "清和"
  },
  "8910111": {
    "zipcode": "8910111",
    "prefectureCode": "46",
    "prefectureNumber": 46,
    "prefecture": "鹿児島県",
    "city": "鹿児島市",
    "town": "小原町"
  },
  "8910112": {
    "zipcode": "8910112",
    "prefectureCode": "46",
    "prefectureNumber": 46,
    "prefecture": "鹿児島県",
    "city": "鹿児島市",
    "town": "魚見町"
  },
  "8910113": {
    "zipcode": "8910113",
    "prefectureCode": "46",
    "prefectureNumber": 46,
    "prefecture": "鹿児島県",
    "city": "鹿児島市",
    "town": "東谷山"
  },
  "8910114": {
    "zipcode": "8910114",
    "prefectureCode": "46",
    "prefectureNumber": 46,
    "prefecture": "鹿児島県",
    "city": "鹿児島市",
    "town": "小松原"
  },
  "8910115": {
    "zipcode": "8910115",
    "prefectureCode": "46",
    "prefectureNumber": 46,
    "prefecture": "鹿児島県",
    "city": "鹿児島市",
    "town": "東開町"
  },
  "8910116": {
    "zipcode": "8910116",
    "prefectureCode": "46",
    "prefectureNumber": 46,
    "prefecture": "鹿児島県",
    "city": "鹿児島市",
    "town": "上福元町"
  },
  "8910117": {
    "zipcode": "8910117",
    "prefectureCode": "46",
    "prefectureNumber": 46,
    "prefecture": "鹿児島県",
    "city": "鹿児島市",
    "town": "西谷山"
  },
  "8910122": {
    "zipcode": "8910122",
    "prefectureCode": "46",
    "prefectureNumber": 46,
    "prefecture": "鹿児島県",
    "city": "鹿児島市",
    "town": "南栄"
  },
  "8910123": {
    "zipcode": "8910123",
    "prefectureCode": "46",
    "prefectureNumber": 46,
    "prefecture": "鹿児島県",
    "city": "鹿児島市",
    "town": "卸本町"
  },
  "8910131": {
    "zipcode": "8910131",
    "prefectureCode": "46",
    "prefectureNumber": 46,
    "prefecture": "鹿児島県",
    "city": "鹿児島市",
    "town": "谷山港"
  },
  "8910132": {
    "zipcode": "8910132",
    "prefectureCode": "46",
    "prefectureNumber": 46,
    "prefecture": "鹿児島県",
    "city": "鹿児島市",
    "town": "七ツ島"
  },
  "8910133": {
    "zipcode": "8910133",
    "prefectureCode": "46",
    "prefectureNumber": 46,
    "prefecture": "鹿児島県",
    "city": "鹿児島市",
    "town": "平川町"
  },
  "8910141": {
    "zipcode": "8910141",
    "prefectureCode": "46",
    "prefectureNumber": 46,
    "prefecture": "鹿児島県",
    "city": "鹿児島市",
    "town": "谷山中央"
  },
  "8910143": {
    "zipcode": "8910143",
    "prefectureCode": "46",
    "prefectureNumber": 46,
    "prefecture": "鹿児島県",
    "city": "鹿児島市",
    "town": "和田"
  },
  "8910144": {
    "zipcode": "8910144",
    "prefectureCode": "46",
    "prefectureNumber": 46,
    "prefecture": "鹿児島県",
    "city": "鹿児島市",
    "town": "下福元町"
  },
  "8910145": {
    "zipcode": "8910145",
    "prefectureCode": "46",
    "prefectureNumber": 46,
    "prefecture": "鹿児島県",
    "city": "鹿児島市",
    "town": "錦江台"
  },
  "8910146": {
    "zipcode": "8910146",
    "prefectureCode": "46",
    "prefectureNumber": 46,
    "prefecture": "鹿児島県",
    "city": "鹿児島市",
    "town": "慈眼寺町"
  },
  "8910150": {
    "zipcode": "8910150",
    "prefectureCode": "46",
    "prefectureNumber": 46,
    "prefecture": "鹿児島県",
    "city": "鹿児島市",
    "town": "坂之上"
  },
  "8910151": {
    "zipcode": "8910151",
    "prefectureCode": "46",
    "prefectureNumber": 46,
    "prefecture": "鹿児島県",
    "city": "鹿児島市",
    "town": "光山"
  },
  "8910175": {
    "zipcode": "8910175",
    "prefectureCode": "46",
    "prefectureNumber": 46,
    "prefecture": "鹿児島県",
    "city": "鹿児島市",
    "town": "桜ケ丘（１〜６丁目）"
  },
  "8910201": {
    "zipcode": "8910201",
    "prefectureCode": "46",
    "prefectureNumber": 46,
    "prefecture": "鹿児島県",
    "city": "鹿児島市",
    "town": "喜入瀬々串町"
  },
  "8910202": {
    "zipcode": "8910202",
    "prefectureCode": "46",
    "prefectureNumber": 46,
    "prefecture": "鹿児島県",
    "city": "鹿児島市",
    "town": "喜入中名町"
  },
  "8910203": {
    "zipcode": "8910203",
    "prefectureCode": "46",
    "prefectureNumber": 46,
    "prefecture": "鹿児島県",
    "city": "鹿児島市",
    "town": "喜入町"
  },
  "8910204": {
    "zipcode": "8910204",
    "prefectureCode": "46",
    "prefectureNumber": 46,
    "prefecture": "鹿児島県",
    "city": "鹿児島市",
    "town": "喜入一倉町"
  },
  "8910205": {
    "zipcode": "8910205",
    "prefectureCode": "46",
    "prefectureNumber": 46,
    "prefecture": "鹿児島県",
    "city": "鹿児島市",
    "town": "喜入前之浜町"
  },
  "8910206": {
    "zipcode": "8910206",
    "prefectureCode": "46",
    "prefectureNumber": 46,
    "prefecture": "鹿児島県",
    "city": "鹿児島市",
    "town": "喜入生見町"
  },
  "8910304": {
    "zipcode": "8910304",
    "prefectureCode": "46",
    "prefectureNumber": 46,
    "prefecture": "鹿児島県",
    "city": "指宿市",
    "town": "東方（６００〜５９７４、５９７６〜７８１６、７８３３、７８３４、１０６０３〜１１０１５）"
  },
  "8910311": {
    "zipcode": "8910311",
    "prefectureCode": "46",
    "prefectureNumber": 46,
    "prefecture": "鹿児島県",
    "city": "指宿市",
    "town": "西方"
  },
  "8910312": {
    "zipcode": "8910312",
    "prefectureCode": "46",
    "prefectureNumber": 46,
    "prefecture": "鹿児島県",
    "city": "指宿市",
    "town": "池田"
  },
  "8910313": {
    "zipcode": "8910313",
    "prefectureCode": "46",
    "prefectureNumber": 46,
    "prefecture": "鹿児島県",
    "city": "指宿市",
    "town": "新西方"
  },
  "8910314": {
    "zipcode": "8910314",
    "prefectureCode": "46",
    "prefectureNumber": 46,
    "prefecture": "鹿児島県",
    "city": "指宿市",
    "town": "小牧"
  },
  "8910315": {
    "zipcode": "8910315",
    "prefectureCode": "46",
    "prefectureNumber": 46,
    "prefecture": "鹿児島県",
    "city": "指宿市",
    "town": "岩本"
  },
  "8910400": {
    "zipcode": "8910400",
    "prefectureCode": "46",
    "prefectureNumber": 46,
    "prefecture": "鹿児島県",
    "city": "指宿市",
    "town": "以下に掲載がない場合"
  },
  "8910401": {
    "zipcode": "8910401",
    "prefectureCode": "46",
    "prefectureNumber": 46,
    "prefecture": "鹿児島県",
    "city": "指宿市",
    "town": "大牟礼"
  },
  "8910402": {
    "zipcode": "8910402",
    "prefectureCode": "46",
    "prefectureNumber": 46,
    "prefecture": "鹿児島県",
    "city": "指宿市",
    "town": "十町"
  },
  "8910403": {
    "zipcode": "8910403",
    "prefectureCode": "46",
    "prefectureNumber": 46,
    "prefecture": "鹿児島県",
    "city": "指宿市",
    "town": "十二町"
  },
  "8910404": {
    "zipcode": "8910404",
    "prefectureCode": "46",
    "prefectureNumber": 46,
    "prefecture": "鹿児島県",
    "city": "指宿市",
    "town": "東方（その他）"
  },
  "8910405": {
    "zipcode": "8910405",
    "prefectureCode": "46",
    "prefectureNumber": 46,
    "prefecture": "鹿児島県",
    "city": "指宿市",
    "town": "湊"
  },
  "8910406": {
    "zipcode": "8910406",
    "prefectureCode": "46",
    "prefectureNumber": 46,
    "prefecture": "鹿児島県",
    "city": "指宿市",
    "town": "湯の浜"
  },
  "8910501": {
    "zipcode": "8910501",
    "prefectureCode": "46",
    "prefectureNumber": 46,
    "prefecture": "鹿児島県",
    "city": "指宿市",
    "town": "山川新栄町"
  },
  "8910502": {
    "zipcode": "8910502",
    "prefectureCode": "46",
    "prefectureNumber": 46,
    "prefecture": "鹿児島県",
    "city": "指宿市",
    "town": "山川朝日町"
  },
  "8910503": {
    "zipcode": "8910503",
    "prefectureCode": "46",
    "prefectureNumber": 46,
    "prefecture": "鹿児島県",
    "city": "指宿市",
    "town": "山川潮見町"
  },
  "8910504": {
    "zipcode": "8910504",
    "prefectureCode": "46",
    "prefectureNumber": 46,
    "prefecture": "鹿児島県",
    "city": "指宿市",
    "town": "山川新生町"
  },
  "8910505": {
    "zipcode": "8910505",
    "prefectureCode": "46",
    "prefectureNumber": 46,
    "prefecture": "鹿児島県",
    "city": "指宿市",
    "town": "山川山下町"
  },
  "8910506": {
    "zipcode": "8910506",
    "prefectureCode": "46",
    "prefectureNumber": 46,
    "prefecture": "鹿児島県",
    "city": "指宿市",
    "town": "山川金生町"
  },
  "8910507": {
    "zipcode": "8910507",
    "prefectureCode": "46",
    "prefectureNumber": 46,
    "prefecture": "鹿児島県",
    "city": "指宿市",
    "town": "山川入船町"
  },
  "8910511": {
    "zipcode": "8910511",
    "prefectureCode": "46",
    "prefectureNumber": 46,
    "prefecture": "鹿児島県",
    "city": "指宿市",
    "town": "山川福元"
  },
  "8910512": {
    "zipcode": "8910512",
    "prefectureCode": "46",
    "prefectureNumber": 46,
    "prefecture": "鹿児島県",
    "city": "指宿市",
    "town": "山川浜児ケ水"
  },
  "8910513": {
    "zipcode": "8910513",
    "prefectureCode": "46",
    "prefectureNumber": 46,
    "prefecture": "鹿児島県",
    "city": "指宿市",
    "town": "山川岡児ケ水"
  },
  "8910514": {
    "zipcode": "8910514",
    "prefectureCode": "46",
    "prefectureNumber": 46,
    "prefecture": "鹿児島県",
    "city": "指宿市",
    "town": "山川大山（その他）"
  },
  "8910515": {
    "zipcode": "8910515",
    "prefectureCode": "46",
    "prefectureNumber": 46,
    "prefecture": "鹿児島県",
    "city": "指宿市",
    "town": "山川小川"
  },
  "8910516": {
    "zipcode": "8910516",
    "prefectureCode": "46",
    "prefectureNumber": 46,
    "prefecture": "鹿児島県",
    "city": "指宿市",
    "town": "山川成川"
  },
  "8910601": {
    "zipcode": "8910601",
    "prefectureCode": "46",
    "prefectureNumber": 46,
    "prefecture": "鹿児島県",
    "city": "指宿市",
    "town": "開聞上野"
  },
  "8910602": {
    "zipcode": "8910602",
    "prefectureCode": "46",
    "prefectureNumber": 46,
    "prefecture": "鹿児島県",
    "city": "指宿市",
    "town": "開聞川尻"
  },
  "8910603": {
    "zipcode": "8910603",
    "prefectureCode": "46",
    "prefectureNumber": 46,
    "prefecture": "鹿児島県",
    "city": "指宿市",
    "town": "開聞十町"
  },
  "8910604": {
    "zipcode": "8910604",
    "prefectureCode": "46",
    "prefectureNumber": 46,
    "prefecture": "鹿児島県",
    "city": "指宿市",
    "town": "開聞仙田"
  },
  "8910614": {
    "zipcode": "8910614",
    "prefectureCode": "46",
    "prefectureNumber": 46,
    "prefecture": "鹿児島県",
    "city": "指宿市",
    "town": "山川大山（１４００〜１７１７番）"
  },
  "8910621": {
    "zipcode": "8910621",
    "prefectureCode": "46",
    "prefectureNumber": 46,
    "prefecture": "鹿児島県",
    "city": "指宿市",
    "town": "山川利永"
  },
  "8910701": {
    "zipcode": "8910701",
    "prefectureCode": "46",
    "prefectureNumber": 46,
    "prefecture": "鹿児島県",
    "city": "南九州市",
    "town": "頴娃町郡"
  },
  "8910702": {
    "zipcode": "8910702",
    "prefectureCode": "46",
    "prefectureNumber": 46,
    "prefecture": "鹿児島県",
    "city": "南九州市",
    "town": "頴娃町牧之内"
  },
  "8910703": {
    "zipcode": "8910703",
    "prefectureCode": "46",
    "prefectureNumber": 46,
    "prefecture": "鹿児島県",
    "city": "南九州市",
    "town": "頴娃町御領"
  },
  "8910704": {
    "zipcode": "8910704",
    "prefectureCode": "46",
    "prefectureNumber": 46,
    "prefecture": "鹿児島県",
    "city": "南九州市",
    "town": "頴娃町別府"
  },
  "8910705": {
    "zipcode": "8910705",
    "prefectureCode": "46",
    "prefectureNumber": 46,
    "prefecture": "鹿児島県",
    "city": "南九州市",
    "town": "頴娃町上別府"
  },
  "8910911": {
    "zipcode": "8910911",
    "prefectureCode": "46",
    "prefectureNumber": 46,
    "prefecture": "鹿児島県",
    "city": "南九州市",
    "town": "知覧町塩屋"
  },
  "8910912": {
    "zipcode": "8910912",
    "prefectureCode": "46",
    "prefectureNumber": 46,
    "prefecture": "鹿児島県",
    "city": "南九州市",
    "town": "知覧町南別府"
  },
  "8911101": {
    "zipcode": "8911101",
    "prefectureCode": "46",
    "prefectureNumber": 46,
    "prefecture": "鹿児島県",
    "city": "鹿児島市",
    "town": "花尾町"
  },
  "8911102": {
    "zipcode": "8911102",
    "prefectureCode": "46",
    "prefectureNumber": 46,
    "prefecture": "鹿児島県",
    "city": "鹿児島市",
    "town": "東俣町"
  },
  "8911103": {
    "zipcode": "8911103",
    "prefectureCode": "46",
    "prefectureNumber": 46,
    "prefecture": "鹿児島県",
    "city": "鹿児島市",
    "town": "川田町"
  },
  "8911104": {
    "zipcode": "8911104",
    "prefectureCode": "46",
    "prefectureNumber": 46,
    "prefecture": "鹿児島県",
    "city": "鹿児島市",
    "town": "油須木町"
  },
  "8911105": {
    "zipcode": "8911105",
    "prefectureCode": "46",
    "prefectureNumber": 46,
    "prefecture": "鹿児島県",
    "city": "鹿児島市",
    "town": "郡山町"
  },
  "8911106": {
    "zipcode": "8911106",
    "prefectureCode": "46",
    "prefectureNumber": 46,
    "prefecture": "鹿児島県",
    "city": "鹿児島市",
    "town": "西俣町"
  },
  "8911107": {
    "zipcode": "8911107",
    "prefectureCode": "46",
    "prefectureNumber": 46,
    "prefecture": "鹿児島県",
    "city": "鹿児島市",
    "town": "有屋田町"
  },
  "8911108": {
    "zipcode": "8911108",
    "prefectureCode": "46",
    "prefectureNumber": 46,
    "prefecture": "鹿児島県",
    "city": "鹿児島市",
    "town": "郡山岳町"
  },
  "8911201": {
    "zipcode": "8911201",
    "prefectureCode": "46",
    "prefectureNumber": 46,
    "prefecture": "鹿児島県",
    "city": "鹿児島市",
    "town": "岡之原町（その他）"
  },
  "8911202": {
    "zipcode": "8911202",
    "prefectureCode": "46",
    "prefectureNumber": 46,
    "prefecture": "鹿児島県",
    "city": "鹿児島市",
    "town": "西伊敷（５〜７丁目）"
  },
  "8911203": {
    "zipcode": "8911203",
    "prefectureCode": "46",
    "prefectureNumber": 46,
    "prefecture": "鹿児島県",
    "city": "鹿児島市",
    "town": "伊敷町（４７１０〜４７４１、４７４７〜４７６１−３番地）"
  },
  "8911204": {
    "zipcode": "8911204",
    "prefectureCode": "46",
    "prefectureNumber": 46,
    "prefecture": "鹿児島県",
    "city": "鹿児島市",
    "town": "花野光ケ丘"
  },
  "8911205": {
    "zipcode": "8911205",
    "prefectureCode": "46",
    "prefectureNumber": 46,
    "prefecture": "鹿児島県",
    "city": "鹿児島市",
    "town": "犬迫町"
  },
  "8911206": {
    "zipcode": "8911206",
    "prefectureCode": "46",
    "prefectureNumber": 46,
    "prefecture": "鹿児島県",
    "city": "鹿児島市",
    "town": "皆与志町"
  },
  "8911222": {
    "zipcode": "8911222",
    "prefectureCode": "46",
    "prefectureNumber": 46,
    "prefecture": "鹿児島県",
    "city": "鹿児島市",
    "town": "小野町（４７８４〜５１１８番地）"
  },
  "8911231": {
    "zipcode": "8911231",
    "prefectureCode": "46",
    "prefectureNumber": 46,
    "prefecture": "鹿児島県",
    "city": "鹿児島市",
    "town": "小山田町（その他）"
  },
  "8911274": {
    "zipcode": "8911274",
    "prefectureCode": "46",
    "prefectureNumber": 46,
    "prefecture": "鹿児島県",
    "city": "鹿児島市",
    "town": "緑ヶ丘町（３５番以降）"
  },
  "8911275": {
    "zipcode": "8911275",
    "prefectureCode": "46",
    "prefectureNumber": 46,
    "prefecture": "鹿児島県",
    "city": "鹿児島市",
    "town": "川上町（３６４９、３６６１、３６６７、３６６７−３、３６６９−４、３６７１、３６７２、３６７３−１、３６７４、３６７４−２、３６７４−８、３６８０−１、３７０１、３７０４、３７２３−３、３７２３−５、４１２５、４１２８、４１２８−３、４１２８−４、４１２８−５、４１３２、４１３２−４、４１３３、４１３３−２、４１３８、４２０３、４２０３−１、４２０９、４２０９−６、４２１１−１、４２１５、４２１５−１、４２１６−３、４２１６−１０、４２１６−１２、４２３６−１、４２３８、４２３８−１、４２３８−２、４２４１、４２４２、４２４２−３、４２４４、４２４４−１、４２４４−３、４２４４−４番地）"
  },
  "8911301": {
    "zipcode": "8911301",
    "prefectureCode": "46",
    "prefectureNumber": 46,
    "prefecture": "鹿児島県",
    "city": "鹿児島市",
    "town": "西佐多町"
  },
  "8911302": {
    "zipcode": "8911302",
    "prefectureCode": "46",
    "prefectureNumber": 46,
    "prefecture": "鹿児島県",
    "city": "鹿児島市",
    "town": "東佐多町"
  },
  "8911303": {
    "zipcode": "8911303",
    "prefectureCode": "46",
    "prefectureNumber": 46,
    "prefecture": "鹿児島県",
    "city": "鹿児島市",
    "town": "本城町"
  },
  "8911304": {
    "zipcode": "8911304",
    "prefectureCode": "46",
    "prefectureNumber": 46,
    "prefecture": "鹿児島県",
    "city": "鹿児島市",
    "town": "本名町"
  },
  "8911305": {
    "zipcode": "8911305",
    "prefectureCode": "46",
    "prefectureNumber": 46,
    "prefecture": "鹿児島県",
    "city": "鹿児島市",
    "town": "宮之浦町"
  },
  "8911306": {
    "zipcode": "8911306",
    "prefectureCode": "46",
    "prefectureNumber": 46,
    "prefecture": "鹿児島県",
    "city": "鹿児島市",
    "town": "牟礼岡"
  },
  "8911401": {
    "zipcode": "8911401",
    "prefectureCode": "46",
    "prefectureNumber": 46,
    "prefecture": "鹿児島県",
    "city": "鹿児島市",
    "town": "黒神町（その他）"
  },
  "8911402": {
    "zipcode": "8911402",
    "prefectureCode": "46",
    "prefectureNumber": 46,
    "prefecture": "鹿児島県",
    "city": "鹿児島市",
    "town": "高免町"
  },
  "8911403": {
    "zipcode": "8911403",
    "prefectureCode": "46",
    "prefectureNumber": 46,
    "prefecture": "鹿児島県",
    "city": "鹿児島市",
    "town": "新島町"
  },
  "8911411": {
    "zipcode": "8911411",
    "prefectureCode": "46",
    "prefectureNumber": 46,
    "prefecture": "鹿児島県",
    "city": "鹿児島市",
    "town": "桜島白浜町"
  },
  "8911412": {
    "zipcode": "8911412",
    "prefectureCode": "46",
    "prefectureNumber": 46,
    "prefecture": "鹿児島県",
    "city": "鹿児島市",
    "town": "桜島二俣町"
  },
  "8911413": {
    "zipcode": "8911413",
    "prefectureCode": "46",
    "prefectureNumber": 46,
    "prefecture": "鹿児島県",
    "city": "鹿児島市",
    "town": "桜島松浦町"
  },
  "8911414": {
    "zipcode": "8911414",
    "prefectureCode": "46",
    "prefectureNumber": 46,
    "prefecture": "鹿児島県",
    "city": "鹿児島市",
    "town": "桜島西道町"
  },
  "8911415": {
    "zipcode": "8911415",
    "prefectureCode": "46",
    "prefectureNumber": 46,
    "prefecture": "鹿児島県",
    "city": "鹿児島市",
    "town": "桜島藤野町"
  },
  "8911416": {
    "zipcode": "8911416",
    "prefectureCode": "46",
    "prefectureNumber": 46,
    "prefecture": "鹿児島県",
    "city": "鹿児島市",
    "town": "桜島武町"
  },
  "8911417": {
    "zipcode": "8911417",
    "prefectureCode": "46",
    "prefectureNumber": 46,
    "prefecture": "鹿児島県",
    "city": "鹿児島市",
    "town": "桜島赤生原町"
  },
  "8911418": {
    "zipcode": "8911418",
    "prefectureCode": "46",
    "prefectureNumber": 46,
    "prefecture": "鹿児島県",
    "city": "鹿児島市",
    "town": "桜島小池町"
  },
  "8911419": {
    "zipcode": "8911419",
    "prefectureCode": "46",
    "prefectureNumber": 46,
    "prefecture": "鹿児島県",
    "city": "鹿児島市",
    "town": "桜島横山町"
  },
  "8911420": {
    "zipcode": "8911420",
    "prefectureCode": "46",
    "prefectureNumber": 46,
    "prefecture": "鹿児島県",
    "city": "鹿児島市",
    "town": "桜島赤水町"
  },
  "8911501": {
    "zipcode": "8911501",
    "prefectureCode": "46",
    "prefectureNumber": 46,
    "prefecture": "鹿児島県",
    "city": "鹿児島市",
    "town": "黒神町（枦ノ木ケ谷）"
  },
  "8911541": {
    "zipcode": "8911541",
    "prefectureCode": "46",
    "prefectureNumber": 46,
    "prefecture": "鹿児島県",
    "city": "鹿児島市",
    "town": "野尻町"
  },
  "8911542": {
    "zipcode": "8911542",
    "prefectureCode": "46",
    "prefectureNumber": 46,
    "prefecture": "鹿児島県",
    "city": "鹿児島市",
    "town": "持木町"
  },
  "8911543": {
    "zipcode": "8911543",
    "prefectureCode": "46",
    "prefectureNumber": 46,
    "prefecture": "鹿児島県",
    "city": "鹿児島市",
    "town": "東桜島町"
  },
  "8911544": {
    "zipcode": "8911544",
    "prefectureCode": "46",
    "prefectureNumber": 46,
    "prefecture": "鹿児島県",
    "city": "鹿児島市",
    "town": "古里町"
  },
  "8911545": {
    "zipcode": "8911545",
    "prefectureCode": "46",
    "prefectureNumber": 46,
    "prefecture": "鹿児島県",
    "city": "鹿児島市",
    "town": "有村町"
  },
  "8912100": {
    "zipcode": "8912100",
    "prefectureCode": "46",
    "prefectureNumber": 46,
    "prefecture": "鹿児島県",
    "city": "垂水市",
    "town": "以下に掲載がない場合"
  },
  "8912101": {
    "zipcode": "8912101",
    "prefectureCode": "46",
    "prefectureNumber": 46,
    "prefecture": "鹿児島県",
    "city": "垂水市",
    "town": "海潟"
  },
  "8912102": {
    "zipcode": "8912102",
    "prefectureCode": "46",
    "prefectureNumber": 46,
    "prefecture": "鹿児島県",
    "city": "垂水市",
    "town": "中俣"
  },
  "8912103": {
    "zipcode": "8912103",
    "prefectureCode": "46",
    "prefectureNumber": 46,
    "prefecture": "鹿児島県",
    "city": "垂水市",
    "town": "市木"
  },
  "8912104": {
    "zipcode": "8912104",
    "prefectureCode": "46",
    "prefectureNumber": 46,
    "prefecture": "鹿児島県",
    "city": "垂水市",
    "town": "田神"
  },
  "8912105": {
    "zipcode": "8912105",
    "prefectureCode": "46",
    "prefectureNumber": 46,
    "prefecture": "鹿児島県",
    "city": "垂水市",
    "town": "松原町"
  },
  "8912106": {
    "zipcode": "8912106",
    "prefectureCode": "46",
    "prefectureNumber": 46,
    "prefecture": "鹿児島県",
    "city": "垂水市",
    "town": "中央町"
  },
  "8912111": {
    "zipcode": "8912111",
    "prefectureCode": "46",
    "prefectureNumber": 46,
    "prefecture": "鹿児島県",
    "city": "垂水市",
    "town": "新御堂"
  },
  "8912112": {
    "zipcode": "8912112",
    "prefectureCode": "46",
    "prefectureNumber": 46,
    "prefecture": "鹿児島県",
    "city": "垂水市",
    "town": "本城"
  },
  "8912113": {
    "zipcode": "8912113",
    "prefectureCode": "46",
    "prefectureNumber": 46,
    "prefecture": "鹿児島県",
    "city": "垂水市",
    "town": "高城"
  },
  "8912114": {
    "zipcode": "8912114",
    "prefectureCode": "46",
    "prefectureNumber": 46,
    "prefecture": "鹿児島県",
    "city": "垂水市",
    "town": "新城"
  },
  "8912115": {
    "zipcode": "8912115",
    "prefectureCode": "46",
    "prefectureNumber": 46,
    "prefecture": "鹿児島県",
    "city": "垂水市",
    "town": "浜平"
  },
  "8912116": {
    "zipcode": "8912116",
    "prefectureCode": "46",
    "prefectureNumber": 46,
    "prefecture": "鹿児島県",
    "city": "垂水市",
    "town": "柊原"
  },
  "8912117": {
    "zipcode": "8912117",
    "prefectureCode": "46",
    "prefectureNumber": 46,
    "prefecture": "鹿児島県",
    "city": "垂水市",
    "town": "潮彩町"
  },
  "8912121": {
    "zipcode": "8912121",
    "prefectureCode": "46",
    "prefectureNumber": 46,
    "prefecture": "鹿児島県",
    "city": "垂水市",
    "town": "栄町"
  },
  "8912122": {
    "zipcode": "8912122",
    "prefectureCode": "46",
    "prefectureNumber": 46,
    "prefecture": "鹿児島県",
    "city": "垂水市",
    "town": "上町"
  },
  "8912123": {
    "zipcode": "8912123",
    "prefectureCode": "46",
    "prefectureNumber": 46,
    "prefecture": "鹿児島県",
    "city": "垂水市",
    "town": "本町"
  },
  "8912124": {
    "zipcode": "8912124",
    "prefectureCode": "46",
    "prefectureNumber": 46,
    "prefecture": "鹿児島県",
    "city": "垂水市",
    "town": "錦江町"
  },
  "8912125": {
    "zipcode": "8912125",
    "prefectureCode": "46",
    "prefectureNumber": 46,
    "prefecture": "鹿児島県",
    "city": "垂水市",
    "town": "旭町"
  },
  "8912126": {
    "zipcode": "8912126",
    "prefectureCode": "46",
    "prefectureNumber": 46,
    "prefecture": "鹿児島県",
    "city": "垂水市",
    "town": "南松原町"
  },
  "8912127": {
    "zipcode": "8912127",
    "prefectureCode": "46",
    "prefectureNumber": 46,
    "prefecture": "鹿児島県",
    "city": "垂水市",
    "town": "下宮町"
  },
  "8912301": {
    "zipcode": "8912301",
    "prefectureCode": "46",
    "prefectureNumber": 46,
    "prefecture": "鹿児島県",
    "city": "鹿屋市",
    "town": "有武町"
  },
  "8912302": {
    "zipcode": "8912302",
    "prefectureCode": "46",
    "prefectureNumber": 46,
    "prefecture": "鹿児島県",
    "city": "鹿屋市",
    "town": "小薄町"
  },
  "8912303": {
    "zipcode": "8912303",
    "prefectureCode": "46",
    "prefectureNumber": 46,
    "prefecture": "鹿児島県",
    "city": "鹿屋市",
    "town": "海道町"
  },
  "8912304": {
    "zipcode": "8912304",
    "prefectureCode": "46",
    "prefectureNumber": 46,
    "prefecture": "鹿児島県",
    "city": "鹿屋市",
    "town": "花岡町"
  },
  "8912305": {
    "zipcode": "8912305",
    "prefectureCode": "46",
    "prefectureNumber": 46,
    "prefecture": "鹿児島県",
    "city": "鹿屋市",
    "town": "根木原町"
  },
  "8912306": {
    "zipcode": "8912306",
    "prefectureCode": "46",
    "prefectureNumber": 46,
    "prefecture": "鹿児島県",
    "city": "鹿屋市",
    "town": "花里町"
  },
  "8912311": {
    "zipcode": "8912311",
    "prefectureCode": "46",
    "prefectureNumber": 46,
    "prefecture": "鹿児島県",
    "city": "鹿屋市",
    "town": "白水町"
  },
  "8912312": {
    "zipcode": "8912312",
    "prefectureCode": "46",
    "prefectureNumber": 46,
    "prefecture": "鹿児島県",
    "city": "鹿屋市",
    "town": "小野原町"
  },
  "8912313": {
    "zipcode": "8912313",
    "prefectureCode": "46",
    "prefectureNumber": 46,
    "prefecture": "鹿児島県",
    "city": "鹿屋市",
    "town": "天神町"
  },
  "8912314": {
    "zipcode": "8912314",
    "prefectureCode": "46",
    "prefectureNumber": 46,
    "prefecture": "鹿児島県",
    "city": "鹿屋市",
    "town": "船間町"
  },
  "8912321": {
    "zipcode": "8912321",
    "prefectureCode": "46",
    "prefectureNumber": 46,
    "prefecture": "鹿児島県",
    "city": "鹿屋市",
    "town": "古江町"
  },
  "8912322": {
    "zipcode": "8912322",
    "prefectureCode": "46",
    "prefectureNumber": 46,
    "prefecture": "鹿児島県",
    "city": "鹿屋市",
    "town": "古里町"
  },
  "8913100": {
    "zipcode": "8913100",
    "prefectureCode": "46",
    "prefectureNumber": 46,
    "prefecture": "鹿児島県",
    "city": "西之表市",
    "town": "以下に掲載がない場合"
  },
  "8913101": {
    "zipcode": "8913101",
    "prefectureCode": "46",
    "prefectureNumber": 46,
    "prefecture": "鹿児島県",
    "city": "西之表市",
    "town": "西之表"
  },
  "8913102": {
    "zipcode": "8913102",
    "prefectureCode": "46",
    "prefectureNumber": 46,
    "prefecture": "鹿児島県",
    "city": "西之表市",
    "town": "安納（１〜３０４８、４９０１〜４９３０番地）"
  },
  "8913103": {
    "zipcode": "8913103",
    "prefectureCode": "46",
    "prefectureNumber": 46,
    "prefecture": "鹿児島県",
    "city": "西之表市",
    "town": "現和"
  },
  "8913104": {
    "zipcode": "8913104",
    "prefectureCode": "46",
    "prefectureNumber": 46,
    "prefecture": "鹿児島県",
    "city": "西之表市",
    "town": "住吉"
  },
  "8913111": {
    "zipcode": "8913111",
    "prefectureCode": "46",
    "prefectureNumber": 46,
    "prefecture": "鹿児島県",
    "city": "西之表市",
    "town": "西町"
  },
  "8913112": {
    "zipcode": "8913112",
    "prefectureCode": "46",
    "prefectureNumber": 46,
    "prefecture": "鹿児島県",
    "city": "西之表市",
    "town": "栄町"
  },
  "8913113": {
    "zipcode": "8913113",
    "prefectureCode": "46",
    "prefectureNumber": 46,
    "prefecture": "鹿児島県",
    "city": "西之表市",
    "town": "東町"
  },
  "8913114": {
    "zipcode": "8913114",
    "prefectureCode": "46",
    "prefectureNumber": 46,
    "prefecture": "鹿児島県",
    "city": "西之表市",
    "town": "池田"
  },
  "8913115": {
    "zipcode": "8913115",
    "prefectureCode": "46",
    "prefectureNumber": 46,
    "prefecture": "鹿児島県",
    "city": "西之表市",
    "town": "天神町"
  },
  "8913116": {
    "zipcode": "8913116",
    "prefectureCode": "46",
    "prefectureNumber": 46,
    "prefecture": "鹿児島県",
    "city": "西之表市",
    "town": "鴨女町"
  },
  "8913117": {
    "zipcode": "8913117",
    "prefectureCode": "46",
    "prefectureNumber": 46,
    "prefecture": "鹿児島県",
    "city": "西之表市",
    "town": "桜が丘"
  },
  "8913118": {
    "zipcode": "8913118",
    "prefectureCode": "46",
    "prefectureNumber": 46,
    "prefecture": "鹿児島県",
    "city": "西之表市",
    "town": "馬毛島"
  },
  "8913202": {
    "zipcode": "8913202",
    "prefectureCode": "46",
    "prefectureNumber": 46,
    "prefecture": "鹿児島県",
    "city": "西之表市",
    "town": "安納（その他）"
  },
  "8913221": {
    "zipcode": "8913221",
    "prefectureCode": "46",
    "prefectureNumber": 46,
    "prefecture": "鹿児島県",
    "city": "西之表市",
    "town": "伊関"
  },
  "8913222": {
    "zipcode": "8913222",
    "prefectureCode": "46",
    "prefectureNumber": 46,
    "prefecture": "鹿児島県",
    "city": "西之表市",
    "town": "国上"
  },
  "8913431": {
    "zipcode": "8913431",
    "prefectureCode": "46",
    "prefectureNumber": 46,
    "prefecture": "鹿児島県",
    "city": "西之表市",
    "town": "古田"
  },
  "8913432": {
    "zipcode": "8913432",
    "prefectureCode": "46",
    "prefectureNumber": 46,
    "prefecture": "鹿児島県",
    "city": "西之表市",
    "town": "安城"
  },
  "8913600": {
    "zipcode": "8913600",
    "prefectureCode": "46",
    "prefectureNumber": 46,
    "prefecture": "鹿児島県",
    "city": "熊毛郡中種子町",
    "town": "以下に掲載がない場合"
  },
  "8913601": {
    "zipcode": "8913601",
    "prefectureCode": "46",
    "prefectureNumber": 46,
    "prefecture": "鹿児島県",
    "city": "熊毛郡中種子町",
    "town": "納官"
  },
  "8913602": {
    "zipcode": "8913602",
    "prefectureCode": "46",
    "prefectureNumber": 46,
    "prefecture": "鹿児島県",
    "city": "熊毛郡中種子町",
    "town": "牧川"
  },
  "8913603": {
    "zipcode": "8913603",
    "prefectureCode": "46",
    "prefectureNumber": 46,
    "prefecture": "鹿児島県",
    "city": "熊毛郡中種子町",
    "town": "増田"
  },
  "8913604": {
    "zipcode": "8913604",
    "prefectureCode": "46",
    "prefectureNumber": 46,
    "prefecture": "鹿児島県",
    "city": "熊毛郡中種子町",
    "town": "野間"
  },
  "8913605": {
    "zipcode": "8913605",
    "prefectureCode": "46",
    "prefectureNumber": 46,
    "prefecture": "鹿児島県",
    "city": "熊毛郡中種子町",
    "town": "油久"
  },
  "8913606": {
    "zipcode": "8913606",
    "prefectureCode": "46",
    "prefectureNumber": 46,
    "prefecture": "鹿児島県",
    "city": "熊毛郡中種子町",
    "town": "坂井"
  },
  "8913607": {
    "zipcode": "8913607",
    "prefectureCode": "46",
    "prefectureNumber": 46,
    "prefecture": "鹿児島県",
    "city": "熊毛郡中種子町",
    "town": "田島"
  },
  "8913700": {
    "zipcode": "8913700",
    "prefectureCode": "46",
    "prefectureNumber": 46,
    "prefecture": "鹿児島県",
    "city": "熊毛郡南種子町",
    "town": "以下に掲載がない場合"
  },
  "8913701": {
    "zipcode": "8913701",
    "prefectureCode": "46",
    "prefectureNumber": 46,
    "prefecture": "鹿児島県",
    "city": "熊毛郡南種子町",
    "town": "中之上"
  },
  "8913702": {
    "zipcode": "8913702",
    "prefectureCode": "46",
    "prefectureNumber": 46,
    "prefecture": "鹿児島県",
    "city": "熊毛郡南種子町",
    "town": "平山"
  },
  "8913703": {
    "zipcode": "8913703",
    "prefectureCode": "46",
    "prefectureNumber": 46,
    "prefecture": "鹿児島県",
    "city": "熊毛郡南種子町",
    "town": "茎永"
  },
  "8913704": {
    "zipcode": "8913704",
    "prefectureCode": "46",
    "prefectureNumber": 46,
    "prefecture": "鹿児島県",
    "city": "熊毛郡南種子町",
    "town": "中之下"
  },
  "8913705": {
    "zipcode": "8913705",
    "prefectureCode": "46",
    "prefectureNumber": 46,
    "prefecture": "鹿児島県",
    "city": "熊毛郡南種子町",
    "town": "西之"
  },
  "8913706": {
    "zipcode": "8913706",
    "prefectureCode": "46",
    "prefectureNumber": 46,
    "prefecture": "鹿児島県",
    "city": "熊毛郡南種子町",
    "town": "島間"
  },
  "8914200": {
    "zipcode": "8914200",
    "prefectureCode": "46",
    "prefectureNumber": 46,
    "prefecture": "鹿児島県",
    "city": "熊毛郡屋久島町",
    "town": "以下に掲載がない場合"
  },
  "8914201": {
    "zipcode": "8914201",
    "prefectureCode": "46",
    "prefectureNumber": 46,
    "prefecture": "鹿児島県",
    "city": "熊毛郡屋久島町",
    "town": "永田"
  },
  "8914202": {
    "zipcode": "8914202",
    "prefectureCode": "46",
    "prefectureNumber": 46,
    "prefecture": "鹿児島県",
    "city": "熊毛郡屋久島町",
    "town": "吉田"
  },
  "8914203": {
    "zipcode": "8914203",
    "prefectureCode": "46",
    "prefectureNumber": 46,
    "prefecture": "鹿児島県",
    "city": "熊毛郡屋久島町",
    "town": "一湊"
  },
  "8914204": {
    "zipcode": "8914204",
    "prefectureCode": "46",
    "prefectureNumber": 46,
    "prefecture": "鹿児島県",
    "city": "熊毛郡屋久島町",
    "town": "志戸子"
  },
  "8914205": {
    "zipcode": "8914205",
    "prefectureCode": "46",
    "prefectureNumber": 46,
    "prefecture": "鹿児島県",
    "city": "熊毛郡屋久島町",
    "town": "宮之浦"
  },
  "8914206": {
    "zipcode": "8914206",
    "prefectureCode": "46",
    "prefectureNumber": 46,
    "prefecture": "鹿児島県",
    "city": "熊毛郡屋久島町",
    "town": "楠川"
  },
  "8914207": {
    "zipcode": "8914207",
    "prefectureCode": "46",
    "prefectureNumber": 46,
    "prefecture": "鹿児島県",
    "city": "熊毛郡屋久島町",
    "town": "小瀬田"
  },
  "8914208": {
    "zipcode": "8914208",
    "prefectureCode": "46",
    "prefectureNumber": 46,
    "prefecture": "鹿児島県",
    "city": "熊毛郡屋久島町",
    "town": "口永良部島"
  },
  "8914311": {
    "zipcode": "8914311",
    "prefectureCode": "46",
    "prefectureNumber": 46,
    "prefecture": "鹿児島県",
    "city": "熊毛郡屋久島町",
    "town": "安房"
  },
  "8914312": {
    "zipcode": "8914312",
    "prefectureCode": "46",
    "prefectureNumber": 46,
    "prefecture": "鹿児島県",
    "city": "熊毛郡屋久島町",
    "town": "船行"
  },
  "8914401": {
    "zipcode": "8914401",
    "prefectureCode": "46",
    "prefectureNumber": 46,
    "prefecture": "鹿児島県",
    "city": "熊毛郡屋久島町",
    "town": "麦生（高平）"
  },
  "8914402": {
    "zipcode": "8914402",
    "prefectureCode": "46",
    "prefectureNumber": 46,
    "prefecture": "鹿児島県",
    "city": "熊毛郡屋久島町",
    "town": "麦生（その他）"
  },
  "8914403": {
    "zipcode": "8914403",
    "prefectureCode": "46",
    "prefectureNumber": 46,
    "prefecture": "鹿児島県",
    "city": "熊毛郡屋久島町",
    "town": "原"
  },
  "8914404": {
    "zipcode": "8914404",
    "prefectureCode": "46",
    "prefectureNumber": 46,
    "prefecture": "鹿児島県",
    "city": "熊毛郡屋久島町",
    "town": "尾之間"
  },
  "8914405": {
    "zipcode": "8914405",
    "prefectureCode": "46",
    "prefectureNumber": 46,
    "prefecture": "鹿児島県",
    "city": "熊毛郡屋久島町",
    "town": "小島"
  },
  "8914406": {
    "zipcode": "8914406",
    "prefectureCode": "46",
    "prefectureNumber": 46,
    "prefecture": "鹿児島県",
    "city": "熊毛郡屋久島町",
    "town": "平内"
  },
  "8914407": {
    "zipcode": "8914407",
    "prefectureCode": "46",
    "prefectureNumber": 46,
    "prefecture": "鹿児島県",
    "city": "熊毛郡屋久島町",
    "town": "湯泊"
  },
  "8914408": {
    "zipcode": "8914408",
    "prefectureCode": "46",
    "prefectureNumber": 46,
    "prefecture": "鹿児島県",
    "city": "熊毛郡屋久島町",
    "town": "中間"
  },
  "8914409": {
    "zipcode": "8914409",
    "prefectureCode": "46",
    "prefectureNumber": 46,
    "prefecture": "鹿児島県",
    "city": "熊毛郡屋久島町",
    "town": "栗生"
  },
  "8915101": {
    "zipcode": "8915101",
    "prefectureCode": "46",
    "prefectureNumber": 46,
    "prefecture": "鹿児島県",
    "city": "鹿児島郡十島村",
    "town": "口之島"
  },
  "8915200": {
    "zipcode": "8915200",
    "prefectureCode": "46",
    "prefectureNumber": 46,
    "prefecture": "鹿児島県",
    "city": "鹿児島郡十島村",
    "town": "以下に掲載がない場合"
  },
  "8915201": {
    "zipcode": "8915201",
    "prefectureCode": "46",
    "prefectureNumber": 46,
    "prefecture": "鹿児島県",
    "city": "鹿児島郡十島村",
    "town": "中之島"
  },
  "8915202": {
    "zipcode": "8915202",
    "prefectureCode": "46",
    "prefectureNumber": 46,
    "prefecture": "鹿児島県",
    "city": "鹿児島郡十島村",
    "town": "平島"
  },
  "8915203": {
    "zipcode": "8915203",
    "prefectureCode": "46",
    "prefectureNumber": 46,
    "prefecture": "鹿児島県",
    "city": "鹿児島郡十島村",
    "town": "諏訪之瀬島"
  },
  "8915204": {
    "zipcode": "8915204",
    "prefectureCode": "46",
    "prefectureNumber": 46,
    "prefecture": "鹿児島県",
    "city": "鹿児島郡十島村",
    "town": "悪石島"
  },
  "8915205": {
    "zipcode": "8915205",
    "prefectureCode": "46",
    "prefectureNumber": 46,
    "prefecture": "鹿児島県",
    "city": "鹿児島郡十島村",
    "town": "小宝島"
  },
  "8915301": {
    "zipcode": "8915301",
    "prefectureCode": "46",
    "prefectureNumber": 46,
    "prefecture": "鹿児島県",
    "city": "鹿児島郡十島村",
    "town": "宝島"
  },
  "8916141": {
    "zipcode": "8916141",
    "prefectureCode": "46",
    "prefectureNumber": 46,
    "prefecture": "鹿児島県",
    "city": "大島郡喜界町",
    "town": "伊実久"
  },
  "8916142": {
    "zipcode": "8916142",
    "prefectureCode": "46",
    "prefectureNumber": 46,
    "prefecture": "鹿児島県",
    "city": "大島郡喜界町",
    "town": "小野津"
  },
  "8916143": {
    "zipcode": "8916143",
    "prefectureCode": "46",
    "prefectureNumber": 46,
    "prefecture": "鹿児島県",
    "city": "大島郡喜界町",
    "town": "志戸桶"
  },
  "8916144": {
    "zipcode": "8916144",
    "prefectureCode": "46",
    "prefectureNumber": 46,
    "prefecture": "鹿児島県",
    "city": "大島郡喜界町",
    "town": "佐手久"
  },
  "8916151": {
    "zipcode": "8916151",
    "prefectureCode": "46",
    "prefectureNumber": 46,
    "prefecture": "鹿児島県",
    "city": "大島郡喜界町",
    "town": "塩道"
  },
  "8916152": {
    "zipcode": "8916152",
    "prefectureCode": "46",
    "prefectureNumber": 46,
    "prefecture": "鹿児島県",
    "city": "大島郡喜界町",
    "town": "早町"
  },
  "8916153": {
    "zipcode": "8916153",
    "prefectureCode": "46",
    "prefectureNumber": 46,
    "prefecture": "鹿児島県",
    "city": "大島郡喜界町",
    "town": "長嶺"
  },
  "8916154": {
    "zipcode": "8916154",
    "prefectureCode": "46",
    "prefectureNumber": 46,
    "prefecture": "鹿児島県",
    "city": "大島郡喜界町",
    "town": "白水"
  },
  "8916161": {
    "zipcode": "8916161",
    "prefectureCode": "46",
    "prefectureNumber": 46,
    "prefecture": "鹿児島県",
    "city": "大島郡喜界町",
    "town": "嘉鈍"
  },
  "8916162": {
    "zipcode": "8916162",
    "prefectureCode": "46",
    "prefectureNumber": 46,
    "prefecture": "鹿児島県",
    "city": "大島郡喜界町",
    "town": "阿伝"
  },
  "8916163": {
    "zipcode": "8916163",
    "prefectureCode": "46",
    "prefectureNumber": 46,
    "prefecture": "鹿児島県",
    "city": "大島郡喜界町",
    "town": "花良治（蒲生）"
  },
  "8916164": {
    "zipcode": "8916164",
    "prefectureCode": "46",
    "prefectureNumber": 46,
    "prefecture": "鹿児島県",
    "city": "大島郡喜界町",
    "town": "花良治"
  },
  "8916200": {
    "zipcode": "8916200",
    "prefectureCode": "46",
    "prefectureNumber": 46,
    "prefecture": "鹿児島県",
    "city": "大島郡喜界町",
    "town": "以下に掲載がない場合"
  },
  "8916201": {
    "zipcode": "8916201",
    "prefectureCode": "46",
    "prefectureNumber": 46,
    "prefecture": "鹿児島県",
    "city": "大島郡喜界町",
    "town": "赤連"
  },
  "8916202": {
    "zipcode": "8916202",
    "prefectureCode": "46",
    "prefectureNumber": 46,
    "prefecture": "鹿児島県",
    "city": "大島郡喜界町",
    "town": "湾"
  },
  "8916203": {
    "zipcode": "8916203",
    "prefectureCode": "46",
    "prefectureNumber": 46,
    "prefecture": "鹿児島県",
    "city": "大島郡喜界町",
    "town": "中里"
  },
  "8916211": {
    "zipcode": "8916211",
    "prefectureCode": "46",
    "prefectureNumber": 46,
    "prefecture": "鹿児島県",
    "city": "大島郡喜界町",
    "town": "中間"
  },
  "8916212": {
    "zipcode": "8916212",
    "prefectureCode": "46",
    "prefectureNumber": 46,
    "prefecture": "鹿児島県",
    "city": "大島郡喜界町",
    "town": "中熊（先内）"
  },
  "8916213": {
    "zipcode": "8916213",
    "prefectureCode": "46",
    "prefectureNumber": 46,
    "prefecture": "鹿児島県",
    "city": "大島郡喜界町",
    "town": "大朝戸"
  },
  "8916214": {
    "zipcode": "8916214",
    "prefectureCode": "46",
    "prefectureNumber": 46,
    "prefecture": "鹿児島県",
    "city": "大島郡喜界町",
    "town": "西目"
  },
  "8916215": {
    "zipcode": "8916215",
    "prefectureCode": "46",
    "prefectureNumber": 46,
    "prefecture": "鹿児島県",
    "city": "大島郡喜界町",
    "town": "中熊"
  },
  "8916216": {
    "zipcode": "8916216",
    "prefectureCode": "46",
    "prefectureNumber": 46,
    "prefecture": "鹿児島県",
    "city": "大島郡喜界町",
    "town": "坂嶺"
  },
  "8916217": {
    "zipcode": "8916217",
    "prefectureCode": "46",
    "prefectureNumber": 46,
    "prefecture": "鹿児島県",
    "city": "大島郡喜界町",
    "town": "伊砂"
  },
  "8916221": {
    "zipcode": "8916221",
    "prefectureCode": "46",
    "prefectureNumber": 46,
    "prefecture": "鹿児島県",
    "city": "大島郡喜界町",
    "town": "池治"
  },
  "8916222": {
    "zipcode": "8916222",
    "prefectureCode": "46",
    "prefectureNumber": 46,
    "prefecture": "鹿児島県",
    "city": "大島郡喜界町",
    "town": "島中"
  },
  "8916223": {
    "zipcode": "8916223",
    "prefectureCode": "46",
    "prefectureNumber": 46,
    "prefecture": "鹿児島県",
    "city": "大島郡喜界町",
    "town": "滝川"
  },
  "8916224": {
    "zipcode": "8916224",
    "prefectureCode": "46",
    "prefectureNumber": 46,
    "prefecture": "鹿児島県",
    "city": "大島郡喜界町",
    "town": "城久"
  },
  "8916225": {
    "zipcode": "8916225",
    "prefectureCode": "46",
    "prefectureNumber": 46,
    "prefecture": "鹿児島県",
    "city": "大島郡喜界町",
    "town": "山田"
  },
  "8916226": {
    "zipcode": "8916226",
    "prefectureCode": "46",
    "prefectureNumber": 46,
    "prefecture": "鹿児島県",
    "city": "大島郡喜界町",
    "town": "羽里"
  },
  "8916227": {
    "zipcode": "8916227",
    "prefectureCode": "46",
    "prefectureNumber": 46,
    "prefecture": "鹿児島県",
    "city": "大島郡喜界町",
    "town": "川嶺"
  },
  "8916228": {
    "zipcode": "8916228",
    "prefectureCode": "46",
    "prefectureNumber": 46,
    "prefecture": "鹿児島県",
    "city": "大島郡喜界町",
    "town": "浦原"
  },
  "8916229": {
    "zipcode": "8916229",
    "prefectureCode": "46",
    "prefectureNumber": 46,
    "prefecture": "鹿児島県",
    "city": "大島郡喜界町",
    "town": "先山"
  },
  "8916231": {
    "zipcode": "8916231",
    "prefectureCode": "46",
    "prefectureNumber": 46,
    "prefecture": "鹿児島県",
    "city": "大島郡喜界町",
    "town": "荒木"
  },
  "8916232": {
    "zipcode": "8916232",
    "prefectureCode": "46",
    "prefectureNumber": 46,
    "prefecture": "鹿児島県",
    "city": "大島郡喜界町",
    "town": "手久津久"
  },
  "8916233": {
    "zipcode": "8916233",
    "prefectureCode": "46",
    "prefectureNumber": 46,
    "prefecture": "鹿児島県",
    "city": "大島郡喜界町",
    "town": "上嘉鉄"
  },
  "8917100": {
    "zipcode": "8917100",
    "prefectureCode": "46",
    "prefectureNumber": 46,
    "prefecture": "鹿児島県",
    "city": "大島郡徳之島町",
    "town": "以下に掲載がない場合"
  },
  "8917101": {
    "zipcode": "8917101",
    "prefectureCode": "46",
    "prefectureNumber": 46,
    "prefecture": "鹿児島県",
    "city": "大島郡徳之島町",
    "town": "亀津"
  },
  "8917102": {
    "zipcode": "8917102",
    "prefectureCode": "46",
    "prefectureNumber": 46,
    "prefecture": "鹿児島県",
    "city": "大島郡徳之島町",
    "town": "亀徳"
  },
  "8917103": {
    "zipcode": "8917103",
    "prefectureCode": "46",
    "prefectureNumber": 46,
    "prefecture": "鹿児島県",
    "city": "大島郡徳之島町",
    "town": "南原"
  },
  "8917104": {
    "zipcode": "8917104",
    "prefectureCode": "46",
    "prefectureNumber": 46,
    "prefecture": "鹿児島県",
    "city": "大島郡徳之島町",
    "town": "尾母"
  },
  "8917105": {
    "zipcode": "8917105",
    "prefectureCode": "46",
    "prefectureNumber": 46,
    "prefecture": "鹿児島県",
    "city": "大島郡徳之島町",
    "town": "白井"
  },
  "8917111": {
    "zipcode": "8917111",
    "prefectureCode": "46",
    "prefectureNumber": 46,
    "prefecture": "鹿児島県",
    "city": "大島郡徳之島町",
    "town": "徳和瀬"
  },
  "8917112": {
    "zipcode": "8917112",
    "prefectureCode": "46",
    "prefectureNumber": 46,
    "prefecture": "鹿児島県",
    "city": "大島郡徳之島町",
    "town": "諸田"
  },
  "8917113": {
    "zipcode": "8917113",
    "prefectureCode": "46",
    "prefectureNumber": 46,
    "prefecture": "鹿児島県",
    "city": "大島郡徳之島町",
    "town": "神之嶺"
  },
  "8917114": {
    "zipcode": "8917114",
    "prefectureCode": "46",
    "prefectureNumber": 46,
    "prefecture": "鹿児島県",
    "city": "大島郡徳之島町",
    "town": "井之川"
  },
  "8917115": {
    "zipcode": "8917115",
    "prefectureCode": "46",
    "prefectureNumber": 46,
    "prefecture": "鹿児島県",
    "city": "大島郡徳之島町",
    "town": "下久志"
  },
  "8917116": {
    "zipcode": "8917116",
    "prefectureCode": "46",
    "prefectureNumber": 46,
    "prefecture": "鹿児島県",
    "city": "大島郡徳之島町",
    "town": "旭ケ丘"
  },
  "8917421": {
    "zipcode": "8917421",
    "prefectureCode": "46",
    "prefectureNumber": 46,
    "prefecture": "鹿児島県",
    "city": "大島郡徳之島町",
    "town": "手々"
  },
  "8917422": {
    "zipcode": "8917422",
    "prefectureCode": "46",
    "prefectureNumber": 46,
    "prefecture": "鹿児島県",
    "city": "大島郡徳之島町",
    "town": "金見"
  },
  "8917423": {
    "zipcode": "8917423",
    "prefectureCode": "46",
    "prefectureNumber": 46,
    "prefecture": "鹿児島県",
    "city": "大島郡徳之島町",
    "town": "山"
  },
  "8917424": {
    "zipcode": "8917424",
    "prefectureCode": "46",
    "prefectureNumber": 46,
    "prefecture": "鹿児島県",
    "city": "大島郡徳之島町",
    "town": "轟木"
  },
  "8917425": {
    "zipcode": "8917425",
    "prefectureCode": "46",
    "prefectureNumber": 46,
    "prefecture": "鹿児島県",
    "city": "大島郡徳之島町",
    "town": "花徳"
  },
  "8917426": {
    "zipcode": "8917426",
    "prefectureCode": "46",
    "prefectureNumber": 46,
    "prefecture": "鹿児島県",
    "city": "大島郡徳之島町",
    "town": "母間"
  },
  "8917600": {
    "zipcode": "8917600",
    "prefectureCode": "46",
    "prefectureNumber": 46,
    "prefecture": "鹿児島県",
    "city": "大島郡天城町",
    "town": "以下に掲載がない場合"
  },
  "8917601": {
    "zipcode": "8917601",
    "prefectureCode": "46",
    "prefectureNumber": 46,
    "prefecture": "鹿児島県",
    "city": "大島郡天城町",
    "town": "与名間"
  },
  "8917602": {
    "zipcode": "8917602",
    "prefectureCode": "46",
    "prefectureNumber": 46,
    "prefecture": "鹿児島県",
    "city": "大島郡天城町",
    "town": "松原"
  },
  "8917603": {
    "zipcode": "8917603",
    "prefectureCode": "46",
    "prefectureNumber": 46,
    "prefecture": "鹿児島県",
    "city": "大島郡天城町",
    "town": "岡前"
  },
  "8917604": {
    "zipcode": "8917604",
    "prefectureCode": "46",
    "prefectureNumber": 46,
    "prefecture": "鹿児島県",
    "city": "大島郡天城町",
    "town": "前野"
  },
  "8917605": {
    "zipcode": "8917605",
    "prefectureCode": "46",
    "prefectureNumber": 46,
    "prefecture": "鹿児島県",
    "city": "大島郡天城町",
    "town": "浅間"
  },
  "8917611": {
    "zipcode": "8917611",
    "prefectureCode": "46",
    "prefectureNumber": 46,
    "prefecture": "鹿児島県",
    "city": "大島郡天城町",
    "town": "天城"
  },
  "8917612": {
    "zipcode": "8917612",
    "prefectureCode": "46",
    "prefectureNumber": 46,
    "prefecture": "鹿児島県",
    "city": "大島郡天城町",
    "town": "平土野"
  },
  "8917621": {
    "zipcode": "8917621",
    "prefectureCode": "46",
    "prefectureNumber": 46,
    "prefecture": "鹿児島県",
    "city": "大島郡天城町",
    "town": "兼久"
  },
  "8917622": {
    "zipcode": "8917622",
    "prefectureCode": "46",
    "prefectureNumber": 46,
    "prefecture": "鹿児島県",
    "city": "大島郡天城町",
    "town": "大津川"
  },
  "8917623": {
    "zipcode": "8917623",
    "prefectureCode": "46",
    "prefectureNumber": 46,
    "prefecture": "鹿児島県",
    "city": "大島郡天城町",
    "town": "瀬滝"
  },
  "8917624": {
    "zipcode": "8917624",
    "prefectureCode": "46",
    "prefectureNumber": 46,
    "prefecture": "鹿児島県",
    "city": "大島郡天城町",
    "town": "当部"
  },
  "8917731": {
    "zipcode": "8917731",
    "prefectureCode": "46",
    "prefectureNumber": 46,
    "prefecture": "鹿児島県",
    "city": "大島郡天城町",
    "town": "西阿木名"
  },
  "8918111": {
    "zipcode": "8918111",
    "prefectureCode": "46",
    "prefectureNumber": 46,
    "prefecture": "鹿児島県",
    "city": "大島郡伊仙町",
    "town": "喜念"
  },
  "8918112": {
    "zipcode": "8918112",
    "prefectureCode": "46",
    "prefectureNumber": 46,
    "prefecture": "鹿児島県",
    "city": "大島郡伊仙町",
    "town": "佐弁"
  },
  "8918113": {
    "zipcode": "8918113",
    "prefectureCode": "46",
    "prefectureNumber": 46,
    "prefecture": "鹿児島県",
    "city": "大島郡伊仙町",
    "town": "目手久"
  },
  "8918114": {
    "zipcode": "8918114",
    "prefectureCode": "46",
    "prefectureNumber": 46,
    "prefecture": "鹿児島県",
    "city": "大島郡伊仙町",
    "town": "面縄"
  },
  "8918115": {
    "zipcode": "8918115",
    "prefectureCode": "46",
    "prefectureNumber": 46,
    "prefecture": "鹿児島県",
    "city": "大島郡伊仙町",
    "town": "古里"
  },
  "8918116": {
    "zipcode": "8918116",
    "prefectureCode": "46",
    "prefectureNumber": 46,
    "prefecture": "鹿児島県",
    "city": "大島郡伊仙町",
    "town": "検福（その他）"
  },
  "8918117": {
    "zipcode": "8918117",
    "prefectureCode": "46",
    "prefectureNumber": 46,
    "prefecture": "鹿児島県",
    "city": "大島郡伊仙町",
    "town": "中山"
  },
  "8918201": {
    "zipcode": "8918201",
    "prefectureCode": "46",
    "prefectureNumber": 46,
    "prefecture": "鹿児島県",
    "city": "大島郡伊仙町",
    "town": "伊仙"
  },
  "8918216": {
    "zipcode": "8918216",
    "prefectureCode": "46",
    "prefectureNumber": 46,
    "prefecture": "鹿児島県",
    "city": "大島郡伊仙町",
    "town": "検福（４１６〜５１６番地）"
  },
  "8918221": {
    "zipcode": "8918221",
    "prefectureCode": "46",
    "prefectureNumber": 46,
    "prefecture": "鹿児島県",
    "city": "大島郡伊仙町",
    "town": "阿三（７９９の１〜８６７番地）"
  },
  "8918300": {
    "zipcode": "8918300",
    "prefectureCode": "46",
    "prefectureNumber": 46,
    "prefecture": "鹿児島県",
    "city": "大島郡伊仙町",
    "town": "以下に掲載がない場合"
  },
  "8918321": {
    "zipcode": "8918321",
    "prefectureCode": "46",
    "prefectureNumber": 46,
    "prefecture": "鹿児島県",
    "city": "大島郡伊仙町",
    "town": "阿三（その他）"
  },
  "8918322": {
    "zipcode": "8918322",
    "prefectureCode": "46",
    "prefectureNumber": 46,
    "prefecture": "鹿児島県",
    "city": "大島郡伊仙町",
    "town": "阿権"
  },
  "8918323": {
    "zipcode": "8918323",
    "prefectureCode": "46",
    "prefectureNumber": 46,
    "prefecture": "鹿児島県",
    "city": "大島郡伊仙町",
    "town": "木之香"
  },
  "8918324": {
    "zipcode": "8918324",
    "prefectureCode": "46",
    "prefectureNumber": 46,
    "prefecture": "鹿児島県",
    "city": "大島郡伊仙町",
    "town": "糸木名"
  },
  "8918325": {
    "zipcode": "8918325",
    "prefectureCode": "46",
    "prefectureNumber": 46,
    "prefecture": "鹿児島県",
    "city": "大島郡伊仙町",
    "town": "八重竿"
  },
  "8918326": {
    "zipcode": "8918326",
    "prefectureCode": "46",
    "prefectureNumber": 46,
    "prefecture": "鹿児島県",
    "city": "大島郡伊仙町",
    "town": "馬根"
  },
  "8918327": {
    "zipcode": "8918327",
    "prefectureCode": "46",
    "prefectureNumber": 46,
    "prefecture": "鹿児島県",
    "city": "大島郡伊仙町",
    "town": "犬田布"
  },
  "8918328": {
    "zipcode": "8918328",
    "prefectureCode": "46",
    "prefectureNumber": 46,
    "prefecture": "鹿児島県",
    "city": "大島郡伊仙町",
    "town": "崎原"
  },
  "8918329": {
    "zipcode": "8918329",
    "prefectureCode": "46",
    "prefectureNumber": 46,
    "prefecture": "鹿児島県",
    "city": "大島郡伊仙町",
    "town": "小島"
  },
  "8919100": {
    "zipcode": "8919100",
    "prefectureCode": "46",
    "prefectureNumber": 46,
    "prefecture": "鹿児島県",
    "city": "大島郡和泊町",
    "town": "以下に掲載がない場合"
  },
  "8919101": {
    "zipcode": "8919101",
    "prefectureCode": "46",
    "prefectureNumber": 46,
    "prefecture": "鹿児島県",
    "city": "大島郡和泊町",
    "town": "国頭"
  },
  "8919102": {
    "zipcode": "8919102",
    "prefectureCode": "46",
    "prefectureNumber": 46,
    "prefecture": "鹿児島県",
    "city": "大島郡和泊町",
    "town": "喜美留"
  },
  "8919103": {
    "zipcode": "8919103",
    "prefectureCode": "46",
    "prefectureNumber": 46,
    "prefecture": "鹿児島県",
    "city": "大島郡和泊町",
    "town": "出花"
  },
  "8919104": {
    "zipcode": "8919104",
    "prefectureCode": "46",
    "prefectureNumber": 46,
    "prefecture": "鹿児島県",
    "city": "大島郡和泊町",
    "town": "西原"
  },
  "8919111": {
    "zipcode": "8919111",
    "prefectureCode": "46",
    "prefectureNumber": 46,
    "prefecture": "鹿児島県",
    "city": "大島郡和泊町",
    "town": "手々知名"
  },
  "8919112": {
    "zipcode": "8919112",
    "prefectureCode": "46",
    "prefectureNumber": 46,
    "prefecture": "鹿児島県",
    "city": "大島郡和泊町",
    "town": "和泊"
  },
  "8919113": {
    "zipcode": "8919113",
    "prefectureCode": "46",
    "prefectureNumber": 46,
    "prefecture": "鹿児島県",
    "city": "大島郡和泊町",
    "town": "和"
  },
  "8919114": {
    "zipcode": "8919114",
    "prefectureCode": "46",
    "prefectureNumber": 46,
    "prefecture": "鹿児島県",
    "city": "大島郡和泊町",
    "town": "畦布"
  },
  "8919115": {
    "zipcode": "8919115",
    "prefectureCode": "46",
    "prefectureNumber": 46,
    "prefecture": "鹿児島県",
    "city": "大島郡和泊町",
    "town": "伊延"
  },
  "8919116": {
    "zipcode": "8919116",
    "prefectureCode": "46",
    "prefectureNumber": 46,
    "prefecture": "鹿児島県",
    "city": "大島郡和泊町",
    "town": "上手々知名"
  },
  "8919121": {
    "zipcode": "8919121",
    "prefectureCode": "46",
    "prefectureNumber": 46,
    "prefecture": "鹿児島県",
    "city": "大島郡和泊町",
    "town": "根折"
  },
  "8919122": {
    "zipcode": "8919122",
    "prefectureCode": "46",
    "prefectureNumber": 46,
    "prefecture": "鹿児島県",
    "city": "大島郡和泊町",
    "town": "玉城"
  },
  "8919123": {
    "zipcode": "8919123",
    "prefectureCode": "46",
    "prefectureNumber": 46,
    "prefecture": "鹿児島県",
    "city": "大島郡和泊町",
    "town": "皆川"
  },
  "8919124": {
    "zipcode": "8919124",
    "prefectureCode": "46",
    "prefectureNumber": 46,
    "prefecture": "鹿児島県",
    "city": "大島郡和泊町",
    "town": "古里"
  },
  "8919125": {
    "zipcode": "8919125",
    "prefectureCode": "46",
    "prefectureNumber": 46,
    "prefecture": "鹿児島県",
    "city": "大島郡和泊町",
    "town": "大城"
  },
  "8919131": {
    "zipcode": "8919131",
    "prefectureCode": "46",
    "prefectureNumber": 46,
    "prefecture": "鹿児島県",
    "city": "大島郡和泊町",
    "town": "内城"
  },
  "8919132": {
    "zipcode": "8919132",
    "prefectureCode": "46",
    "prefectureNumber": 46,
    "prefecture": "鹿児島県",
    "city": "大島郡和泊町",
    "town": "後蘭"
  },
  "8919133": {
    "zipcode": "8919133",
    "prefectureCode": "46",
    "prefectureNumber": 46,
    "prefecture": "鹿児島県",
    "city": "大島郡和泊町",
    "town": "谷山"
  },
  "8919134": {
    "zipcode": "8919134",
    "prefectureCode": "46",
    "prefectureNumber": 46,
    "prefecture": "鹿児島県",
    "city": "大島郡和泊町",
    "town": "仁志"
  },
  "8919135": {
    "zipcode": "8919135",
    "prefectureCode": "46",
    "prefectureNumber": 46,
    "prefecture": "鹿児島県",
    "city": "大島郡和泊町",
    "town": "永嶺"
  },
  "8919136": {
    "zipcode": "8919136",
    "prefectureCode": "46",
    "prefectureNumber": 46,
    "prefecture": "鹿児島県",
    "city": "大島郡和泊町",
    "town": "瀬名"
  },
  "8919200": {
    "zipcode": "8919200",
    "prefectureCode": "46",
    "prefectureNumber": 46,
    "prefecture": "鹿児島県",
    "city": "大島郡知名町",
    "town": "以下に掲載がない場合"
  },
  "8919201": {
    "zipcode": "8919201",
    "prefectureCode": "46",
    "prefectureNumber": 46,
    "prefecture": "鹿児島県",
    "city": "大島郡知名町",
    "town": "余多"
  },
  "8919202": {
    "zipcode": "8919202",
    "prefectureCode": "46",
    "prefectureNumber": 46,
    "prefecture": "鹿児島県",
    "city": "大島郡知名町",
    "town": "屋者"
  },
  "8919203": {
    "zipcode": "8919203",
    "prefectureCode": "46",
    "prefectureNumber": 46,
    "prefecture": "鹿児島県",
    "city": "大島郡知名町",
    "town": "下平川"
  },
  "8919204": {
    "zipcode": "8919204",
    "prefectureCode": "46",
    "prefectureNumber": 46,
    "prefecture": "鹿児島県",
    "city": "大島郡知名町",
    "town": "上平川"
  },
  "8919205": {
    "zipcode": "8919205",
    "prefectureCode": "46",
    "prefectureNumber": 46,
    "prefecture": "鹿児島県",
    "city": "大島郡知名町",
    "town": "久志検"
  },
  "8919206": {
    "zipcode": "8919206",
    "prefectureCode": "46",
    "prefectureNumber": 46,
    "prefecture": "鹿児島県",
    "city": "大島郡知名町",
    "town": "赤嶺"
  },
  "8919207": {
    "zipcode": "8919207",
    "prefectureCode": "46",
    "prefectureNumber": 46,
    "prefecture": "鹿児島県",
    "city": "大島郡知名町",
    "town": "竿津"
  },
  "8919211": {
    "zipcode": "8919211",
    "prefectureCode": "46",
    "prefectureNumber": 46,
    "prefecture": "鹿児島県",
    "city": "大島郡知名町",
    "town": "芦清良"
  },
  "8919212": {
    "zipcode": "8919212",
    "prefectureCode": "46",
    "prefectureNumber": 46,
    "prefecture": "鹿児島県",
    "city": "大島郡知名町",
    "town": "黒貫"
  },
  "8919213": {
    "zipcode": "8919213",
    "prefectureCode": "46",
    "prefectureNumber": 46,
    "prefecture": "鹿児島県",
    "city": "大島郡知名町",
    "town": "瀬利覚"
  },
  "8919214": {
    "zipcode": "8919214",
    "prefectureCode": "46",
    "prefectureNumber": 46,
    "prefecture": "鹿児島県",
    "city": "大島郡知名町",
    "town": "知名"
  },
  "8919215": {
    "zipcode": "8919215",
    "prefectureCode": "46",
    "prefectureNumber": 46,
    "prefecture": "鹿児島県",
    "city": "大島郡知名町",
    "town": "屋子母"
  },
  "8919221": {
    "zipcode": "8919221",
    "prefectureCode": "46",
    "prefectureNumber": 46,
    "prefecture": "鹿児島県",
    "city": "大島郡知名町",
    "town": "大津勘"
  },
  "8919222": {
    "zipcode": "8919222",
    "prefectureCode": "46",
    "prefectureNumber": 46,
    "prefecture": "鹿児島県",
    "city": "大島郡知名町",
    "town": "徳時"
  },
  "8919223": {
    "zipcode": "8919223",
    "prefectureCode": "46",
    "prefectureNumber": 46,
    "prefecture": "鹿児島県",
    "city": "大島郡知名町",
    "town": "住吉"
  },
  "8919224": {
    "zipcode": "8919224",
    "prefectureCode": "46",
    "prefectureNumber": 46,
    "prefecture": "鹿児島県",
    "city": "大島郡知名町",
    "town": "正名"
  },
  "8919231": {
    "zipcode": "8919231",
    "prefectureCode": "46",
    "prefectureNumber": 46,
    "prefecture": "鹿児島県",
    "city": "大島郡知名町",
    "town": "田皆"
  },
  "8919232": {
    "zipcode": "8919232",
    "prefectureCode": "46",
    "prefectureNumber": 46,
    "prefecture": "鹿児島県",
    "city": "大島郡知名町",
    "town": "新城"
  },
  "8919233": {
    "zipcode": "8919233",
    "prefectureCode": "46",
    "prefectureNumber": 46,
    "prefecture": "鹿児島県",
    "city": "大島郡知名町",
    "town": "下城"
  },
  "8919234": {
    "zipcode": "8919234",
    "prefectureCode": "46",
    "prefectureNumber": 46,
    "prefecture": "鹿児島県",
    "city": "大島郡知名町",
    "town": "上城"
  },
  "8919300": {
    "zipcode": "8919300",
    "prefectureCode": "46",
    "prefectureNumber": 46,
    "prefecture": "鹿児島県",
    "city": "大島郡与論町",
    "town": "以下に掲載がない場合"
  },
  "8919301": {
    "zipcode": "8919301",
    "prefectureCode": "46",
    "prefectureNumber": 46,
    "prefecture": "鹿児島県",
    "city": "大島郡与論町",
    "town": "茶花"
  },
  "8919302": {
    "zipcode": "8919302",
    "prefectureCode": "46",
    "prefectureNumber": 46,
    "prefecture": "鹿児島県",
    "city": "大島郡与論町",
    "town": "立長"
  },
  "8919303": {
    "zipcode": "8919303",
    "prefectureCode": "46",
    "prefectureNumber": 46,
    "prefecture": "鹿児島県",
    "city": "大島郡与論町",
    "town": "城"
  },
  "8919304": {
    "zipcode": "8919304",
    "prefectureCode": "46",
    "prefectureNumber": 46,
    "prefecture": "鹿児島県",
    "city": "大島郡与論町",
    "town": "朝戸"
  },
  "8919305": {
    "zipcode": "8919305",
    "prefectureCode": "46",
    "prefectureNumber": 46,
    "prefecture": "鹿児島県",
    "city": "大島郡与論町",
    "town": "西区"
  },
  "8919306": {
    "zipcode": "8919306",
    "prefectureCode": "46",
    "prefectureNumber": 46,
    "prefecture": "鹿児島県",
    "city": "大島郡与論町",
    "town": "東区"
  },
  "8919307": {
    "zipcode": "8919307",
    "prefectureCode": "46",
    "prefectureNumber": 46,
    "prefecture": "鹿児島県",
    "city": "大島郡与論町",
    "town": "古里"
  },
  "8919308": {
    "zipcode": "8919308",
    "prefectureCode": "46",
    "prefectureNumber": 46,
    "prefecture": "鹿児島県",
    "city": "大島郡与論町",
    "town": "那間"
  },
  "8919309": {
    "zipcode": "8919309",
    "prefectureCode": "46",
    "prefectureNumber": 46,
    "prefecture": "鹿児島県",
    "city": "大島郡与論町",
    "town": "叶"
  }
}
