{
  "8920801": {
    "zipcode": "8920801",
    "prefectureCode": "46",
    "prefectureNumber": 46,
    "prefecture": "鹿児島県",
    "city": "鹿児島市",
    "town": "稲荷町"
  },
  "8920802": {
    "zipcode": "8920802",
    "prefectureCode": "46",
    "prefectureNumber": 46,
    "prefecture": "鹿児島県",
    "city": "鹿児島市",
    "town": "清水町"
  },
  "8920803": {
    "zipcode": "8920803",
    "prefectureCode": "46",
    "prefectureNumber": 46,
    "prefecture": "鹿児島県",
    "city": "鹿児島市",
    "town": "祇園之洲町"
  },
  "8920804": {
    "zipcode": "8920804",
    "prefectureCode": "46",
    "prefectureNumber": 46,
    "prefecture": "鹿児島県",
    "city": "鹿児島市",
    "town": "春日町"
  },
  "8920805": {
    "zipcode": "8920805",
    "prefectureCode": "46",
    "prefectureNumber": 46,
    "prefecture": "鹿児島県",
    "city": "鹿児島市",
    "town": "大竜町"
  },
  "8920806": {
    "zipcode": "8920806",
    "prefectureCode": "46",
    "prefectureNumber": 46,
    "prefecture": "鹿児島県",
    "city": "鹿児島市",
    "town": "池之上町"
  },
  "8920807": {
    "zipcode": "8920807",
    "prefectureCode": "46",
    "prefectureNumber": 46,
    "prefecture": "鹿児島県",
    "city": "鹿児島市",
    "town": "皷川町"
  },
  "8920811": {
    "zipcode": "8920811",
    "prefectureCode": "46",
    "prefectureNumber": 46,
    "prefecture": "鹿児島県",
    "city": "鹿児島市",
    "town": "玉里団地（２、３丁目）"
  },
  "8920812": {
    "zipcode": "8920812",
    "prefectureCode": "46",
    "prefectureNumber": 46,
    "prefecture": "鹿児島県",
    "city": "鹿児島市",
    "town": "浜町"
  },
  "8920813": {
    "zipcode": "8920813",
    "prefectureCode": "46",
    "prefectureNumber": 46,
    "prefecture": "鹿児島県",
    "city": "鹿児島市",
    "town": "城山（２丁目）"
  },
  "8920814": {
    "zipcode": "8920814",
    "prefectureCode": "46",
    "prefectureNumber": 46,
    "prefecture": "鹿児島県",
    "city": "鹿児島市",
    "town": "本港新町"
  },
  "8920815": {
    "zipcode": "8920815",
    "prefectureCode": "46",
    "prefectureNumber": 46,
    "prefecture": "鹿児島県",
    "city": "鹿児島市",
    "town": "易居町"
  },
  "8920816": {
    "zipcode": "8920816",
    "prefectureCode": "46",
    "prefectureNumber": 46,
    "prefecture": "鹿児島県",
    "city": "鹿児島市",
    "town": "山下町"
  },
  "8920817": {
    "zipcode": "8920817",
    "prefectureCode": "46",
    "prefectureNumber": 46,
    "prefecture": "鹿児島県",
    "city": "鹿児島市",
    "town": "小川町"
  },
  "8920818": {
    "zipcode": "8920818",
    "prefectureCode": "46",
    "prefectureNumber": 46,
    "prefecture": "鹿児島県",
    "city": "鹿児島市",
    "town": "上本町"
  },
  "8920819": {
    "zipcode": "8920819",
    "prefectureCode": "46",
    "prefectureNumber": 46,
    "prefecture": "鹿児島県",
    "city": "鹿児島市",
    "town": "柳町"
  },
  "8920821": {
    "zipcode": "8920821",
    "prefectureCode": "46",
    "prefectureNumber": 46,
    "prefecture": "鹿児島県",
    "city": "鹿児島市",
    "town": "名山町"
  },
  "8920822": {
    "zipcode": "8920822",
    "prefectureCode": "46",
    "prefectureNumber": 46,
    "prefecture": "鹿児島県",
    "city": "鹿児島市",
    "town": "泉町"
  },
  "8920823": {
    "zipcode": "8920823",
    "prefectureCode": "46",
    "prefectureNumber": 46,
    "prefecture": "鹿児島県",
    "city": "鹿児島市",
    "town": "住吉町"
  },
  "8920824": {
    "zipcode": "8920824",
    "prefectureCode": "46",
    "prefectureNumber": 46,
    "prefecture": "鹿児島県",
    "city": "鹿児島市",
    "town": "堀江町"
  },
  "8920825": {
    "zipcode": "8920825",
    "prefectureCode": "46",
    "prefectureNumber": 46,
    "prefecture": "鹿児島県",
    "city": "鹿児島市",
    "town": "大黒町"
  },
  "8920826": {
    "zipcode": "8920826",
    "prefectureCode": "46",
    "prefectureNumber": 46,
    "prefecture": "鹿児島県",
    "city": "鹿児島市",
    "town": "呉服町"
  },
  "8920827": {
    "zipcode": "8920827",
    "prefectureCode": "46",
    "prefectureNumber": 46,
    "prefecture": "鹿児島県",
    "city": "鹿児島市",
    "town": "中町"
  },
  "8920828": {
    "zipcode": "8920828",
    "prefectureCode": "46",
    "prefectureNumber": 46,
    "prefecture": "鹿児島県",
    "city": "鹿児島市",
    "town": "金生町"
  },
  "8920831": {
    "zipcode": "8920831",
    "prefectureCode": "46",
    "prefectureNumber": 46,
    "prefecture": "鹿児島県",
    "city": "鹿児島市",
    "town": "船津町"
  },
  "8920832": {
    "zipcode": "8920832",
    "prefectureCode": "46",
    "prefectureNumber": 46,
    "prefecture": "鹿児島県",
    "city": "鹿児島市",
    "town": "新町"
  },
  "8920833": {
    "zipcode": "8920833",
    "prefectureCode": "46",
    "prefectureNumber": 46,
    "prefecture": "鹿児島県",
    "city": "鹿児島市",
    "town": "松原町"
  },
  "8920834": {
    "zipcode": "8920834",
    "prefectureCode": "46",
    "prefectureNumber": 46,
    "prefecture": "鹿児島県",
    "city": "鹿児島市",
    "town": "南林寺町"
  },
  "8920835": {
    "zipcode": "8920835",
    "prefectureCode": "46",
    "prefectureNumber": 46,
    "prefecture": "鹿児島県",
    "city": "鹿児島市",
    "town": "城南町"
  },
  "8920836": {
    "zipcode": "8920836",
    "prefectureCode": "46",
    "prefectureNumber": 46,
    "prefecture": "鹿児島県",
    "city": "鹿児島市",
    "town": "錦江町"
  },
  "8920837": {
    "zipcode": "8920837",
    "prefectureCode": "46",
    "prefectureNumber": 46,
    "prefecture": "鹿児島県",
    "city": "鹿児島市",
    "town": "甲突町"
  },
  "8920838": {
    "zipcode": "8920838",
    "prefectureCode": "46",
    "prefectureNumber": 46,
    "prefecture": "鹿児島県",
    "city": "鹿児島市",
    "town": "新屋敷町"
  },
  "8920841": {
    "zipcode": "8920841",
    "prefectureCode": "46",
    "prefectureNumber": 46,
    "prefecture": "鹿児島県",
    "city": "鹿児島市",
    "town": "照国町"
  },
  "8920842": {
    "zipcode": "8920842",
    "prefectureCode": "46",
    "prefectureNumber": 46,
    "prefecture": "鹿児島県",
    "city": "鹿児島市",
    "town": "東千石町"
  },
  "8920843": {
    "zipcode": "8920843",
    "prefectureCode": "46",
    "prefectureNumber": 46,
    "prefecture": "鹿児島県",
    "city": "鹿児島市",
    "town": "千日町"
  },
  "8920844": {
    "zipcode": "8920844",
    "prefectureCode": "46",
    "prefectureNumber": 46,
    "prefecture": "鹿児島県",
    "city": "鹿児島市",
    "town": "山之口町"
  },
  "8920845": {
    "zipcode": "8920845",
    "prefectureCode": "46",
    "prefectureNumber": 46,
    "prefecture": "鹿児島県",
    "city": "鹿児島市",
    "town": "樋之口町"
  },
  "8920846": {
    "zipcode": "8920846",
    "prefectureCode": "46",
    "prefectureNumber": 46,
    "prefecture": "鹿児島県",
    "city": "鹿児島市",
    "town": "加治屋町"
  },
  "8920847": {
    "zipcode": "8920847",
    "prefectureCode": "46",
    "prefectureNumber": 46,
    "prefecture": "鹿児島県",
    "city": "鹿児島市",
    "town": "西千石町"
  },
  "8920848": {
    "zipcode": "8920848",
    "prefectureCode": "46",
    "prefectureNumber": 46,
    "prefecture": "鹿児島県",
    "city": "鹿児島市",
    "town": "平之町"
  },
  "8920851": {
    "zipcode": "8920851",
    "prefectureCode": "46",
    "prefectureNumber": 46,
    "prefecture": "鹿児島県",
    "city": "鹿児島市",
    "town": "上竜尾町"
  },
  "8920852": {
    "zipcode": "8920852",
    "prefectureCode": "46",
    "prefectureNumber": 46,
    "prefecture": "鹿児島県",
    "city": "鹿児島市",
    "town": "下竜尾町"
  },
  "8920853": {
    "zipcode": "8920853",
    "prefectureCode": "46",
    "prefectureNumber": 46,
    "prefecture": "鹿児島県",
    "city": "鹿児島市",
    "town": "城山町"
  },
  "8920854": {
    "zipcode": "8920854",
    "prefectureCode": "46",
    "prefectureNumber": 46,
    "prefecture": "鹿児島県",
    "city": "鹿児島市",
    "town": "長田町"
  },
  "8920855": {
    "zipcode": "8920855",
    "prefectureCode": "46",
    "prefectureNumber": 46,
    "prefecture": "鹿児島県",
    "city": "鹿児島市",
    "town": "冷水町"
  },
  "8920861": {
    "zipcode": "8920861",
    "prefectureCode": "46",
    "prefectureNumber": 46,
    "prefecture": "鹿児島県",
    "city": "鹿児島市",
    "town": "東坂元"
  },
  "8920862": {
    "zipcode": "8920862",
    "prefectureCode": "46",
    "prefectureNumber": 46,
    "prefecture": "鹿児島県",
    "city": "鹿児島市",
    "town": "坂元町"
  },
  "8920863": {
    "zipcode": "8920863",
    "prefectureCode": "46",
    "prefectureNumber": 46,
    "prefecture": "鹿児島県",
    "city": "鹿児島市",
    "town": "西坂元町"
  },
  "8920871": {
    "zipcode": "8920871",
    "prefectureCode": "46",
    "prefectureNumber": 46,
    "prefecture": "鹿児島県",
    "city": "鹿児島市",
    "town": "吉野町"
  },
  "8920872": {
    "zipcode": "8920872",
    "prefectureCode": "46",
    "prefectureNumber": 46,
    "prefecture": "鹿児島県",
    "city": "鹿児島市",
    "town": "大明丘"
  },
  "8920873": {
    "zipcode": "8920873",
    "prefectureCode": "46",
    "prefectureNumber": 46,
    "prefecture": "鹿児島県",
    "city": "鹿児島市",
    "town": "下田町"
  },
  "8920874": {
    "zipcode": "8920874",
    "prefectureCode": "46",
    "prefectureNumber": 46,
    "prefecture": "鹿児島県",
    "city": "鹿児島市",
    "town": "緑ヶ丘町（１〜３４番）"
  },
  "8920875": {
    "zipcode": "8920875",
    "prefectureCode": "46",
    "prefectureNumber": 46,
    "prefecture": "鹿児島県",
    "city": "鹿児島市",
    "town": "川上町（その他）"
  },
  "8920876": {
    "zipcode": "8920876",
    "prefectureCode": "46",
    "prefectureNumber": 46,
    "prefecture": "鹿児島県",
    "city": "鹿児島市",
    "town": "岡之原町（８３２の２・４、８５２の３）"
  },
  "8920877": {
    "zipcode": "8920877",
    "prefectureCode": "46",
    "prefectureNumber": 46,
    "prefecture": "鹿児島県",
    "city": "鹿児島市",
    "town": "吉野"
  }
}
