{
  "8940000": {
    "zipcode": "8940000",
    "prefectureCode": "46",
    "prefectureNumber": 46,
    "prefecture": "鹿児島県",
    "city": "奄美市",
    "town": "以下に掲載がない場合"
  },
  "8940001": {
    "zipcode": "8940001",
    "prefectureCode": "46",
    "prefectureNumber": 46,
    "prefecture": "鹿児島県",
    "city": "奄美市",
    "town": "名瀬大熊"
  },
  "8940002": {
    "zipcode": "8940002",
    "prefectureCode": "46",
    "prefectureNumber": 46,
    "prefecture": "鹿児島県",
    "city": "奄美市",
    "town": "名瀬有屋"
  },
  "8940003": {
    "zipcode": "8940003",
    "prefectureCode": "46",
    "prefectureNumber": 46,
    "prefecture": "鹿児島県",
    "city": "奄美市",
    "town": "名瀬仲勝"
  },
  "8940004": {
    "zipcode": "8940004",
    "prefectureCode": "46",
    "prefectureNumber": 46,
    "prefecture": "鹿児島県",
    "city": "奄美市",
    "town": "名瀬鳩浜町"
  },
  "8940005": {
    "zipcode": "8940005",
    "prefectureCode": "46",
    "prefectureNumber": 46,
    "prefecture": "鹿児島県",
    "city": "奄美市",
    "town": "名瀬佐大熊町"
  },
  "8940006": {
    "zipcode": "8940006",
    "prefectureCode": "46",
    "prefectureNumber": 46,
    "prefecture": "鹿児島県",
    "city": "奄美市",
    "town": "名瀬小浜町"
  },
  "8940007": {
    "zipcode": "8940007",
    "prefectureCode": "46",
    "prefectureNumber": 46,
    "prefecture": "鹿児島県",
    "city": "奄美市",
    "town": "名瀬和光町"
  },
  "8940008": {
    "zipcode": "8940008",
    "prefectureCode": "46",
    "prefectureNumber": 46,
    "prefecture": "鹿児島県",
    "city": "奄美市",
    "town": "名瀬浦上（その他）"
  },
  "8940009": {
    "zipcode": "8940009",
    "prefectureCode": "46",
    "prefectureNumber": 46,
    "prefecture": "鹿児島県",
    "city": "奄美市",
    "town": "名瀬大熊町"
  },
  "8940011": {
    "zipcode": "8940011",
    "prefectureCode": "46",
    "prefectureNumber": 46,
    "prefecture": "鹿児島県",
    "city": "奄美市",
    "town": "名瀬安勝町"
  },
  "8940012": {
    "zipcode": "8940012",
    "prefectureCode": "46",
    "prefectureNumber": 46,
    "prefecture": "鹿児島県",
    "city": "奄美市",
    "town": "名瀬小俣町"
  },
  "8940013": {
    "zipcode": "8940013",
    "prefectureCode": "46",
    "prefectureNumber": 46,
    "prefecture": "鹿児島県",
    "city": "奄美市",
    "town": "名瀬春日町"
  },
  "8940014": {
    "zipcode": "8940014",
    "prefectureCode": "46",
    "prefectureNumber": 46,
    "prefecture": "鹿児島県",
    "city": "奄美市",
    "town": "名瀬平田町"
  },
  "8940015": {
    "zipcode": "8940015",
    "prefectureCode": "46",
    "prefectureNumber": 46,
    "prefecture": "鹿児島県",
    "city": "奄美市",
    "town": "名瀬真名津町"
  },
  "8940016": {
    "zipcode": "8940016",
    "prefectureCode": "46",
    "prefectureNumber": 46,
    "prefecture": "鹿児島県",
    "city": "奄美市",
    "town": "名瀬古田町"
  },
  "8940017": {
    "zipcode": "8940017",
    "prefectureCode": "46",
    "prefectureNumber": 46,
    "prefecture": "鹿児島県",
    "city": "奄美市",
    "town": "名瀬石橋町"
  },
  "8940021": {
    "zipcode": "8940021",
    "prefectureCode": "46",
    "prefectureNumber": 46,
    "prefecture": "鹿児島県",
    "city": "奄美市",
    "town": "名瀬伊津部町"
  },
  "8940022": {
    "zipcode": "8940022",
    "prefectureCode": "46",
    "prefectureNumber": 46,
    "prefecture": "鹿児島県",
    "city": "奄美市",
    "town": "名瀬久里町"
  },
  "8940023": {
    "zipcode": "8940023",
    "prefectureCode": "46",
    "prefectureNumber": 46,
    "prefecture": "鹿児島県",
    "city": "奄美市",
    "town": "名瀬永田町"
  },
  "8940024": {
    "zipcode": "8940024",
    "prefectureCode": "46",
    "prefectureNumber": 46,
    "prefecture": "鹿児島県",
    "city": "奄美市",
    "town": "名瀬井根町"
  },
  "8940025": {
    "zipcode": "8940025",
    "prefectureCode": "46",
    "prefectureNumber": 46,
    "prefecture": "鹿児島県",
    "city": "奄美市",
    "town": "名瀬幸町"
  },
  "8940026": {
    "zipcode": "8940026",
    "prefectureCode": "46",
    "prefectureNumber": 46,
    "prefecture": "鹿児島県",
    "city": "奄美市",
    "town": "名瀬港町"
  },
  "8940027": {
    "zipcode": "8940027",
    "prefectureCode": "46",
    "prefectureNumber": 46,
    "prefecture": "鹿児島県",
    "city": "奄美市",
    "town": "名瀬末広町"
  },
  "8940031": {
    "zipcode": "8940031",
    "prefectureCode": "46",
    "prefectureNumber": 46,
    "prefecture": "鹿児島県",
    "city": "奄美市",
    "town": "名瀬金久町"
  },
  "8940032": {
    "zipcode": "8940032",
    "prefectureCode": "46",
    "prefectureNumber": 46,
    "prefecture": "鹿児島県",
    "city": "奄美市",
    "town": "名瀬柳町"
  },
  "8940033": {
    "zipcode": "8940033",
    "prefectureCode": "46",
    "prefectureNumber": 46,
    "prefecture": "鹿児島県",
    "city": "奄美市",
    "town": "名瀬矢之脇町"
  },
  "8940034": {
    "zipcode": "8940034",
    "prefectureCode": "46",
    "prefectureNumber": 46,
    "prefecture": "鹿児島県",
    "city": "奄美市",
    "town": "名瀬入舟町"
  },
  "8940035": {
    "zipcode": "8940035",
    "prefectureCode": "46",
    "prefectureNumber": 46,
    "prefecture": "鹿児島県",
    "city": "奄美市",
    "town": "名瀬塩浜町"
  },
  "8940036": {
    "zipcode": "8940036",
    "prefectureCode": "46",
    "prefectureNumber": 46,
    "prefecture": "鹿児島県",
    "city": "奄美市",
    "town": "名瀬長浜町"
  },
  "8940041": {
    "zipcode": "8940041",
    "prefectureCode": "46",
    "prefectureNumber": 46,
    "prefecture": "鹿児島県",
    "city": "奄美市",
    "town": "名瀬朝仁新町"
  },
  "8940042": {
    "zipcode": "8940042",
    "prefectureCode": "46",
    "prefectureNumber": 46,
    "prefecture": "鹿児島県",
    "city": "奄美市",
    "town": "名瀬朝仁町"
  },
  "8940043": {
    "zipcode": "8940043",
    "prefectureCode": "46",
    "prefectureNumber": 46,
    "prefecture": "鹿児島県",
    "city": "奄美市",
    "town": "名瀬朝仁"
  },
  "8940044": {
    "zipcode": "8940044",
    "prefectureCode": "46",
    "prefectureNumber": 46,
    "prefecture": "鹿児島県",
    "city": "奄美市",
    "town": "名瀬浜里町"
  },
  "8940045": {
    "zipcode": "8940045",
    "prefectureCode": "46",
    "prefectureNumber": 46,
    "prefecture": "鹿児島県",
    "city": "奄美市",
    "town": "名瀬平松町"
  },
  "8940046": {
    "zipcode": "8940046",
    "prefectureCode": "46",
    "prefectureNumber": 46,
    "prefecture": "鹿児島県",
    "city": "奄美市",
    "town": "名瀬小宿"
  },
  "8940047": {
    "zipcode": "8940047",
    "prefectureCode": "46",
    "prefectureNumber": 46,
    "prefecture": "鹿児島県",
    "city": "奄美市",
    "town": "名瀬知名瀬"
  },
  "8940048": {
    "zipcode": "8940048",
    "prefectureCode": "46",
    "prefectureNumber": 46,
    "prefecture": "鹿児島県",
    "city": "奄美市",
    "town": "名瀬根瀬部"
  },
  "8940061": {
    "zipcode": "8940061",
    "prefectureCode": "46",
    "prefectureNumber": 46,
    "prefecture": "鹿児島県",
    "city": "奄美市",
    "town": "名瀬朝日町"
  },
  "8940062": {
    "zipcode": "8940062",
    "prefectureCode": "46",
    "prefectureNumber": 46,
    "prefecture": "鹿児島県",
    "city": "奄美市",
    "town": "名瀬有屋町"
  },
  "8940063": {
    "zipcode": "8940063",
    "prefectureCode": "46",
    "prefectureNumber": 46,
    "prefecture": "鹿児島県",
    "city": "奄美市",
    "town": "名瀬仲勝町"
  },
  "8940068": {
    "zipcode": "8940068",
    "prefectureCode": "46",
    "prefectureNumber": 46,
    "prefecture": "鹿児島県",
    "city": "奄美市",
    "town": "名瀬浦上町"
  },
  "8940100": {
    "zipcode": "8940100",
    "prefectureCode": "46",
    "prefectureNumber": 46,
    "prefecture": "鹿児島県",
    "city": "大島郡龍郷町",
    "town": "以下に掲載がない場合"
  },
  "8940101": {
    "zipcode": "8940101",
    "prefectureCode": "46",
    "prefectureNumber": 46,
    "prefecture": "鹿児島県",
    "city": "大島郡龍郷町",
    "town": "屋入"
  },
  "8940102": {
    "zipcode": "8940102",
    "prefectureCode": "46",
    "prefectureNumber": 46,
    "prefecture": "鹿児島県",
    "city": "大島郡龍郷町",
    "town": "瀬留"
  },
  "8940103": {
    "zipcode": "8940103",
    "prefectureCode": "46",
    "prefectureNumber": 46,
    "prefecture": "鹿児島県",
    "city": "大島郡龍郷町",
    "town": "玉里"
  },
  "8940104": {
    "zipcode": "8940104",
    "prefectureCode": "46",
    "prefectureNumber": 46,
    "prefecture": "鹿児島県",
    "city": "大島郡龍郷町",
    "town": "浦"
  },
  "8940105": {
    "zipcode": "8940105",
    "prefectureCode": "46",
    "prefectureNumber": 46,
    "prefecture": "鹿児島県",
    "city": "大島郡龍郷町",
    "town": "大勝"
  },
  "8940106": {
    "zipcode": "8940106",
    "prefectureCode": "46",
    "prefectureNumber": 46,
    "prefecture": "鹿児島県",
    "city": "大島郡龍郷町",
    "town": "中勝"
  },
  "8940107": {
    "zipcode": "8940107",
    "prefectureCode": "46",
    "prefectureNumber": 46,
    "prefecture": "鹿児島県",
    "city": "大島郡龍郷町",
    "town": "戸口"
  },
  "8940108": {
    "zipcode": "8940108",
    "prefectureCode": "46",
    "prefectureNumber": 46,
    "prefecture": "鹿児島県",
    "city": "奄美市",
    "town": "名瀬浦上（小又）"
  },
  "8940321": {
    "zipcode": "8940321",
    "prefectureCode": "46",
    "prefectureNumber": 46,
    "prefecture": "鹿児島県",
    "city": "大島郡龍郷町",
    "town": "龍郷"
  },
  "8940322": {
    "zipcode": "8940322",
    "prefectureCode": "46",
    "prefectureNumber": 46,
    "prefecture": "鹿児島県",
    "city": "大島郡龍郷町",
    "town": "久場"
  },
  "8940323": {
    "zipcode": "8940323",
    "prefectureCode": "46",
    "prefectureNumber": 46,
    "prefecture": "鹿児島県",
    "city": "大島郡龍郷町",
    "town": "安木屋場"
  },
  "8940324": {
    "zipcode": "8940324",
    "prefectureCode": "46",
    "prefectureNumber": 46,
    "prefecture": "鹿児島県",
    "city": "大島郡龍郷町",
    "town": "円"
  },
  "8940331": {
    "zipcode": "8940331",
    "prefectureCode": "46",
    "prefectureNumber": 46,
    "prefecture": "鹿児島県",
    "city": "大島郡龍郷町",
    "town": "嘉渡"
  },
  "8940332": {
    "zipcode": "8940332",
    "prefectureCode": "46",
    "prefectureNumber": 46,
    "prefecture": "鹿児島県",
    "city": "大島郡龍郷町",
    "town": "幾里"
  },
  "8940333": {
    "zipcode": "8940333",
    "prefectureCode": "46",
    "prefectureNumber": 46,
    "prefecture": "鹿児島県",
    "city": "大島郡龍郷町",
    "town": "秋名"
  },
  "8940351": {
    "zipcode": "8940351",
    "prefectureCode": "46",
    "prefectureNumber": 46,
    "prefecture": "鹿児島県",
    "city": "奄美市",
    "town": "名瀬芦花部"
  },
  "8940352": {
    "zipcode": "8940352",
    "prefectureCode": "46",
    "prefectureNumber": 46,
    "prefecture": "鹿児島県",
    "city": "奄美市",
    "town": "名瀬有良"
  },
  "8940411": {
    "zipcode": "8940411",
    "prefectureCode": "46",
    "prefectureNumber": 46,
    "prefecture": "鹿児島県",
    "city": "大島郡龍郷町",
    "town": "赤尾木"
  },
  "8940412": {
    "zipcode": "8940412",
    "prefectureCode": "46",
    "prefectureNumber": 46,
    "prefecture": "鹿児島県",
    "city": "大島郡龍郷町",
    "town": "芦徳"
  },
  "8940501": {
    "zipcode": "8940501",
    "prefectureCode": "46",
    "prefectureNumber": 46,
    "prefecture": "鹿児島県",
    "city": "奄美市",
    "town": "笠利町宇宿"
  },
  "8940502": {
    "zipcode": "8940502",
    "prefectureCode": "46",
    "prefectureNumber": 46,
    "prefecture": "鹿児島県",
    "city": "奄美市",
    "town": "笠利町万屋"
  },
  "8940503": {
    "zipcode": "8940503",
    "prefectureCode": "46",
    "prefectureNumber": 46,
    "prefecture": "鹿児島県",
    "city": "奄美市",
    "town": "笠利町和野"
  },
  "8940504": {
    "zipcode": "8940504",
    "prefectureCode": "46",
    "prefectureNumber": 46,
    "prefecture": "鹿児島県",
    "city": "奄美市",
    "town": "笠利町節田"
  },
  "8940505": {
    "zipcode": "8940505",
    "prefectureCode": "46",
    "prefectureNumber": 46,
    "prefecture": "鹿児島県",
    "city": "奄美市",
    "town": "笠利町平"
  },
  "8940506": {
    "zipcode": "8940506",
    "prefectureCode": "46",
    "prefectureNumber": 46,
    "prefecture": "鹿児島県",
    "city": "奄美市",
    "town": "笠利町手花部"
  },
  "8940507": {
    "zipcode": "8940507",
    "prefectureCode": "46",
    "prefectureNumber": 46,
    "prefecture": "鹿児島県",
    "city": "奄美市",
    "town": "笠利町喜瀬"
  },
  "8940508": {
    "zipcode": "8940508",
    "prefectureCode": "46",
    "prefectureNumber": 46,
    "prefecture": "鹿児島県",
    "city": "奄美市",
    "town": "笠利町用安"
  },
  "8940511": {
    "zipcode": "8940511",
    "prefectureCode": "46",
    "prefectureNumber": 46,
    "prefecture": "鹿児島県",
    "city": "奄美市",
    "town": "笠利町里"
  },
  "8940512": {
    "zipcode": "8940512",
    "prefectureCode": "46",
    "prefectureNumber": 46,
    "prefecture": "鹿児島県",
    "city": "奄美市",
    "town": "笠利町中金久"
  },
  "8940513": {
    "zipcode": "8940513",
    "prefectureCode": "46",
    "prefectureNumber": 46,
    "prefecture": "鹿児島県",
    "city": "奄美市",
    "town": "笠利町外金久"
  },
  "8940621": {
    "zipcode": "8940621",
    "prefectureCode": "46",
    "prefectureNumber": 46,
    "prefecture": "鹿児島県",
    "city": "奄美市",
    "town": "笠利町用"
  },
  "8940622": {
    "zipcode": "8940622",
    "prefectureCode": "46",
    "prefectureNumber": 46,
    "prefecture": "鹿児島県",
    "city": "奄美市",
    "town": "笠利町笠利"
  },
  "8940623": {
    "zipcode": "8940623",
    "prefectureCode": "46",
    "prefectureNumber": 46,
    "prefecture": "鹿児島県",
    "city": "奄美市",
    "town": "笠利町辺留"
  },
  "8940624": {
    "zipcode": "8940624",
    "prefectureCode": "46",
    "prefectureNumber": 46,
    "prefecture": "鹿児島県",
    "city": "奄美市",
    "town": "笠利町須野"
  },
  "8940625": {
    "zipcode": "8940625",
    "prefectureCode": "46",
    "prefectureNumber": 46,
    "prefecture": "鹿児島県",
    "city": "奄美市",
    "town": "笠利町川上"
  },
  "8940626": {
    "zipcode": "8940626",
    "prefectureCode": "46",
    "prefectureNumber": 46,
    "prefecture": "鹿児島県",
    "city": "奄美市",
    "town": "笠利町屋仁"
  },
  "8940627": {
    "zipcode": "8940627",
    "prefectureCode": "46",
    "prefectureNumber": 46,
    "prefecture": "鹿児島県",
    "city": "奄美市",
    "town": "笠利町佐仁"
  },
  "8940771": {
    "zipcode": "8940771",
    "prefectureCode": "46",
    "prefectureNumber": 46,
    "prefecture": "鹿児島県",
    "city": "奄美市",
    "town": "名瀬小湊"
  },
  "8940772": {
    "zipcode": "8940772",
    "prefectureCode": "46",
    "prefectureNumber": 46,
    "prefecture": "鹿児島県",
    "city": "奄美市",
    "town": "名瀬西仲勝"
  },
  "8940773": {
    "zipcode": "8940773",
    "prefectureCode": "46",
    "prefectureNumber": 46,
    "prefecture": "鹿児島県",
    "city": "奄美市",
    "town": "名瀬朝戸"
  },
  "8940774": {
    "zipcode": "8940774",
    "prefectureCode": "46",
    "prefectureNumber": 46,
    "prefecture": "鹿児島県",
    "city": "奄美市",
    "town": "名瀬伊津部勝"
  },
  "8940775": {
    "zipcode": "8940775",
    "prefectureCode": "46",
    "prefectureNumber": 46,
    "prefecture": "鹿児島県",
    "city": "奄美市",
    "town": "名瀬名瀬勝"
  },
  "8940776": {
    "zipcode": "8940776",
    "prefectureCode": "46",
    "prefectureNumber": 46,
    "prefecture": "鹿児島県",
    "city": "奄美市",
    "town": "名瀬崎原"
  },
  "8941111": {
    "zipcode": "8941111",
    "prefectureCode": "46",
    "prefectureNumber": 46,
    "prefecture": "鹿児島県",
    "city": "奄美市",
    "town": "住用町城"
  },
  "8941112": {
    "zipcode": "8941112",
    "prefectureCode": "46",
    "prefectureNumber": 46,
    "prefecture": "鹿児島県",
    "city": "奄美市",
    "town": "住用町和瀬"
  },
  "8941113": {
    "zipcode": "8941113",
    "prefectureCode": "46",
    "prefectureNumber": 46,
    "prefecture": "鹿児島県",
    "city": "奄美市",
    "town": "住用町見里"
  },
  "8941114": {
    "zipcode": "8941114",
    "prefectureCode": "46",
    "prefectureNumber": 46,
    "prefecture": "鹿児島県",
    "city": "奄美市",
    "town": "住用町東仲間"
  },
  "8941115": {
    "zipcode": "8941115",
    "prefectureCode": "46",
    "prefectureNumber": 46,
    "prefecture": "鹿児島県",
    "city": "奄美市",
    "town": "住用町川内"
  },
  "8941116": {
    "zipcode": "8941116",
    "prefectureCode": "46",
    "prefectureNumber": 46,
    "prefecture": "鹿児島県",
    "city": "奄美市",
    "town": "住用町摺勝"
  },
  "8941201": {
    "zipcode": "8941201",
    "prefectureCode": "46",
    "prefectureNumber": 46,
    "prefecture": "鹿児島県",
    "city": "奄美市",
    "town": "住用町石原"
  },
  "8941202": {
    "zipcode": "8941202",
    "prefectureCode": "46",
    "prefectureNumber": 46,
    "prefecture": "鹿児島県",
    "city": "奄美市",
    "town": "住用町西仲間"
  },
  "8941203": {
    "zipcode": "8941203",
    "prefectureCode": "46",
    "prefectureNumber": 46,
    "prefecture": "鹿児島県",
    "city": "奄美市",
    "town": "住用町神屋"
  },
  "8941204": {
    "zipcode": "8941204",
    "prefectureCode": "46",
    "prefectureNumber": 46,
    "prefecture": "鹿児島県",
    "city": "奄美市",
    "town": "住用町山間（その他）"
  },
  "8941205": {
    "zipcode": "8941205",
    "prefectureCode": "46",
    "prefectureNumber": 46,
    "prefecture": "鹿児島県",
    "city": "奄美市",
    "town": "住用町役勝"
  },
  "8941304": {
    "zipcode": "8941304",
    "prefectureCode": "46",
    "prefectureNumber": 46,
    "prefecture": "鹿児島県",
    "city": "奄美市",
    "town": "住用町山間（４９３〜５９２番地、戸玉）"
  },
  "8941321": {
    "zipcode": "8941321",
    "prefectureCode": "46",
    "prefectureNumber": 46,
    "prefecture": "鹿児島県",
    "city": "奄美市",
    "town": "住用町市"
  },
  "8941500": {
    "zipcode": "8941500",
    "prefectureCode": "46",
    "prefectureNumber": 46,
    "prefecture": "鹿児島県",
    "city": "大島郡瀬戸内町",
    "town": "以下に掲載がない場合"
  },
  "8941501": {
    "zipcode": "8941501",
    "prefectureCode": "46",
    "prefectureNumber": 46,
    "prefecture": "鹿児島県",
    "city": "大島郡瀬戸内町",
    "town": "古仁屋（高丘）"
  },
  "8941502": {
    "zipcode": "8941502",
    "prefectureCode": "46",
    "prefectureNumber": 46,
    "prefecture": "鹿児島県",
    "city": "大島郡瀬戸内町",
    "town": "古仁屋（宮前）"
  },
  "8941503": {
    "zipcode": "8941503",
    "prefectureCode": "46",
    "prefectureNumber": 46,
    "prefecture": "鹿児島県",
    "city": "大島郡瀬戸内町",
    "town": "古仁屋（大湊）"
  },
  "8941504": {
    "zipcode": "8941504",
    "prefectureCode": "46",
    "prefectureNumber": 46,
    "prefecture": "鹿児島県",
    "city": "大島郡瀬戸内町",
    "town": "古仁屋（春日）"
  },
  "8941505": {
    "zipcode": "8941505",
    "prefectureCode": "46",
    "prefectureNumber": 46,
    "prefecture": "鹿児島県",
    "city": "大島郡瀬戸内町",
    "town": "古仁屋（松江）"
  },
  "8941506": {
    "zipcode": "8941506",
    "prefectureCode": "46",
    "prefectureNumber": 46,
    "prefecture": "鹿児島県",
    "city": "大島郡瀬戸内町",
    "town": "古仁屋（船津）"
  },
  "8941507": {
    "zipcode": "8941507",
    "prefectureCode": "46",
    "prefectureNumber": 46,
    "prefecture": "鹿児島県",
    "city": "大島郡瀬戸内町",
    "town": "古仁屋（瀬久井）"
  },
  "8941508": {
    "zipcode": "8941508",
    "prefectureCode": "46",
    "prefectureNumber": 46,
    "prefecture": "鹿児島県",
    "city": "大島郡瀬戸内町",
    "town": "古仁屋"
  },
  "8941509": {
    "zipcode": "8941509",
    "prefectureCode": "46",
    "prefectureNumber": 46,
    "prefecture": "鹿児島県",
    "city": "大島郡瀬戸内町",
    "town": "古仁屋瀬久井東"
  },
  "8941510": {
    "zipcode": "8941510",
    "prefectureCode": "46",
    "prefectureNumber": 46,
    "prefecture": "鹿児島県",
    "city": "大島郡瀬戸内町",
    "town": "古仁屋瀬久井西"
  },
  "8941511": {
    "zipcode": "8941511",
    "prefectureCode": "46",
    "prefectureNumber": 46,
    "prefecture": "鹿児島県",
    "city": "大島郡瀬戸内町",
    "town": "阿木名"
  },
  "8941512": {
    "zipcode": "8941512",
    "prefectureCode": "46",
    "prefectureNumber": 46,
    "prefecture": "鹿児島県",
    "city": "大島郡瀬戸内町",
    "town": "勝浦"
  },
  "8941513": {
    "zipcode": "8941513",
    "prefectureCode": "46",
    "prefectureNumber": 46,
    "prefecture": "鹿児島県",
    "city": "大島郡瀬戸内町",
    "town": "網野子"
  },
  "8941514": {
    "zipcode": "8941514",
    "prefectureCode": "46",
    "prefectureNumber": 46,
    "prefecture": "鹿児島県",
    "city": "大島郡瀬戸内町",
    "town": "節子"
  },
  "8941515": {
    "zipcode": "8941515",
    "prefectureCode": "46",
    "prefectureNumber": 46,
    "prefecture": "鹿児島県",
    "city": "大島郡瀬戸内町",
    "town": "嘉徳"
  },
  "8941521": {
    "zipcode": "8941521",
    "prefectureCode": "46",
    "prefectureNumber": 46,
    "prefecture": "鹿児島県",
    "city": "大島郡瀬戸内町",
    "town": "清水"
  },
  "8941522": {
    "zipcode": "8941522",
    "prefectureCode": "46",
    "prefectureNumber": 46,
    "prefecture": "鹿児島県",
    "city": "大島郡瀬戸内町",
    "town": "嘉鉄"
  },
  "8941523": {
    "zipcode": "8941523",
    "prefectureCode": "46",
    "prefectureNumber": 46,
    "prefecture": "鹿児島県",
    "city": "大島郡瀬戸内町",
    "town": "蘇刈"
  },
  "8941524": {
    "zipcode": "8941524",
    "prefectureCode": "46",
    "prefectureNumber": 46,
    "prefecture": "鹿児島県",
    "city": "大島郡瀬戸内町",
    "town": "伊須"
  },
  "8941531": {
    "zipcode": "8941531",
    "prefectureCode": "46",
    "prefectureNumber": 46,
    "prefecture": "鹿児島県",
    "city": "大島郡瀬戸内町",
    "town": "手安"
  },
  "8941741": {
    "zipcode": "8941741",
    "prefectureCode": "46",
    "prefectureNumber": 46,
    "prefecture": "鹿児島県",
    "city": "大島郡瀬戸内町",
    "town": "篠川"
  },
  "8941742": {
    "zipcode": "8941742",
    "prefectureCode": "46",
    "prefectureNumber": 46,
    "prefecture": "鹿児島県",
    "city": "大島郡瀬戸内町",
    "town": "阿室釜"
  },
  "8941743": {
    "zipcode": "8941743",
    "prefectureCode": "46",
    "prefectureNumber": 46,
    "prefecture": "鹿児島県",
    "city": "大島郡瀬戸内町",
    "town": "小名瀬"
  },
  "8941744": {
    "zipcode": "8941744",
    "prefectureCode": "46",
    "prefectureNumber": 46,
    "prefecture": "鹿児島県",
    "city": "大島郡瀬戸内町",
    "town": "阿鉄"
  },
  "8941745": {
    "zipcode": "8941745",
    "prefectureCode": "46",
    "prefectureNumber": 46,
    "prefecture": "鹿児島県",
    "city": "大島郡瀬戸内町",
    "town": "油井"
  },
  "8941746": {
    "zipcode": "8941746",
    "prefectureCode": "46",
    "prefectureNumber": 46,
    "prefecture": "鹿児島県",
    "city": "大島郡瀬戸内町",
    "town": "久根津"
  },
  "8941851": {
    "zipcode": "8941851",
    "prefectureCode": "46",
    "prefectureNumber": 46,
    "prefecture": "鹿児島県",
    "city": "大島郡瀬戸内町",
    "town": "久慈"
  },
  "8941852": {
    "zipcode": "8941852",
    "prefectureCode": "46",
    "prefectureNumber": 46,
    "prefecture": "鹿児島県",
    "city": "大島郡瀬戸内町",
    "town": "古志"
  },
  "8941853": {
    "zipcode": "8941853",
    "prefectureCode": "46",
    "prefectureNumber": 46,
    "prefecture": "鹿児島県",
    "city": "大島郡瀬戸内町",
    "town": "花天"
  },
  "8941854": {
    "zipcode": "8941854",
    "prefectureCode": "46",
    "prefectureNumber": 46,
    "prefecture": "鹿児島県",
    "city": "大島郡瀬戸内町",
    "town": "管鈍"
  },
  "8941855": {
    "zipcode": "8941855",
    "prefectureCode": "46",
    "prefectureNumber": 46,
    "prefecture": "鹿児島県",
    "city": "大島郡瀬戸内町",
    "town": "西古見"
  },
  "8942141": {
    "zipcode": "8942141",
    "prefectureCode": "46",
    "prefectureNumber": 46,
    "prefecture": "鹿児島県",
    "city": "大島郡瀬戸内町",
    "town": "諸鈍"
  },
  "8942142": {
    "zipcode": "8942142",
    "prefectureCode": "46",
    "prefectureNumber": 46,
    "prefecture": "鹿児島県",
    "city": "大島郡瀬戸内町",
    "town": "生間"
  },
  "8942143": {
    "zipcode": "8942143",
    "prefectureCode": "46",
    "prefectureNumber": 46,
    "prefecture": "鹿児島県",
    "city": "大島郡瀬戸内町",
    "town": "渡連"
  },
  "8942144": {
    "zipcode": "8942144",
    "prefectureCode": "46",
    "prefectureNumber": 46,
    "prefecture": "鹿児島県",
    "city": "大島郡瀬戸内町",
    "town": "諸数"
  },
  "8942231": {
    "zipcode": "8942231",
    "prefectureCode": "46",
    "prefectureNumber": 46,
    "prefecture": "鹿児島県",
    "city": "大島郡瀬戸内町",
    "town": "押角"
  },
  "8942232": {
    "zipcode": "8942232",
    "prefectureCode": "46",
    "prefectureNumber": 46,
    "prefecture": "鹿児島県",
    "city": "大島郡瀬戸内町",
    "town": "勝能"
  },
  "8942233": {
    "zipcode": "8942233",
    "prefectureCode": "46",
    "prefectureNumber": 46,
    "prefecture": "鹿児島県",
    "city": "大島郡瀬戸内町",
    "town": "野見山"
  },
  "8942234": {
    "zipcode": "8942234",
    "prefectureCode": "46",
    "prefectureNumber": 46,
    "prefecture": "鹿児島県",
    "city": "大島郡瀬戸内町",
    "town": "秋徳"
  },
  "8942235": {
    "zipcode": "8942235",
    "prefectureCode": "46",
    "prefectureNumber": 46,
    "prefecture": "鹿児島県",
    "city": "大島郡瀬戸内町",
    "town": "於斉"
  },
  "8942236": {
    "zipcode": "8942236",
    "prefectureCode": "46",
    "prefectureNumber": 46,
    "prefecture": "鹿児島県",
    "city": "大島郡瀬戸内町",
    "town": "伊子茂"
  },
  "8942237": {
    "zipcode": "8942237",
    "prefectureCode": "46",
    "prefectureNumber": 46,
    "prefecture": "鹿児島県",
    "city": "大島郡瀬戸内町",
    "town": "花富"
  },
  "8942321": {
    "zipcode": "8942321",
    "prefectureCode": "46",
    "prefectureNumber": 46,
    "prefecture": "鹿児島県",
    "city": "大島郡瀬戸内町",
    "town": "西阿室"
  },
  "8942322": {
    "zipcode": "8942322",
    "prefectureCode": "46",
    "prefectureNumber": 46,
    "prefecture": "鹿児島県",
    "city": "大島郡瀬戸内町",
    "town": "瀬相"
  },
  "8942323": {
    "zipcode": "8942323",
    "prefectureCode": "46",
    "prefectureNumber": 46,
    "prefecture": "鹿児島県",
    "city": "大島郡瀬戸内町",
    "town": "俵"
  },
  "8942401": {
    "zipcode": "8942401",
    "prefectureCode": "46",
    "prefectureNumber": 46,
    "prefecture": "鹿児島県",
    "city": "大島郡瀬戸内町",
    "town": "瀬武"
  },
  "8942402": {
    "zipcode": "8942402",
    "prefectureCode": "46",
    "prefectureNumber": 46,
    "prefecture": "鹿児島県",
    "city": "大島郡瀬戸内町",
    "town": "薩川"
  },
  "8942403": {
    "zipcode": "8942403",
    "prefectureCode": "46",
    "prefectureNumber": 46,
    "prefecture": "鹿児島県",
    "city": "大島郡瀬戸内町",
    "town": "実久"
  },
  "8942404": {
    "zipcode": "8942404",
    "prefectureCode": "46",
    "prefectureNumber": 46,
    "prefecture": "鹿児島県",
    "city": "大島郡瀬戸内町",
    "town": "芝"
  },
  "8942411": {
    "zipcode": "8942411",
    "prefectureCode": "46",
    "prefectureNumber": 46,
    "prefecture": "鹿児島県",
    "city": "大島郡瀬戸内町",
    "town": "阿多地"
  },
  "8942412": {
    "zipcode": "8942412",
    "prefectureCode": "46",
    "prefectureNumber": 46,
    "prefecture": "鹿児島県",
    "city": "大島郡瀬戸内町",
    "town": "須子茂"
  },
  "8942413": {
    "zipcode": "8942413",
    "prefectureCode": "46",
    "prefectureNumber": 46,
    "prefecture": "鹿児島県",
    "city": "大島郡瀬戸内町",
    "town": "嘉入"
  },
  "8942414": {
    "zipcode": "8942414",
    "prefectureCode": "46",
    "prefectureNumber": 46,
    "prefecture": "鹿児島県",
    "city": "大島郡瀬戸内町",
    "town": "三浦"
  },
  "8942415": {
    "zipcode": "8942415",
    "prefectureCode": "46",
    "prefectureNumber": 46,
    "prefecture": "鹿児島県",
    "city": "大島郡瀬戸内町",
    "town": "知之浦"
  },
  "8942416": {
    "zipcode": "8942416",
    "prefectureCode": "46",
    "prefectureNumber": 46,
    "prefecture": "鹿児島県",
    "city": "大島郡瀬戸内町",
    "town": "武名"
  },
  "8942417": {
    "zipcode": "8942417",
    "prefectureCode": "46",
    "prefectureNumber": 46,
    "prefecture": "鹿児島県",
    "city": "大島郡瀬戸内町",
    "town": "木慈"
  },
  "8942501": {
    "zipcode": "8942501",
    "prefectureCode": "46",
    "prefectureNumber": 46,
    "prefecture": "鹿児島県",
    "city": "大島郡瀬戸内町",
    "town": "池地"
  },
  "8942502": {
    "zipcode": "8942502",
    "prefectureCode": "46",
    "prefectureNumber": 46,
    "prefecture": "鹿児島県",
    "city": "大島郡瀬戸内町",
    "town": "請阿室"
  },
  "8942601": {
    "zipcode": "8942601",
    "prefectureCode": "46",
    "prefectureNumber": 46,
    "prefecture": "鹿児島県",
    "city": "大島郡瀬戸内町",
    "town": "与路"
  },
  "8943100": {
    "zipcode": "8943100",
    "prefectureCode": "46",
    "prefectureNumber": 46,
    "prefecture": "鹿児島県",
    "city": "大島郡大和村",
    "town": "以下に掲載がない場合"
  },
  "8943101": {
    "zipcode": "8943101",
    "prefectureCode": "46",
    "prefectureNumber": 46,
    "prefecture": "鹿児島県",
    "city": "大島郡大和村",
    "town": "国直"
  },
  "8943102": {
    "zipcode": "8943102",
    "prefectureCode": "46",
    "prefectureNumber": 46,
    "prefecture": "鹿児島県",
    "city": "大島郡大和村",
    "town": "湯湾釜"
  },
  "8943103": {
    "zipcode": "8943103",
    "prefectureCode": "46",
    "prefectureNumber": 46,
    "prefecture": "鹿児島県",
    "city": "大島郡大和村",
    "town": "津名久"
  },
  "8943104": {
    "zipcode": "8943104",
    "prefectureCode": "46",
    "prefectureNumber": 46,
    "prefecture": "鹿児島県",
    "city": "大島郡大和村",
    "town": "思勝"
  },
  "8943105": {
    "zipcode": "8943105",
    "prefectureCode": "46",
    "prefectureNumber": 46,
    "prefecture": "鹿児島県",
    "city": "大島郡大和村",
    "town": "大和浜"
  },
  "8943106": {
    "zipcode": "8943106",
    "prefectureCode": "46",
    "prefectureNumber": 46,
    "prefecture": "鹿児島県",
    "city": "大島郡大和村",
    "town": "大棚"
  },
  "8943107": {
    "zipcode": "8943107",
    "prefectureCode": "46",
    "prefectureNumber": 46,
    "prefecture": "鹿児島県",
    "city": "大島郡大和村",
    "town": "大金久"
  },
  "8943211": {
    "zipcode": "8943211",
    "prefectureCode": "46",
    "prefectureNumber": 46,
    "prefecture": "鹿児島県",
    "city": "大島郡大和村",
    "town": "戸円"
  },
  "8943212": {
    "zipcode": "8943212",
    "prefectureCode": "46",
    "prefectureNumber": 46,
    "prefecture": "鹿児島県",
    "city": "大島郡大和村",
    "town": "名音"
  },
  "8943213": {
    "zipcode": "8943213",
    "prefectureCode": "46",
    "prefectureNumber": 46,
    "prefecture": "鹿児島県",
    "city": "大島郡大和村",
    "town": "志戸勘"
  },
  "8943214": {
    "zipcode": "8943214",
    "prefectureCode": "46",
    "prefectureNumber": 46,
    "prefecture": "鹿児島県",
    "city": "大島郡大和村",
    "town": "今里"
  },
  "8943300": {
    "zipcode": "8943300",
    "prefectureCode": "46",
    "prefectureNumber": 46,
    "prefecture": "鹿児島県",
    "city": "大島郡宇検村",
    "town": "以下に掲載がない場合"
  },
  "8943301": {
    "zipcode": "8943301",
    "prefectureCode": "46",
    "prefectureNumber": 46,
    "prefecture": "鹿児島県",
    "city": "大島郡宇検村",
    "town": "湯湾"
  },
  "8943302": {
    "zipcode": "8943302",
    "prefectureCode": "46",
    "prefectureNumber": 46,
    "prefecture": "鹿児島県",
    "city": "大島郡宇検村",
    "town": "芦検"
  },
  "8943303": {
    "zipcode": "8943303",
    "prefectureCode": "46",
    "prefectureNumber": 46,
    "prefecture": "鹿児島県",
    "city": "大島郡宇検村",
    "town": "田検"
  },
  "8943304": {
    "zipcode": "8943304",
    "prefectureCode": "46",
    "prefectureNumber": 46,
    "prefecture": "鹿児島県",
    "city": "大島郡宇検村",
    "town": "須古"
  },
  "8943305": {
    "zipcode": "8943305",
    "prefectureCode": "46",
    "prefectureNumber": 46,
    "prefecture": "鹿児島県",
    "city": "大島郡宇検村",
    "town": "石良"
  },
  "8943411": {
    "zipcode": "8943411",
    "prefectureCode": "46",
    "prefectureNumber": 46,
    "prefecture": "鹿児島県",
    "city": "大島郡宇検村",
    "town": "宇検"
  },
  "8943412": {
    "zipcode": "8943412",
    "prefectureCode": "46",
    "prefectureNumber": 46,
    "prefecture": "鹿児島県",
    "city": "大島郡宇検村",
    "town": "久志"
  },
  "8943413": {
    "zipcode": "8943413",
    "prefectureCode": "46",
    "prefectureNumber": 46,
    "prefecture": "鹿児島県",
    "city": "大島郡宇検村",
    "town": "生勝"
  },
  "8943521": {
    "zipcode": "8943521",
    "prefectureCode": "46",
    "prefectureNumber": 46,
    "prefecture": "鹿児島県",
    "city": "大島郡宇検村",
    "town": "名柄"
  },
  "8943522": {
    "zipcode": "8943522",
    "prefectureCode": "46",
    "prefectureNumber": 46,
    "prefecture": "鹿児島県",
    "city": "大島郡宇検村",
    "town": "佐念"
  },
  "8943523": {
    "zipcode": "8943523",
    "prefectureCode": "46",
    "prefectureNumber": 46,
    "prefecture": "鹿児島県",
    "city": "大島郡宇検村",
    "town": "部連"
  },
  "8943631": {
    "zipcode": "8943631",
    "prefectureCode": "46",
    "prefectureNumber": 46,
    "prefecture": "鹿児島県",
    "city": "大島郡宇検村",
    "town": "平田"
  },
  "8943632": {
    "zipcode": "8943632",
    "prefectureCode": "46",
    "prefectureNumber": 46,
    "prefecture": "鹿児島県",
    "city": "大島郡宇検村",
    "town": "阿室"
  },
  "8943633": {
    "zipcode": "8943633",
    "prefectureCode": "46",
    "prefectureNumber": 46,
    "prefecture": "鹿児島県",
    "city": "大島郡宇検村",
    "town": "屋鈍"
  }
}
