{
  "8950000": {
    "zipcode": "8950000",
    "prefectureCode": "46",
    "prefectureNumber": 46,
    "prefecture": "鹿児島県",
    "city": "薩摩川内市",
    "town": "以下に掲載がない場合"
  },
  "8950001": {
    "zipcode": "8950001",
    "prefectureCode": "46",
    "prefectureNumber": 46,
    "prefecture": "鹿児島県",
    "city": "薩摩川内市",
    "town": "白浜町"
  },
  "8950002": {
    "zipcode": "8950002",
    "prefectureCode": "46",
    "prefectureNumber": 46,
    "prefecture": "鹿児島県",
    "city": "薩摩川内市",
    "town": "楠元町"
  },
  "8950003": {
    "zipcode": "8950003",
    "prefectureCode": "46",
    "prefectureNumber": 46,
    "prefecture": "鹿児島県",
    "city": "薩摩川内市",
    "town": "中村町"
  },
  "8950004": {
    "zipcode": "8950004",
    "prefectureCode": "46",
    "prefectureNumber": 46,
    "prefecture": "鹿児島県",
    "city": "薩摩川内市",
    "town": "久住町"
  },
  "8950005": {
    "zipcode": "8950005",
    "prefectureCode": "46",
    "prefectureNumber": 46,
    "prefecture": "鹿児島県",
    "city": "薩摩川内市",
    "town": "永利町"
  },
  "8950006": {
    "zipcode": "8950006",
    "prefectureCode": "46",
    "prefectureNumber": 46,
    "prefecture": "鹿児島県",
    "city": "薩摩川内市",
    "town": "田崎町"
  },
  "8950007": {
    "zipcode": "8950007",
    "prefectureCode": "46",
    "prefectureNumber": 46,
    "prefecture": "鹿児島県",
    "city": "薩摩川内市",
    "town": "百次町"
  },
  "8950011": {
    "zipcode": "8950011",
    "prefectureCode": "46",
    "prefectureNumber": 46,
    "prefecture": "鹿児島県",
    "city": "薩摩川内市",
    "town": "天辰町"
  },
  "8950012": {
    "zipcode": "8950012",
    "prefectureCode": "46",
    "prefectureNumber": 46,
    "prefecture": "鹿児島県",
    "city": "薩摩川内市",
    "town": "平佐町"
  },
  "8950013": {
    "zipcode": "8950013",
    "prefectureCode": "46",
    "prefectureNumber": 46,
    "prefecture": "鹿児島県",
    "city": "薩摩川内市",
    "town": "宮崎町"
  },
  "8950021": {
    "zipcode": "8950021",
    "prefectureCode": "46",
    "prefectureNumber": 46,
    "prefecture": "鹿児島県",
    "city": "薩摩川内市",
    "town": "向田本町"
  },
  "8950022": {
    "zipcode": "8950022",
    "prefectureCode": "46",
    "prefectureNumber": 46,
    "prefecture": "鹿児島県",
    "city": "薩摩川内市",
    "town": "白和町"
  },
  "8950023": {
    "zipcode": "8950023",
    "prefectureCode": "46",
    "prefectureNumber": 46,
    "prefecture": "鹿児島県",
    "city": "薩摩川内市",
    "town": "横馬場町"
  },
  "8950024": {
    "zipcode": "8950024",
    "prefectureCode": "46",
    "prefectureNumber": 46,
    "prefecture": "鹿児島県",
    "city": "薩摩川内市",
    "town": "鳥追町"
  },
  "8950025": {
    "zipcode": "8950025",
    "prefectureCode": "46",
    "prefectureNumber": 46,
    "prefecture": "鹿児島県",
    "city": "薩摩川内市",
    "town": "向田町"
  },
  "8950026": {
    "zipcode": "8950026",
    "prefectureCode": "46",
    "prefectureNumber": 46,
    "prefecture": "鹿児島県",
    "city": "薩摩川内市",
    "town": "東向田町"
  },
  "8950027": {
    "zipcode": "8950027",
    "prefectureCode": "46",
    "prefectureNumber": 46,
    "prefecture": "鹿児島県",
    "city": "薩摩川内市",
    "town": "西向田町"
  },
  "8950031": {
    "zipcode": "8950031",
    "prefectureCode": "46",
    "prefectureNumber": 46,
    "prefecture": "鹿児島県",
    "city": "薩摩川内市",
    "town": "勝目町"
  },
  "8950032": {
    "zipcode": "8950032",
    "prefectureCode": "46",
    "prefectureNumber": 46,
    "prefecture": "鹿児島県",
    "city": "薩摩川内市",
    "town": "山之口町"
  },
  "8950033": {
    "zipcode": "8950033",
    "prefectureCode": "46",
    "prefectureNumber": 46,
    "prefecture": "鹿児島県",
    "city": "薩摩川内市",
    "town": "川永野町"
  },
  "8950034": {
    "zipcode": "8950034",
    "prefectureCode": "46",
    "prefectureNumber": 46,
    "prefecture": "鹿児島県",
    "city": "薩摩川内市",
    "town": "木場茶屋町"
  },
  "8950035": {
    "zipcode": "8950035",
    "prefectureCode": "46",
    "prefectureNumber": 46,
    "prefecture": "鹿児島県",
    "city": "薩摩川内市",
    "town": "尾白江町"
  },
  "8950036": {
    "zipcode": "8950036",
    "prefectureCode": "46",
    "prefectureNumber": 46,
    "prefecture": "鹿児島県",
    "city": "薩摩川内市",
    "town": "矢倉町"
  },
  "8950041": {
    "zipcode": "8950041",
    "prefectureCode": "46",
    "prefectureNumber": 46,
    "prefecture": "鹿児島県",
    "city": "薩摩川内市",
    "town": "隈之城町"
  },
  "8950042": {
    "zipcode": "8950042",
    "prefectureCode": "46",
    "prefectureNumber": 46,
    "prefecture": "鹿児島県",
    "city": "薩摩川内市",
    "town": "中福良町"
  },
  "8950043": {
    "zipcode": "8950043",
    "prefectureCode": "46",
    "prefectureNumber": 46,
    "prefecture": "鹿児島県",
    "city": "薩摩川内市",
    "town": "都町"
  },
  "8950044": {
    "zipcode": "8950044",
    "prefectureCode": "46",
    "prefectureNumber": 46,
    "prefecture": "鹿児島県",
    "city": "薩摩川内市",
    "town": "青山町"
  },
  "8950051": {
    "zipcode": "8950051",
    "prefectureCode": "46",
    "prefectureNumber": 46,
    "prefecture": "鹿児島県",
    "city": "薩摩川内市",
    "town": "東開聞町"
  },
  "8950052": {
    "zipcode": "8950052",
    "prefectureCode": "46",
    "prefectureNumber": 46,
    "prefecture": "鹿児島県",
    "city": "薩摩川内市",
    "town": "神田町"
  },
  "8950053": {
    "zipcode": "8950053",
    "prefectureCode": "46",
    "prefectureNumber": 46,
    "prefecture": "鹿児島県",
    "city": "薩摩川内市",
    "town": "冷水町"
  },
  "8950054": {
    "zipcode": "8950054",
    "prefectureCode": "46",
    "prefectureNumber": 46,
    "prefecture": "鹿児島県",
    "city": "薩摩川内市",
    "town": "若松町"
  },
  "8950055": {
    "zipcode": "8950055",
    "prefectureCode": "46",
    "prefectureNumber": 46,
    "prefecture": "鹿児島県",
    "city": "薩摩川内市",
    "town": "西開聞町"
  },
  "8950056": {
    "zipcode": "8950056",
    "prefectureCode": "46",
    "prefectureNumber": 46,
    "prefecture": "鹿児島県",
    "city": "薩摩川内市",
    "town": "宮里町"
  },
  "8950061": {
    "zipcode": "8950061",
    "prefectureCode": "46",
    "prefectureNumber": 46,
    "prefecture": "鹿児島県",
    "city": "薩摩川内市",
    "town": "御陵下町"
  },
  "8950062": {
    "zipcode": "8950062",
    "prefectureCode": "46",
    "prefectureNumber": 46,
    "prefecture": "鹿児島県",
    "city": "薩摩川内市",
    "town": "大王町"
  },
  "8950063": {
    "zipcode": "8950063",
    "prefectureCode": "46",
    "prefectureNumber": 46,
    "prefecture": "鹿児島県",
    "city": "薩摩川内市",
    "town": "若葉町"
  },
  "8950064": {
    "zipcode": "8950064",
    "prefectureCode": "46",
    "prefectureNumber": 46,
    "prefecture": "鹿児島県",
    "city": "薩摩川内市",
    "town": "花木町"
  },
  "8950065": {
    "zipcode": "8950065",
    "prefectureCode": "46",
    "prefectureNumber": 46,
    "prefecture": "鹿児島県",
    "city": "薩摩川内市",
    "town": "宮内町"
  },
  "8950066": {
    "zipcode": "8950066",
    "prefectureCode": "46",
    "prefectureNumber": 46,
    "prefecture": "鹿児島県",
    "city": "薩摩川内市",
    "town": "五代町"
  },
  "8950067": {
    "zipcode": "8950067",
    "prefectureCode": "46",
    "prefectureNumber": 46,
    "prefecture": "鹿児島県",
    "city": "薩摩川内市",
    "town": "上川内町"
  },
  "8950071": {
    "zipcode": "8950071",
    "prefectureCode": "46",
    "prefectureNumber": 46,
    "prefecture": "鹿児島県",
    "city": "薩摩川内市",
    "town": "田海町"
  },
  "8950072": {
    "zipcode": "8950072",
    "prefectureCode": "46",
    "prefectureNumber": 46,
    "prefecture": "鹿児島県",
    "city": "薩摩川内市",
    "town": "中郷町"
  },
  "8950073": {
    "zipcode": "8950073",
    "prefectureCode": "46",
    "prefectureNumber": 46,
    "prefecture": "鹿児島県",
    "city": "薩摩川内市",
    "town": "国分寺町"
  },
  "8950074": {
    "zipcode": "8950074",
    "prefectureCode": "46",
    "prefectureNumber": 46,
    "prefecture": "鹿児島県",
    "city": "薩摩川内市",
    "town": "原田町"
  },
  "8950075": {
    "zipcode": "8950075",
    "prefectureCode": "46",
    "prefectureNumber": 46,
    "prefecture": "鹿児島県",
    "city": "薩摩川内市",
    "town": "東大小路町"
  },
  "8950076": {
    "zipcode": "8950076",
    "prefectureCode": "46",
    "prefectureNumber": 46,
    "prefecture": "鹿児島県",
    "city": "薩摩川内市",
    "town": "大小路町"
  },
  "8950077": {
    "zipcode": "8950077",
    "prefectureCode": "46",
    "prefectureNumber": 46,
    "prefecture": "鹿児島県",
    "city": "薩摩川内市",
    "town": "運動公園町（その他）"
  },
  "8950131": {
    "zipcode": "8950131",
    "prefectureCode": "46",
    "prefectureNumber": 46,
    "prefecture": "鹿児島県",
    "city": "薩摩川内市",
    "town": "高江町"
  },
  "8950132": {
    "zipcode": "8950132",
    "prefectureCode": "46",
    "prefectureNumber": 46,
    "prefecture": "鹿児島県",
    "city": "薩摩川内市",
    "town": "久見崎町"
  },
  "8950133": {
    "zipcode": "8950133",
    "prefectureCode": "46",
    "prefectureNumber": 46,
    "prefecture": "鹿児島県",
    "city": "薩摩川内市",
    "town": "寄田町"
  },
  "8950211": {
    "zipcode": "8950211",
    "prefectureCode": "46",
    "prefectureNumber": 46,
    "prefecture": "鹿児島県",
    "city": "薩摩川内市",
    "town": "高城町"
  },
  "8950212": {
    "zipcode": "8950212",
    "prefectureCode": "46",
    "prefectureNumber": 46,
    "prefecture": "鹿児島県",
    "city": "薩摩川内市",
    "town": "陽成町"
  },
  "8950213": {
    "zipcode": "8950213",
    "prefectureCode": "46",
    "prefectureNumber": 46,
    "prefecture": "鹿児島県",
    "city": "薩摩川内市",
    "town": "城上町"
  },
  "8950214": {
    "zipcode": "8950214",
    "prefectureCode": "46",
    "prefectureNumber": 46,
    "prefecture": "鹿児島県",
    "city": "薩摩川内市",
    "town": "運動公園町（３０３０番地）"
  },
  "8951101": {
    "zipcode": "8951101",
    "prefectureCode": "46",
    "prefectureNumber": 46,
    "prefecture": "鹿児島県",
    "city": "薩摩川内市",
    "town": "東郷町宍野"
  },
  "8951102": {
    "zipcode": "8951102",
    "prefectureCode": "46",
    "prefectureNumber": 46,
    "prefecture": "鹿児島県",
    "city": "薩摩川内市",
    "town": "東郷町藤川"
  },
  "8951103": {
    "zipcode": "8951103",
    "prefectureCode": "46",
    "prefectureNumber": 46,
    "prefecture": "鹿児島県",
    "city": "薩摩川内市",
    "town": "東郷町鳥丸"
  },
  "8951104": {
    "zipcode": "8951104",
    "prefectureCode": "46",
    "prefectureNumber": 46,
    "prefecture": "鹿児島県",
    "city": "薩摩川内市",
    "town": "東郷町山田"
  },
  "8951105": {
    "zipcode": "8951105",
    "prefectureCode": "46",
    "prefectureNumber": 46,
    "prefecture": "鹿児島県",
    "city": "薩摩川内市",
    "town": "東郷町南瀬"
  },
  "8951106": {
    "zipcode": "8951106",
    "prefectureCode": "46",
    "prefectureNumber": 46,
    "prefecture": "鹿児島県",
    "city": "薩摩川内市",
    "town": "東郷町斧渕"
  },
  "8951201": {
    "zipcode": "8951201",
    "prefectureCode": "46",
    "prefectureNumber": 46,
    "prefecture": "鹿児島県",
    "city": "薩摩川内市",
    "town": "樋脇町倉野"
  },
  "8951202": {
    "zipcode": "8951202",
    "prefectureCode": "46",
    "prefectureNumber": 46,
    "prefecture": "鹿児島県",
    "city": "薩摩川内市",
    "town": "樋脇町塔之原"
  },
  "8951203": {
    "zipcode": "8951203",
    "prefectureCode": "46",
    "prefectureNumber": 46,
    "prefecture": "鹿児島県",
    "city": "薩摩川内市",
    "town": "樋脇町市比野"
  },
  "8951401": {
    "zipcode": "8951401",
    "prefectureCode": "46",
    "prefectureNumber": 46,
    "prefecture": "鹿児島県",
    "city": "薩摩川内市",
    "town": "入来町副田"
  },
  "8951402": {
    "zipcode": "8951402",
    "prefectureCode": "46",
    "prefectureNumber": 46,
    "prefecture": "鹿児島県",
    "city": "薩摩川内市",
    "town": "入来町浦之名"
  },
  "8951501": {
    "zipcode": "8951501",
    "prefectureCode": "46",
    "prefectureNumber": 46,
    "prefecture": "鹿児島県",
    "city": "薩摩川内市",
    "town": "祁答院町下手"
  },
  "8951502": {
    "zipcode": "8951502",
    "prefectureCode": "46",
    "prefectureNumber": 46,
    "prefecture": "鹿児島県",
    "city": "薩摩川内市",
    "town": "祁答院町藺牟田"
  },
  "8951503": {
    "zipcode": "8951503",
    "prefectureCode": "46",
    "prefectureNumber": 46,
    "prefecture": "鹿児島県",
    "city": "薩摩川内市",
    "town": "祁答院町上手"
  },
  "8951504": {
    "zipcode": "8951504",
    "prefectureCode": "46",
    "prefectureNumber": 46,
    "prefecture": "鹿児島県",
    "city": "薩摩川内市",
    "town": "祁答院町黒木"
  },
  "8951721": {
    "zipcode": "8951721",
    "prefectureCode": "46",
    "prefectureNumber": 46,
    "prefecture": "鹿児島県",
    "city": "薩摩郡さつま町",
    "town": "山崎"
  },
  "8951722": {
    "zipcode": "8951722",
    "prefectureCode": "46",
    "prefectureNumber": 46,
    "prefecture": "鹿児島県",
    "city": "薩摩郡さつま町",
    "town": "久富木"
  },
  "8951723": {
    "zipcode": "8951723",
    "prefectureCode": "46",
    "prefectureNumber": 46,
    "prefecture": "鹿児島県",
    "city": "薩摩郡さつま町",
    "town": "二渡"
  },
  "8951800": {
    "zipcode": "8951800",
    "prefectureCode": "46",
    "prefectureNumber": 46,
    "prefecture": "鹿児島県",
    "city": "薩摩郡さつま町",
    "town": "以下に掲載がない場合"
  },
  "8951801": {
    "zipcode": "8951801",
    "prefectureCode": "46",
    "prefectureNumber": 46,
    "prefecture": "鹿児島県",
    "city": "薩摩郡さつま町",
    "town": "広瀬"
  },
  "8951802": {
    "zipcode": "8951802",
    "prefectureCode": "46",
    "prefectureNumber": 46,
    "prefecture": "鹿児島県",
    "city": "薩摩郡さつま町",
    "town": "田原"
  },
  "8951803": {
    "zipcode": "8951803",
    "prefectureCode": "46",
    "prefectureNumber": 46,
    "prefecture": "鹿児島県",
    "city": "薩摩郡さつま町",
    "town": "宮之城屋地"
  },
  "8951804": {
    "zipcode": "8951804",
    "prefectureCode": "46",
    "prefectureNumber": 46,
    "prefecture": "鹿児島県",
    "city": "薩摩郡さつま町",
    "town": "船木"
  },
  "8951805": {
    "zipcode": "8951805",
    "prefectureCode": "46",
    "prefectureNumber": 46,
    "prefecture": "鹿児島県",
    "city": "薩摩郡さつま町",
    "town": "白男川"
  },
  "8951806": {
    "zipcode": "8951806",
    "prefectureCode": "46",
    "prefectureNumber": 46,
    "prefecture": "鹿児島県",
    "city": "薩摩郡さつま町",
    "town": "泊野"
  },
  "8951807": {
    "zipcode": "8951807",
    "prefectureCode": "46",
    "prefectureNumber": 46,
    "prefecture": "鹿児島県",
    "city": "薩摩郡さつま町",
    "town": "平川"
  },
  "8951811": {
    "zipcode": "8951811",
    "prefectureCode": "46",
    "prefectureNumber": 46,
    "prefecture": "鹿児島県",
    "city": "薩摩郡さつま町",
    "town": "虎居"
  },
  "8951812": {
    "zipcode": "8951812",
    "prefectureCode": "46",
    "prefectureNumber": 46,
    "prefecture": "鹿児島県",
    "city": "薩摩郡さつま町",
    "town": "虎居町"
  },
  "8951813": {
    "zipcode": "8951813",
    "prefectureCode": "46",
    "prefectureNumber": 46,
    "prefecture": "鹿児島県",
    "city": "薩摩郡さつま町",
    "town": "轟町"
  },
  "8951814": {
    "zipcode": "8951814",
    "prefectureCode": "46",
    "prefectureNumber": 46,
    "prefecture": "鹿児島県",
    "city": "薩摩郡さつま町",
    "town": "旭町"
  },
  "8951815": {
    "zipcode": "8951815",
    "prefectureCode": "46",
    "prefectureNumber": 46,
    "prefecture": "鹿児島県",
    "city": "薩摩郡さつま町",
    "town": "西新町"
  },
  "8951816": {
    "zipcode": "8951816",
    "prefectureCode": "46",
    "prefectureNumber": 46,
    "prefecture": "鹿児島県",
    "city": "薩摩郡さつま町",
    "town": "時吉"
  },
  "8951817": {
    "zipcode": "8951817",
    "prefectureCode": "46",
    "prefectureNumber": 46,
    "prefecture": "鹿児島県",
    "city": "薩摩郡さつま町",
    "town": "湯田"
  },
  "8952101": {
    "zipcode": "8952101",
    "prefectureCode": "46",
    "prefectureNumber": 46,
    "prefecture": "鹿児島県",
    "city": "薩摩郡さつま町",
    "town": "鶴田"
  },
  "8952102": {
    "zipcode": "8952102",
    "prefectureCode": "46",
    "prefectureNumber": 46,
    "prefecture": "鹿児島県",
    "city": "薩摩郡さつま町",
    "town": "神子"
  },
  "8952103": {
    "zipcode": "8952103",
    "prefectureCode": "46",
    "prefectureNumber": 46,
    "prefecture": "鹿児島県",
    "city": "薩摩郡さつま町",
    "town": "紫尾"
  },
  "8952104": {
    "zipcode": "8952104",
    "prefectureCode": "46",
    "prefectureNumber": 46,
    "prefecture": "鹿児島県",
    "city": "薩摩郡さつま町",
    "town": "柏原"
  },
  "8952131": {
    "zipcode": "8952131",
    "prefectureCode": "46",
    "prefectureNumber": 46,
    "prefecture": "鹿児島県",
    "city": "薩摩郡さつま町",
    "town": "柊野"
  },
  "8952201": {
    "zipcode": "8952201",
    "prefectureCode": "46",
    "prefectureNumber": 46,
    "prefecture": "鹿児島県",
    "city": "薩摩郡さつま町",
    "town": "求名"
  },
  "8952202": {
    "zipcode": "8952202",
    "prefectureCode": "46",
    "prefectureNumber": 46,
    "prefecture": "鹿児島県",
    "city": "薩摩郡さつま町",
    "town": "中津川"
  },
  "8952203": {
    "zipcode": "8952203",
    "prefectureCode": "46",
    "prefectureNumber": 46,
    "prefecture": "鹿児島県",
    "city": "薩摩郡さつま町",
    "town": "永野"
  },
  "8952441": {
    "zipcode": "8952441",
    "prefectureCode": "46",
    "prefectureNumber": 46,
    "prefecture": "鹿児島県",
    "city": "伊佐市",
    "town": "大口曽木"
  },
  "8952442": {
    "zipcode": "8952442",
    "prefectureCode": "46",
    "prefectureNumber": 46,
    "prefecture": "鹿児島県",
    "city": "伊佐市",
    "town": "大口針持"
  },
  "8952500": {
    "zipcode": "8952500",
    "prefectureCode": "46",
    "prefectureNumber": 46,
    "prefecture": "鹿児島県",
    "city": "伊佐市",
    "town": "以下に掲載がない場合"
  },
  "8952501": {
    "zipcode": "8952501",
    "prefectureCode": "46",
    "prefectureNumber": 46,
    "prefecture": "鹿児島県",
    "city": "伊佐市",
    "town": "大口牛尾"
  },
  "8952502": {
    "zipcode": "8952502",
    "prefectureCode": "46",
    "prefectureNumber": 46,
    "prefecture": "鹿児島県",
    "city": "伊佐市",
    "town": "大口木ノ氏"
  },
  "8952503": {
    "zipcode": "8952503",
    "prefectureCode": "46",
    "prefectureNumber": 46,
    "prefecture": "鹿児島県",
    "city": "伊佐市",
    "town": "大口篠原"
  },
  "8952504": {
    "zipcode": "8952504",
    "prefectureCode": "46",
    "prefectureNumber": 46,
    "prefecture": "鹿児島県",
    "city": "伊佐市",
    "town": "大口青木"
  },
  "8952505": {
    "zipcode": "8952505",
    "prefectureCode": "46",
    "prefectureNumber": 46,
    "prefecture": "鹿児島県",
    "city": "伊佐市",
    "town": "大口目丸"
  },
  "8952506": {
    "zipcode": "8952506",
    "prefectureCode": "46",
    "prefectureNumber": 46,
    "prefecture": "鹿児島県",
    "city": "伊佐市",
    "town": "大口原田"
  },
  "8952507": {
    "zipcode": "8952507",
    "prefectureCode": "46",
    "prefectureNumber": 46,
    "prefecture": "鹿児島県",
    "city": "伊佐市",
    "town": "大口大田"
  },
  "8952511": {
    "zipcode": "8952511",
    "prefectureCode": "46",
    "prefectureNumber": 46,
    "prefecture": "鹿児島県",
    "city": "伊佐市",
    "town": "大口里"
  },
  "8952512": {
    "zipcode": "8952512",
    "prefectureCode": "46",
    "prefectureNumber": 46,
    "prefecture": "鹿児島県",
    "city": "伊佐市",
    "town": "大口元町"
  },
  "8952513": {
    "zipcode": "8952513",
    "prefectureCode": "46",
    "prefectureNumber": 46,
    "prefecture": "鹿児島県",
    "city": "伊佐市",
    "town": "大口上町"
  },
  "8952521": {
    "zipcode": "8952521",
    "prefectureCode": "46",
    "prefectureNumber": 46,
    "prefecture": "鹿児島県",
    "city": "伊佐市",
    "town": "大口鳥巣"
  },
  "8952522": {
    "zipcode": "8952522",
    "prefectureCode": "46",
    "prefectureNumber": 46,
    "prefecture": "鹿児島県",
    "city": "伊佐市",
    "town": "大口大島"
  },
  "8952523": {
    "zipcode": "8952523",
    "prefectureCode": "46",
    "prefectureNumber": 46,
    "prefecture": "鹿児島県",
    "city": "伊佐市",
    "town": "大口金波田"
  },
  "8952524": {
    "zipcode": "8952524",
    "prefectureCode": "46",
    "prefectureNumber": 46,
    "prefecture": "鹿児島県",
    "city": "伊佐市",
    "town": "大口堂崎"
  },
  "8952525": {
    "zipcode": "8952525",
    "prefectureCode": "46",
    "prefectureNumber": 46,
    "prefecture": "鹿児島県",
    "city": "伊佐市",
    "town": "大口下殿"
  },
  "8952526": {
    "zipcode": "8952526",
    "prefectureCode": "46",
    "prefectureNumber": 46,
    "prefecture": "鹿児島県",
    "city": "伊佐市",
    "town": "大口宮人"
  },
  "8952527": {
    "zipcode": "8952527",
    "prefectureCode": "46",
    "prefectureNumber": 46,
    "prefecture": "鹿児島県",
    "city": "伊佐市",
    "town": "大口田代"
  },
  "8952528": {
    "zipcode": "8952528",
    "prefectureCode": "46",
    "prefectureNumber": 46,
    "prefecture": "鹿児島県",
    "city": "伊佐市",
    "town": "大口川岩瀬"
  },
  "8952529": {
    "zipcode": "8952529",
    "prefectureCode": "46",
    "prefectureNumber": 46,
    "prefecture": "鹿児島県",
    "city": "伊佐市",
    "town": "大口白木"
  },
  "8952631": {
    "zipcode": "8952631",
    "prefectureCode": "46",
    "prefectureNumber": 46,
    "prefecture": "鹿児島県",
    "city": "伊佐市",
    "town": "大口小木原"
  },
  "8952632": {
    "zipcode": "8952632",
    "prefectureCode": "46",
    "prefectureNumber": 46,
    "prefecture": "鹿児島県",
    "city": "伊佐市",
    "town": "大口渕辺"
  },
  "8952633": {
    "zipcode": "8952633",
    "prefectureCode": "46",
    "prefectureNumber": 46,
    "prefecture": "鹿児島県",
    "city": "伊佐市",
    "town": "大口平出水"
  },
  "8952634": {
    "zipcode": "8952634",
    "prefectureCode": "46",
    "prefectureNumber": 46,
    "prefecture": "鹿児島県",
    "city": "伊佐市",
    "town": "大口小川内"
  },
  "8952635": {
    "zipcode": "8952635",
    "prefectureCode": "46",
    "prefectureNumber": 46,
    "prefecture": "鹿児島県",
    "city": "伊佐市",
    "town": "大口山野"
  },
  "8952701": {
    "zipcode": "8952701",
    "prefectureCode": "46",
    "prefectureNumber": 46,
    "prefecture": "鹿児島県",
    "city": "伊佐市",
    "town": "菱刈前目"
  },
  "8952702": {
    "zipcode": "8952702",
    "prefectureCode": "46",
    "prefectureNumber": 46,
    "prefecture": "鹿児島県",
    "city": "伊佐市",
    "town": "菱刈下手"
  },
  "8952703": {
    "zipcode": "8952703",
    "prefectureCode": "46",
    "prefectureNumber": 46,
    "prefecture": "鹿児島県",
    "city": "伊佐市",
    "town": "菱刈花北"
  },
  "8952704": {
    "zipcode": "8952704",
    "prefectureCode": "46",
    "prefectureNumber": 46,
    "prefecture": "鹿児島県",
    "city": "伊佐市",
    "town": "菱刈市山"
  },
  "8952705": {
    "zipcode": "8952705",
    "prefectureCode": "46",
    "prefectureNumber": 46,
    "prefecture": "鹿児島県",
    "city": "伊佐市",
    "town": "菱刈重留"
  },
  "8952706": {
    "zipcode": "8952706",
    "prefectureCode": "46",
    "prefectureNumber": 46,
    "prefecture": "鹿児島県",
    "city": "伊佐市",
    "town": "菱刈田中"
  },
  "8952707": {
    "zipcode": "8952707",
    "prefectureCode": "46",
    "prefectureNumber": 46,
    "prefecture": "鹿児島県",
    "city": "伊佐市",
    "town": "菱刈徳辺"
  },
  "8952708": {
    "zipcode": "8952708",
    "prefectureCode": "46",
    "prefectureNumber": 46,
    "prefecture": "鹿児島県",
    "city": "伊佐市",
    "town": "菱刈川北"
  },
  "8952811": {
    "zipcode": "8952811",
    "prefectureCode": "46",
    "prefectureNumber": 46,
    "prefecture": "鹿児島県",
    "city": "伊佐市",
    "town": "菱刈荒田"
  },
  "8952812": {
    "zipcode": "8952812",
    "prefectureCode": "46",
    "prefectureNumber": 46,
    "prefecture": "鹿児島県",
    "city": "伊佐市",
    "town": "菱刈川南"
  },
  "8952813": {
    "zipcode": "8952813",
    "prefectureCode": "46",
    "prefectureNumber": 46,
    "prefecture": "鹿児島県",
    "city": "伊佐市",
    "town": "菱刈南浦"
  }
}
