{
  "8960000": {
    "zipcode": "8960000",
    "prefectureCode": "46",
    "prefectureNumber": 46,
    "prefecture": "鹿児島県",
    "city": "いちき串木野市",
    "town": "以下に掲載がない場合"
  },
  "8960001": {
    "zipcode": "8960001",
    "prefectureCode": "46",
    "prefectureNumber": 46,
    "prefecture": "鹿児島県",
    "city": "いちき串木野市",
    "town": "曙町"
  },
  "8960002": {
    "zipcode": "8960002",
    "prefectureCode": "46",
    "prefectureNumber": 46,
    "prefecture": "鹿児島県",
    "city": "いちき串木野市",
    "town": "春日町"
  },
  "8960003": {
    "zipcode": "8960003",
    "prefectureCode": "46",
    "prefectureNumber": 46,
    "prefecture": "鹿児島県",
    "city": "いちき串木野市",
    "town": "京町"
  },
  "8960004": {
    "zipcode": "8960004",
    "prefectureCode": "46",
    "prefectureNumber": 46,
    "prefecture": "鹿児島県",
    "city": "いちき串木野市",
    "town": "汐見町"
  },
  "8960005": {
    "zipcode": "8960005",
    "prefectureCode": "46",
    "prefectureNumber": 46,
    "prefecture": "鹿児島県",
    "city": "いちき串木野市",
    "town": "西塩田町"
  },
  "8960006": {
    "zipcode": "8960006",
    "prefectureCode": "46",
    "prefectureNumber": 46,
    "prefecture": "鹿児島県",
    "city": "いちき串木野市",
    "town": "東塩田町"
  },
  "8960011": {
    "zipcode": "8960011",
    "prefectureCode": "46",
    "prefectureNumber": 46,
    "prefecture": "鹿児島県",
    "city": "いちき串木野市",
    "town": "大原町"
  },
  "8960012": {
    "zipcode": "8960012",
    "prefectureCode": "46",
    "prefectureNumber": 46,
    "prefecture": "鹿児島県",
    "city": "いちき串木野市",
    "town": "中尾町"
  },
  "8960013": {
    "zipcode": "8960013",
    "prefectureCode": "46",
    "prefectureNumber": 46,
    "prefecture": "鹿児島県",
    "city": "いちき串木野市",
    "town": "栄町"
  },
  "8960014": {
    "zipcode": "8960014",
    "prefectureCode": "46",
    "prefectureNumber": 46,
    "prefecture": "鹿児島県",
    "city": "いちき串木野市",
    "town": "元町"
  },
  "8960015": {
    "zipcode": "8960015",
    "prefectureCode": "46",
    "prefectureNumber": 46,
    "prefecture": "鹿児島県",
    "city": "いちき串木野市",
    "town": "旭町"
  },
  "8960016": {
    "zipcode": "8960016",
    "prefectureCode": "46",
    "prefectureNumber": 46,
    "prefecture": "鹿児島県",
    "city": "いちき串木野市",
    "town": "桜町"
  },
  "8960017": {
    "zipcode": "8960017",
    "prefectureCode": "46",
    "prefectureNumber": 46,
    "prefecture": "鹿児島県",
    "city": "いちき串木野市",
    "town": "高見町"
  },
  "8960021": {
    "zipcode": "8960021",
    "prefectureCode": "46",
    "prefectureNumber": 46,
    "prefecture": "鹿児島県",
    "city": "いちき串木野市",
    "town": "住吉町"
  },
  "8960022": {
    "zipcode": "8960022",
    "prefectureCode": "46",
    "prefectureNumber": 46,
    "prefecture": "鹿児島県",
    "city": "いちき串木野市",
    "town": "緑町"
  },
  "8960023": {
    "zipcode": "8960023",
    "prefectureCode": "46",
    "prefectureNumber": 46,
    "prefecture": "鹿児島県",
    "city": "いちき串木野市",
    "town": "塩屋町"
  },
  "8960024": {
    "zipcode": "8960024",
    "prefectureCode": "46",
    "prefectureNumber": 46,
    "prefecture": "鹿児島県",
    "city": "いちき串木野市",
    "town": "美住町"
  },
  "8960025": {
    "zipcode": "8960025",
    "prefectureCode": "46",
    "prefectureNumber": 46,
    "prefecture": "鹿児島県",
    "city": "いちき串木野市",
    "town": "御倉町"
  },
  "8960026": {
    "zipcode": "8960026",
    "prefectureCode": "46",
    "prefectureNumber": 46,
    "prefecture": "鹿児島県",
    "city": "いちき串木野市",
    "town": "昭和通"
  },
  "8960027": {
    "zipcode": "8960027",
    "prefectureCode": "46",
    "prefectureNumber": 46,
    "prefecture": "鹿児島県",
    "city": "いちき串木野市",
    "town": "恵比須町"
  },
  "8960028": {
    "zipcode": "8960028",
    "prefectureCode": "46",
    "prefectureNumber": 46,
    "prefecture": "鹿児島県",
    "city": "いちき串木野市",
    "town": "ひばりが丘"
  },
  "8960031": {
    "zipcode": "8960031",
    "prefectureCode": "46",
    "prefectureNumber": 46,
    "prefecture": "鹿児島県",
    "city": "いちき串木野市",
    "town": "東島平町"
  },
  "8960032": {
    "zipcode": "8960032",
    "prefectureCode": "46",
    "prefectureNumber": 46,
    "prefecture": "鹿児島県",
    "city": "いちき串木野市",
    "town": "西島平町"
  },
  "8960033": {
    "zipcode": "8960033",
    "prefectureCode": "46",
    "prefectureNumber": 46,
    "prefecture": "鹿児島県",
    "city": "いちき串木野市",
    "town": "長崎町"
  },
  "8960034": {
    "zipcode": "8960034",
    "prefectureCode": "46",
    "prefectureNumber": 46,
    "prefecture": "鹿児島県",
    "city": "いちき串木野市",
    "town": "小瀬町"
  },
  "8960035": {
    "zipcode": "8960035",
    "prefectureCode": "46",
    "prefectureNumber": 46,
    "prefecture": "鹿児島県",
    "city": "いちき串木野市",
    "town": "新生町"
  },
  "8960036": {
    "zipcode": "8960036",
    "prefectureCode": "46",
    "prefectureNumber": 46,
    "prefecture": "鹿児島県",
    "city": "いちき串木野市",
    "town": "浦和町"
  },
  "8960037": {
    "zipcode": "8960037",
    "prefectureCode": "46",
    "prefectureNumber": 46,
    "prefecture": "鹿児島県",
    "city": "いちき串木野市",
    "town": "別府"
  },
  "8960041": {
    "zipcode": "8960041",
    "prefectureCode": "46",
    "prefectureNumber": 46,
    "prefecture": "鹿児島県",
    "city": "いちき串木野市",
    "town": "北浜町"
  },
  "8960042": {
    "zipcode": "8960042",
    "prefectureCode": "46",
    "prefectureNumber": 46,
    "prefecture": "鹿児島県",
    "city": "いちき串木野市",
    "town": "本浜町"
  },
  "8960043": {
    "zipcode": "8960043",
    "prefectureCode": "46",
    "prefectureNumber": 46,
    "prefecture": "鹿児島県",
    "city": "いちき串木野市",
    "town": "港町"
  },
  "8960044": {
    "zipcode": "8960044",
    "prefectureCode": "46",
    "prefectureNumber": 46,
    "prefecture": "鹿児島県",
    "city": "いちき串木野市",
    "town": "西浜町"
  },
  "8960045": {
    "zipcode": "8960045",
    "prefectureCode": "46",
    "prefectureNumber": 46,
    "prefecture": "鹿児島県",
    "city": "いちき串木野市",
    "town": "まぐろ本町"
  },
  "8960046": {
    "zipcode": "8960046",
    "prefectureCode": "46",
    "prefectureNumber": 46,
    "prefecture": "鹿児島県",
    "city": "いちき串木野市",
    "town": "西薩町"
  },
  "8960051": {
    "zipcode": "8960051",
    "prefectureCode": "46",
    "prefectureNumber": 46,
    "prefecture": "鹿児島県",
    "city": "いちき串木野市",
    "town": "冠嶽"
  },
  "8960054": {
    "zipcode": "8960054",
    "prefectureCode": "46",
    "prefectureNumber": 46,
    "prefecture": "鹿児島県",
    "city": "いちき串木野市",
    "town": "日出町"
  },
  "8960055": {
    "zipcode": "8960055",
    "prefectureCode": "46",
    "prefectureNumber": 46,
    "prefecture": "鹿児島県",
    "city": "いちき串木野市",
    "town": "照島"
  },
  "8960056": {
    "zipcode": "8960056",
    "prefectureCode": "46",
    "prefectureNumber": 46,
    "prefecture": "鹿児島県",
    "city": "いちき串木野市",
    "town": "八房"
  },
  "8960057": {
    "zipcode": "8960057",
    "prefectureCode": "46",
    "prefectureNumber": 46,
    "prefecture": "鹿児島県",
    "city": "いちき串木野市",
    "town": "海瀬"
  },
  "8960058": {
    "zipcode": "8960058",
    "prefectureCode": "46",
    "prefectureNumber": 46,
    "prefecture": "鹿児島県",
    "city": "いちき串木野市",
    "town": "袴田"
  },
  "8960061": {
    "zipcode": "8960061",
    "prefectureCode": "46",
    "prefectureNumber": 46,
    "prefecture": "鹿児島県",
    "city": "いちき串木野市",
    "town": "愛木町"
  },
  "8960062": {
    "zipcode": "8960062",
    "prefectureCode": "46",
    "prefectureNumber": 46,
    "prefecture": "鹿児島県",
    "city": "いちき串木野市",
    "town": "浜田町"
  },
  "8960063": {
    "zipcode": "8960063",
    "prefectureCode": "46",
    "prefectureNumber": 46,
    "prefecture": "鹿児島県",
    "city": "いちき串木野市",
    "town": "口之町"
  },
  "8960064": {
    "zipcode": "8960064",
    "prefectureCode": "46",
    "prefectureNumber": 46,
    "prefecture": "鹿児島県",
    "city": "いちき串木野市",
    "town": "羽島"
  },
  "8960065": {
    "zipcode": "8960065",
    "prefectureCode": "46",
    "prefectureNumber": 46,
    "prefecture": "鹿児島県",
    "city": "いちき串木野市",
    "town": "荒川"
  },
  "8960066": {
    "zipcode": "8960066",
    "prefectureCode": "46",
    "prefectureNumber": 46,
    "prefecture": "鹿児島県",
    "city": "いちき串木野市",
    "town": "野元"
  },
  "8960067": {
    "zipcode": "8960067",
    "prefectureCode": "46",
    "prefectureNumber": 46,
    "prefecture": "鹿児島県",
    "city": "いちき串木野市",
    "town": "平江"
  },
  "8960068": {
    "zipcode": "8960068",
    "prefectureCode": "46",
    "prefectureNumber": 46,
    "prefecture": "鹿児島県",
    "city": "いちき串木野市",
    "town": "三井"
  },
  "8960069": {
    "zipcode": "8960069",
    "prefectureCode": "46",
    "prefectureNumber": 46,
    "prefecture": "鹿児島県",
    "city": "いちき串木野市",
    "town": "浜ケ城"
  },
  "8960071": {
    "zipcode": "8960071",
    "prefectureCode": "46",
    "prefectureNumber": 46,
    "prefecture": "鹿児島県",
    "city": "いちき串木野市",
    "town": "深田上"
  },
  "8960072": {
    "zipcode": "8960072",
    "prefectureCode": "46",
    "prefectureNumber": 46,
    "prefecture": "鹿児島県",
    "city": "いちき串木野市",
    "town": "薩摩山"
  },
  "8960073": {
    "zipcode": "8960073",
    "prefectureCode": "46",
    "prefectureNumber": 46,
    "prefecture": "鹿児島県",
    "city": "いちき串木野市",
    "town": "野下"
  },
  "8960074": {
    "zipcode": "8960074",
    "prefectureCode": "46",
    "prefectureNumber": 46,
    "prefecture": "鹿児島県",
    "city": "いちき串木野市",
    "town": "金山下"
  },
  "8960075": {
    "zipcode": "8960075",
    "prefectureCode": "46",
    "prefectureNumber": 46,
    "prefecture": "鹿児島県",
    "city": "いちき串木野市",
    "town": "金山"
  },
  "8960076": {
    "zipcode": "8960076",
    "prefectureCode": "46",
    "prefectureNumber": 46,
    "prefecture": "鹿児島県",
    "city": "いちき串木野市",
    "town": "芹ケ野"
  },
  "8960077": {
    "zipcode": "8960077",
    "prefectureCode": "46",
    "prefectureNumber": 46,
    "prefecture": "鹿児島県",
    "city": "いちき串木野市",
    "town": "深田下"
  },
  "8960078": {
    "zipcode": "8960078",
    "prefectureCode": "46",
    "prefectureNumber": 46,
    "prefecture": "鹿児島県",
    "city": "いちき串木野市",
    "town": "生福"
  },
  "8960079": {
    "zipcode": "8960079",
    "prefectureCode": "46",
    "prefectureNumber": 46,
    "prefecture": "鹿児島県",
    "city": "いちき串木野市",
    "town": "河内"
  },
  "8960081": {
    "zipcode": "8960081",
    "prefectureCode": "46",
    "prefectureNumber": 46,
    "prefecture": "鹿児島県",
    "city": "いちき串木野市",
    "town": "大薗"
  },
  "8960082": {
    "zipcode": "8960082",
    "prefectureCode": "46",
    "prefectureNumber": 46,
    "prefecture": "鹿児島県",
    "city": "いちき串木野市",
    "town": "小薗"
  },
  "8960083": {
    "zipcode": "8960083",
    "prefectureCode": "46",
    "prefectureNumber": 46,
    "prefecture": "鹿児島県",
    "city": "いちき串木野市",
    "town": "麓"
  },
  "8960084": {
    "zipcode": "8960084",
    "prefectureCode": "46",
    "prefectureNumber": 46,
    "prefecture": "鹿児島県",
    "city": "いちき串木野市",
    "town": "浅山"
  },
  "8961101": {
    "zipcode": "8961101",
    "prefectureCode": "46",
    "prefectureNumber": 46,
    "prefecture": "鹿児島県",
    "city": "薩摩川内市",
    "town": "里町里"
  },
  "8961201": {
    "zipcode": "8961201",
    "prefectureCode": "46",
    "prefectureNumber": 46,
    "prefecture": "鹿児島県",
    "city": "薩摩川内市",
    "town": "上甑町中甑"
  },
  "8961202": {
    "zipcode": "8961202",
    "prefectureCode": "46",
    "prefectureNumber": 46,
    "prefecture": "鹿児島県",
    "city": "薩摩川内市",
    "town": "上甑町中野"
  },
  "8961203": {
    "zipcode": "8961203",
    "prefectureCode": "46",
    "prefectureNumber": 46,
    "prefecture": "鹿児島県",
    "city": "薩摩川内市",
    "town": "上甑町江石"
  },
  "8961204": {
    "zipcode": "8961204",
    "prefectureCode": "46",
    "prefectureNumber": 46,
    "prefecture": "鹿児島県",
    "city": "薩摩川内市",
    "town": "上甑町小島"
  },
  "8961205": {
    "zipcode": "8961205",
    "prefectureCode": "46",
    "prefectureNumber": 46,
    "prefecture": "鹿児島県",
    "city": "薩摩川内市",
    "town": "上甑町瀬上"
  },
  "8961206": {
    "zipcode": "8961206",
    "prefectureCode": "46",
    "prefectureNumber": 46,
    "prefecture": "鹿児島県",
    "city": "薩摩川内市",
    "town": "上甑町桑之浦"
  },
  "8961281": {
    "zipcode": "8961281",
    "prefectureCode": "46",
    "prefectureNumber": 46,
    "prefecture": "鹿児島県",
    "city": "薩摩川内市",
    "town": "上甑町平良"
  },
  "8961301": {
    "zipcode": "8961301",
    "prefectureCode": "46",
    "prefectureNumber": 46,
    "prefecture": "鹿児島県",
    "city": "薩摩川内市",
    "town": "鹿島町藺牟田"
  },
  "8961411": {
    "zipcode": "8961411",
    "prefectureCode": "46",
    "prefectureNumber": 46,
    "prefecture": "鹿児島県",
    "city": "薩摩川内市",
    "town": "下甑町長浜"
  },
  "8961412": {
    "zipcode": "8961412",
    "prefectureCode": "46",
    "prefectureNumber": 46,
    "prefecture": "鹿児島県",
    "city": "薩摩川内市",
    "town": "下甑町瀬々野浦（１７００番地〜、内川内）"
  },
  "8961512": {
    "zipcode": "8961512",
    "prefectureCode": "46",
    "prefectureNumber": 46,
    "prefecture": "鹿児島県",
    "city": "薩摩川内市",
    "town": "下甑町瀬々野浦（その他）"
  },
  "8961521": {
    "zipcode": "8961521",
    "prefectureCode": "46",
    "prefectureNumber": 46,
    "prefecture": "鹿児島県",
    "city": "薩摩川内市",
    "town": "下甑町青瀬"
  },
  "8961601": {
    "zipcode": "8961601",
    "prefectureCode": "46",
    "prefectureNumber": 46,
    "prefecture": "鹿児島県",
    "city": "薩摩川内市",
    "town": "下甑町手打"
  },
  "8961602": {
    "zipcode": "8961602",
    "prefectureCode": "46",
    "prefectureNumber": 46,
    "prefecture": "鹿児島県",
    "city": "薩摩川内市",
    "town": "下甑町片野浦"
  }
}
