{
  "8970000": {
    "zipcode": "8970000",
    "prefectureCode": "46",
    "prefectureNumber": 46,
    "prefecture": "鹿児島県",
    "city": "南さつま市",
    "town": "以下に掲載がない場合"
  },
  "8970001": {
    "zipcode": "8970001",
    "prefectureCode": "46",
    "prefectureNumber": 46,
    "prefecture": "鹿児島県",
    "city": "南さつま市",
    "town": "加世田村原"
  },
  "8970002": {
    "zipcode": "8970002",
    "prefectureCode": "46",
    "prefectureNumber": 46,
    "prefecture": "鹿児島県",
    "city": "南さつま市",
    "town": "加世田武田"
  },
  "8970003": {
    "zipcode": "8970003",
    "prefectureCode": "46",
    "prefectureNumber": 46,
    "prefecture": "鹿児島県",
    "city": "南さつま市",
    "town": "加世田川畑"
  },
  "8970004": {
    "zipcode": "8970004",
    "prefectureCode": "46",
    "prefectureNumber": 46,
    "prefecture": "鹿児島県",
    "city": "南さつま市",
    "town": "加世田内山田"
  },
  "8970005": {
    "zipcode": "8970005",
    "prefectureCode": "46",
    "prefectureNumber": 46,
    "prefecture": "鹿児島県",
    "city": "南さつま市",
    "town": "加世田麓町"
  },
  "8970006": {
    "zipcode": "8970006",
    "prefectureCode": "46",
    "prefectureNumber": 46,
    "prefecture": "鹿児島県",
    "city": "南さつま市",
    "town": "加世田本町"
  },
  "8970007": {
    "zipcode": "8970007",
    "prefectureCode": "46",
    "prefectureNumber": 46,
    "prefecture": "鹿児島県",
    "city": "南さつま市",
    "town": "加世田白亀"
  },
  "8970008": {
    "zipcode": "8970008",
    "prefectureCode": "46",
    "prefectureNumber": 46,
    "prefecture": "鹿児島県",
    "city": "南さつま市",
    "town": "加世田地頭所"
  },
  "8970009": {
    "zipcode": "8970009",
    "prefectureCode": "46",
    "prefectureNumber": 46,
    "prefecture": "鹿児島県",
    "city": "南さつま市",
    "town": "加世田ハーモニー"
  },
  "8970031": {
    "zipcode": "8970031",
    "prefectureCode": "46",
    "prefectureNumber": 46,
    "prefecture": "鹿児島県",
    "city": "南さつま市",
    "town": "加世田東本町"
  },
  "8970131": {
    "zipcode": "8970131",
    "prefectureCode": "46",
    "prefectureNumber": 46,
    "prefecture": "鹿児島県",
    "city": "南九州市",
    "town": "川辺町上山田"
  },
  "8970132": {
    "zipcode": "8970132",
    "prefectureCode": "46",
    "prefectureNumber": 46,
    "prefecture": "鹿児島県",
    "city": "南九州市",
    "town": "川辺町中山田"
  },
  "8970133": {
    "zipcode": "8970133",
    "prefectureCode": "46",
    "prefectureNumber": 46,
    "prefecture": "鹿児島県",
    "city": "南九州市",
    "town": "川辺町下山田"
  },
  "8970200": {
    "zipcode": "8970200",
    "prefectureCode": "46",
    "prefectureNumber": 46,
    "prefecture": "鹿児島県",
    "city": "南九州市",
    "town": "以下に掲載がない場合"
  },
  "8970201": {
    "zipcode": "8970201",
    "prefectureCode": "46",
    "prefectureNumber": 46,
    "prefecture": "鹿児島県",
    "city": "南九州市",
    "town": "川辺町神殿"
  },
  "8970202": {
    "zipcode": "8970202",
    "prefectureCode": "46",
    "prefectureNumber": 46,
    "prefecture": "鹿児島県",
    "city": "南九州市",
    "town": "川辺町清水"
  },
  "8970203": {
    "zipcode": "8970203",
    "prefectureCode": "46",
    "prefectureNumber": 46,
    "prefecture": "鹿児島県",
    "city": "南九州市",
    "town": "川辺町野崎"
  },
  "8970204": {
    "zipcode": "8970204",
    "prefectureCode": "46",
    "prefectureNumber": 46,
    "prefecture": "鹿児島県",
    "city": "南九州市",
    "town": "川辺町古殿"
  },
  "8970205": {
    "zipcode": "8970205",
    "prefectureCode": "46",
    "prefectureNumber": 46,
    "prefecture": "鹿児島県",
    "city": "南九州市",
    "town": "川辺町野間"
  },
  "8970211": {
    "zipcode": "8970211",
    "prefectureCode": "46",
    "prefectureNumber": 46,
    "prefecture": "鹿児島県",
    "city": "南九州市",
    "town": "川辺町両添"
  },
  "8970212": {
    "zipcode": "8970212",
    "prefectureCode": "46",
    "prefectureNumber": 46,
    "prefecture": "鹿児島県",
    "city": "南九州市",
    "town": "川辺町今田"
  },
  "8970213": {
    "zipcode": "8970213",
    "prefectureCode": "46",
    "prefectureNumber": 46,
    "prefecture": "鹿児島県",
    "city": "南九州市",
    "town": "川辺町小野"
  },
  "8970214": {
    "zipcode": "8970214",
    "prefectureCode": "46",
    "prefectureNumber": 46,
    "prefecture": "鹿児島県",
    "city": "南九州市",
    "town": "川辺町宮"
  },
  "8970215": {
    "zipcode": "8970215",
    "prefectureCode": "46",
    "prefectureNumber": 46,
    "prefecture": "鹿児島県",
    "city": "南九州市",
    "town": "川辺町平山"
  },
  "8970221": {
    "zipcode": "8970221",
    "prefectureCode": "46",
    "prefectureNumber": 46,
    "prefecture": "鹿児島県",
    "city": "南九州市",
    "town": "川辺町田部田"
  },
  "8970222": {
    "zipcode": "8970222",
    "prefectureCode": "46",
    "prefectureNumber": 46,
    "prefecture": "鹿児島県",
    "city": "南九州市",
    "town": "川辺町永田"
  },
  "8970223": {
    "zipcode": "8970223",
    "prefectureCode": "46",
    "prefectureNumber": 46,
    "prefecture": "鹿児島県",
    "city": "南九州市",
    "town": "川辺町高田"
  },
  "8970224": {
    "zipcode": "8970224",
    "prefectureCode": "46",
    "prefectureNumber": 46,
    "prefecture": "鹿児島県",
    "city": "南九州市",
    "town": "川辺町本別府"
  },
  "8970301": {
    "zipcode": "8970301",
    "prefectureCode": "46",
    "prefectureNumber": 46,
    "prefecture": "鹿児島県",
    "city": "南九州市",
    "town": "知覧町厚地"
  },
  "8970302": {
    "zipcode": "8970302",
    "prefectureCode": "46",
    "prefectureNumber": 46,
    "prefecture": "鹿児島県",
    "city": "南九州市",
    "town": "知覧町郡"
  },
  "8970303": {
    "zipcode": "8970303",
    "prefectureCode": "46",
    "prefectureNumber": 46,
    "prefecture": "鹿児島県",
    "city": "南九州市",
    "town": "知覧町永里"
  },
  "8970304": {
    "zipcode": "8970304",
    "prefectureCode": "46",
    "prefectureNumber": 46,
    "prefecture": "鹿児島県",
    "city": "南九州市",
    "town": "知覧町東別府"
  },
  "8970305": {
    "zipcode": "8970305",
    "prefectureCode": "46",
    "prefectureNumber": 46,
    "prefecture": "鹿児島県",
    "city": "南九州市",
    "town": "知覧町瀬世"
  },
  "8970306": {
    "zipcode": "8970306",
    "prefectureCode": "46",
    "prefectureNumber": 46,
    "prefecture": "鹿児島県",
    "city": "南九州市",
    "town": "知覧町西元"
  },
  "8971121": {
    "zipcode": "8971121",
    "prefectureCode": "46",
    "prefectureNumber": 46,
    "prefecture": "鹿児島県",
    "city": "南さつま市",
    "town": "加世田唐仁原"
  },
  "8971122": {
    "zipcode": "8971122",
    "prefectureCode": "46",
    "prefectureNumber": 46,
    "prefecture": "鹿児島県",
    "city": "南さつま市",
    "town": "加世田小湊"
  },
  "8971123": {
    "zipcode": "8971123",
    "prefectureCode": "46",
    "prefectureNumber": 46,
    "prefecture": "鹿児島県",
    "city": "南さつま市",
    "town": "加世田高橋"
  },
  "8971124": {
    "zipcode": "8971124",
    "prefectureCode": "46",
    "prefectureNumber": 46,
    "prefecture": "鹿児島県",
    "city": "南さつま市",
    "town": "加世田宮原"
  },
  "8971125": {
    "zipcode": "8971125",
    "prefectureCode": "46",
    "prefectureNumber": 46,
    "prefecture": "鹿児島県",
    "city": "南さつま市",
    "town": "加世田益山"
  },
  "8971201": {
    "zipcode": "8971201",
    "prefectureCode": "46",
    "prefectureNumber": 46,
    "prefecture": "鹿児島県",
    "city": "南さつま市",
    "town": "大浦町（その他）"
  },
  "8971301": {
    "zipcode": "8971301",
    "prefectureCode": "46",
    "prefectureNumber": 46,
    "prefecture": "鹿児島県",
    "city": "南さつま市",
    "town": "笠沙町片浦"
  },
  "8971302": {
    "zipcode": "8971302",
    "prefectureCode": "46",
    "prefectureNumber": 46,
    "prefecture": "鹿児島県",
    "city": "南さつま市",
    "town": "笠沙町赤生木"
  }
}
