{
  "8990121": {
    "zipcode": "8990121",
    "prefectureCode": "46",
    "prefectureNumber": 46,
    "prefecture": "鹿児島県",
    "city": "出水市",
    "town": "米ノ津町"
  },
  "8990122": {
    "zipcode": "8990122",
    "prefectureCode": "46",
    "prefectureNumber": 46,
    "prefecture": "鹿児島県",
    "city": "出水市",
    "town": "境町"
  },
  "8990123": {
    "zipcode": "8990123",
    "prefectureCode": "46",
    "prefectureNumber": 46,
    "prefecture": "鹿児島県",
    "city": "出水市",
    "town": "下鯖町"
  },
  "8990124": {
    "zipcode": "8990124",
    "prefectureCode": "46",
    "prefectureNumber": 46,
    "prefecture": "鹿児島県",
    "city": "出水市",
    "town": "美原町"
  },
  "8990125": {
    "zipcode": "8990125",
    "prefectureCode": "46",
    "prefectureNumber": 46,
    "prefecture": "鹿児島県",
    "city": "出水市",
    "town": "黄金町"
  },
  "8990126": {
    "zipcode": "8990126",
    "prefectureCode": "46",
    "prefectureNumber": 46,
    "prefecture": "鹿児島県",
    "city": "出水市",
    "town": "六月田町"
  },
  "8990131": {
    "zipcode": "8990131",
    "prefectureCode": "46",
    "prefectureNumber": 46,
    "prefecture": "鹿児島県",
    "city": "出水市",
    "town": "明神町"
  },
  "8990132": {
    "zipcode": "8990132",
    "prefectureCode": "46",
    "prefectureNumber": 46,
    "prefecture": "鹿児島県",
    "city": "出水市",
    "town": "下知識町"
  },
  "8990133": {
    "zipcode": "8990133",
    "prefectureCode": "46",
    "prefectureNumber": 46,
    "prefecture": "鹿児島県",
    "city": "出水市",
    "town": "福ノ江町"
  },
  "8990134": {
    "zipcode": "8990134",
    "prefectureCode": "46",
    "prefectureNumber": 46,
    "prefecture": "鹿児島県",
    "city": "出水市",
    "town": "浦田町"
  },
  "8990136": {
    "zipcode": "8990136",
    "prefectureCode": "46",
    "prefectureNumber": 46,
    "prefecture": "鹿児島県",
    "city": "出水市",
    "town": "汐見町"
  },
  "8990137": {
    "zipcode": "8990137",
    "prefectureCode": "46",
    "prefectureNumber": 46,
    "prefecture": "鹿児島県",
    "city": "出水市",
    "town": "今釜町"
  },
  "8990138": {
    "zipcode": "8990138",
    "prefectureCode": "46",
    "prefectureNumber": 46,
    "prefecture": "鹿児島県",
    "city": "出水市",
    "town": "住吉町"
  },
  "8990200": {
    "zipcode": "8990200",
    "prefectureCode": "46",
    "prefectureNumber": 46,
    "prefecture": "鹿児島県",
    "city": "出水市",
    "town": "以下に掲載がない場合"
  },
  "8990201": {
    "zipcode": "8990201",
    "prefectureCode": "46",
    "prefectureNumber": 46,
    "prefecture": "鹿児島県",
    "city": "出水市",
    "town": "緑町"
  },
  "8990202": {
    "zipcode": "8990202",
    "prefectureCode": "46",
    "prefectureNumber": 46,
    "prefecture": "鹿児島県",
    "city": "出水市",
    "town": "昭和町"
  },
  "8990203": {
    "zipcode": "8990203",
    "prefectureCode": "46",
    "prefectureNumber": 46,
    "prefecture": "鹿児島県",
    "city": "出水市",
    "town": "上鯖渕"
  },
  "8990204": {
    "zipcode": "8990204",
    "prefectureCode": "46",
    "prefectureNumber": 46,
    "prefecture": "鹿児島県",
    "city": "出水市",
    "town": "麓町"
  },
  "8990205": {
    "zipcode": "8990205",
    "prefectureCode": "46",
    "prefectureNumber": 46,
    "prefecture": "鹿児島県",
    "city": "出水市",
    "town": "本町"
  },
  "8990206": {
    "zipcode": "8990206",
    "prefectureCode": "46",
    "prefectureNumber": 46,
    "prefecture": "鹿児島県",
    "city": "出水市",
    "town": "向江町"
  },
  "8990207": {
    "zipcode": "8990207",
    "prefectureCode": "46",
    "prefectureNumber": 46,
    "prefecture": "鹿児島県",
    "city": "出水市",
    "town": "中央町"
  },
  "8990208": {
    "zipcode": "8990208",
    "prefectureCode": "46",
    "prefectureNumber": 46,
    "prefecture": "鹿児島県",
    "city": "出水市",
    "town": "文化町"
  },
  "8990211": {
    "zipcode": "8990211",
    "prefectureCode": "46",
    "prefectureNumber": 46,
    "prefecture": "鹿児島県",
    "city": "出水市",
    "town": "知識町"
  },
  "8990212": {
    "zipcode": "8990212",
    "prefectureCode": "46",
    "prefectureNumber": 46,
    "prefecture": "鹿児島県",
    "city": "出水市",
    "town": "上知識町"
  },
  "8990213": {
    "zipcode": "8990213",
    "prefectureCode": "46",
    "prefectureNumber": 46,
    "prefecture": "鹿児島県",
    "city": "出水市",
    "town": "西出水町"
  },
  "8990214": {
    "zipcode": "8990214",
    "prefectureCode": "46",
    "prefectureNumber": 46,
    "prefecture": "鹿児島県",
    "city": "出水市",
    "town": "五万石町"
  },
  "8990215": {
    "zipcode": "8990215",
    "prefectureCode": "46",
    "prefectureNumber": 46,
    "prefecture": "鹿児島県",
    "city": "出水市",
    "town": "武本"
  },
  "8990216": {
    "zipcode": "8990216",
    "prefectureCode": "46",
    "prefectureNumber": 46,
    "prefecture": "鹿児島県",
    "city": "出水市",
    "town": "大野原町"
  },
  "8990217": {
    "zipcode": "8990217",
    "prefectureCode": "46",
    "prefectureNumber": 46,
    "prefecture": "鹿児島県",
    "city": "出水市",
    "town": "平和町"
  },
  "8990341": {
    "zipcode": "8990341",
    "prefectureCode": "46",
    "prefectureNumber": 46,
    "prefecture": "鹿児島県",
    "city": "出水市",
    "town": "上大川内"
  },
  "8990342": {
    "zipcode": "8990342",
    "prefectureCode": "46",
    "prefectureNumber": 46,
    "prefecture": "鹿児島県",
    "city": "出水市",
    "town": "下大川内"
  },
  "8990401": {
    "zipcode": "8990401",
    "prefectureCode": "46",
    "prefectureNumber": 46,
    "prefecture": "鹿児島県",
    "city": "出水市",
    "town": "高尾野町大久保"
  },
  "8990402": {
    "zipcode": "8990402",
    "prefectureCode": "46",
    "prefectureNumber": 46,
    "prefecture": "鹿児島県",
    "city": "出水市",
    "town": "高尾野町柴引"
  },
  "8990403": {
    "zipcode": "8990403",
    "prefectureCode": "46",
    "prefectureNumber": 46,
    "prefecture": "鹿児島県",
    "city": "出水市",
    "town": "高尾野町唐笠木"
  },
  "8990404": {
    "zipcode": "8990404",
    "prefectureCode": "46",
    "prefectureNumber": 46,
    "prefecture": "鹿児島県",
    "city": "出水市",
    "town": "高尾野町下高尾野"
  },
  "8990405": {
    "zipcode": "8990405",
    "prefectureCode": "46",
    "prefectureNumber": 46,
    "prefecture": "鹿児島県",
    "city": "出水市",
    "town": "高尾野町下水流"
  },
  "8990406": {
    "zipcode": "8990406",
    "prefectureCode": "46",
    "prefectureNumber": 46,
    "prefecture": "鹿児島県",
    "city": "出水市",
    "town": "高尾野町上水流"
  },
  "8990407": {
    "zipcode": "8990407",
    "prefectureCode": "46",
    "prefectureNumber": 46,
    "prefecture": "鹿児島県",
    "city": "出水市",
    "town": "高尾野町江内"
  },
  "8990435": {
    "zipcode": "8990435",
    "prefectureCode": "46",
    "prefectureNumber": 46,
    "prefecture": "鹿児島県",
    "city": "出水市",
    "town": "荘"
  },
  "8990501": {
    "zipcode": "8990501",
    "prefectureCode": "46",
    "prefectureNumber": 46,
    "prefecture": "鹿児島県",
    "city": "出水市",
    "town": "野田町上名"
  },
  "8990502": {
    "zipcode": "8990502",
    "prefectureCode": "46",
    "prefectureNumber": 46,
    "prefecture": "鹿児島県",
    "city": "出水市",
    "town": "野田町下名"
  },
  "8991131": {
    "zipcode": "8991131",
    "prefectureCode": "46",
    "prefectureNumber": 46,
    "prefecture": "鹿児島県",
    "city": "阿久根市",
    "town": "脇本"
  },
  "8991211": {
    "zipcode": "8991211",
    "prefectureCode": "46",
    "prefectureNumber": 46,
    "prefecture": "鹿児島県",
    "city": "出水郡長島町",
    "town": "山門野"
  },
  "8991212": {
    "zipcode": "8991212",
    "prefectureCode": "46",
    "prefectureNumber": 46,
    "prefecture": "鹿児島県",
    "city": "出水郡長島町",
    "town": "川床"
  },
  "8991301": {
    "zipcode": "8991301",
    "prefectureCode": "46",
    "prefectureNumber": 46,
    "prefecture": "鹿児島県",
    "city": "出水郡長島町",
    "town": "蔵之元"
  },
  "8991302": {
    "zipcode": "8991302",
    "prefectureCode": "46",
    "prefectureNumber": 46,
    "prefecture": "鹿児島県",
    "city": "出水郡長島町",
    "town": "平尾"
  },
  "8991303": {
    "zipcode": "8991303",
    "prefectureCode": "46",
    "prefectureNumber": 46,
    "prefecture": "鹿児島県",
    "city": "出水郡長島町",
    "town": "指江"
  },
  "8991304": {
    "zipcode": "8991304",
    "prefectureCode": "46",
    "prefectureNumber": 46,
    "prefecture": "鹿児島県",
    "city": "出水郡長島町",
    "town": "城川内"
  },
  "8991321": {
    "zipcode": "8991321",
    "prefectureCode": "46",
    "prefectureNumber": 46,
    "prefecture": "鹿児島県",
    "city": "出水郡長島町",
    "town": "下山門野"
  },
  "8991400": {
    "zipcode": "8991400",
    "prefectureCode": "46",
    "prefectureNumber": 46,
    "prefecture": "鹿児島県",
    "city": "出水郡長島町",
    "town": "以下に掲載がない場合"
  },
  "8991401": {
    "zipcode": "8991401",
    "prefectureCode": "46",
    "prefectureNumber": 46,
    "prefecture": "鹿児島県",
    "city": "出水郡長島町",
    "town": "鷹巣"
  },
  "8991402": {
    "zipcode": "8991402",
    "prefectureCode": "46",
    "prefectureNumber": 46,
    "prefecture": "鹿児島県",
    "city": "出水郡長島町",
    "town": "浦底"
  },
  "8991403": {
    "zipcode": "8991403",
    "prefectureCode": "46",
    "prefectureNumber": 46,
    "prefecture": "鹿児島県",
    "city": "出水郡長島町",
    "town": "諸浦"
  },
  "8991501": {
    "zipcode": "8991501",
    "prefectureCode": "46",
    "prefectureNumber": 46,
    "prefecture": "鹿児島県",
    "city": "出水郡長島町",
    "town": "獅子島"
  },
  "8991600": {
    "zipcode": "8991600",
    "prefectureCode": "46",
    "prefectureNumber": 46,
    "prefecture": "鹿児島県",
    "city": "阿久根市",
    "town": "以下に掲載がない場合"
  },
  "8991601": {
    "zipcode": "8991601",
    "prefectureCode": "46",
    "prefectureNumber": 46,
    "prefecture": "鹿児島県",
    "city": "阿久根市",
    "town": "折口"
  },
  "8991602": {
    "zipcode": "8991602",
    "prefectureCode": "46",
    "prefectureNumber": 46,
    "prefecture": "鹿児島県",
    "city": "阿久根市",
    "town": "多田"
  },
  "8991603": {
    "zipcode": "8991603",
    "prefectureCode": "46",
    "prefectureNumber": 46,
    "prefecture": "鹿児島県",
    "city": "阿久根市",
    "town": "鶴川内"
  },
  "8991604": {
    "zipcode": "8991604",
    "prefectureCode": "46",
    "prefectureNumber": 46,
    "prefecture": "鹿児島県",
    "city": "阿久根市",
    "town": "山下"
  },
  "8991611": {
    "zipcode": "8991611",
    "prefectureCode": "46",
    "prefectureNumber": 46,
    "prefecture": "鹿児島県",
    "city": "阿久根市",
    "town": "赤瀬川"
  },
  "8991612": {
    "zipcode": "8991612",
    "prefectureCode": "46",
    "prefectureNumber": 46,
    "prefecture": "鹿児島県",
    "city": "阿久根市",
    "town": "丸尾町"
  },
  "8991613": {
    "zipcode": "8991613",
    "prefectureCode": "46",
    "prefectureNumber": 46,
    "prefecture": "鹿児島県",
    "city": "阿久根市",
    "town": "新町"
  },
  "8991614": {
    "zipcode": "8991614",
    "prefectureCode": "46",
    "prefectureNumber": 46,
    "prefecture": "鹿児島県",
    "city": "阿久根市",
    "town": "晴海町"
  },
  "8991615": {
    "zipcode": "8991615",
    "prefectureCode": "46",
    "prefectureNumber": 46,
    "prefecture": "鹿児島県",
    "city": "阿久根市",
    "town": "琴平町"
  },
  "8991616": {
    "zipcode": "8991616",
    "prefectureCode": "46",
    "prefectureNumber": 46,
    "prefecture": "鹿児島県",
    "city": "阿久根市",
    "town": "栄町"
  },
  "8991617": {
    "zipcode": "8991617",
    "prefectureCode": "46",
    "prefectureNumber": 46,
    "prefecture": "鹿児島県",
    "city": "阿久根市",
    "town": "浜町"
  },
  "8991621": {
    "zipcode": "8991621",
    "prefectureCode": "46",
    "prefectureNumber": 46,
    "prefecture": "鹿児島県",
    "city": "阿久根市",
    "town": "本町"
  },
  "8991622": {
    "zipcode": "8991622",
    "prefectureCode": "46",
    "prefectureNumber": 46,
    "prefecture": "鹿児島県",
    "city": "阿久根市",
    "town": "高松町"
  },
  "8991623": {
    "zipcode": "8991623",
    "prefectureCode": "46",
    "prefectureNumber": 46,
    "prefecture": "鹿児島県",
    "city": "阿久根市",
    "town": "港町"
  },
  "8991624": {
    "zipcode": "8991624",
    "prefectureCode": "46",
    "prefectureNumber": 46,
    "prefecture": "鹿児島県",
    "city": "阿久根市",
    "town": "大丸町"
  },
  "8991625": {
    "zipcode": "8991625",
    "prefectureCode": "46",
    "prefectureNumber": 46,
    "prefecture": "鹿児島県",
    "city": "阿久根市",
    "town": "波留"
  },
  "8991626": {
    "zipcode": "8991626",
    "prefectureCode": "46",
    "prefectureNumber": 46,
    "prefecture": "鹿児島県",
    "city": "阿久根市",
    "town": "鶴見町"
  },
  "8991627": {
    "zipcode": "8991627",
    "prefectureCode": "46",
    "prefectureNumber": 46,
    "prefecture": "鹿児島県",
    "city": "阿久根市",
    "town": "西目"
  },
  "8991628": {
    "zipcode": "8991628",
    "prefectureCode": "46",
    "prefectureNumber": 46,
    "prefecture": "鹿児島県",
    "city": "阿久根市",
    "town": "塩鶴町"
  },
  "8991629": {
    "zipcode": "8991629",
    "prefectureCode": "46",
    "prefectureNumber": 46,
    "prefecture": "鹿児島県",
    "city": "阿久根市",
    "town": "塩浜町"
  },
  "8991741": {
    "zipcode": "8991741",
    "prefectureCode": "46",
    "prefectureNumber": 46,
    "prefecture": "鹿児島県",
    "city": "阿久根市",
    "town": "大川"
  },
  "8991801": {
    "zipcode": "8991801",
    "prefectureCode": "46",
    "prefectureNumber": 46,
    "prefecture": "鹿児島県",
    "city": "薩摩川内市",
    "town": "西方町"
  },
  "8991802": {
    "zipcode": "8991802",
    "prefectureCode": "46",
    "prefectureNumber": 46,
    "prefecture": "鹿児島県",
    "city": "薩摩川内市",
    "town": "湯田町"
  },
  "8991921": {
    "zipcode": "8991921",
    "prefectureCode": "46",
    "prefectureNumber": 46,
    "prefecture": "鹿児島県",
    "city": "薩摩川内市",
    "town": "水引町"
  },
  "8991922": {
    "zipcode": "8991922",
    "prefectureCode": "46",
    "prefectureNumber": 46,
    "prefecture": "鹿児島県",
    "city": "薩摩川内市",
    "town": "小倉町"
  },
  "8991923": {
    "zipcode": "8991923",
    "prefectureCode": "46",
    "prefectureNumber": 46,
    "prefecture": "鹿児島県",
    "city": "薩摩川内市",
    "town": "湯島町"
  },
  "8991924": {
    "zipcode": "8991924",
    "prefectureCode": "46",
    "prefectureNumber": 46,
    "prefecture": "鹿児島県",
    "city": "薩摩川内市",
    "town": "港町"
  },
  "8991925": {
    "zipcode": "8991925",
    "prefectureCode": "46",
    "prefectureNumber": 46,
    "prefecture": "鹿児島県",
    "city": "薩摩川内市",
    "town": "網津町"
  },
  "8991926": {
    "zipcode": "8991926",
    "prefectureCode": "46",
    "prefectureNumber": 46,
    "prefecture": "鹿児島県",
    "city": "薩摩川内市",
    "town": "サーキュラーパーク"
  },
  "8992101": {
    "zipcode": "8992101",
    "prefectureCode": "46",
    "prefectureNumber": 46,
    "prefecture": "鹿児島県",
    "city": "いちき串木野市",
    "town": "湊町"
  },
  "8992102": {
    "zipcode": "8992102",
    "prefectureCode": "46",
    "prefectureNumber": 46,
    "prefecture": "鹿児島県",
    "city": "いちき串木野市",
    "town": "川上"
  },
  "8992103": {
    "zipcode": "8992103",
    "prefectureCode": "46",
    "prefectureNumber": 46,
    "prefecture": "鹿児島県",
    "city": "いちき串木野市",
    "town": "大里"
  },
  "8992201": {
    "zipcode": "8992201",
    "prefectureCode": "46",
    "prefectureNumber": 46,
    "prefecture": "鹿児島県",
    "city": "日置市",
    "town": "東市来町湯田"
  },
  "8992202": {
    "zipcode": "8992202",
    "prefectureCode": "46",
    "prefectureNumber": 46,
    "prefecture": "鹿児島県",
    "city": "日置市",
    "town": "東市来町長里"
  },
  "8992203": {
    "zipcode": "8992203",
    "prefectureCode": "46",
    "prefectureNumber": 46,
    "prefecture": "鹿児島県",
    "city": "日置市",
    "town": "東市来町伊作田"
  },
  "8992204": {
    "zipcode": "8992204",
    "prefectureCode": "46",
    "prefectureNumber": 46,
    "prefecture": "鹿児島県",
    "city": "日置市",
    "town": "東市来町神之川"
  },
  "8992311": {
    "zipcode": "8992311",
    "prefectureCode": "46",
    "prefectureNumber": 46,
    "prefecture": "鹿児島県",
    "city": "日置市",
    "town": "東市来町養母"
  },
  "8992421": {
    "zipcode": "8992421",
    "prefectureCode": "46",
    "prefectureNumber": 46,
    "prefecture": "鹿児島県",
    "city": "日置市",
    "town": "日吉町神之川"
  },
  "8992431": {
    "zipcode": "8992431",
    "prefectureCode": "46",
    "prefectureNumber": 46,
    "prefecture": "鹿児島県",
    "city": "日置市",
    "town": "東市来町美山"
  },
  "8992432": {
    "zipcode": "8992432",
    "prefectureCode": "46",
    "prefectureNumber": 46,
    "prefecture": "鹿児島県",
    "city": "日置市",
    "town": "東市来町寺脇"
  },
  "8992433": {
    "zipcode": "8992433",
    "prefectureCode": "46",
    "prefectureNumber": 46,
    "prefecture": "鹿児島県",
    "city": "日置市",
    "town": "東市来町宮田"
  },
  "8992434": {
    "zipcode": "8992434",
    "prefectureCode": "46",
    "prefectureNumber": 46,
    "prefecture": "鹿児島県",
    "city": "日置市",
    "town": "東市来町南神之川"
  },
  "8992441": {
    "zipcode": "8992441",
    "prefectureCode": "46",
    "prefectureNumber": 46,
    "prefecture": "鹿児島県",
    "city": "日置市",
    "town": "伊集院町桑畑"
  },
  "8992442": {
    "zipcode": "8992442",
    "prefectureCode": "46",
    "prefectureNumber": 46,
    "prefecture": "鹿児島県",
    "city": "日置市",
    "town": "伊集院町野田"
  },
  "8992443": {
    "zipcode": "8992443",
    "prefectureCode": "46",
    "prefectureNumber": 46,
    "prefecture": "鹿児島県",
    "city": "日置市",
    "town": "伊集院町寺脇"
  },
  "8992500": {
    "zipcode": "8992500",
    "prefectureCode": "46",
    "prefectureNumber": 46,
    "prefecture": "鹿児島県",
    "city": "日置市",
    "town": "以下に掲載がない場合"
  },
  "8992501": {
    "zipcode": "8992501",
    "prefectureCode": "46",
    "prefectureNumber": 46,
    "prefecture": "鹿児島県",
    "city": "日置市",
    "town": "伊集院町下谷口"
  },
  "8992502": {
    "zipcode": "8992502",
    "prefectureCode": "46",
    "prefectureNumber": 46,
    "prefecture": "鹿児島県",
    "city": "日置市",
    "town": "伊集院町徳重"
  },
  "8992503": {
    "zipcode": "8992503",
    "prefectureCode": "46",
    "prefectureNumber": 46,
    "prefecture": "鹿児島県",
    "city": "日置市",
    "town": "伊集院町妙円寺"
  },
  "8992504": {
    "zipcode": "8992504",
    "prefectureCode": "46",
    "prefectureNumber": 46,
    "prefecture": "鹿児島県",
    "city": "日置市",
    "town": "伊集院町郡"
  },
  "8992505": {
    "zipcode": "8992505",
    "prefectureCode": "46",
    "prefectureNumber": 46,
    "prefecture": "鹿児島県",
    "city": "日置市",
    "town": "伊集院町猪鹿倉"
  },
  "8992506": {
    "zipcode": "8992506",
    "prefectureCode": "46",
    "prefectureNumber": 46,
    "prefecture": "鹿児島県",
    "city": "日置市",
    "town": "伊集院町清藤"
  },
  "8992511": {
    "zipcode": "8992511",
    "prefectureCode": "46",
    "prefectureNumber": 46,
    "prefecture": "鹿児島県",
    "city": "日置市",
    "town": "伊集院町下神殿"
  },
  "8992512": {
    "zipcode": "8992512",
    "prefectureCode": "46",
    "prefectureNumber": 46,
    "prefecture": "鹿児島県",
    "city": "日置市",
    "town": "伊集院町上神殿"
  },
  "8992513": {
    "zipcode": "8992513",
    "prefectureCode": "46",
    "prefectureNumber": 46,
    "prefecture": "鹿児島県",
    "city": "日置市",
    "town": "伊集院町麦生田"
  },
  "8992514": {
    "zipcode": "8992514",
    "prefectureCode": "46",
    "prefectureNumber": 46,
    "prefecture": "鹿児島県",
    "city": "日置市",
    "town": "伊集院町中川"
  },
  "8992515": {
    "zipcode": "8992515",
    "prefectureCode": "46",
    "prefectureNumber": 46,
    "prefecture": "鹿児島県",
    "city": "日置市",
    "town": "伊集院町竹之山"
  },
  "8992516": {
    "zipcode": "8992516",
    "prefectureCode": "46",
    "prefectureNumber": 46,
    "prefecture": "鹿児島県",
    "city": "日置市",
    "town": "伊集院町土橋"
  },
  "8992521": {
    "zipcode": "8992521",
    "prefectureCode": "46",
    "prefectureNumber": 46,
    "prefecture": "鹿児島県",
    "city": "日置市",
    "town": "伊集院町大田（その他）"
  },
  "8992522": {
    "zipcode": "8992522",
    "prefectureCode": "46",
    "prefectureNumber": 46,
    "prefecture": "鹿児島県",
    "city": "日置市",
    "town": "伊集院町飯牟礼"
  },
  "8992523": {
    "zipcode": "8992523",
    "prefectureCode": "46",
    "prefectureNumber": 46,
    "prefecture": "鹿児島県",
    "city": "日置市",
    "town": "伊集院町古城"
  },
  "8992524": {
    "zipcode": "8992524",
    "prefectureCode": "46",
    "prefectureNumber": 46,
    "prefecture": "鹿児島県",
    "city": "日置市",
    "town": "伊集院町恋之原"
  },
  "8992531": {
    "zipcode": "8992531",
    "prefectureCode": "46",
    "prefectureNumber": 46,
    "prefecture": "鹿児島県",
    "city": "鹿児島市",
    "town": "小山田町（５１９９、５２００、５２０５番地）"
  },
  "8992701": {
    "zipcode": "8992701",
    "prefectureCode": "46",
    "prefectureNumber": 46,
    "prefecture": "鹿児島県",
    "city": "鹿児島市",
    "town": "石谷町"
  },
  "8992702": {
    "zipcode": "8992702",
    "prefectureCode": "46",
    "prefectureNumber": 46,
    "prefecture": "鹿児島県",
    "city": "鹿児島市",
    "town": "福山町"
  },
  "8992703": {
    "zipcode": "8992703",
    "prefectureCode": "46",
    "prefectureNumber": 46,
    "prefecture": "鹿児島県",
    "city": "鹿児島市",
    "town": "上谷口町"
  },
  "8992704": {
    "zipcode": "8992704",
    "prefectureCode": "46",
    "prefectureNumber": 46,
    "prefecture": "鹿児島県",
    "city": "鹿児島市",
    "town": "春山町"
  },
  "8992705": {
    "zipcode": "8992705",
    "prefectureCode": "46",
    "prefectureNumber": 46,
    "prefecture": "鹿児島県",
    "city": "鹿児島市",
    "town": "直木町"
  },
  "8992706": {
    "zipcode": "8992706",
    "prefectureCode": "46",
    "prefectureNumber": 46,
    "prefecture": "鹿児島県",
    "city": "鹿児島市",
    "town": "入佐町（その他）"
  },
  "8992707": {
    "zipcode": "8992707",
    "prefectureCode": "46",
    "prefectureNumber": 46,
    "prefecture": "鹿児島県",
    "city": "鹿児島市",
    "town": "松陽台町"
  },
  "8992708": {
    "zipcode": "8992708",
    "prefectureCode": "46",
    "prefectureNumber": 46,
    "prefecture": "鹿児島県",
    "city": "鹿児島市",
    "town": "四元町"
  },
  "8992709": {
    "zipcode": "8992709",
    "prefectureCode": "46",
    "prefectureNumber": 46,
    "prefecture": "鹿児島県",
    "city": "鹿児島市",
    "town": "平田町"
  },
  "8993101": {
    "zipcode": "8993101",
    "prefectureCode": "46",
    "prefectureNumber": 46,
    "prefecture": "鹿児島県",
    "city": "日置市",
    "town": "日吉町日置"
  },
  "8993102": {
    "zipcode": "8993102",
    "prefectureCode": "46",
    "prefectureNumber": 46,
    "prefecture": "鹿児島県",
    "city": "日置市",
    "town": "日吉町山田"
  },
  "8993103": {
    "zipcode": "8993103",
    "prefectureCode": "46",
    "prefectureNumber": 46,
    "prefecture": "鹿児島県",
    "city": "日置市",
    "town": "日吉町吉利（５６１４、５６１９、５６４７、５６５３番地）"
  },
  "8993121": {
    "zipcode": "8993121",
    "prefectureCode": "46",
    "prefectureNumber": 46,
    "prefecture": "鹿児島県",
    "city": "日置市",
    "town": "伊集院町大田（久木野々石塚）"
  },
  "8993203": {
    "zipcode": "8993203",
    "prefectureCode": "46",
    "prefectureNumber": 46,
    "prefecture": "鹿児島県",
    "city": "日置市",
    "town": "日吉町吉利（その他）"
  },
  "8993206": {
    "zipcode": "8993206",
    "prefectureCode": "46",
    "prefectureNumber": 46,
    "prefecture": "鹿児島県",
    "city": "鹿児島市",
    "town": "入佐町（１７３８、１７３９番地）"
  },
  "8993221": {
    "zipcode": "8993221",
    "prefectureCode": "46",
    "prefectureNumber": 46,
    "prefecture": "鹿児島県",
    "city": "日置市",
    "town": "吹上町永吉"
  },
  "8993301": {
    "zipcode": "8993301",
    "prefectureCode": "46",
    "prefectureNumber": 46,
    "prefecture": "鹿児島県",
    "city": "日置市",
    "town": "吹上町中原"
  },
  "8993302": {
    "zipcode": "8993302",
    "prefectureCode": "46",
    "prefectureNumber": 46,
    "prefecture": "鹿児島県",
    "city": "日置市",
    "town": "吹上町中之里"
  },
  "8993303": {
    "zipcode": "8993303",
    "prefectureCode": "46",
    "prefectureNumber": 46,
    "prefecture": "鹿児島県",
    "city": "日置市",
    "town": "吹上町湯之浦"
  },
  "8993304": {
    "zipcode": "8993304",
    "prefectureCode": "46",
    "prefectureNumber": 46,
    "prefecture": "鹿児島県",
    "city": "日置市",
    "town": "吹上町入来"
  },
  "8993305": {
    "zipcode": "8993305",
    "prefectureCode": "46",
    "prefectureNumber": 46,
    "prefecture": "鹿児島県",
    "city": "日置市",
    "town": "吹上町今田"
  },
  "8993306": {
    "zipcode": "8993306",
    "prefectureCode": "46",
    "prefectureNumber": 46,
    "prefecture": "鹿児島県",
    "city": "日置市",
    "town": "吹上町小野"
  },
  "8993307": {
    "zipcode": "8993307",
    "prefectureCode": "46",
    "prefectureNumber": 46,
    "prefecture": "鹿児島県",
    "city": "日置市",
    "town": "吹上町花熟里"
  },
  "8993308": {
    "zipcode": "8993308",
    "prefectureCode": "46",
    "prefectureNumber": 46,
    "prefecture": "鹿児島県",
    "city": "日置市",
    "town": "吹上町田尻"
  },
  "8993309": {
    "zipcode": "8993309",
    "prefectureCode": "46",
    "prefectureNumber": 46,
    "prefecture": "鹿児島県",
    "city": "日置市",
    "town": "吹上町与倉"
  },
  "8993311": {
    "zipcode": "8993311",
    "prefectureCode": "46",
    "prefectureNumber": 46,
    "prefecture": "鹿児島県",
    "city": "日置市",
    "town": "吹上町和田"
  },
  "8993401": {
    "zipcode": "8993401",
    "prefectureCode": "46",
    "prefectureNumber": 46,
    "prefecture": "鹿児島県",
    "city": "南さつま市",
    "town": "金峰町大野"
  },
  "8993402": {
    "zipcode": "8993402",
    "prefectureCode": "46",
    "prefectureNumber": 46,
    "prefecture": "鹿児島県",
    "city": "南さつま市",
    "town": "金峰町大坂"
  },
  "8993403": {
    "zipcode": "8993403",
    "prefectureCode": "46",
    "prefectureNumber": 46,
    "prefecture": "鹿児島県",
    "city": "南さつま市",
    "town": "金峰町尾下"
  },
  "8993404": {
    "zipcode": "8993404",
    "prefectureCode": "46",
    "prefectureNumber": 46,
    "prefecture": "鹿児島県",
    "city": "南さつま市",
    "town": "金峰町高橋"
  },
  "8993405": {
    "zipcode": "8993405",
    "prefectureCode": "46",
    "prefectureNumber": 46,
    "prefecture": "鹿児島県",
    "city": "南さつま市",
    "town": "金峰町池辺"
  },
  "8993511": {
    "zipcode": "8993511",
    "prefectureCode": "46",
    "prefectureNumber": 46,
    "prefecture": "鹿児島県",
    "city": "南さつま市",
    "town": "金峰町宮崎"
  },
  "8993512": {
    "zipcode": "8993512",
    "prefectureCode": "46",
    "prefectureNumber": 46,
    "prefecture": "鹿児島県",
    "city": "南さつま市",
    "town": "金峰町花瀬"
  },
  "8993513": {
    "zipcode": "8993513",
    "prefectureCode": "46",
    "prefectureNumber": 46,
    "prefecture": "鹿児島県",
    "city": "南さつま市",
    "town": "金峰町白川"
  },
  "8993514": {
    "zipcode": "8993514",
    "prefectureCode": "46",
    "prefectureNumber": 46,
    "prefecture": "鹿児島県",
    "city": "南さつま市",
    "town": "金峰町新山"
  },
  "8993515": {
    "zipcode": "8993515",
    "prefectureCode": "46",
    "prefectureNumber": 46,
    "prefecture": "鹿児島県",
    "city": "南さつま市",
    "town": "金峰町中津野"
  },
  "8993516": {
    "zipcode": "8993516",
    "prefectureCode": "46",
    "prefectureNumber": 46,
    "prefecture": "鹿児島県",
    "city": "南さつま市",
    "town": "金峰町浦之名"
  },
  "8993611": {
    "zipcode": "8993611",
    "prefectureCode": "46",
    "prefectureNumber": 46,
    "prefecture": "鹿児島県",
    "city": "南さつま市",
    "town": "加世田津貫"
  },
  "8994101": {
    "zipcode": "8994101",
    "prefectureCode": "46",
    "prefectureNumber": 46,
    "prefecture": "鹿児島県",
    "city": "曽於市",
    "town": "財部町南俣"
  },
  "8994102": {
    "zipcode": "8994102",
    "prefectureCode": "46",
    "prefectureNumber": 46,
    "prefecture": "鹿児島県",
    "city": "曽於市",
    "town": "財部町北俣"
  },
  "8994103": {
    "zipcode": "8994103",
    "prefectureCode": "46",
    "prefectureNumber": 46,
    "prefecture": "鹿児島県",
    "city": "曽於市",
    "town": "財部町下財部"
  },
  "8994201": {
    "zipcode": "8994201",
    "prefectureCode": "46",
    "prefectureNumber": 46,
    "prefecture": "鹿児島県",
    "city": "霧島市",
    "town": "霧島田口"
  },
  "8994202": {
    "zipcode": "8994202",
    "prefectureCode": "46",
    "prefectureNumber": 46,
    "prefecture": "鹿児島県",
    "city": "霧島市",
    "town": "霧島永水"
  },
  "8994203": {
    "zipcode": "8994203",
    "prefectureCode": "46",
    "prefectureNumber": 46,
    "prefecture": "鹿児島県",
    "city": "霧島市",
    "town": "霧島大窪"
  },
  "8994204": {
    "zipcode": "8994204",
    "prefectureCode": "46",
    "prefectureNumber": 46,
    "prefecture": "鹿児島県",
    "city": "霧島市",
    "town": "霧島川北"
  },
  "8994300": {
    "zipcode": "8994300",
    "prefectureCode": "46",
    "prefectureNumber": 46,
    "prefecture": "鹿児島県",
    "city": "霧島市",
    "town": "以下に掲載がない場合"
  },
  "8994301": {
    "zipcode": "8994301",
    "prefectureCode": "46",
    "prefectureNumber": 46,
    "prefecture": "鹿児島県",
    "city": "霧島市",
    "town": "国分重久"
  },
  "8994302": {
    "zipcode": "8994302",
    "prefectureCode": "46",
    "prefectureNumber": 46,
    "prefecture": "鹿児島県",
    "city": "霧島市",
    "town": "国分台明寺"
  },
  "8994303": {
    "zipcode": "8994303",
    "prefectureCode": "46",
    "prefectureNumber": 46,
    "prefecture": "鹿児島県",
    "city": "霧島市",
    "town": "国分川原"
  },
  "8994304": {
    "zipcode": "8994304",
    "prefectureCode": "46",
    "prefectureNumber": 46,
    "prefecture": "鹿児島県",
    "city": "霧島市",
    "town": "国分清水"
  },
  "8994305": {
    "zipcode": "8994305",
    "prefectureCode": "46",
    "prefectureNumber": 46,
    "prefecture": "鹿児島県",
    "city": "霧島市",
    "town": "国分郡田"
  },
  "8994311": {
    "zipcode": "8994311",
    "prefectureCode": "46",
    "prefectureNumber": 46,
    "prefecture": "鹿児島県",
    "city": "霧島市",
    "town": "国分名波町"
  },
  "8994312": {
    "zipcode": "8994312",
    "prefectureCode": "46",
    "prefectureNumber": 46,
    "prefecture": "鹿児島県",
    "city": "霧島市",
    "town": "国分山下町"
  },
  "8994313": {
    "zipcode": "8994313",
    "prefectureCode": "46",
    "prefectureNumber": 46,
    "prefecture": "鹿児島県",
    "city": "霧島市",
    "town": "国分上井"
  },
  "8994314": {
    "zipcode": "8994314",
    "prefectureCode": "46",
    "prefectureNumber": 46,
    "prefecture": "鹿児島県",
    "city": "霧島市",
    "town": "国分川内"
  },
  "8994315": {
    "zipcode": "8994315",
    "prefectureCode": "46",
    "prefectureNumber": 46,
    "prefecture": "鹿児島県",
    "city": "霧島市",
    "town": "国分湊"
  },
  "8994316": {
    "zipcode": "8994316",
    "prefectureCode": "46",
    "prefectureNumber": 46,
    "prefecture": "鹿児島県",
    "city": "霧島市",
    "town": "国分上小川"
  },
  "8994317": {
    "zipcode": "8994317",
    "prefectureCode": "46",
    "prefectureNumber": 46,
    "prefecture": "鹿児島県",
    "city": "霧島市",
    "town": "国分上野原テクノパーク"
  },
  "8994318": {
    "zipcode": "8994318",
    "prefectureCode": "46",
    "prefectureNumber": 46,
    "prefecture": "鹿児島県",
    "city": "霧島市",
    "town": "国分上野原縄文の森"
  },
  "8994321": {
    "zipcode": "8994321",
    "prefectureCode": "46",
    "prefectureNumber": 46,
    "prefecture": "鹿児島県",
    "city": "霧島市",
    "town": "国分広瀬"
  },
  "8994322": {
    "zipcode": "8994322",
    "prefectureCode": "46",
    "prefectureNumber": 46,
    "prefecture": "鹿児島県",
    "city": "霧島市",
    "town": "国分福島"
  },
  "8994323": {
    "zipcode": "8994323",
    "prefectureCode": "46",
    "prefectureNumber": 46,
    "prefecture": "鹿児島県",
    "city": "霧島市",
    "town": "国分松木"
  },
  "8994324": {
    "zipcode": "8994324",
    "prefectureCode": "46",
    "prefectureNumber": 46,
    "prefecture": "鹿児島県",
    "city": "霧島市",
    "town": "国分松木東"
  },
  "8994325": {
    "zipcode": "8994325",
    "prefectureCode": "46",
    "prefectureNumber": 46,
    "prefecture": "鹿児島県",
    "city": "霧島市",
    "town": "国分松木町"
  },
  "8994331": {
    "zipcode": "8994331",
    "prefectureCode": "46",
    "prefectureNumber": 46,
    "prefecture": "鹿児島県",
    "city": "霧島市",
    "town": "国分城山町"
  },
  "8994332": {
    "zipcode": "8994332",
    "prefectureCode": "46",
    "prefectureNumber": 46,
    "prefecture": "鹿児島県",
    "city": "霧島市",
    "town": "国分中央"
  },
  "8994341": {
    "zipcode": "8994341",
    "prefectureCode": "46",
    "prefectureNumber": 46,
    "prefecture": "鹿児島県",
    "city": "霧島市",
    "town": "国分野口東"
  },
  "8994342": {
    "zipcode": "8994342",
    "prefectureCode": "46",
    "prefectureNumber": 46,
    "prefecture": "鹿児島県",
    "city": "霧島市",
    "town": "国分野口町"
  },
  "8994343": {
    "zipcode": "8994343",
    "prefectureCode": "46",
    "prefectureNumber": 46,
    "prefecture": "鹿児島県",
    "city": "霧島市",
    "town": "国分野口西"
  },
  "8994344": {
    "zipcode": "8994344",
    "prefectureCode": "46",
    "prefectureNumber": 46,
    "prefecture": "鹿児島県",
    "city": "霧島市",
    "town": "国分野口北"
  },
  "8994345": {
    "zipcode": "8994345",
    "prefectureCode": "46",
    "prefectureNumber": 46,
    "prefecture": "鹿児島県",
    "city": "霧島市",
    "town": "国分府中"
  },
  "8994346": {
    "zipcode": "8994346",
    "prefectureCode": "46",
    "prefectureNumber": 46,
    "prefecture": "鹿児島県",
    "city": "霧島市",
    "town": "国分府中町"
  },
  "8994351": {
    "zipcode": "8994351",
    "prefectureCode": "46",
    "prefectureNumber": 46,
    "prefecture": "鹿児島県",
    "city": "霧島市",
    "town": "国分新町"
  },
  "8994352": {
    "zipcode": "8994352",
    "prefectureCode": "46",
    "prefectureNumber": 46,
    "prefecture": "鹿児島県",
    "city": "霧島市",
    "town": "国分向花"
  },
  "8994353": {
    "zipcode": "8994353",
    "prefectureCode": "46",
    "prefectureNumber": 46,
    "prefecture": "鹿児島県",
    "city": "霧島市",
    "town": "国分向花町"
  },
  "8994354": {
    "zipcode": "8994354",
    "prefectureCode": "46",
    "prefectureNumber": 46,
    "prefecture": "鹿児島県",
    "city": "霧島市",
    "town": "国分姫城"
  },
  "8994355": {
    "zipcode": "8994355",
    "prefectureCode": "46",
    "prefectureNumber": 46,
    "prefecture": "鹿児島県",
    "city": "霧島市",
    "town": "国分剣之宇都町"
  },
  "8994356": {
    "zipcode": "8994356",
    "prefectureCode": "46",
    "prefectureNumber": 46,
    "prefecture": "鹿児島県",
    "city": "霧島市",
    "town": "国分姫城南"
  },
  "8994461": {
    "zipcode": "8994461",
    "prefectureCode": "46",
    "prefectureNumber": 46,
    "prefecture": "鹿児島県",
    "city": "霧島市",
    "town": "国分上之段"
  },
  "8994462": {
    "zipcode": "8994462",
    "prefectureCode": "46",
    "prefectureNumber": 46,
    "prefecture": "鹿児島県",
    "city": "霧島市",
    "town": "国分敷根"
  },
  "8994463": {
    "zipcode": "8994463",
    "prefectureCode": "46",
    "prefectureNumber": 46,
    "prefecture": "鹿児島県",
    "city": "霧島市",
    "town": "国分下井"
  },
  "8994501": {
    "zipcode": "8994501",
    "prefectureCode": "46",
    "prefectureNumber": 46,
    "prefecture": "鹿児島県",
    "city": "霧島市",
    "town": "福山町福山"
  },
  "8994502": {
    "zipcode": "8994502",
    "prefectureCode": "46",
    "prefectureNumber": 46,
    "prefecture": "鹿児島県",
    "city": "霧島市",
    "town": "福山町福地"
  },
  "8994503": {
    "zipcode": "8994503",
    "prefectureCode": "46",
    "prefectureNumber": 46,
    "prefecture": "鹿児島県",
    "city": "霧島市",
    "town": "福山町福沢"
  },
  "8994504": {
    "zipcode": "8994504",
    "prefectureCode": "46",
    "prefectureNumber": 46,
    "prefecture": "鹿児島県",
    "city": "霧島市",
    "town": "福山町佳例川"
  },
  "8994631": {
    "zipcode": "8994631",
    "prefectureCode": "46",
    "prefectureNumber": 46,
    "prefecture": "鹿児島県",
    "city": "垂水市",
    "town": "牛根境"
  },
  "8994632": {
    "zipcode": "8994632",
    "prefectureCode": "46",
    "prefectureNumber": 46,
    "prefecture": "鹿児島県",
    "city": "垂水市",
    "town": "牛根麓"
  },
  "8994633": {
    "zipcode": "8994633",
    "prefectureCode": "46",
    "prefectureNumber": 46,
    "prefecture": "鹿児島県",
    "city": "垂水市",
    "town": "二川"
  },
  "8995101": {
    "zipcode": "8995101",
    "prefectureCode": "46",
    "prefectureNumber": 46,
    "prefecture": "鹿児島県",
    "city": "霧島市",
    "town": "隼人町住吉"
  },
  "8995102": {
    "zipcode": "8995102",
    "prefectureCode": "46",
    "prefectureNumber": 46,
    "prefecture": "鹿児島県",
    "city": "霧島市",
    "town": "隼人町真孝"
  },
  "8995103": {
    "zipcode": "8995103",
    "prefectureCode": "46",
    "prefectureNumber": 46,
    "prefecture": "鹿児島県",
    "city": "霧島市",
    "town": "隼人町小浜"
  },
  "8995104": {
    "zipcode": "8995104",
    "prefectureCode": "46",
    "prefectureNumber": 46,
    "prefecture": "鹿児島県",
    "city": "霧島市",
    "town": "隼人町野久美田"
  },
  "8995105": {
    "zipcode": "8995105",
    "prefectureCode": "46",
    "prefectureNumber": 46,
    "prefecture": "鹿児島県",
    "city": "霧島市",
    "town": "隼人町小田"
  },
  "8995106": {
    "zipcode": "8995106",
    "prefectureCode": "46",
    "prefectureNumber": 46,
    "prefecture": "鹿児島県",
    "city": "霧島市",
    "town": "隼人町内山田"
  },
  "8995111": {
    "zipcode": "8995111",
    "prefectureCode": "46",
    "prefectureNumber": 46,
    "prefecture": "鹿児島県",
    "city": "霧島市",
    "town": "隼人町姫城"
  },
  "8995112": {
    "zipcode": "8995112",
    "prefectureCode": "46",
    "prefectureNumber": 46,
    "prefecture": "鹿児島県",
    "city": "霧島市",
    "town": "隼人町松永"
  },
  "8995113": {
    "zipcode": "8995113",
    "prefectureCode": "46",
    "prefectureNumber": 46,
    "prefecture": "鹿児島県",
    "city": "霧島市",
    "town": "隼人町嘉例川"
  },
  "8995114": {
    "zipcode": "8995114",
    "prefectureCode": "46",
    "prefectureNumber": 46,
    "prefecture": "鹿児島県",
    "city": "霧島市",
    "town": "隼人町西光寺"
  },
  "8995115": {
    "zipcode": "8995115",
    "prefectureCode": "46",
    "prefectureNumber": 46,
    "prefecture": "鹿児島県",
    "city": "霧島市",
    "town": "隼人町東郷"
  },
  "8995116": {
    "zipcode": "8995116",
    "prefectureCode": "46",
    "prefectureNumber": 46,
    "prefecture": "鹿児島県",
    "city": "霧島市",
    "town": "隼人町内"
  },
  "8995117": {
    "zipcode": "8995117",
    "prefectureCode": "46",
    "prefectureNumber": 46,
    "prefecture": "鹿児島県",
    "city": "霧島市",
    "town": "隼人町見次"
  },
  "8995118": {
    "zipcode": "8995118",
    "prefectureCode": "46",
    "prefectureNumber": 46,
    "prefecture": "鹿児島県",
    "city": "霧島市",
    "town": "隼人町朝日"
  },
  "8995121": {
    "zipcode": "8995121",
    "prefectureCode": "46",
    "prefectureNumber": 46,
    "prefecture": "鹿児島県",
    "city": "霧島市",
    "town": "隼人町神宮"
  },
  "8995201": {
    "zipcode": "8995201",
    "prefectureCode": "46",
    "prefectureNumber": 46,
    "prefecture": "鹿児島県",
    "city": "姶良市",
    "town": "加治木町西別府"
  },
  "8995202": {
    "zipcode": "8995202",
    "prefectureCode": "46",
    "prefectureNumber": 46,
    "prefecture": "鹿児島県",
    "city": "姶良市",
    "town": "加治木町辺川"
  },
  "8995203": {
    "zipcode": "8995203",
    "prefectureCode": "46",
    "prefectureNumber": 46,
    "prefecture": "鹿児島県",
    "city": "姶良市",
    "town": "加治木町小山田"
  },
  "8995204": {
    "zipcode": "8995204",
    "prefectureCode": "46",
    "prefectureNumber": 46,
    "prefecture": "鹿児島県",
    "city": "姶良市",
    "town": "加治木町日木山"
  },
  "8995211": {
    "zipcode": "8995211",
    "prefectureCode": "46",
    "prefectureNumber": 46,
    "prefecture": "鹿児島県",
    "city": "姶良市",
    "town": "加治木町新富町"
  },
  "8995212": {
    "zipcode": "8995212",
    "prefectureCode": "46",
    "prefectureNumber": 46,
    "prefecture": "鹿児島県",
    "city": "姶良市",
    "town": "加治木町諏訪町"
  },
  "8995213": {
    "zipcode": "8995213",
    "prefectureCode": "46",
    "prefectureNumber": 46,
    "prefecture": "鹿児島県",
    "city": "姶良市",
    "town": "加治木町朝日町"
  },
  "8995214": {
    "zipcode": "8995214",
    "prefectureCode": "46",
    "prefectureNumber": 46,
    "prefecture": "鹿児島県",
    "city": "姶良市",
    "town": "加治木町仮屋町"
  },
  "8995215": {
    "zipcode": "8995215",
    "prefectureCode": "46",
    "prefectureNumber": 46,
    "prefecture": "鹿児島県",
    "city": "姶良市",
    "town": "加治木町本町"
  },
  "8995221": {
    "zipcode": "8995221",
    "prefectureCode": "46",
    "prefectureNumber": 46,
    "prefecture": "鹿児島県",
    "city": "姶良市",
    "town": "加治木町港町"
  },
  "8995222": {
    "zipcode": "8995222",
    "prefectureCode": "46",
    "prefectureNumber": 46,
    "prefecture": "鹿児島県",
    "city": "姶良市",
    "town": "加治木町錦江町"
  },
  "8995223": {
    "zipcode": "8995223",
    "prefectureCode": "46",
    "prefectureNumber": 46,
    "prefecture": "鹿児島県",
    "city": "姶良市",
    "town": "加治木町新生町"
  },
  "8995231": {
    "zipcode": "8995231",
    "prefectureCode": "46",
    "prefectureNumber": 46,
    "prefecture": "鹿児島県",
    "city": "姶良市",
    "town": "加治木町反土"
  },
  "8995241": {
    "zipcode": "8995241",
    "prefectureCode": "46",
    "prefectureNumber": 46,
    "prefecture": "鹿児島県",
    "city": "姶良市",
    "town": "加治木町木田"
  },
  "8995301": {
    "zipcode": "8995301",
    "prefectureCode": "46",
    "prefectureNumber": 46,
    "prefecture": "鹿児島県",
    "city": "姶良市",
    "town": "蒲生町漆"
  },
  "8995302": {
    "zipcode": "8995302",
    "prefectureCode": "46",
    "prefectureNumber": 46,
    "prefecture": "鹿児島県",
    "city": "姶良市",
    "town": "蒲生町上久徳"
  },
  "8995303": {
    "zipcode": "8995303",
    "prefectureCode": "46",
    "prefectureNumber": 46,
    "prefecture": "鹿児島県",
    "city": "姶良市",
    "town": "蒲生町北"
  },
  "8995304": {
    "zipcode": "8995304",
    "prefectureCode": "46",
    "prefectureNumber": 46,
    "prefecture": "鹿児島県",
    "city": "姶良市",
    "town": "蒲生町下久徳"
  },
  "8995305": {
    "zipcode": "8995305",
    "prefectureCode": "46",
    "prefectureNumber": 46,
    "prefecture": "鹿児島県",
    "city": "姶良市",
    "town": "蒲生町白男"
  },
  "8995306": {
    "zipcode": "8995306",
    "prefectureCode": "46",
    "prefectureNumber": 46,
    "prefecture": "鹿児島県",
    "city": "姶良市",
    "town": "蒲生町西浦"
  },
  "8995307": {
    "zipcode": "8995307",
    "prefectureCode": "46",
    "prefectureNumber": 46,
    "prefecture": "鹿児島県",
    "city": "姶良市",
    "town": "蒲生町久末"
  },
  "8995308": {
    "zipcode": "8995308",
    "prefectureCode": "46",
    "prefectureNumber": 46,
    "prefecture": "鹿児島県",
    "city": "姶良市",
    "town": "蒲生町米丸"
  },
  "8995400": {
    "zipcode": "8995400",
    "prefectureCode": "46",
    "prefectureNumber": 46,
    "prefecture": "鹿児島県",
    "city": "姶良市",
    "town": "以下に掲載がない場合"
  },
  "8995401": {
    "zipcode": "8995401",
    "prefectureCode": "46",
    "prefectureNumber": 46,
    "prefecture": "鹿児島県",
    "city": "姶良市",
    "town": "寺師"
  },
  "8995402": {
    "zipcode": "8995402",
    "prefectureCode": "46",
    "prefectureNumber": 46,
    "prefecture": "鹿児島県",
    "city": "姶良市",
    "town": "中津野"
  },
  "8995403": {
    "zipcode": "8995403",
    "prefectureCode": "46",
    "prefectureNumber": 46,
    "prefecture": "鹿児島県",
    "city": "姶良市",
    "town": "増田"
  },
  "8995404": {
    "zipcode": "8995404",
    "prefectureCode": "46",
    "prefectureNumber": 46,
    "prefecture": "鹿児島県",
    "city": "姶良市",
    "town": "永瀬"
  },
  "8995405": {
    "zipcode": "8995405",
    "prefectureCode": "46",
    "prefectureNumber": 46,
    "prefecture": "鹿児島県",
    "city": "姶良市",
    "town": "住吉"
  },
  "8995411": {
    "zipcode": "8995411",
    "prefectureCode": "46",
    "prefectureNumber": 46,
    "prefecture": "鹿児島県",
    "city": "姶良市",
    "town": "鍋倉"
  },
  "8995412": {
    "zipcode": "8995412",
    "prefectureCode": "46",
    "prefectureNumber": 46,
    "prefecture": "鹿児島県",
    "city": "姶良市",
    "town": "三拾町"
  },
  "8995413": {
    "zipcode": "8995413",
    "prefectureCode": "46",
    "prefectureNumber": 46,
    "prefecture": "鹿児島県",
    "city": "姶良市",
    "town": "豊留"
  },
  "8995414": {
    "zipcode": "8995414",
    "prefectureCode": "46",
    "prefectureNumber": 46,
    "prefecture": "鹿児島県",
    "city": "姶良市",
    "town": "深水"
  },
  "8995421": {
    "zipcode": "8995421",
    "prefectureCode": "46",
    "prefectureNumber": 46,
    "prefecture": "鹿児島県",
    "city": "姶良市",
    "town": "東餠田"
  },
  "8995422": {
    "zipcode": "8995422",
    "prefectureCode": "46",
    "prefectureNumber": 46,
    "prefecture": "鹿児島県",
    "city": "姶良市",
    "town": "松原町"
  },
  "8995431": {
    "zipcode": "8995431",
    "prefectureCode": "46",
    "prefectureNumber": 46,
    "prefecture": "鹿児島県",
    "city": "姶良市",
    "town": "西餠田"
  },
  "8995432": {
    "zipcode": "8995432",
    "prefectureCode": "46",
    "prefectureNumber": 46,
    "prefecture": "鹿児島県",
    "city": "姶良市",
    "town": "宮島町"
  },
  "8995433": {
    "zipcode": "8995433",
    "prefectureCode": "46",
    "prefectureNumber": 46,
    "prefecture": "鹿児島県",
    "city": "姶良市",
    "town": "西宮島町"
  },
  "8995541": {
    "zipcode": "8995541",
    "prefectureCode": "46",
    "prefectureNumber": 46,
    "prefecture": "鹿児島県",
    "city": "姶良市",
    "town": "北山"
  },
  "8995542": {
    "zipcode": "8995542",
    "prefectureCode": "46",
    "prefectureNumber": 46,
    "prefecture": "鹿児島県",
    "city": "姶良市",
    "town": "上名"
  },
  "8995543": {
    "zipcode": "8995543",
    "prefectureCode": "46",
    "prefectureNumber": 46,
    "prefecture": "鹿児島県",
    "city": "姶良市",
    "town": "下名"
  },
  "8995544": {
    "zipcode": "8995544",
    "prefectureCode": "46",
    "prefectureNumber": 46,
    "prefecture": "鹿児島県",
    "city": "姶良市",
    "town": "大山"
  },
  "8995545": {
    "zipcode": "8995545",
    "prefectureCode": "46",
    "prefectureNumber": 46,
    "prefecture": "鹿児島県",
    "city": "姶良市",
    "town": "木津志"
  },
  "8995651": {
    "zipcode": "8995651",
    "prefectureCode": "46",
    "prefectureNumber": 46,
    "prefecture": "鹿児島県",
    "city": "姶良市",
    "town": "脇元"
  },
  "8995652": {
    "zipcode": "8995652",
    "prefectureCode": "46",
    "prefectureNumber": 46,
    "prefecture": "鹿児島県",
    "city": "姶良市",
    "town": "平松"
  },
  "8995653": {
    "zipcode": "8995653",
    "prefectureCode": "46",
    "prefectureNumber": 46,
    "prefecture": "鹿児島県",
    "city": "姶良市",
    "town": "池島町"
  },
  "8995654": {
    "zipcode": "8995654",
    "prefectureCode": "46",
    "prefectureNumber": 46,
    "prefecture": "鹿児島県",
    "city": "姶良市",
    "town": "永池町"
  },
  "8995655": {
    "zipcode": "8995655",
    "prefectureCode": "46",
    "prefectureNumber": 46,
    "prefecture": "鹿児島県",
    "city": "姶良市",
    "town": "船津"
  },
  "8995656": {
    "zipcode": "8995656",
    "prefectureCode": "46",
    "prefectureNumber": 46,
    "prefecture": "鹿児島県",
    "city": "姶良市",
    "town": "西姶良"
  },
  "8996101": {
    "zipcode": "8996101",
    "prefectureCode": "46",
    "prefectureNumber": 46,
    "prefecture": "鹿児島県",
    "city": "姶良郡湧水町",
    "town": "鶴丸"
  },
  "8996102": {
    "zipcode": "8996102",
    "prefectureCode": "46",
    "prefectureNumber": 46,
    "prefecture": "鹿児島県",
    "city": "姶良郡湧水町",
    "town": "中津川"
  },
  "8996103": {
    "zipcode": "8996103",
    "prefectureCode": "46",
    "prefectureNumber": 46,
    "prefecture": "鹿児島県",
    "city": "姶良郡湧水町",
    "town": "川添"
  },
  "8996104": {
    "zipcode": "8996104",
    "prefectureCode": "46",
    "prefectureNumber": 46,
    "prefecture": "鹿児島県",
    "city": "姶良郡湧水町",
    "town": "川西"
  },
  "8996105": {
    "zipcode": "8996105",
    "prefectureCode": "46",
    "prefectureNumber": 46,
    "prefecture": "鹿児島県",
    "city": "姶良郡湧水町",
    "town": "般若寺"
  },
  "8996200": {
    "zipcode": "8996200",
    "prefectureCode": "46",
    "prefectureNumber": 46,
    "prefecture": "鹿児島県",
    "city": "姶良郡湧水町",
    "town": "以下に掲載がない場合"
  },
  "8996201": {
    "zipcode": "8996201",
    "prefectureCode": "46",
    "prefectureNumber": 46,
    "prefecture": "鹿児島県",
    "city": "姶良郡湧水町",
    "town": "木場"
  },
  "8996202": {
    "zipcode": "8996202",
    "prefectureCode": "46",
    "prefectureNumber": 46,
    "prefecture": "鹿児島県",
    "city": "姶良郡湧水町",
    "town": "北方"
  },
  "8996203": {
    "zipcode": "8996203",
    "prefectureCode": "46",
    "prefectureNumber": 46,
    "prefecture": "鹿児島県",
    "city": "姶良郡湧水町",
    "town": "田尾原"
  },
  "8996204": {
    "zipcode": "8996204",
    "prefectureCode": "46",
    "prefectureNumber": 46,
    "prefecture": "鹿児島県",
    "city": "姶良郡湧水町",
    "town": "稲葉崎"
  },
  "8996205": {
    "zipcode": "8996205",
    "prefectureCode": "46",
    "prefectureNumber": 46,
    "prefecture": "鹿児島県",
    "city": "姶良郡湧水町",
    "town": "幸田"
  },
  "8996206": {
    "zipcode": "8996206",
    "prefectureCode": "46",
    "prefectureNumber": 46,
    "prefecture": "鹿児島県",
    "city": "姶良郡湧水町",
    "town": "恒次"
  },
  "8996207": {
    "zipcode": "8996207",
    "prefectureCode": "46",
    "prefectureNumber": 46,
    "prefecture": "鹿児島県",
    "city": "姶良郡湧水町",
    "town": "米永"
  },
  "8996301": {
    "zipcode": "8996301",
    "prefectureCode": "46",
    "prefectureNumber": 46,
    "prefecture": "鹿児島県",
    "city": "霧島市",
    "town": "横川町上ノ"
  },
  "8996302": {
    "zipcode": "8996302",
    "prefectureCode": "46",
    "prefectureNumber": 46,
    "prefecture": "鹿児島県",
    "city": "霧島市",
    "town": "横川町下ノ"
  },
  "8996303": {
    "zipcode": "8996303",
    "prefectureCode": "46",
    "prefectureNumber": 46,
    "prefecture": "鹿児島県",
    "city": "霧島市",
    "town": "横川町中ノ"
  },
  "8996401": {
    "zipcode": "8996401",
    "prefectureCode": "46",
    "prefectureNumber": 46,
    "prefecture": "鹿児島県",
    "city": "霧島市",
    "town": "溝辺町有川"
  },
  "8996402": {
    "zipcode": "8996402",
    "prefectureCode": "46",
    "prefectureNumber": 46,
    "prefecture": "鹿児島県",
    "city": "霧島市",
    "town": "溝辺町竹子"
  },
  "8996403": {
    "zipcode": "8996403",
    "prefectureCode": "46",
    "prefectureNumber": 46,
    "prefecture": "鹿児島県",
    "city": "霧島市",
    "town": "溝辺町三縄"
  },
  "8996404": {
    "zipcode": "8996404",
    "prefectureCode": "46",
    "prefectureNumber": 46,
    "prefecture": "鹿児島県",
    "city": "霧島市",
    "town": "溝辺町麓"
  },
  "8996405": {
    "zipcode": "8996405",
    "prefectureCode": "46",
    "prefectureNumber": 46,
    "prefecture": "鹿児島県",
    "city": "霧島市",
    "town": "溝辺町崎森"
  },
  "8996501": {
    "zipcode": "8996501",
    "prefectureCode": "46",
    "prefectureNumber": 46,
    "prefecture": "鹿児島県",
    "city": "霧島市",
    "town": "牧園町万膳（その他）"
  },
  "8996502": {
    "zipcode": "8996502",
    "prefectureCode": "46",
    "prefectureNumber": 46,
    "prefecture": "鹿児島県",
    "city": "霧島市",
    "town": "牧園町三体堂（その他）"
  },
  "8996503": {
    "zipcode": "8996503",
    "prefectureCode": "46",
    "prefectureNumber": 46,
    "prefecture": "鹿児島県",
    "city": "霧島市",
    "town": "牧園町高千穂（３０１２〜３２４０番）"
  },
  "8996504": {
    "zipcode": "8996504",
    "prefectureCode": "46",
    "prefectureNumber": 46,
    "prefecture": "鹿児島県",
    "city": "霧島市",
    "town": "牧園町上中津川（その他）"
  },
  "8996505": {
    "zipcode": "8996505",
    "prefectureCode": "46",
    "prefectureNumber": 46,
    "prefecture": "鹿児島県",
    "city": "霧島市",
    "town": "牧園町持松"
  },
  "8996506": {
    "zipcode": "8996506",
    "prefectureCode": "46",
    "prefectureNumber": 46,
    "prefecture": "鹿児島県",
    "city": "霧島市",
    "town": "牧園町下中津川"
  },
  "8996507": {
    "zipcode": "8996507",
    "prefectureCode": "46",
    "prefectureNumber": 46,
    "prefecture": "鹿児島県",
    "city": "霧島市",
    "town": "牧園町宿窪田"
  },
  "8996601": {
    "zipcode": "8996601",
    "prefectureCode": "46",
    "prefectureNumber": 46,
    "prefecture": "鹿児島県",
    "city": "霧島市",
    "town": "牧園町万膳（１４００〜１４７７番）"
  },
  "8996602": {
    "zipcode": "8996602",
    "prefectureCode": "46",
    "prefectureNumber": 46,
    "prefecture": "鹿児島県",
    "city": "霧島市",
    "town": "牧園町三体堂（１８２４−２、１８２４−９、１８２４−４１、１８３５−８１、１８３５−１０８、１８３５−１０９、１８３５−２２８、１８３５−２３８、１８３５−２５３、２００３−５、２００３−９、２００３−１４、２００３−１７、２００３−１８、２０５７−８）"
  },
  "8996603": {
    "zipcode": "8996603",
    "prefectureCode": "46",
    "prefectureNumber": 46,
    "prefecture": "鹿児島県",
    "city": "霧島市",
    "town": "牧園町高千穂（その他）"
  },
  "8996604": {
    "zipcode": "8996604",
    "prefectureCode": "46",
    "prefectureNumber": 46,
    "prefecture": "鹿児島県",
    "city": "霧島市",
    "town": "牧園町上中津川（１８９６〜２０７２番）"
  },
  "8997100": {
    "zipcode": "8997100",
    "prefectureCode": "46",
    "prefectureNumber": 46,
    "prefecture": "鹿児島県",
    "city": "志布志市",
    "town": "以下に掲載がない場合"
  },
  "8997101": {
    "zipcode": "8997101",
    "prefectureCode": "46",
    "prefectureNumber": 46,
    "prefecture": "鹿児島県",
    "city": "志布志市",
    "town": "志布志町夏井"
  },
  "8997102": {
    "zipcode": "8997102",
    "prefectureCode": "46",
    "prefectureNumber": 46,
    "prefecture": "鹿児島県",
    "city": "志布志市",
    "town": "志布志町帖"
  },
  "8997103": {
    "zipcode": "8997103",
    "prefectureCode": "46",
    "prefectureNumber": 46,
    "prefecture": "鹿児島県",
    "city": "志布志市",
    "town": "志布志町志布志"
  },
  "8997104": {
    "zipcode": "8997104",
    "prefectureCode": "46",
    "prefectureNumber": 46,
    "prefecture": "鹿児島県",
    "city": "志布志市",
    "town": "志布志町安楽"
  },
  "8997211": {
    "zipcode": "8997211",
    "prefectureCode": "46",
    "prefectureNumber": 46,
    "prefecture": "鹿児島県",
    "city": "志布志市",
    "town": "志布志町内之倉"
  },
  "8997212": {
    "zipcode": "8997212",
    "prefectureCode": "46",
    "prefectureNumber": 46,
    "prefecture": "鹿児島県",
    "city": "志布志市",
    "town": "志布志町田之浦"
  },
  "8997300": {
    "zipcode": "8997300",
    "prefectureCode": "46",
    "prefectureNumber": 46,
    "prefecture": "鹿児島県",
    "city": "曽於郡大崎町",
    "town": "以下に掲載がない場合"
  },
  "8997301": {
    "zipcode": "8997301",
    "prefectureCode": "46",
    "prefectureNumber": 46,
    "prefecture": "鹿児島県",
    "city": "曽於郡大崎町",
    "town": "菱田"
  },
  "8997302": {
    "zipcode": "8997302",
    "prefectureCode": "46",
    "prefectureNumber": 46,
    "prefecture": "鹿児島県",
    "city": "曽於郡大崎町",
    "town": "神領"
  },
  "8997303": {
    "zipcode": "8997303",
    "prefectureCode": "46",
    "prefectureNumber": 46,
    "prefecture": "鹿児島県",
    "city": "曽於郡大崎町",
    "town": "益丸"
  },
  "8997304": {
    "zipcode": "8997304",
    "prefectureCode": "46",
    "prefectureNumber": 46,
    "prefecture": "鹿児島県",
    "city": "曽於郡大崎町",
    "town": "横瀬"
  },
  "8997305": {
    "zipcode": "8997305",
    "prefectureCode": "46",
    "prefectureNumber": 46,
    "prefecture": "鹿児島県",
    "city": "曽於郡大崎町",
    "town": "假宿"
  },
  "8997306": {
    "zipcode": "8997306",
    "prefectureCode": "46",
    "prefectureNumber": 46,
    "prefecture": "鹿児島県",
    "city": "曽於郡大崎町",
    "town": "永吉"
  },
  "8997307": {
    "zipcode": "8997307",
    "prefectureCode": "46",
    "prefectureNumber": 46,
    "prefecture": "鹿児島県",
    "city": "曽於郡大崎町",
    "town": "持留"
  },
  "8997308": {
    "zipcode": "8997308",
    "prefectureCode": "46",
    "prefectureNumber": 46,
    "prefecture": "鹿児島県",
    "city": "曽於郡大崎町",
    "town": "岡別府"
  },
  "8997309": {
    "zipcode": "8997309",
    "prefectureCode": "46",
    "prefectureNumber": 46,
    "prefecture": "鹿児島県",
    "city": "曽於郡大崎町",
    "town": "井俣"
  },
  "8997401": {
    "zipcode": "8997401",
    "prefectureCode": "46",
    "prefectureNumber": 46,
    "prefecture": "鹿児島県",
    "city": "志布志市",
    "town": "有明町伊崎田"
  },
  "8997402": {
    "zipcode": "8997402",
    "prefectureCode": "46",
    "prefectureNumber": 46,
    "prefecture": "鹿児島県",
    "city": "志布志市",
    "town": "有明町野井倉"
  },
  "8997403": {
    "zipcode": "8997403",
    "prefectureCode": "46",
    "prefectureNumber": 46,
    "prefecture": "鹿児島県",
    "city": "志布志市",
    "town": "有明町蓬原（春日）"
  },
  "8997503": {
    "zipcode": "8997503",
    "prefectureCode": "46",
    "prefectureNumber": 46,
    "prefecture": "鹿児島県",
    "city": "志布志市",
    "town": "有明町蓬原（その他）"
  },
  "8997511": {
    "zipcode": "8997511",
    "prefectureCode": "46",
    "prefectureNumber": 46,
    "prefecture": "鹿児島県",
    "city": "志布志市",
    "town": "有明町原田"
  },
  "8997512": {
    "zipcode": "8997512",
    "prefectureCode": "46",
    "prefectureNumber": 46,
    "prefecture": "鹿児島県",
    "city": "志布志市",
    "town": "有明町野神（その他）"
  },
  "8997513": {
    "zipcode": "8997513",
    "prefectureCode": "46",
    "prefectureNumber": 46,
    "prefecture": "鹿児島県",
    "city": "志布志市",
    "town": "有明町山重"
  },
  "8997601": {
    "zipcode": "8997601",
    "prefectureCode": "46",
    "prefectureNumber": 46,
    "prefecture": "鹿児島県",
    "city": "志布志市",
    "town": "松山町新橋"
  },
  "8997602": {
    "zipcode": "8997602",
    "prefectureCode": "46",
    "prefectureNumber": 46,
    "prefecture": "鹿児島県",
    "city": "志布志市",
    "town": "松山町泰野"
  },
  "8997603": {
    "zipcode": "8997603",
    "prefectureCode": "46",
    "prefectureNumber": 46,
    "prefecture": "鹿児島県",
    "city": "志布志市",
    "town": "松山町尾野見"
  },
  "8998101": {
    "zipcode": "8998101",
    "prefectureCode": "46",
    "prefectureNumber": 46,
    "prefecture": "鹿児島県",
    "city": "曽於市",
    "town": "末吉町岩崎（池原、岩之上、岩南、前田、牧原、道添、宮原）"
  },
  "8998102": {
    "zipcode": "8998102",
    "prefectureCode": "46",
    "prefectureNumber": 46,
    "prefecture": "鹿児島県",
    "city": "曽於市",
    "town": "大隅町岩川"
  },
  "8998103": {
    "zipcode": "8998103",
    "prefectureCode": "46",
    "prefectureNumber": 46,
    "prefecture": "鹿児島県",
    "city": "曽於市",
    "town": "大隅町中之内"
  },
  "8998104": {
    "zipcode": "8998104",
    "prefectureCode": "46",
    "prefectureNumber": 46,
    "prefecture": "鹿児島県",
    "city": "曽於市",
    "town": "大隅町鳴神町"
  },
  "8998105": {
    "zipcode": "8998105",
    "prefectureCode": "46",
    "prefectureNumber": 46,
    "prefecture": "鹿児島県",
    "city": "曽於市",
    "town": "大隅町段中町"
  },
  "8998106": {
    "zipcode": "8998106",
    "prefectureCode": "46",
    "prefectureNumber": 46,
    "prefecture": "鹿児島県",
    "city": "曽於市",
    "town": "大隅町下窪町"
  },
  "8998211": {
    "zipcode": "8998211",
    "prefectureCode": "46",
    "prefectureNumber": 46,
    "prefecture": "鹿児島県",
    "city": "曽於市",
    "town": "大隅町荒谷（荒谷、大迫、中大迫）"
  },
  "8998212": {
    "zipcode": "8998212",
    "prefectureCode": "46",
    "prefectureNumber": 46,
    "prefecture": "鹿児島県",
    "city": "曽於市",
    "town": "大隅町月野"
  },
  "8998213": {
    "zipcode": "8998213",
    "prefectureCode": "46",
    "prefectureNumber": 46,
    "prefecture": "鹿児島県",
    "city": "曽於市",
    "town": "大隅町境木町"
  },
  "8998311": {
    "zipcode": "8998311",
    "prefectureCode": "46",
    "prefectureNumber": 46,
    "prefecture": "鹿児島県",
    "city": "曽於市",
    "town": "大隅町荒谷（その他）"
  },
  "8998312": {
    "zipcode": "8998312",
    "prefectureCode": "46",
    "prefectureNumber": 46,
    "prefecture": "鹿児島県",
    "city": "志布志市",
    "town": "有明町野神（抜谷、塗木、本地、曲、水ノ谷）"
  },
  "8998313": {
    "zipcode": "8998313",
    "prefectureCode": "46",
    "prefectureNumber": 46,
    "prefecture": "鹿児島県",
    "city": "曽於郡大崎町",
    "town": "野方"
  },
  "8998421": {
    "zipcode": "8998421",
    "prefectureCode": "46",
    "prefectureNumber": 46,
    "prefecture": "鹿児島県",
    "city": "曽於市",
    "town": "大隅町大谷"
  },
  "8998422": {
    "zipcode": "8998422",
    "prefectureCode": "46",
    "prefectureNumber": 46,
    "prefecture": "鹿児島県",
    "city": "曽於市",
    "town": "大隅町坂元"
  },
  "8998423": {
    "zipcode": "8998423",
    "prefectureCode": "46",
    "prefectureNumber": 46,
    "prefecture": "鹿児島県",
    "city": "曽於市",
    "town": "大隅町須田木"
  },
  "8998424": {
    "zipcode": "8998424",
    "prefectureCode": "46",
    "prefectureNumber": 46,
    "prefecture": "鹿児島県",
    "city": "曽於市",
    "town": "大隅町恒吉"
  },
  "8998511": {
    "zipcode": "8998511",
    "prefectureCode": "46",
    "prefectureNumber": 46,
    "prefecture": "鹿児島県",
    "city": "鹿屋市",
    "town": "輝北町市成"
  },
  "8998512": {
    "zipcode": "8998512",
    "prefectureCode": "46",
    "prefectureNumber": 46,
    "prefecture": "鹿児島県",
    "city": "鹿屋市",
    "town": "輝北町諏訪原"
  },
  "8998600": {
    "zipcode": "8998600",
    "prefectureCode": "46",
    "prefectureNumber": 46,
    "prefecture": "鹿児島県",
    "city": "曽於市",
    "town": "以下に掲載がない場合"
  },
  "8998601": {
    "zipcode": "8998601",
    "prefectureCode": "46",
    "prefectureNumber": 46,
    "prefecture": "鹿児島県",
    "city": "曽於市",
    "town": "末吉町岩崎（その他）"
  },
  "8998602": {
    "zipcode": "8998602",
    "prefectureCode": "46",
    "prefectureNumber": 46,
    "prefecture": "鹿児島県",
    "city": "曽於市",
    "town": "末吉町栄町"
  },
  "8998603": {
    "zipcode": "8998603",
    "prefectureCode": "46",
    "prefectureNumber": 46,
    "prefecture": "鹿児島県",
    "city": "曽於市",
    "town": "末吉町新町"
  },
  "8998604": {
    "zipcode": "8998604",
    "prefectureCode": "46",
    "prefectureNumber": 46,
    "prefecture": "鹿児島県",
    "city": "曽於市",
    "town": "末吉町諏訪方"
  },
  "8998605": {
    "zipcode": "8998605",
    "prefectureCode": "46",
    "prefectureNumber": 46,
    "prefecture": "鹿児島県",
    "city": "曽於市",
    "town": "末吉町二之方"
  },
  "8998606": {
    "zipcode": "8998606",
    "prefectureCode": "46",
    "prefectureNumber": 46,
    "prefecture": "鹿児島県",
    "city": "曽於市",
    "town": "末吉町深川"
  },
  "8998607": {
    "zipcode": "8998607",
    "prefectureCode": "46",
    "prefectureNumber": 46,
    "prefecture": "鹿児島県",
    "city": "曽於市",
    "town": "末吉町本町"
  },
  "8998608": {
    "zipcode": "8998608",
    "prefectureCode": "46",
    "prefectureNumber": 46,
    "prefecture": "鹿児島県",
    "city": "曽於市",
    "town": "末吉町南之郷"
  },
  "8998609": {
    "zipcode": "8998609",
    "prefectureCode": "46",
    "prefectureNumber": 46,
    "prefecture": "鹿児島県",
    "city": "曽於市",
    "town": "末吉町上町"
  }
}
