{
  "9000000": {
    "zipcode": "9000000",
    "prefectureCode": "47",
    "prefectureNumber": 47,
    "prefecture": "沖縄県",
    "city": "那覇市",
    "town": "以下に掲載がない場合"
  },
  "9000001": {
    "zipcode": "9000001",
    "prefectureCode": "47",
    "prefectureNumber": 47,
    "prefecture": "沖縄県",
    "city": "那覇市",
    "town": "港町"
  },
  "9000002": {
    "zipcode": "9000002",
    "prefectureCode": "47",
    "prefectureNumber": 47,
    "prefecture": "沖縄県",
    "city": "那覇市",
    "town": "曙"
  },
  "9000003": {
    "zipcode": "9000003",
    "prefectureCode": "47",
    "prefectureNumber": 47,
    "prefecture": "沖縄県",
    "city": "那覇市",
    "town": "安謝"
  },
  "9000004": {
    "zipcode": "9000004",
    "prefectureCode": "47",
    "prefectureNumber": 47,
    "prefecture": "沖縄県",
    "city": "那覇市",
    "town": "銘苅"
  },
  "9000005": {
    "zipcode": "9000005",
    "prefectureCode": "47",
    "prefectureNumber": 47,
    "prefecture": "沖縄県",
    "city": "那覇市",
    "town": "天久"
  },
  "9000006": {
    "zipcode": "9000006",
    "prefectureCode": "47",
    "prefectureNumber": 47,
    "prefecture": "沖縄県",
    "city": "那覇市",
    "town": "おもろまち"
  },
  "9000011": {
    "zipcode": "9000011",
    "prefectureCode": "47",
    "prefectureNumber": 47,
    "prefecture": "沖縄県",
    "city": "那覇市",
    "town": "上之屋"
  },
  "9000012": {
    "zipcode": "9000012",
    "prefectureCode": "47",
    "prefectureNumber": 47,
    "prefecture": "沖縄県",
    "city": "那覇市",
    "town": "泊"
  },
  "9000013": {
    "zipcode": "9000013",
    "prefectureCode": "47",
    "prefectureNumber": 47,
    "prefecture": "沖縄県",
    "city": "那覇市",
    "town": "牧志"
  },
  "9000014": {
    "zipcode": "9000014",
    "prefectureCode": "47",
    "prefectureNumber": 47,
    "prefecture": "沖縄県",
    "city": "那覇市",
    "town": "松尾"
  },
  "9000015": {
    "zipcode": "9000015",
    "prefectureCode": "47",
    "prefectureNumber": 47,
    "prefecture": "沖縄県",
    "city": "那覇市",
    "town": "久茂地"
  },
  "9000016": {
    "zipcode": "9000016",
    "prefectureCode": "47",
    "prefectureNumber": 47,
    "prefecture": "沖縄県",
    "city": "那覇市",
    "town": "前島"
  },
  "9000021": {
    "zipcode": "9000021",
    "prefectureCode": "47",
    "prefectureNumber": 47,
    "prefecture": "沖縄県",
    "city": "那覇市",
    "town": "泉崎"
  },
  "9000022": {
    "zipcode": "9000022",
    "prefectureCode": "47",
    "prefectureNumber": 47,
    "prefecture": "沖縄県",
    "city": "那覇市",
    "town": "樋川"
  },
  "9000023": {
    "zipcode": "9000023",
    "prefectureCode": "47",
    "prefectureNumber": 47,
    "prefecture": "沖縄県",
    "city": "那覇市",
    "town": "楚辺"
  },
  "9000024": {
    "zipcode": "9000024",
    "prefectureCode": "47",
    "prefectureNumber": 47,
    "prefecture": "沖縄県",
    "city": "那覇市",
    "town": "古波蔵"
  },
  "9000025": {
    "zipcode": "9000025",
    "prefectureCode": "47",
    "prefectureNumber": 47,
    "prefecture": "沖縄県",
    "city": "那覇市",
    "town": "壺川"
  },
  "9000026": {
    "zipcode": "9000026",
    "prefectureCode": "47",
    "prefectureNumber": 47,
    "prefecture": "沖縄県",
    "city": "那覇市",
    "town": "奥武山町"
  },
  "9000027": {
    "zipcode": "9000027",
    "prefectureCode": "47",
    "prefectureNumber": 47,
    "prefecture": "沖縄県",
    "city": "那覇市",
    "town": "山下町"
  },
  "9000028": {
    "zipcode": "9000028",
    "prefectureCode": "47",
    "prefectureNumber": 47,
    "prefecture": "沖縄県",
    "city": "那覇市",
    "town": "垣花町"
  },
  "9000029": {
    "zipcode": "9000029",
    "prefectureCode": "47",
    "prefectureNumber": 47,
    "prefecture": "沖縄県",
    "city": "那覇市",
    "town": "旭町"
  },
  "9000031": {
    "zipcode": "9000031",
    "prefectureCode": "47",
    "prefectureNumber": 47,
    "prefecture": "沖縄県",
    "city": "那覇市",
    "town": "若狭"
  },
  "9000032": {
    "zipcode": "9000032",
    "prefectureCode": "47",
    "prefectureNumber": 47,
    "prefecture": "沖縄県",
    "city": "那覇市",
    "town": "松山"
  },
  "9000033": {
    "zipcode": "9000033",
    "prefectureCode": "47",
    "prefectureNumber": 47,
    "prefecture": "沖縄県",
    "city": "那覇市",
    "town": "久米"
  },
  "9000034": {
    "zipcode": "9000034",
    "prefectureCode": "47",
    "prefectureNumber": 47,
    "prefecture": "沖縄県",
    "city": "那覇市",
    "town": "東町"
  },
  "9000035": {
    "zipcode": "9000035",
    "prefectureCode": "47",
    "prefectureNumber": 47,
    "prefecture": "沖縄県",
    "city": "那覇市",
    "town": "通堂町"
  },
  "9000036": {
    "zipcode": "9000036",
    "prefectureCode": "47",
    "prefectureNumber": 47,
    "prefecture": "沖縄県",
    "city": "那覇市",
    "town": "西"
  },
  "9000037": {
    "zipcode": "9000037",
    "prefectureCode": "47",
    "prefectureNumber": 47,
    "prefecture": "沖縄県",
    "city": "那覇市",
    "town": "辻"
  }
}
