{
  "9010141": {
    "zipcode": "9010141",
    "prefectureCode": "47",
    "prefectureNumber": 47,
    "prefecture": "沖縄県",
    "city": "那覇市",
    "town": "住吉町"
  },
  "9010142": {
    "zipcode": "9010142",
    "prefectureCode": "47",
    "prefectureNumber": 47,
    "prefecture": "沖縄県",
    "city": "那覇市",
    "town": "鏡水"
  },
  "9010143": {
    "zipcode": "9010143",
    "prefectureCode": "47",
    "prefectureNumber": 47,
    "prefecture": "沖縄県",
    "city": "那覇市",
    "town": "安次嶺"
  },
  "9010144": {
    "zipcode": "9010144",
    "prefectureCode": "47",
    "prefectureNumber": 47,
    "prefecture": "沖縄県",
    "city": "那覇市",
    "town": "当間"
  },
  "9010145": {
    "zipcode": "9010145",
    "prefectureCode": "47",
    "prefectureNumber": 47,
    "prefecture": "沖縄県",
    "city": "那覇市",
    "town": "高良"
  },
  "9010146": {
    "zipcode": "9010146",
    "prefectureCode": "47",
    "prefectureNumber": 47,
    "prefecture": "沖縄県",
    "city": "那覇市",
    "town": "具志"
  },
  "9010147": {
    "zipcode": "9010147",
    "prefectureCode": "47",
    "prefectureNumber": 47,
    "prefecture": "沖縄県",
    "city": "那覇市",
    "town": "宮城"
  },
  "9010148": {
    "zipcode": "9010148",
    "prefectureCode": "47",
    "prefectureNumber": 47,
    "prefecture": "沖縄県",
    "city": "那覇市",
    "town": "大嶺"
  },
  "9010151": {
    "zipcode": "9010151",
    "prefectureCode": "47",
    "prefectureNumber": 47,
    "prefecture": "沖縄県",
    "city": "那覇市",
    "town": "鏡原町"
  },
  "9010152": {
    "zipcode": "9010152",
    "prefectureCode": "47",
    "prefectureNumber": 47,
    "prefecture": "沖縄県",
    "city": "那覇市",
    "town": "小禄"
  },
  "9010153": {
    "zipcode": "9010153",
    "prefectureCode": "47",
    "prefectureNumber": 47,
    "prefecture": "沖縄県",
    "city": "那覇市",
    "town": "宇栄原"
  },
  "9010154": {
    "zipcode": "9010154",
    "prefectureCode": "47",
    "prefectureNumber": 47,
    "prefecture": "沖縄県",
    "city": "那覇市",
    "town": "赤嶺"
  },
  "9010155": {
    "zipcode": "9010155",
    "prefectureCode": "47",
    "prefectureNumber": 47,
    "prefecture": "沖縄県",
    "city": "那覇市",
    "town": "金城"
  },
  "9010156": {
    "zipcode": "9010156",
    "prefectureCode": "47",
    "prefectureNumber": 47,
    "prefecture": "沖縄県",
    "city": "那覇市",
    "town": "田原"
  },
  "9010200": {
    "zipcode": "9010200",
    "prefectureCode": "47",
    "prefectureNumber": 47,
    "prefecture": "沖縄県",
    "city": "豊見城市",
    "town": "以下に掲載がない場合"
  },
  "9010201": {
    "zipcode": "9010201",
    "prefectureCode": "47",
    "prefectureNumber": 47,
    "prefecture": "沖縄県",
    "city": "豊見城市",
    "town": "真玉橋"
  },
  "9010202": {
    "zipcode": "9010202",
    "prefectureCode": "47",
    "prefectureNumber": 47,
    "prefecture": "沖縄県",
    "city": "豊見城市",
    "town": "嘉数"
  },
  "9010203": {
    "zipcode": "9010203",
    "prefectureCode": "47",
    "prefectureNumber": 47,
    "prefecture": "沖縄県",
    "city": "豊見城市",
    "town": "長堂"
  },
  "9010204": {
    "zipcode": "9010204",
    "prefectureCode": "47",
    "prefectureNumber": 47,
    "prefecture": "沖縄県",
    "city": "豊見城市",
    "town": "金良"
  },
  "9010205": {
    "zipcode": "9010205",
    "prefectureCode": "47",
    "prefectureNumber": 47,
    "prefecture": "沖縄県",
    "city": "豊見城市",
    "town": "根差部"
  },
  "9010211": {
    "zipcode": "9010211",
    "prefectureCode": "47",
    "prefectureNumber": 47,
    "prefecture": "沖縄県",
    "city": "豊見城市",
    "town": "饒波"
  },
  "9010212": {
    "zipcode": "9010212",
    "prefectureCode": "47",
    "prefectureNumber": 47,
    "prefecture": "沖縄県",
    "city": "豊見城市",
    "town": "平良"
  },
  "9010213": {
    "zipcode": "9010213",
    "prefectureCode": "47",
    "prefectureNumber": 47,
    "prefecture": "沖縄県",
    "city": "豊見城市",
    "town": "高嶺"
  },
  "9010214": {
    "zipcode": "9010214",
    "prefectureCode": "47",
    "prefectureNumber": 47,
    "prefecture": "沖縄県",
    "city": "豊見城市",
    "town": "保栄茂"
  },
  "9010215": {
    "zipcode": "9010215",
    "prefectureCode": "47",
    "prefectureNumber": 47,
    "prefecture": "沖縄県",
    "city": "豊見城市",
    "town": "渡嘉敷"
  },
  "9010221": {
    "zipcode": "9010221",
    "prefectureCode": "47",
    "prefectureNumber": 47,
    "prefecture": "沖縄県",
    "city": "豊見城市",
    "town": "座安"
  },
  "9010222": {
    "zipcode": "9010222",
    "prefectureCode": "47",
    "prefectureNumber": 47,
    "prefecture": "沖縄県",
    "city": "豊見城市",
    "town": "渡橋名"
  },
  "9010223": {
    "zipcode": "9010223",
    "prefectureCode": "47",
    "prefectureNumber": 47,
    "prefecture": "沖縄県",
    "city": "豊見城市",
    "town": "翁長"
  },
  "9010224": {
    "zipcode": "9010224",
    "prefectureCode": "47",
    "prefectureNumber": 47,
    "prefecture": "沖縄県",
    "city": "豊見城市",
    "town": "与根"
  },
  "9010225": {
    "zipcode": "9010225",
    "prefectureCode": "47",
    "prefectureNumber": 47,
    "prefecture": "沖縄県",
    "city": "豊見城市",
    "town": "豊崎"
  },
  "9010231": {
    "zipcode": "9010231",
    "prefectureCode": "47",
    "prefectureNumber": 47,
    "prefecture": "沖縄県",
    "city": "豊見城市",
    "town": "我那覇"
  },
  "9010232": {
    "zipcode": "9010232",
    "prefectureCode": "47",
    "prefectureNumber": 47,
    "prefecture": "沖縄県",
    "city": "豊見城市",
    "town": "伊良波"
  },
  "9010233": {
    "zipcode": "9010233",
    "prefectureCode": "47",
    "prefectureNumber": 47,
    "prefecture": "沖縄県",
    "city": "豊見城市",
    "town": "瀬長"
  },
  "9010234": {
    "zipcode": "9010234",
    "prefectureCode": "47",
    "prefectureNumber": 47,
    "prefecture": "沖縄県",
    "city": "豊見城市",
    "town": "田頭"
  },
  "9010235": {
    "zipcode": "9010235",
    "prefectureCode": "47",
    "prefectureNumber": 47,
    "prefecture": "沖縄県",
    "city": "豊見城市",
    "town": "名嘉地"
  },
  "9010241": {
    "zipcode": "9010241",
    "prefectureCode": "47",
    "prefectureNumber": 47,
    "prefecture": "沖縄県",
    "city": "豊見城市",
    "town": "豊見城"
  },
  "9010242": {
    "zipcode": "9010242",
    "prefectureCode": "47",
    "prefectureNumber": 47,
    "prefecture": "沖縄県",
    "city": "豊見城市",
    "town": "高安"
  },
  "9010243": {
    "zipcode": "9010243",
    "prefectureCode": "47",
    "prefectureNumber": 47,
    "prefecture": "沖縄県",
    "city": "豊見城市",
    "town": "上田"
  },
  "9010244": {
    "zipcode": "9010244",
    "prefectureCode": "47",
    "prefectureNumber": 47,
    "prefecture": "沖縄県",
    "city": "豊見城市",
    "town": "宜保"
  },
  "9010300": {
    "zipcode": "9010300",
    "prefectureCode": "47",
    "prefectureNumber": 47,
    "prefecture": "沖縄県",
    "city": "糸満市",
    "town": "以下に掲載がない場合"
  },
  "9010301": {
    "zipcode": "9010301",
    "prefectureCode": "47",
    "prefectureNumber": 47,
    "prefecture": "沖縄県",
    "city": "糸満市",
    "town": "阿波根"
  },
  "9010302": {
    "zipcode": "9010302",
    "prefectureCode": "47",
    "prefectureNumber": 47,
    "prefecture": "沖縄県",
    "city": "糸満市",
    "town": "潮平"
  },
  "9010303": {
    "zipcode": "9010303",
    "prefectureCode": "47",
    "prefectureNumber": 47,
    "prefecture": "沖縄県",
    "city": "糸満市",
    "town": "兼城"
  },
  "9010304": {
    "zipcode": "9010304",
    "prefectureCode": "47",
    "prefectureNumber": 47,
    "prefecture": "沖縄県",
    "city": "糸満市",
    "town": "西川町"
  },
  "9010305": {
    "zipcode": "9010305",
    "prefectureCode": "47",
    "prefectureNumber": 47,
    "prefecture": "沖縄県",
    "city": "糸満市",
    "town": "西崎"
  },
  "9010306": {
    "zipcode": "9010306",
    "prefectureCode": "47",
    "prefectureNumber": 47,
    "prefecture": "沖縄県",
    "city": "糸満市",
    "town": "西崎町"
  },
  "9010311": {
    "zipcode": "9010311",
    "prefectureCode": "47",
    "prefectureNumber": 47,
    "prefecture": "沖縄県",
    "city": "糸満市",
    "town": "武富"
  },
  "9010312": {
    "zipcode": "9010312",
    "prefectureCode": "47",
    "prefectureNumber": 47,
    "prefecture": "沖縄県",
    "city": "糸満市",
    "town": "北波平"
  },
  "9010313": {
    "zipcode": "9010313",
    "prefectureCode": "47",
    "prefectureNumber": 47,
    "prefecture": "沖縄県",
    "city": "糸満市",
    "town": "賀数"
  },
  "9010314": {
    "zipcode": "9010314",
    "prefectureCode": "47",
    "prefectureNumber": 47,
    "prefecture": "沖縄県",
    "city": "糸満市",
    "town": "座波"
  },
  "9010315": {
    "zipcode": "9010315",
    "prefectureCode": "47",
    "prefectureNumber": 47,
    "prefecture": "沖縄県",
    "city": "糸満市",
    "town": "照屋"
  },
  "9010321": {
    "zipcode": "9010321",
    "prefectureCode": "47",
    "prefectureNumber": 47,
    "prefecture": "沖縄県",
    "city": "糸満市",
    "town": "豊原"
  },
  "9010322": {
    "zipcode": "9010322",
    "prefectureCode": "47",
    "prefectureNumber": 47,
    "prefecture": "沖縄県",
    "city": "糸満市",
    "town": "与座"
  },
  "9010323": {
    "zipcode": "9010323",
    "prefectureCode": "47",
    "prefectureNumber": 47,
    "prefecture": "沖縄県",
    "city": "糸満市",
    "town": "新垣"
  },
  "9010324": {
    "zipcode": "9010324",
    "prefectureCode": "47",
    "prefectureNumber": 47,
    "prefecture": "沖縄県",
    "city": "糸満市",
    "town": "国吉"
  },
  "9010325": {
    "zipcode": "9010325",
    "prefectureCode": "47",
    "prefectureNumber": 47,
    "prefecture": "沖縄県",
    "city": "糸満市",
    "town": "大里"
  },
  "9010331": {
    "zipcode": "9010331",
    "prefectureCode": "47",
    "prefectureNumber": 47,
    "prefecture": "沖縄県",
    "city": "糸満市",
    "town": "真栄平"
  },
  "9010332": {
    "zipcode": "9010332",
    "prefectureCode": "47",
    "prefectureNumber": 47,
    "prefecture": "沖縄県",
    "city": "糸満市",
    "town": "宇江城"
  },
  "9010333": {
    "zipcode": "9010333",
    "prefectureCode": "47",
    "prefectureNumber": 47,
    "prefecture": "沖縄県",
    "city": "糸満市",
    "town": "摩文仁"
  },
  "9010334": {
    "zipcode": "9010334",
    "prefectureCode": "47",
    "prefectureNumber": 47,
    "prefecture": "沖縄県",
    "city": "糸満市",
    "town": "大度"
  },
  "9010335": {
    "zipcode": "9010335",
    "prefectureCode": "47",
    "prefectureNumber": 47,
    "prefecture": "沖縄県",
    "city": "糸満市",
    "town": "米須"
  },
  "9010336": {
    "zipcode": "9010336",
    "prefectureCode": "47",
    "prefectureNumber": 47,
    "prefecture": "沖縄県",
    "city": "糸満市",
    "town": "真壁"
  },
  "9010341": {
    "zipcode": "9010341",
    "prefectureCode": "47",
    "prefectureNumber": 47,
    "prefecture": "沖縄県",
    "city": "糸満市",
    "town": "小波蔵"
  },
  "9010342": {
    "zipcode": "9010342",
    "prefectureCode": "47",
    "prefectureNumber": 47,
    "prefecture": "沖縄県",
    "city": "糸満市",
    "town": "糸洲"
  },
  "9010343": {
    "zipcode": "9010343",
    "prefectureCode": "47",
    "prefectureNumber": 47,
    "prefecture": "沖縄県",
    "city": "糸満市",
    "town": "南波平"
  },
  "9010344": {
    "zipcode": "9010344",
    "prefectureCode": "47",
    "prefectureNumber": 47,
    "prefecture": "沖縄県",
    "city": "糸満市",
    "town": "伊原"
  },
  "9010345": {
    "zipcode": "9010345",
    "prefectureCode": "47",
    "prefectureNumber": 47,
    "prefecture": "沖縄県",
    "city": "糸満市",
    "town": "福地"
  },
  "9010351": {
    "zipcode": "9010351",
    "prefectureCode": "47",
    "prefectureNumber": 47,
    "prefecture": "沖縄県",
    "city": "糸満市",
    "town": "名城"
  },
  "9010352": {
    "zipcode": "9010352",
    "prefectureCode": "47",
    "prefectureNumber": 47,
    "prefecture": "沖縄県",
    "city": "糸満市",
    "town": "山城"
  },
  "9010353": {
    "zipcode": "9010353",
    "prefectureCode": "47",
    "prefectureNumber": 47,
    "prefecture": "沖縄県",
    "city": "糸満市",
    "town": "束里"
  },
  "9010354": {
    "zipcode": "9010354",
    "prefectureCode": "47",
    "prefectureNumber": 47,
    "prefecture": "沖縄県",
    "city": "糸満市",
    "town": "喜屋武"
  },
  "9010361": {
    "zipcode": "9010361",
    "prefectureCode": "47",
    "prefectureNumber": 47,
    "prefecture": "沖縄県",
    "city": "糸満市",
    "town": "糸満"
  },
  "9010362": {
    "zipcode": "9010362",
    "prefectureCode": "47",
    "prefectureNumber": 47,
    "prefecture": "沖縄県",
    "city": "糸満市",
    "town": "真栄里"
  },
  "9010363": {
    "zipcode": "9010363",
    "prefectureCode": "47",
    "prefectureNumber": 47,
    "prefecture": "沖縄県",
    "city": "糸満市",
    "town": "伊敷"
  },
  "9010364": {
    "zipcode": "9010364",
    "prefectureCode": "47",
    "prefectureNumber": 47,
    "prefecture": "沖縄県",
    "city": "糸満市",
    "town": "潮崎町"
  },
  "9010400": {
    "zipcode": "9010400",
    "prefectureCode": "47",
    "prefectureNumber": 47,
    "prefecture": "沖縄県",
    "city": "島尻郡八重瀬町",
    "town": "以下に掲載がない場合"
  },
  "9010401": {
    "zipcode": "9010401",
    "prefectureCode": "47",
    "prefectureNumber": 47,
    "prefecture": "沖縄県",
    "city": "島尻郡八重瀬町",
    "town": "東風平"
  },
  "9010402": {
    "zipcode": "9010402",
    "prefectureCode": "47",
    "prefectureNumber": 47,
    "prefecture": "沖縄県",
    "city": "島尻郡八重瀬町",
    "town": "富盛"
  },
  "9010403": {
    "zipcode": "9010403",
    "prefectureCode": "47",
    "prefectureNumber": 47,
    "prefecture": "沖縄県",
    "city": "島尻郡八重瀬町",
    "town": "世名城"
  },
  "9010404": {
    "zipcode": "9010404",
    "prefectureCode": "47",
    "prefectureNumber": 47,
    "prefecture": "沖縄県",
    "city": "島尻郡八重瀬町",
    "town": "高良"
  },
  "9010405": {
    "zipcode": "9010405",
    "prefectureCode": "47",
    "prefectureNumber": 47,
    "prefecture": "沖縄県",
    "city": "島尻郡八重瀬町",
    "town": "伊覇"
  },
  "9010406": {
    "zipcode": "9010406",
    "prefectureCode": "47",
    "prefectureNumber": 47,
    "prefecture": "沖縄県",
    "city": "島尻郡八重瀬町",
    "town": "屋宜原"
  },
  "9010411": {
    "zipcode": "9010411",
    "prefectureCode": "47",
    "prefectureNumber": 47,
    "prefecture": "沖縄県",
    "city": "島尻郡八重瀬町",
    "town": "友寄"
  },
  "9010412": {
    "zipcode": "9010412",
    "prefectureCode": "47",
    "prefectureNumber": 47,
    "prefecture": "沖縄県",
    "city": "島尻郡八重瀬町",
    "town": "上田原"
  },
  "9010413": {
    "zipcode": "9010413",
    "prefectureCode": "47",
    "prefectureNumber": 47,
    "prefecture": "沖縄県",
    "city": "島尻郡八重瀬町",
    "town": "志多伯"
  },
  "9010414": {
    "zipcode": "9010414",
    "prefectureCode": "47",
    "prefectureNumber": 47,
    "prefecture": "沖縄県",
    "city": "島尻郡八重瀬町",
    "town": "当銘"
  },
  "9010415": {
    "zipcode": "9010415",
    "prefectureCode": "47",
    "prefectureNumber": 47,
    "prefecture": "沖縄県",
    "city": "島尻郡八重瀬町",
    "town": "小城"
  },
  "9010416": {
    "zipcode": "9010416",
    "prefectureCode": "47",
    "prefectureNumber": 47,
    "prefecture": "沖縄県",
    "city": "島尻郡八重瀬町",
    "town": "宜次"
  },
  "9010417": {
    "zipcode": "9010417",
    "prefectureCode": "47",
    "prefectureNumber": 47,
    "prefecture": "沖縄県",
    "city": "島尻郡八重瀬町",
    "town": "外間"
  },
  "9010501": {
    "zipcode": "9010501",
    "prefectureCode": "47",
    "prefectureNumber": 47,
    "prefecture": "沖縄県",
    "city": "島尻郡八重瀬町",
    "town": "長毛"
  },
  "9010502": {
    "zipcode": "9010502",
    "prefectureCode": "47",
    "prefectureNumber": 47,
    "prefecture": "沖縄県",
    "city": "島尻郡八重瀬町",
    "town": "大頓"
  },
  "9010503": {
    "zipcode": "9010503",
    "prefectureCode": "47",
    "prefectureNumber": 47,
    "prefecture": "沖縄県",
    "city": "島尻郡八重瀬町",
    "town": "新城"
  },
  "9010504": {
    "zipcode": "9010504",
    "prefectureCode": "47",
    "prefectureNumber": 47,
    "prefecture": "沖縄県",
    "city": "島尻郡八重瀬町",
    "town": "後原"
  },
  "9010511": {
    "zipcode": "9010511",
    "prefectureCode": "47",
    "prefectureNumber": 47,
    "prefecture": "沖縄県",
    "city": "島尻郡八重瀬町",
    "town": "港川"
  },
  "9010512": {
    "zipcode": "9010512",
    "prefectureCode": "47",
    "prefectureNumber": 47,
    "prefecture": "沖縄県",
    "city": "島尻郡八重瀬町",
    "town": "具志頭"
  },
  "9010513": {
    "zipcode": "9010513",
    "prefectureCode": "47",
    "prefectureNumber": 47,
    "prefecture": "沖縄県",
    "city": "島尻郡八重瀬町",
    "town": "玻名城"
  },
  "9010514": {
    "zipcode": "9010514",
    "prefectureCode": "47",
    "prefectureNumber": 47,
    "prefecture": "沖縄県",
    "city": "島尻郡八重瀬町",
    "town": "安里"
  },
  "9010515": {
    "zipcode": "9010515",
    "prefectureCode": "47",
    "prefectureNumber": 47,
    "prefecture": "沖縄県",
    "city": "島尻郡八重瀬町",
    "town": "与座"
  },
  "9010516": {
    "zipcode": "9010516",
    "prefectureCode": "47",
    "prefectureNumber": 47,
    "prefecture": "沖縄県",
    "city": "島尻郡八重瀬町",
    "town": "仲座"
  },
  "9010601": {
    "zipcode": "9010601",
    "prefectureCode": "47",
    "prefectureNumber": 47,
    "prefecture": "沖縄県",
    "city": "南城市",
    "town": "玉城垣花"
  },
  "9010602": {
    "zipcode": "9010602",
    "prefectureCode": "47",
    "prefectureNumber": 47,
    "prefecture": "沖縄県",
    "city": "南城市",
    "town": "玉城仲村渠"
  },
  "9010603": {
    "zipcode": "9010603",
    "prefectureCode": "47",
    "prefectureNumber": 47,
    "prefecture": "沖縄県",
    "city": "南城市",
    "town": "玉城百名"
  },
  "9010604": {
    "zipcode": "9010604",
    "prefectureCode": "47",
    "prefectureNumber": 47,
    "prefecture": "沖縄県",
    "city": "南城市",
    "town": "玉城玉城"
  },
  "9010605": {
    "zipcode": "9010605",
    "prefectureCode": "47",
    "prefectureNumber": 47,
    "prefecture": "沖縄県",
    "city": "南城市",
    "town": "玉城中山"
  },
  "9010606": {
    "zipcode": "9010606",
    "prefectureCode": "47",
    "prefectureNumber": 47,
    "prefecture": "沖縄県",
    "city": "南城市",
    "town": "玉城糸数"
  },
  "9010607": {
    "zipcode": "9010607",
    "prefectureCode": "47",
    "prefectureNumber": 47,
    "prefecture": "沖縄県",
    "city": "南城市",
    "town": "玉城喜良原"
  },
  "9010608": {
    "zipcode": "9010608",
    "prefectureCode": "47",
    "prefectureNumber": 47,
    "prefecture": "沖縄県",
    "city": "南城市",
    "town": "玉城親慶原"
  },
  "9010611": {
    "zipcode": "9010611",
    "prefectureCode": "47",
    "prefectureNumber": 47,
    "prefecture": "沖縄県",
    "city": "南城市",
    "town": "玉城富里"
  },
  "9010612": {
    "zipcode": "9010612",
    "prefectureCode": "47",
    "prefectureNumber": 47,
    "prefecture": "沖縄県",
    "city": "南城市",
    "town": "玉城當山"
  },
  "9010613": {
    "zipcode": "9010613",
    "prefectureCode": "47",
    "prefectureNumber": 47,
    "prefecture": "沖縄県",
    "city": "南城市",
    "town": "玉城志堅原"
  },
  "9010614": {
    "zipcode": "9010614",
    "prefectureCode": "47",
    "prefectureNumber": 47,
    "prefecture": "沖縄県",
    "city": "南城市",
    "town": "玉城奥武"
  },
  "9010615": {
    "zipcode": "9010615",
    "prefectureCode": "47",
    "prefectureNumber": 47,
    "prefecture": "沖縄県",
    "city": "南城市",
    "town": "玉城堀川"
  },
  "9010616": {
    "zipcode": "9010616",
    "prefectureCode": "47",
    "prefectureNumber": 47,
    "prefecture": "沖縄県",
    "city": "南城市",
    "town": "玉城前川"
  },
  "9010617": {
    "zipcode": "9010617",
    "prefectureCode": "47",
    "prefectureNumber": 47,
    "prefecture": "沖縄県",
    "city": "南城市",
    "town": "玉城愛地"
  },
  "9010618": {
    "zipcode": "9010618",
    "prefectureCode": "47",
    "prefectureNumber": 47,
    "prefecture": "沖縄県",
    "city": "南城市",
    "town": "玉城船越"
  },
  "9010619": {
    "zipcode": "9010619",
    "prefectureCode": "47",
    "prefectureNumber": 47,
    "prefecture": "沖縄県",
    "city": "南城市",
    "town": "玉城屋嘉部"
  },
  "9011100": {
    "zipcode": "9011100",
    "prefectureCode": "47",
    "prefectureNumber": 47,
    "prefecture": "沖縄県",
    "city": "島尻郡南風原町",
    "town": "以下に掲載がない場合"
  },
  "9011101": {
    "zipcode": "9011101",
    "prefectureCode": "47",
    "prefectureNumber": 47,
    "prefecture": "沖縄県",
    "city": "島尻郡南風原町",
    "town": "大名"
  },
  "9011102": {
    "zipcode": "9011102",
    "prefectureCode": "47",
    "prefectureNumber": 47,
    "prefecture": "沖縄県",
    "city": "島尻郡南風原町",
    "town": "宮城"
  },
  "9011103": {
    "zipcode": "9011103",
    "prefectureCode": "47",
    "prefectureNumber": 47,
    "prefecture": "沖縄県",
    "city": "島尻郡南風原町",
    "town": "与那覇"
  },
  "9011104": {
    "zipcode": "9011104",
    "prefectureCode": "47",
    "prefectureNumber": 47,
    "prefecture": "沖縄県",
    "city": "島尻郡南風原町",
    "town": "宮平"
  },
  "9011105": {
    "zipcode": "9011105",
    "prefectureCode": "47",
    "prefectureNumber": 47,
    "prefecture": "沖縄県",
    "city": "島尻郡南風原町",
    "town": "新川"
  },
  "9011111": {
    "zipcode": "9011111",
    "prefectureCode": "47",
    "prefectureNumber": 47,
    "prefecture": "沖縄県",
    "city": "島尻郡南風原町",
    "town": "兼城"
  },
  "9011112": {
    "zipcode": "9011112",
    "prefectureCode": "47",
    "prefectureNumber": 47,
    "prefecture": "沖縄県",
    "city": "島尻郡南風原町",
    "town": "本部"
  },
  "9011113": {
    "zipcode": "9011113",
    "prefectureCode": "47",
    "prefectureNumber": 47,
    "prefecture": "沖縄県",
    "city": "島尻郡南風原町",
    "town": "喜屋武"
  },
  "9011114": {
    "zipcode": "9011114",
    "prefectureCode": "47",
    "prefectureNumber": 47,
    "prefecture": "沖縄県",
    "city": "島尻郡南風原町",
    "town": "神里"
  },
  "9011115": {
    "zipcode": "9011115",
    "prefectureCode": "47",
    "prefectureNumber": 47,
    "prefecture": "沖縄県",
    "city": "島尻郡南風原町",
    "town": "山川"
  },
  "9011116": {
    "zipcode": "9011116",
    "prefectureCode": "47",
    "prefectureNumber": 47,
    "prefecture": "沖縄県",
    "city": "島尻郡南風原町",
    "town": "照屋"
  },
  "9011117": {
    "zipcode": "9011117",
    "prefectureCode": "47",
    "prefectureNumber": 47,
    "prefecture": "沖縄県",
    "city": "島尻郡南風原町",
    "town": "津嘉山"
  },
  "9011201": {
    "zipcode": "9011201",
    "prefectureCode": "47",
    "prefectureNumber": 47,
    "prefecture": "沖縄県",
    "city": "南城市",
    "town": "大里嶺井"
  },
  "9011202": {
    "zipcode": "9011202",
    "prefectureCode": "47",
    "prefectureNumber": 47,
    "prefecture": "沖縄県",
    "city": "南城市",
    "town": "大里大里"
  },
  "9011203": {
    "zipcode": "9011203",
    "prefectureCode": "47",
    "prefectureNumber": 47,
    "prefecture": "沖縄県",
    "city": "南城市",
    "town": "大里大城"
  },
  "9011204": {
    "zipcode": "9011204",
    "prefectureCode": "47",
    "prefectureNumber": 47,
    "prefecture": "沖縄県",
    "city": "南城市",
    "town": "大里稲嶺"
  },
  "9011205": {
    "zipcode": "9011205",
    "prefectureCode": "47",
    "prefectureNumber": 47,
    "prefecture": "沖縄県",
    "city": "南城市",
    "town": "大里高平"
  },
  "9011206": {
    "zipcode": "9011206",
    "prefectureCode": "47",
    "prefectureNumber": 47,
    "prefecture": "沖縄県",
    "city": "南城市",
    "town": "大里仲間"
  },
  "9011207": {
    "zipcode": "9011207",
    "prefectureCode": "47",
    "prefectureNumber": 47,
    "prefecture": "沖縄県",
    "city": "南城市",
    "town": "大里古堅"
  },
  "9011208": {
    "zipcode": "9011208",
    "prefectureCode": "47",
    "prefectureNumber": 47,
    "prefecture": "沖縄県",
    "city": "南城市",
    "town": "大里平良"
  },
  "9011300": {
    "zipcode": "9011300",
    "prefectureCode": "47",
    "prefectureNumber": 47,
    "prefecture": "沖縄県",
    "city": "島尻郡与那原町",
    "town": "以下に掲載がない場合"
  },
  "9011301": {
    "zipcode": "9011301",
    "prefectureCode": "47",
    "prefectureNumber": 47,
    "prefecture": "沖縄県",
    "city": "島尻郡与那原町",
    "town": "板良敷"
  },
  "9011302": {
    "zipcode": "9011302",
    "prefectureCode": "47",
    "prefectureNumber": 47,
    "prefecture": "沖縄県",
    "city": "島尻郡与那原町",
    "town": "上与那原"
  },
  "9011303": {
    "zipcode": "9011303",
    "prefectureCode": "47",
    "prefectureNumber": 47,
    "prefecture": "沖縄県",
    "city": "島尻郡与那原町",
    "town": "与那原"
  },
  "9011304": {
    "zipcode": "9011304",
    "prefectureCode": "47",
    "prefectureNumber": 47,
    "prefecture": "沖縄県",
    "city": "島尻郡与那原町",
    "town": "東浜"
  },
  "9011400": {
    "zipcode": "9011400",
    "prefectureCode": "47",
    "prefectureNumber": 47,
    "prefecture": "沖縄県",
    "city": "南城市",
    "town": "以下に掲載がない場合"
  },
  "9011401": {
    "zipcode": "9011401",
    "prefectureCode": "47",
    "prefectureNumber": 47,
    "prefecture": "沖縄県",
    "city": "南城市",
    "town": "佐敷伊原"
  },
  "9011402": {
    "zipcode": "9011402",
    "prefectureCode": "47",
    "prefectureNumber": 47,
    "prefecture": "沖縄県",
    "city": "南城市",
    "town": "佐敷手登根"
  },
  "9011403": {
    "zipcode": "9011403",
    "prefectureCode": "47",
    "prefectureNumber": 47,
    "prefecture": "沖縄県",
    "city": "南城市",
    "town": "佐敷佐敷"
  },
  "9011404": {
    "zipcode": "9011404",
    "prefectureCode": "47",
    "prefectureNumber": 47,
    "prefecture": "沖縄県",
    "city": "南城市",
    "town": "佐敷冨祖崎"
  },
  "9011405": {
    "zipcode": "9011405",
    "prefectureCode": "47",
    "prefectureNumber": 47,
    "prefecture": "沖縄県",
    "city": "南城市",
    "town": "佐敷仲伊保"
  },
  "9011406": {
    "zipcode": "9011406",
    "prefectureCode": "47",
    "prefectureNumber": 47,
    "prefecture": "沖縄県",
    "city": "南城市",
    "town": "佐敷屋比久"
  },
  "9011407": {
    "zipcode": "9011407",
    "prefectureCode": "47",
    "prefectureNumber": 47,
    "prefecture": "沖縄県",
    "city": "南城市",
    "town": "つきしろ"
  },
  "9011411": {
    "zipcode": "9011411",
    "prefectureCode": "47",
    "prefectureNumber": 47,
    "prefecture": "沖縄県",
    "city": "南城市",
    "town": "佐敷兼久"
  },
  "9011412": {
    "zipcode": "9011412",
    "prefectureCode": "47",
    "prefectureNumber": 47,
    "prefecture": "沖縄県",
    "city": "南城市",
    "town": "佐敷新里"
  },
  "9011413": {
    "zipcode": "9011413",
    "prefectureCode": "47",
    "prefectureNumber": 47,
    "prefecture": "沖縄県",
    "city": "南城市",
    "town": "佐敷小谷"
  },
  "9011414": {
    "zipcode": "9011414",
    "prefectureCode": "47",
    "prefectureNumber": 47,
    "prefecture": "沖縄県",
    "city": "南城市",
    "town": "佐敷津波古"
  },
  "9011415": {
    "zipcode": "9011415",
    "prefectureCode": "47",
    "prefectureNumber": 47,
    "prefecture": "沖縄県",
    "city": "南城市",
    "town": "佐敷新開"
  },
  "9011501": {
    "zipcode": "9011501",
    "prefectureCode": "47",
    "prefectureNumber": 47,
    "prefecture": "沖縄県",
    "city": "南城市",
    "town": "知念久高"
  },
  "9011502": {
    "zipcode": "9011502",
    "prefectureCode": "47",
    "prefectureNumber": 47,
    "prefecture": "沖縄県",
    "city": "南城市",
    "town": "知念安座真"
  },
  "9011503": {
    "zipcode": "9011503",
    "prefectureCode": "47",
    "prefectureNumber": 47,
    "prefecture": "沖縄県",
    "city": "南城市",
    "town": "知念知名"
  },
  "9011504": {
    "zipcode": "9011504",
    "prefectureCode": "47",
    "prefectureNumber": 47,
    "prefecture": "沖縄県",
    "city": "南城市",
    "town": "知念海野"
  },
  "9011505": {
    "zipcode": "9011505",
    "prefectureCode": "47",
    "prefectureNumber": 47,
    "prefecture": "沖縄県",
    "city": "南城市",
    "town": "知念久原"
  },
  "9011511": {
    "zipcode": "9011511",
    "prefectureCode": "47",
    "prefectureNumber": 47,
    "prefecture": "沖縄県",
    "city": "南城市",
    "town": "知念久手堅"
  },
  "9011512": {
    "zipcode": "9011512",
    "prefectureCode": "47",
    "prefectureNumber": 47,
    "prefecture": "沖縄県",
    "city": "南城市",
    "town": "知念吉富"
  },
  "9011513": {
    "zipcode": "9011513",
    "prefectureCode": "47",
    "prefectureNumber": 47,
    "prefecture": "沖縄県",
    "city": "南城市",
    "town": "知念知念"
  },
  "9011514": {
    "zipcode": "9011514",
    "prefectureCode": "47",
    "prefectureNumber": 47,
    "prefecture": "沖縄県",
    "city": "南城市",
    "town": "知念具志堅"
  },
  "9011515": {
    "zipcode": "9011515",
    "prefectureCode": "47",
    "prefectureNumber": 47,
    "prefecture": "沖縄県",
    "city": "南城市",
    "town": "知念山里"
  },
  "9011516": {
    "zipcode": "9011516",
    "prefectureCode": "47",
    "prefectureNumber": 47,
    "prefecture": "沖縄県",
    "city": "南城市",
    "town": "知念志喜屋"
  },
  "9012100": {
    "zipcode": "9012100",
    "prefectureCode": "47",
    "prefectureNumber": 47,
    "prefecture": "沖縄県",
    "city": "浦添市",
    "town": "以下に掲載がない場合"
  },
  "9012101": {
    "zipcode": "9012101",
    "prefectureCode": "47",
    "prefectureNumber": 47,
    "prefecture": "沖縄県",
    "city": "浦添市",
    "town": "西原"
  },
  "9012102": {
    "zipcode": "9012102",
    "prefectureCode": "47",
    "prefectureNumber": 47,
    "prefecture": "沖縄県",
    "city": "浦添市",
    "town": "前田"
  },
  "9012103": {
    "zipcode": "9012103",
    "prefectureCode": "47",
    "prefectureNumber": 47,
    "prefecture": "沖縄県",
    "city": "浦添市",
    "town": "仲間"
  },
  "9012104": {
    "zipcode": "9012104",
    "prefectureCode": "47",
    "prefectureNumber": 47,
    "prefecture": "沖縄県",
    "city": "浦添市",
    "town": "当山"
  },
  "9012111": {
    "zipcode": "9012111",
    "prefectureCode": "47",
    "prefectureNumber": 47,
    "prefecture": "沖縄県",
    "city": "浦添市",
    "town": "経塚"
  },
  "9012112": {
    "zipcode": "9012112",
    "prefectureCode": "47",
    "prefectureNumber": 47,
    "prefecture": "沖縄県",
    "city": "浦添市",
    "town": "沢岻"
  },
  "9012113": {
    "zipcode": "9012113",
    "prefectureCode": "47",
    "prefectureNumber": 47,
    "prefecture": "沖縄県",
    "city": "浦添市",
    "town": "大平"
  },
  "9012114": {
    "zipcode": "9012114",
    "prefectureCode": "47",
    "prefectureNumber": 47,
    "prefecture": "沖縄県",
    "city": "浦添市",
    "town": "安波茶"
  },
  "9012121": {
    "zipcode": "9012121",
    "prefectureCode": "47",
    "prefectureNumber": 47,
    "prefecture": "沖縄県",
    "city": "浦添市",
    "town": "内間"
  },
  "9012122": {
    "zipcode": "9012122",
    "prefectureCode": "47",
    "prefectureNumber": 47,
    "prefecture": "沖縄県",
    "city": "浦添市",
    "town": "勢理客"
  },
  "9012123": {
    "zipcode": "9012123",
    "prefectureCode": "47",
    "prefectureNumber": 47,
    "prefecture": "沖縄県",
    "city": "浦添市",
    "town": "西洲"
  },
  "9012124": {
    "zipcode": "9012124",
    "prefectureCode": "47",
    "prefectureNumber": 47,
    "prefecture": "沖縄県",
    "city": "浦添市",
    "town": "小湾"
  },
  "9012125": {
    "zipcode": "9012125",
    "prefectureCode": "47",
    "prefectureNumber": 47,
    "prefecture": "沖縄県",
    "city": "浦添市",
    "town": "仲西"
  },
  "9012126": {
    "zipcode": "9012126",
    "prefectureCode": "47",
    "prefectureNumber": 47,
    "prefecture": "沖縄県",
    "city": "浦添市",
    "town": "宮城"
  },
  "9012127": {
    "zipcode": "9012127",
    "prefectureCode": "47",
    "prefectureNumber": 47,
    "prefecture": "沖縄県",
    "city": "浦添市",
    "town": "屋富祖"
  },
  "9012128": {
    "zipcode": "9012128",
    "prefectureCode": "47",
    "prefectureNumber": 47,
    "prefecture": "沖縄県",
    "city": "浦添市",
    "town": "伊奈武瀬"
  },
  "9012131": {
    "zipcode": "9012131",
    "prefectureCode": "47",
    "prefectureNumber": 47,
    "prefecture": "沖縄県",
    "city": "浦添市",
    "town": "牧港"
  },
  "9012132": {
    "zipcode": "9012132",
    "prefectureCode": "47",
    "prefectureNumber": 47,
    "prefecture": "沖縄県",
    "city": "浦添市",
    "town": "伊祖"
  },
  "9012133": {
    "zipcode": "9012133",
    "prefectureCode": "47",
    "prefectureNumber": 47,
    "prefecture": "沖縄県",
    "city": "浦添市",
    "town": "城間"
  },
  "9012134": {
    "zipcode": "9012134",
    "prefectureCode": "47",
    "prefectureNumber": 47,
    "prefecture": "沖縄県",
    "city": "浦添市",
    "town": "港川"
  },
  "9012200": {
    "zipcode": "9012200",
    "prefectureCode": "47",
    "prefectureNumber": 47,
    "prefecture": "沖縄県",
    "city": "宜野湾市",
    "town": "以下に掲載がない場合"
  },
  "9012201": {
    "zipcode": "9012201",
    "prefectureCode": "47",
    "prefectureNumber": 47,
    "prefecture": "沖縄県",
    "city": "宜野湾市",
    "town": "新城"
  },
  "9012202": {
    "zipcode": "9012202",
    "prefectureCode": "47",
    "prefectureNumber": 47,
    "prefecture": "沖縄県",
    "city": "宜野湾市",
    "town": "普天間"
  },
  "9012203": {
    "zipcode": "9012203",
    "prefectureCode": "47",
    "prefectureNumber": 47,
    "prefecture": "沖縄県",
    "city": "宜野湾市",
    "town": "野嵩"
  },
  "9012204": {
    "zipcode": "9012204",
    "prefectureCode": "47",
    "prefectureNumber": 47,
    "prefecture": "沖縄県",
    "city": "宜野湾市",
    "town": "上原"
  },
  "9012205": {
    "zipcode": "9012205",
    "prefectureCode": "47",
    "prefectureNumber": 47,
    "prefecture": "沖縄県",
    "city": "宜野湾市",
    "town": "赤道"
  },
  "9012206": {
    "zipcode": "9012206",
    "prefectureCode": "47",
    "prefectureNumber": 47,
    "prefecture": "沖縄県",
    "city": "宜野湾市",
    "town": "愛知"
  },
  "9012207": {
    "zipcode": "9012207",
    "prefectureCode": "47",
    "prefectureNumber": 47,
    "prefecture": "沖縄県",
    "city": "宜野湾市",
    "town": "神山"
  },
  "9012211": {
    "zipcode": "9012211",
    "prefectureCode": "47",
    "prefectureNumber": 47,
    "prefecture": "沖縄県",
    "city": "宜野湾市",
    "town": "宜野湾"
  },
  "9012212": {
    "zipcode": "9012212",
    "prefectureCode": "47",
    "prefectureNumber": 47,
    "prefecture": "沖縄県",
    "city": "宜野湾市",
    "town": "長田"
  },
  "9012213": {
    "zipcode": "9012213",
    "prefectureCode": "47",
    "prefectureNumber": 47,
    "prefecture": "沖縄県",
    "city": "宜野湾市",
    "town": "志真志"
  },
  "9012214": {
    "zipcode": "9012214",
    "prefectureCode": "47",
    "prefectureNumber": 47,
    "prefecture": "沖縄県",
    "city": "宜野湾市",
    "town": "我如古"
  },
  "9012215": {
    "zipcode": "9012215",
    "prefectureCode": "47",
    "prefectureNumber": 47,
    "prefecture": "沖縄県",
    "city": "宜野湾市",
    "town": "真栄原"
  },
  "9012216": {
    "zipcode": "9012216",
    "prefectureCode": "47",
    "prefectureNumber": 47,
    "prefecture": "沖縄県",
    "city": "宜野湾市",
    "town": "佐真下"
  },
  "9012221": {
    "zipcode": "9012221",
    "prefectureCode": "47",
    "prefectureNumber": 47,
    "prefecture": "沖縄県",
    "city": "宜野湾市",
    "town": "伊佐"
  },
  "9012222": {
    "zipcode": "9012222",
    "prefectureCode": "47",
    "prefectureNumber": 47,
    "prefecture": "沖縄県",
    "city": "宜野湾市",
    "town": "喜友名"
  },
  "9012223": {
    "zipcode": "9012223",
    "prefectureCode": "47",
    "prefectureNumber": 47,
    "prefecture": "沖縄県",
    "city": "宜野湾市",
    "town": "大山"
  },
  "9012224": {
    "zipcode": "9012224",
    "prefectureCode": "47",
    "prefectureNumber": 47,
    "prefecture": "沖縄県",
    "city": "宜野湾市",
    "town": "真志喜"
  },
  "9012225": {
    "zipcode": "9012225",
    "prefectureCode": "47",
    "prefectureNumber": 47,
    "prefecture": "沖縄県",
    "city": "宜野湾市",
    "town": "大謝名"
  },
  "9012226": {
    "zipcode": "9012226",
    "prefectureCode": "47",
    "prefectureNumber": 47,
    "prefecture": "沖縄県",
    "city": "宜野湾市",
    "town": "嘉数"
  },
  "9012227": {
    "zipcode": "9012227",
    "prefectureCode": "47",
    "prefectureNumber": 47,
    "prefecture": "沖縄県",
    "city": "宜野湾市",
    "town": "宇地泊"
  },
  "9012300": {
    "zipcode": "9012300",
    "prefectureCode": "47",
    "prefectureNumber": 47,
    "prefecture": "沖縄県",
    "city": "中頭郡北中城村",
    "town": "以下に掲載がない場合"
  },
  "9012301": {
    "zipcode": "9012301",
    "prefectureCode": "47",
    "prefectureNumber": 47,
    "prefecture": "沖縄県",
    "city": "中頭郡北中城村",
    "town": "島袋"
  },
  "9012302": {
    "zipcode": "9012302",
    "prefectureCode": "47",
    "prefectureNumber": 47,
    "prefecture": "沖縄県",
    "city": "中頭郡北中城村",
    "town": "渡口"
  },
  "9012303": {
    "zipcode": "9012303",
    "prefectureCode": "47",
    "prefectureNumber": 47,
    "prefecture": "沖縄県",
    "city": "中頭郡北中城村",
    "town": "仲順"
  },
  "9012304": {
    "zipcode": "9012304",
    "prefectureCode": "47",
    "prefectureNumber": 47,
    "prefecture": "沖縄県",
    "city": "中頭郡北中城村",
    "town": "屋宜原"
  },
  "9012305": {
    "zipcode": "9012305",
    "prefectureCode": "47",
    "prefectureNumber": 47,
    "prefecture": "沖縄県",
    "city": "中頭郡北中城村",
    "town": "比嘉"
  },
  "9012306": {
    "zipcode": "9012306",
    "prefectureCode": "47",
    "prefectureNumber": 47,
    "prefecture": "沖縄県",
    "city": "中頭郡北中城村",
    "town": "ライカム"
  },
  "9012311": {
    "zipcode": "9012311",
    "prefectureCode": "47",
    "prefectureNumber": 47,
    "prefecture": "沖縄県",
    "city": "中頭郡北中城村",
    "town": "喜舎場"
  },
  "9012312": {
    "zipcode": "9012312",
    "prefectureCode": "47",
    "prefectureNumber": 47,
    "prefecture": "沖縄県",
    "city": "中頭郡北中城村",
    "town": "和仁屋"
  },
  "9012313": {
    "zipcode": "9012313",
    "prefectureCode": "47",
    "prefectureNumber": 47,
    "prefecture": "沖縄県",
    "city": "中頭郡北中城村",
    "town": "熱田"
  },
  "9012314": {
    "zipcode": "9012314",
    "prefectureCode": "47",
    "prefectureNumber": 47,
    "prefecture": "沖縄県",
    "city": "中頭郡北中城村",
    "town": "大城"
  },
  "9012315": {
    "zipcode": "9012315",
    "prefectureCode": "47",
    "prefectureNumber": 47,
    "prefecture": "沖縄県",
    "city": "中頭郡北中城村",
    "town": "荻道"
  },
  "9012316": {
    "zipcode": "9012316",
    "prefectureCode": "47",
    "prefectureNumber": 47,
    "prefecture": "沖縄県",
    "city": "中頭郡北中城村",
    "town": "安谷屋"
  },
  "9012317": {
    "zipcode": "9012317",
    "prefectureCode": "47",
    "prefectureNumber": 47,
    "prefecture": "沖縄県",
    "city": "中頭郡北中城村",
    "town": "瑞慶覧"
  },
  "9012321": {
    "zipcode": "9012321",
    "prefectureCode": "47",
    "prefectureNumber": 47,
    "prefecture": "沖縄県",
    "city": "中頭郡北中城村",
    "town": "美崎"
  },
  "9012400": {
    "zipcode": "9012400",
    "prefectureCode": "47",
    "prefectureNumber": 47,
    "prefecture": "沖縄県",
    "city": "中頭郡中城村",
    "town": "以下に掲載がない場合"
  },
  "9012401": {
    "zipcode": "9012401",
    "prefectureCode": "47",
    "prefectureNumber": 47,
    "prefecture": "沖縄県",
    "city": "中頭郡中城村",
    "town": "久場"
  },
  "9012402": {
    "zipcode": "9012402",
    "prefectureCode": "47",
    "prefectureNumber": 47,
    "prefecture": "沖縄県",
    "city": "中頭郡中城村",
    "town": "泊"
  },
  "9012403": {
    "zipcode": "9012403",
    "prefectureCode": "47",
    "prefectureNumber": 47,
    "prefecture": "沖縄県",
    "city": "中頭郡中城村",
    "town": "伊舎堂"
  },
  "9012404": {
    "zipcode": "9012404",
    "prefectureCode": "47",
    "prefectureNumber": 47,
    "prefecture": "沖縄県",
    "city": "中頭郡中城村",
    "town": "添石"
  },
  "9012405": {
    "zipcode": "9012405",
    "prefectureCode": "47",
    "prefectureNumber": 47,
    "prefecture": "沖縄県",
    "city": "中頭郡中城村",
    "town": "屋宜"
  },
  "9012406": {
    "zipcode": "9012406",
    "prefectureCode": "47",
    "prefectureNumber": 47,
    "prefecture": "沖縄県",
    "city": "中頭郡中城村",
    "town": "当間"
  },
  "9012407": {
    "zipcode": "9012407",
    "prefectureCode": "47",
    "prefectureNumber": 47,
    "prefecture": "沖縄県",
    "city": "中頭郡中城村",
    "town": "安里"
  },
  "9012411": {
    "zipcode": "9012411",
    "prefectureCode": "47",
    "prefectureNumber": 47,
    "prefecture": "沖縄県",
    "city": "中頭郡中城村",
    "town": "浜"
  },
  "9012412": {
    "zipcode": "9012412",
    "prefectureCode": "47",
    "prefectureNumber": 47,
    "prefecture": "沖縄県",
    "city": "中頭郡中城村",
    "town": "奥間"
  },
  "9012413": {
    "zipcode": "9012413",
    "prefectureCode": "47",
    "prefectureNumber": 47,
    "prefecture": "沖縄県",
    "city": "中頭郡中城村",
    "town": "津覇"
  },
  "9012414": {
    "zipcode": "9012414",
    "prefectureCode": "47",
    "prefectureNumber": 47,
    "prefecture": "沖縄県",
    "city": "中頭郡中城村",
    "town": "北浜"
  },
  "9012415": {
    "zipcode": "9012415",
    "prefectureCode": "47",
    "prefectureNumber": 47,
    "prefecture": "沖縄県",
    "city": "中頭郡中城村",
    "town": "南浜"
  },
  "9012416": {
    "zipcode": "9012416",
    "prefectureCode": "47",
    "prefectureNumber": 47,
    "prefecture": "沖縄県",
    "city": "中頭郡中城村",
    "town": "和宇慶"
  },
  "9012417": {
    "zipcode": "9012417",
    "prefectureCode": "47",
    "prefectureNumber": 47,
    "prefecture": "沖縄県",
    "city": "中頭郡中城村",
    "town": "伊集"
  },
  "9012421": {
    "zipcode": "9012421",
    "prefectureCode": "47",
    "prefectureNumber": 47,
    "prefecture": "沖縄県",
    "city": "中頭郡中城村",
    "town": "登又"
  },
  "9012422": {
    "zipcode": "9012422",
    "prefectureCode": "47",
    "prefectureNumber": 47,
    "prefecture": "沖縄県",
    "city": "中頭郡中城村",
    "town": "新垣"
  },
  "9012423": {
    "zipcode": "9012423",
    "prefectureCode": "47",
    "prefectureNumber": 47,
    "prefecture": "沖縄県",
    "city": "中頭郡中城村",
    "town": "北上原"
  },
  "9012424": {
    "zipcode": "9012424",
    "prefectureCode": "47",
    "prefectureNumber": 47,
    "prefecture": "沖縄県",
    "city": "中頭郡中城村",
    "town": "南上原"
  },
  "9013100": {
    "zipcode": "9013100",
    "prefectureCode": "47",
    "prefectureNumber": 47,
    "prefecture": "沖縄県",
    "city": "島尻郡久米島町",
    "town": "以下に掲載がない場合"
  },
  "9013101": {
    "zipcode": "9013101",
    "prefectureCode": "47",
    "prefectureNumber": 47,
    "prefecture": "沖縄県",
    "city": "島尻郡久米島町",
    "town": "宇江城"
  },
  "9013102": {
    "zipcode": "9013102",
    "prefectureCode": "47",
    "prefectureNumber": 47,
    "prefecture": "沖縄県",
    "city": "島尻郡久米島町",
    "town": "比屋定"
  },
  "9013103": {
    "zipcode": "9013103",
    "prefectureCode": "47",
    "prefectureNumber": 47,
    "prefecture": "沖縄県",
    "city": "島尻郡久米島町",
    "town": "阿嘉"
  },
  "9013104": {
    "zipcode": "9013104",
    "prefectureCode": "47",
    "prefectureNumber": 47,
    "prefecture": "沖縄県",
    "city": "島尻郡久米島町",
    "town": "真謝"
  },
  "9013105": {
    "zipcode": "9013105",
    "prefectureCode": "47",
    "prefectureNumber": 47,
    "prefecture": "沖縄県",
    "city": "島尻郡久米島町",
    "town": "宇根"
  },
  "9013106": {
    "zipcode": "9013106",
    "prefectureCode": "47",
    "prefectureNumber": 47,
    "prefecture": "沖縄県",
    "city": "島尻郡久米島町",
    "town": "奥武"
  },
  "9013107": {
    "zipcode": "9013107",
    "prefectureCode": "47",
    "prefectureNumber": 47,
    "prefecture": "沖縄県",
    "city": "島尻郡久米島町",
    "town": "謝名堂"
  },
  "9013108": {
    "zipcode": "9013108",
    "prefectureCode": "47",
    "prefectureNumber": 47,
    "prefecture": "沖縄県",
    "city": "島尻郡久米島町",
    "town": "比嘉"
  },
  "9013111": {
    "zipcode": "9013111",
    "prefectureCode": "47",
    "prefectureNumber": 47,
    "prefecture": "沖縄県",
    "city": "島尻郡久米島町",
    "town": "山城"
  },
  "9013112": {
    "zipcode": "9013112",
    "prefectureCode": "47",
    "prefectureNumber": 47,
    "prefecture": "沖縄県",
    "city": "島尻郡久米島町",
    "town": "真我里"
  },
  "9013113": {
    "zipcode": "9013113",
    "prefectureCode": "47",
    "prefectureNumber": 47,
    "prefecture": "沖縄県",
    "city": "島尻郡久米島町",
    "town": "銭田"
  },
  "9013114": {
    "zipcode": "9013114",
    "prefectureCode": "47",
    "prefectureNumber": 47,
    "prefecture": "沖縄県",
    "city": "島尻郡久米島町",
    "town": "島尻"
  },
  "9013115": {
    "zipcode": "9013115",
    "prefectureCode": "47",
    "prefectureNumber": 47,
    "prefecture": "沖縄県",
    "city": "島尻郡久米島町",
    "town": "儀間"
  },
  "9013121": {
    "zipcode": "9013121",
    "prefectureCode": "47",
    "prefectureNumber": 47,
    "prefecture": "沖縄県",
    "city": "島尻郡久米島町",
    "town": "嘉手苅"
  },
  "9013122": {
    "zipcode": "9013122",
    "prefectureCode": "47",
    "prefectureNumber": 47,
    "prefecture": "沖縄県",
    "city": "島尻郡久米島町",
    "town": "兼城"
  },
  "9013123": {
    "zipcode": "9013123",
    "prefectureCode": "47",
    "prefectureNumber": 47,
    "prefecture": "沖縄県",
    "city": "島尻郡久米島町",
    "town": "大田"
  },
  "9013124": {
    "zipcode": "9013124",
    "prefectureCode": "47",
    "prefectureNumber": 47,
    "prefecture": "沖縄県",
    "city": "島尻郡久米島町",
    "town": "仲泊"
  },
  "9013125": {
    "zipcode": "9013125",
    "prefectureCode": "47",
    "prefectureNumber": 47,
    "prefecture": "沖縄県",
    "city": "島尻郡久米島町",
    "town": "鳥島"
  },
  "9013131": {
    "zipcode": "9013131",
    "prefectureCode": "47",
    "prefectureNumber": 47,
    "prefecture": "沖縄県",
    "city": "島尻郡久米島町",
    "town": "西銘"
  },
  "9013132": {
    "zipcode": "9013132",
    "prefectureCode": "47",
    "prefectureNumber": 47,
    "prefecture": "沖縄県",
    "city": "島尻郡久米島町",
    "town": "大原"
  },
  "9013133": {
    "zipcode": "9013133",
    "prefectureCode": "47",
    "prefectureNumber": 47,
    "prefecture": "沖縄県",
    "city": "島尻郡久米島町",
    "town": "北原"
  },
  "9013134": {
    "zipcode": "9013134",
    "prefectureCode": "47",
    "prefectureNumber": 47,
    "prefecture": "沖縄県",
    "city": "島尻郡久米島町",
    "town": "具志川"
  },
  "9013135": {
    "zipcode": "9013135",
    "prefectureCode": "47",
    "prefectureNumber": 47,
    "prefecture": "沖縄県",
    "city": "島尻郡久米島町",
    "town": "仲村渠"
  },
  "9013136": {
    "zipcode": "9013136",
    "prefectureCode": "47",
    "prefectureNumber": 47,
    "prefecture": "沖縄県",
    "city": "島尻郡久米島町",
    "town": "仲地"
  },
  "9013137": {
    "zipcode": "9013137",
    "prefectureCode": "47",
    "prefectureNumber": 47,
    "prefecture": "沖縄県",
    "city": "島尻郡久米島町",
    "town": "山里"
  },
  "9013138": {
    "zipcode": "9013138",
    "prefectureCode": "47",
    "prefectureNumber": 47,
    "prefecture": "沖縄県",
    "city": "島尻郡久米島町",
    "town": "上江洲"
  },
  "9013311": {
    "zipcode": "9013311",
    "prefectureCode": "47",
    "prefectureNumber": 47,
    "prefecture": "沖縄県",
    "city": "島尻郡座間味村",
    "town": "阿嘉"
  },
  "9013312": {
    "zipcode": "9013312",
    "prefectureCode": "47",
    "prefectureNumber": 47,
    "prefecture": "沖縄県",
    "city": "島尻郡座間味村",
    "town": "慶留間"
  },
  "9013400": {
    "zipcode": "9013400",
    "prefectureCode": "47",
    "prefectureNumber": 47,
    "prefecture": "沖縄県",
    "city": "島尻郡座間味村",
    "town": "以下に掲載がない場合"
  },
  "9013401": {
    "zipcode": "9013401",
    "prefectureCode": "47",
    "prefectureNumber": 47,
    "prefecture": "沖縄県",
    "city": "島尻郡座間味村",
    "town": "阿佐"
  },
  "9013402": {
    "zipcode": "9013402",
    "prefectureCode": "47",
    "prefectureNumber": 47,
    "prefecture": "沖縄県",
    "city": "島尻郡座間味村",
    "town": "座間味"
  },
  "9013403": {
    "zipcode": "9013403",
    "prefectureCode": "47",
    "prefectureNumber": 47,
    "prefecture": "沖縄県",
    "city": "島尻郡座間味村",
    "town": "阿真"
  },
  "9013500": {
    "zipcode": "9013500",
    "prefectureCode": "47",
    "prefectureNumber": 47,
    "prefecture": "沖縄県",
    "city": "島尻郡渡嘉敷村",
    "town": "以下に掲載がない場合"
  },
  "9013501": {
    "zipcode": "9013501",
    "prefectureCode": "47",
    "prefectureNumber": 47,
    "prefecture": "沖縄県",
    "city": "島尻郡渡嘉敷村",
    "town": "渡嘉敷"
  },
  "9013502": {
    "zipcode": "9013502",
    "prefectureCode": "47",
    "prefectureNumber": 47,
    "prefecture": "沖縄県",
    "city": "島尻郡渡嘉敷村",
    "town": "阿波連"
  },
  "9013601": {
    "zipcode": "9013601",
    "prefectureCode": "47",
    "prefectureNumber": 47,
    "prefecture": "沖縄県",
    "city": "島尻郡渡名喜村",
    "town": "渡名喜村一円"
  },
  "9013700": {
    "zipcode": "9013700",
    "prefectureCode": "47",
    "prefectureNumber": 47,
    "prefecture": "沖縄県",
    "city": "島尻郡粟国村",
    "town": "以下に掲載がない場合"
  },
  "9013701": {
    "zipcode": "9013701",
    "prefectureCode": "47",
    "prefectureNumber": 47,
    "prefecture": "沖縄県",
    "city": "島尻郡粟国村",
    "town": "浜"
  },
  "9013702": {
    "zipcode": "9013702",
    "prefectureCode": "47",
    "prefectureNumber": 47,
    "prefecture": "沖縄県",
    "city": "島尻郡粟国村",
    "town": "東"
  },
  "9013703": {
    "zipcode": "9013703",
    "prefectureCode": "47",
    "prefectureNumber": 47,
    "prefecture": "沖縄県",
    "city": "島尻郡粟国村",
    "town": "西"
  },
  "9013800": {
    "zipcode": "9013800",
    "prefectureCode": "47",
    "prefectureNumber": 47,
    "prefecture": "沖縄県",
    "city": "島尻郡南大東村",
    "town": "以下に掲載がない場合"
  },
  "9013801": {
    "zipcode": "9013801",
    "prefectureCode": "47",
    "prefectureNumber": 47,
    "prefecture": "沖縄県",
    "city": "島尻郡南大東村",
    "town": "北"
  },
  "9013802": {
    "zipcode": "9013802",
    "prefectureCode": "47",
    "prefectureNumber": 47,
    "prefecture": "沖縄県",
    "city": "島尻郡南大東村",
    "town": "新東"
  },
  "9013803": {
    "zipcode": "9013803",
    "prefectureCode": "47",
    "prefectureNumber": 47,
    "prefecture": "沖縄県",
    "city": "島尻郡南大東村",
    "town": "旧東"
  },
  "9013804": {
    "zipcode": "9013804",
    "prefectureCode": "47",
    "prefectureNumber": 47,
    "prefecture": "沖縄県",
    "city": "島尻郡南大東村",
    "town": "南"
  },
  "9013805": {
    "zipcode": "9013805",
    "prefectureCode": "47",
    "prefectureNumber": 47,
    "prefecture": "沖縄県",
    "city": "島尻郡南大東村",
    "town": "在所"
  },
  "9013806": {
    "zipcode": "9013806",
    "prefectureCode": "47",
    "prefectureNumber": 47,
    "prefecture": "沖縄県",
    "city": "島尻郡南大東村",
    "town": "池之沢"
  },
  "9013900": {
    "zipcode": "9013900",
    "prefectureCode": "47",
    "prefectureNumber": 47,
    "prefecture": "沖縄県",
    "city": "島尻郡北大東村",
    "town": "以下に掲載がない場合"
  },
  "9013901": {
    "zipcode": "9013901",
    "prefectureCode": "47",
    "prefectureNumber": 47,
    "prefecture": "沖縄県",
    "city": "島尻郡北大東村",
    "town": "南"
  },
  "9013902": {
    "zipcode": "9013902",
    "prefectureCode": "47",
    "prefectureNumber": 47,
    "prefecture": "沖縄県",
    "city": "島尻郡北大東村",
    "town": "中野"
  },
  "9013903": {
    "zipcode": "9013903",
    "prefectureCode": "47",
    "prefectureNumber": 47,
    "prefecture": "沖縄県",
    "city": "島尻郡北大東村",
    "town": "港"
  }
}
