{
  "9020061": {
    "zipcode": "9020061",
    "prefectureCode": "47",
    "prefectureNumber": 47,
    "prefecture": "沖縄県",
    "city": "那覇市",
    "town": "古島"
  },
  "9020062": {
    "zipcode": "9020062",
    "prefectureCode": "47",
    "prefectureNumber": 47,
    "prefecture": "沖縄県",
    "city": "那覇市",
    "town": "松川"
  },
  "9020063": {
    "zipcode": "9020063",
    "prefectureCode": "47",
    "prefectureNumber": 47,
    "prefecture": "沖縄県",
    "city": "那覇市",
    "town": "三原"
  },
  "9020064": {
    "zipcode": "9020064",
    "prefectureCode": "47",
    "prefectureNumber": 47,
    "prefecture": "沖縄県",
    "city": "那覇市",
    "town": "寄宮"
  },
  "9020065": {
    "zipcode": "9020065",
    "prefectureCode": "47",
    "prefectureNumber": 47,
    "prefecture": "沖縄県",
    "city": "那覇市",
    "town": "壺屋"
  },
  "9020066": {
    "zipcode": "9020066",
    "prefectureCode": "47",
    "prefectureNumber": 47,
    "prefecture": "沖縄県",
    "city": "那覇市",
    "town": "大道"
  },
  "9020067": {
    "zipcode": "9020067",
    "prefectureCode": "47",
    "prefectureNumber": 47,
    "prefecture": "沖縄県",
    "city": "那覇市",
    "town": "安里"
  },
  "9020068": {
    "zipcode": "9020068",
    "prefectureCode": "47",
    "prefectureNumber": 47,
    "prefecture": "沖縄県",
    "city": "那覇市",
    "town": "真嘉比"
  },
  "9020069": {
    "zipcode": "9020069",
    "prefectureCode": "47",
    "prefectureNumber": 47,
    "prefecture": "沖縄県",
    "city": "那覇市",
    "town": "松島"
  },
  "9020071": {
    "zipcode": "9020071",
    "prefectureCode": "47",
    "prefectureNumber": 47,
    "prefecture": "沖縄県",
    "city": "那覇市",
    "town": "繁多川"
  },
  "9020072": {
    "zipcode": "9020072",
    "prefectureCode": "47",
    "prefectureNumber": 47,
    "prefecture": "沖縄県",
    "city": "那覇市",
    "town": "真地"
  },
  "9020073": {
    "zipcode": "9020073",
    "prefectureCode": "47",
    "prefectureNumber": 47,
    "prefecture": "沖縄県",
    "city": "那覇市",
    "town": "上間"
  },
  "9020074": {
    "zipcode": "9020074",
    "prefectureCode": "47",
    "prefectureNumber": 47,
    "prefecture": "沖縄県",
    "city": "那覇市",
    "town": "仲井真"
  },
  "9020075": {
    "zipcode": "9020075",
    "prefectureCode": "47",
    "prefectureNumber": 47,
    "prefecture": "沖縄県",
    "city": "那覇市",
    "town": "国場"
  },
  "9020076": {
    "zipcode": "9020076",
    "prefectureCode": "47",
    "prefectureNumber": 47,
    "prefecture": "沖縄県",
    "city": "那覇市",
    "town": "与儀"
  },
  "9020077": {
    "zipcode": "9020077",
    "prefectureCode": "47",
    "prefectureNumber": 47,
    "prefecture": "沖縄県",
    "city": "那覇市",
    "town": "長田"
  },
  "9020078": {
    "zipcode": "9020078",
    "prefectureCode": "47",
    "prefectureNumber": 47,
    "prefecture": "沖縄県",
    "city": "那覇市",
    "town": "識名"
  }
}
