{
  "9030100": {
    "zipcode": "9030100",
    "prefectureCode": "47",
    "prefectureNumber": 47,
    "prefecture": "沖縄県",
    "city": "中頭郡西原町",
    "town": "以下に掲載がない場合"
  },
  "9030101": {
    "zipcode": "9030101",
    "prefectureCode": "47",
    "prefectureNumber": 47,
    "prefecture": "沖縄県",
    "city": "中頭郡西原町",
    "town": "掛保久"
  },
  "9030102": {
    "zipcode": "9030102",
    "prefectureCode": "47",
    "prefectureNumber": 47,
    "prefecture": "沖縄県",
    "city": "中頭郡西原町",
    "town": "嘉手苅"
  },
  "9030103": {
    "zipcode": "9030103",
    "prefectureCode": "47",
    "prefectureNumber": 47,
    "prefecture": "沖縄県",
    "city": "中頭郡西原町",
    "town": "小那覇"
  },
  "9030104": {
    "zipcode": "9030104",
    "prefectureCode": "47",
    "prefectureNumber": 47,
    "prefecture": "沖縄県",
    "city": "中頭郡西原町",
    "town": "兼久"
  },
  "9030105": {
    "zipcode": "9030105",
    "prefectureCode": "47",
    "prefectureNumber": 47,
    "prefecture": "沖縄県",
    "city": "中頭郡西原町",
    "town": "東崎"
  },
  "9030111": {
    "zipcode": "9030111",
    "prefectureCode": "47",
    "prefectureNumber": 47,
    "prefecture": "沖縄県",
    "city": "中頭郡西原町",
    "town": "与那城"
  },
  "9030112": {
    "zipcode": "9030112",
    "prefectureCode": "47",
    "prefectureNumber": 47,
    "prefecture": "沖縄県",
    "city": "中頭郡西原町",
    "town": "我謝"
  },
  "9030113": {
    "zipcode": "9030113",
    "prefectureCode": "47",
    "prefectureNumber": 47,
    "prefecture": "沖縄県",
    "city": "中頭郡西原町",
    "town": "安室"
  },
  "9030114": {
    "zipcode": "9030114",
    "prefectureCode": "47",
    "prefectureNumber": 47,
    "prefecture": "沖縄県",
    "city": "中頭郡西原町",
    "town": "桃原"
  },
  "9030115": {
    "zipcode": "9030115",
    "prefectureCode": "47",
    "prefectureNumber": 47,
    "prefecture": "沖縄県",
    "city": "中頭郡西原町",
    "town": "池田"
  },
  "9030116": {
    "zipcode": "9030116",
    "prefectureCode": "47",
    "prefectureNumber": 47,
    "prefecture": "沖縄県",
    "city": "中頭郡西原町",
    "town": "幸地"
  },
  "9030117": {
    "zipcode": "9030117",
    "prefectureCode": "47",
    "prefectureNumber": 47,
    "prefecture": "沖縄県",
    "city": "中頭郡西原町",
    "town": "翁長"
  },
  "9030118": {
    "zipcode": "9030118",
    "prefectureCode": "47",
    "prefectureNumber": 47,
    "prefecture": "沖縄県",
    "city": "中頭郡西原町",
    "town": "小波津"
  },
  "9030121": {
    "zipcode": "9030121",
    "prefectureCode": "47",
    "prefectureNumber": 47,
    "prefecture": "沖縄県",
    "city": "中頭郡西原町",
    "town": "内間"
  },
  "9030122": {
    "zipcode": "9030122",
    "prefectureCode": "47",
    "prefectureNumber": 47,
    "prefecture": "沖縄県",
    "city": "中頭郡西原町",
    "town": "小橋川"
  },
  "9030123": {
    "zipcode": "9030123",
    "prefectureCode": "47",
    "prefectureNumber": 47,
    "prefecture": "沖縄県",
    "city": "中頭郡西原町",
    "town": "津花波"
  },
  "9030124": {
    "zipcode": "9030124",
    "prefectureCode": "47",
    "prefectureNumber": 47,
    "prefecture": "沖縄県",
    "city": "中頭郡西原町",
    "town": "呉屋"
  },
  "9030125": {
    "zipcode": "9030125",
    "prefectureCode": "47",
    "prefectureNumber": 47,
    "prefecture": "沖縄県",
    "city": "中頭郡西原町",
    "town": "上原"
  },
  "9030126": {
    "zipcode": "9030126",
    "prefectureCode": "47",
    "prefectureNumber": 47,
    "prefecture": "沖縄県",
    "city": "中頭郡西原町",
    "town": "棚原"
  },
  "9030127": {
    "zipcode": "9030127",
    "prefectureCode": "47",
    "prefectureNumber": 47,
    "prefecture": "沖縄県",
    "city": "中頭郡西原町",
    "town": "徳佐田"
  },
  "9030128": {
    "zipcode": "9030128",
    "prefectureCode": "47",
    "prefectureNumber": 47,
    "prefecture": "沖縄県",
    "city": "中頭郡西原町",
    "town": "森川"
  },
  "9030129": {
    "zipcode": "9030129",
    "prefectureCode": "47",
    "prefectureNumber": 47,
    "prefecture": "沖縄県",
    "city": "中頭郡西原町",
    "town": "千原"
  },
  "9030801": {
    "zipcode": "9030801",
    "prefectureCode": "47",
    "prefectureNumber": 47,
    "prefecture": "沖縄県",
    "city": "那覇市",
    "town": "首里末吉町"
  },
  "9030802": {
    "zipcode": "9030802",
    "prefectureCode": "47",
    "prefectureNumber": 47,
    "prefecture": "沖縄県",
    "city": "那覇市",
    "town": "首里大名町"
  },
  "9030803": {
    "zipcode": "9030803",
    "prefectureCode": "47",
    "prefectureNumber": 47,
    "prefecture": "沖縄県",
    "city": "那覇市",
    "town": "首里平良町"
  },
  "9030804": {
    "zipcode": "9030804",
    "prefectureCode": "47",
    "prefectureNumber": 47,
    "prefecture": "沖縄県",
    "city": "那覇市",
    "town": "首里石嶺町"
  },
  "9030805": {
    "zipcode": "9030805",
    "prefectureCode": "47",
    "prefectureNumber": 47,
    "prefecture": "沖縄県",
    "city": "那覇市",
    "town": "首里鳥堀町"
  },
  "9030806": {
    "zipcode": "9030806",
    "prefectureCode": "47",
    "prefectureNumber": 47,
    "prefecture": "沖縄県",
    "city": "那覇市",
    "town": "首里汀良町"
  },
  "9030807": {
    "zipcode": "9030807",
    "prefectureCode": "47",
    "prefectureNumber": 47,
    "prefecture": "沖縄県",
    "city": "那覇市",
    "town": "首里久場川町"
  },
  "9030811": {
    "zipcode": "9030811",
    "prefectureCode": "47",
    "prefectureNumber": 47,
    "prefecture": "沖縄県",
    "city": "那覇市",
    "town": "首里赤平町"
  },
  "9030812": {
    "zipcode": "9030812",
    "prefectureCode": "47",
    "prefectureNumber": 47,
    "prefecture": "沖縄県",
    "city": "那覇市",
    "town": "首里当蔵町"
  },
  "9030813": {
    "zipcode": "9030813",
    "prefectureCode": "47",
    "prefectureNumber": 47,
    "prefecture": "沖縄県",
    "city": "那覇市",
    "town": "首里赤田町"
  },
  "9030814": {
    "zipcode": "9030814",
    "prefectureCode": "47",
    "prefectureNumber": 47,
    "prefecture": "沖縄県",
    "city": "那覇市",
    "town": "首里崎山町"
  },
  "9030815": {
    "zipcode": "9030815",
    "prefectureCode": "47",
    "prefectureNumber": 47,
    "prefecture": "沖縄県",
    "city": "那覇市",
    "town": "首里金城町"
  },
  "9030816": {
    "zipcode": "9030816",
    "prefectureCode": "47",
    "prefectureNumber": 47,
    "prefecture": "沖縄県",
    "city": "那覇市",
    "town": "首里真和志町"
  },
  "9030821": {
    "zipcode": "9030821",
    "prefectureCode": "47",
    "prefectureNumber": 47,
    "prefecture": "沖縄県",
    "city": "那覇市",
    "town": "首里儀保町"
  },
  "9030822": {
    "zipcode": "9030822",
    "prefectureCode": "47",
    "prefectureNumber": 47,
    "prefecture": "沖縄県",
    "city": "那覇市",
    "town": "首里桃原町"
  },
  "9030823": {
    "zipcode": "9030823",
    "prefectureCode": "47",
    "prefectureNumber": 47,
    "prefecture": "沖縄県",
    "city": "那覇市",
    "town": "首里大中町"
  },
  "9030824": {
    "zipcode": "9030824",
    "prefectureCode": "47",
    "prefectureNumber": 47,
    "prefecture": "沖縄県",
    "city": "那覇市",
    "town": "首里池端町"
  },
  "9030825": {
    "zipcode": "9030825",
    "prefectureCode": "47",
    "prefectureNumber": 47,
    "prefecture": "沖縄県",
    "city": "那覇市",
    "town": "首里山川町"
  },
  "9030826": {
    "zipcode": "9030826",
    "prefectureCode": "47",
    "prefectureNumber": 47,
    "prefecture": "沖縄県",
    "city": "那覇市",
    "town": "首里寒川町"
  }
}
