{
  "9040000": {
    "zipcode": "9040000",
    "prefectureCode": "47",
    "prefectureNumber": 47,
    "prefecture": "沖縄県",
    "city": "沖縄市",
    "town": "以下に掲載がない場合"
  },
  "9040001": {
    "zipcode": "9040001",
    "prefectureCode": "47",
    "prefectureNumber": 47,
    "prefecture": "沖縄県",
    "city": "沖縄市",
    "town": "越来"
  },
  "9040002": {
    "zipcode": "9040002",
    "prefectureCode": "47",
    "prefectureNumber": 47,
    "prefecture": "沖縄県",
    "city": "沖縄市",
    "town": "城前町"
  },
  "9040003": {
    "zipcode": "9040003",
    "prefectureCode": "47",
    "prefectureNumber": 47,
    "prefecture": "沖縄県",
    "city": "沖縄市",
    "town": "住吉"
  },
  "9040004": {
    "zipcode": "9040004",
    "prefectureCode": "47",
    "prefectureNumber": 47,
    "prefecture": "沖縄県",
    "city": "沖縄市",
    "town": "中央"
  },
  "9040005": {
    "zipcode": "9040005",
    "prefectureCode": "47",
    "prefectureNumber": 47,
    "prefecture": "沖縄県",
    "city": "沖縄市",
    "town": "嘉間良"
  },
  "9040006": {
    "zipcode": "9040006",
    "prefectureCode": "47",
    "prefectureNumber": 47,
    "prefecture": "沖縄県",
    "city": "沖縄市",
    "town": "八重島"
  },
  "9040011": {
    "zipcode": "9040011",
    "prefectureCode": "47",
    "prefectureNumber": 47,
    "prefecture": "沖縄県",
    "city": "沖縄市",
    "town": "照屋"
  },
  "9040012": {
    "zipcode": "9040012",
    "prefectureCode": "47",
    "prefectureNumber": 47,
    "prefecture": "沖縄県",
    "city": "沖縄市",
    "town": "安慶田"
  },
  "9040013": {
    "zipcode": "9040013",
    "prefectureCode": "47",
    "prefectureNumber": 47,
    "prefecture": "沖縄県",
    "city": "沖縄市",
    "town": "室川"
  },
  "9040014": {
    "zipcode": "9040014",
    "prefectureCode": "47",
    "prefectureNumber": 47,
    "prefecture": "沖縄県",
    "city": "沖縄市",
    "town": "仲宗根町"
  },
  "9040021": {
    "zipcode": "9040021",
    "prefectureCode": "47",
    "prefectureNumber": 47,
    "prefecture": "沖縄県",
    "city": "沖縄市",
    "town": "胡屋"
  },
  "9040022": {
    "zipcode": "9040022",
    "prefectureCode": "47",
    "prefectureNumber": 47,
    "prefecture": "沖縄県",
    "city": "沖縄市",
    "town": "園田"
  },
  "9040023": {
    "zipcode": "9040023",
    "prefectureCode": "47",
    "prefectureNumber": 47,
    "prefecture": "沖縄県",
    "city": "沖縄市",
    "town": "久保田"
  },
  "9040031": {
    "zipcode": "9040031",
    "prefectureCode": "47",
    "prefectureNumber": 47,
    "prefecture": "沖縄県",
    "city": "沖縄市",
    "town": "上地"
  },
  "9040032": {
    "zipcode": "9040032",
    "prefectureCode": "47",
    "prefectureNumber": 47,
    "prefecture": "沖縄県",
    "city": "沖縄市",
    "town": "諸見里"
  },
  "9040033": {
    "zipcode": "9040033",
    "prefectureCode": "47",
    "prefectureNumber": 47,
    "prefecture": "沖縄県",
    "city": "沖縄市",
    "town": "山里"
  },
  "9040034": {
    "zipcode": "9040034",
    "prefectureCode": "47",
    "prefectureNumber": 47,
    "prefecture": "沖縄県",
    "city": "沖縄市",
    "town": "山内"
  },
  "9040035": {
    "zipcode": "9040035",
    "prefectureCode": "47",
    "prefectureNumber": 47,
    "prefecture": "沖縄県",
    "city": "沖縄市",
    "town": "南桃原"
  },
  "9040100": {
    "zipcode": "9040100",
    "prefectureCode": "47",
    "prefectureNumber": 47,
    "prefecture": "沖縄県",
    "city": "中頭郡北谷町",
    "town": "以下に掲載がない場合"
  },
  "9040101": {
    "zipcode": "9040101",
    "prefectureCode": "47",
    "prefectureNumber": 47,
    "prefecture": "沖縄県",
    "city": "中頭郡北谷町",
    "town": "上勢頭"
  },
  "9040102": {
    "zipcode": "9040102",
    "prefectureCode": "47",
    "prefectureNumber": 47,
    "prefecture": "沖縄県",
    "city": "中頭郡北谷町",
    "town": "伊平"
  },
  "9040103": {
    "zipcode": "9040103",
    "prefectureCode": "47",
    "prefectureNumber": 47,
    "prefecture": "沖縄県",
    "city": "中頭郡北谷町",
    "town": "桑江"
  },
  "9040104": {
    "zipcode": "9040104",
    "prefectureCode": "47",
    "prefectureNumber": 47,
    "prefecture": "沖縄県",
    "city": "中頭郡北谷町",
    "town": "桃原"
  },
  "9040105": {
    "zipcode": "9040105",
    "prefectureCode": "47",
    "prefectureNumber": 47,
    "prefecture": "沖縄県",
    "city": "中頭郡北谷町",
    "town": "吉原"
  },
  "9040106": {
    "zipcode": "9040106",
    "prefectureCode": "47",
    "prefectureNumber": 47,
    "prefecture": "沖縄県",
    "city": "中頭郡北谷町",
    "town": "玉上"
  },
  "9040107": {
    "zipcode": "9040107",
    "prefectureCode": "47",
    "prefectureNumber": 47,
    "prefecture": "沖縄県",
    "city": "中頭郡北谷町",
    "town": "大村"
  },
  "9040111": {
    "zipcode": "9040111",
    "prefectureCode": "47",
    "prefectureNumber": 47,
    "prefecture": "沖縄県",
    "city": "中頭郡北谷町",
    "town": "砂辺"
  },
  "9040112": {
    "zipcode": "9040112",
    "prefectureCode": "47",
    "prefectureNumber": 47,
    "prefecture": "沖縄県",
    "city": "中頭郡北谷町",
    "town": "浜川"
  },
  "9040113": {
    "zipcode": "9040113",
    "prefectureCode": "47",
    "prefectureNumber": 47,
    "prefecture": "沖縄県",
    "city": "中頭郡北谷町",
    "town": "宮城"
  },
  "9040114": {
    "zipcode": "9040114",
    "prefectureCode": "47",
    "prefectureNumber": 47,
    "prefecture": "沖縄県",
    "city": "中頭郡北谷町",
    "town": "港"
  },
  "9040115": {
    "zipcode": "9040115",
    "prefectureCode": "47",
    "prefectureNumber": 47,
    "prefecture": "沖縄県",
    "city": "中頭郡北谷町",
    "town": "美浜"
  },
  "9040116": {
    "zipcode": "9040116",
    "prefectureCode": "47",
    "prefectureNumber": 47,
    "prefecture": "沖縄県",
    "city": "中頭郡北谷町",
    "town": "北谷"
  },
  "9040117": {
    "zipcode": "9040117",
    "prefectureCode": "47",
    "prefectureNumber": 47,
    "prefecture": "沖縄県",
    "city": "中頭郡北谷町",
    "town": "北前"
  },
  "9040200": {
    "zipcode": "9040200",
    "prefectureCode": "47",
    "prefectureNumber": 47,
    "prefecture": "沖縄県",
    "city": "中頭郡嘉手納町",
    "town": "以下に掲載がない場合"
  },
  "9040201": {
    "zipcode": "9040201",
    "prefectureCode": "47",
    "prefectureNumber": 47,
    "prefecture": "沖縄県",
    "city": "中頭郡嘉手納町",
    "town": "久得"
  },
  "9040202": {
    "zipcode": "9040202",
    "prefectureCode": "47",
    "prefectureNumber": 47,
    "prefecture": "沖縄県",
    "city": "中頭郡嘉手納町",
    "town": "屋良"
  },
  "9040203": {
    "zipcode": "9040203",
    "prefectureCode": "47",
    "prefectureNumber": 47,
    "prefecture": "沖縄県",
    "city": "中頭郡嘉手納町",
    "town": "嘉手納"
  },
  "9040204": {
    "zipcode": "9040204",
    "prefectureCode": "47",
    "prefectureNumber": 47,
    "prefecture": "沖縄県",
    "city": "中頭郡嘉手納町",
    "town": "水釜"
  },
  "9040205": {
    "zipcode": "9040205",
    "prefectureCode": "47",
    "prefectureNumber": 47,
    "prefecture": "沖縄県",
    "city": "中頭郡嘉手納町",
    "town": "兼久"
  },
  "9040300": {
    "zipcode": "9040300",
    "prefectureCode": "47",
    "prefectureNumber": 47,
    "prefecture": "沖縄県",
    "city": "中頭郡読谷村",
    "town": "以下に掲載がない場合"
  },
  "9040301": {
    "zipcode": "9040301",
    "prefectureCode": "47",
    "prefectureNumber": 47,
    "prefecture": "沖縄県",
    "city": "中頭郡読谷村",
    "town": "座喜味"
  },
  "9040302": {
    "zipcode": "9040302",
    "prefectureCode": "47",
    "prefectureNumber": 47,
    "prefecture": "沖縄県",
    "city": "中頭郡読谷村",
    "town": "喜名"
  },
  "9040303": {
    "zipcode": "9040303",
    "prefectureCode": "47",
    "prefectureNumber": 47,
    "prefecture": "沖縄県",
    "city": "中頭郡読谷村",
    "town": "伊良皆"
  },
  "9040304": {
    "zipcode": "9040304",
    "prefectureCode": "47",
    "prefectureNumber": 47,
    "prefecture": "沖縄県",
    "city": "中頭郡読谷村",
    "town": "楚辺"
  },
  "9040305": {
    "zipcode": "9040305",
    "prefectureCode": "47",
    "prefectureNumber": 47,
    "prefecture": "沖縄県",
    "city": "中頭郡読谷村",
    "town": "都屋"
  },
  "9040311": {
    "zipcode": "9040311",
    "prefectureCode": "47",
    "prefectureNumber": 47,
    "prefecture": "沖縄県",
    "city": "中頭郡読谷村",
    "town": "比謝"
  },
  "9040312": {
    "zipcode": "9040312",
    "prefectureCode": "47",
    "prefectureNumber": 47,
    "prefecture": "沖縄県",
    "city": "中頭郡読谷村",
    "town": "比謝矼"
  },
  "9040313": {
    "zipcode": "9040313",
    "prefectureCode": "47",
    "prefectureNumber": 47,
    "prefecture": "沖縄県",
    "city": "中頭郡読谷村",
    "town": "大湾"
  },
  "9040314": {
    "zipcode": "9040314",
    "prefectureCode": "47",
    "prefectureNumber": 47,
    "prefecture": "沖縄県",
    "city": "中頭郡読谷村",
    "town": "古堅"
  },
  "9040315": {
    "zipcode": "9040315",
    "prefectureCode": "47",
    "prefectureNumber": 47,
    "prefecture": "沖縄県",
    "city": "中頭郡読谷村",
    "town": "渡具知"
  },
  "9040316": {
    "zipcode": "9040316",
    "prefectureCode": "47",
    "prefectureNumber": 47,
    "prefecture": "沖縄県",
    "city": "中頭郡読谷村",
    "town": "大木"
  },
  "9040317": {
    "zipcode": "9040317",
    "prefectureCode": "47",
    "prefectureNumber": 47,
    "prefecture": "沖縄県",
    "city": "中頭郡読谷村",
    "town": "ときわ"
  },
  "9040321": {
    "zipcode": "9040321",
    "prefectureCode": "47",
    "prefectureNumber": 47,
    "prefecture": "沖縄県",
    "city": "中頭郡読谷村",
    "town": "上地"
  },
  "9040322": {
    "zipcode": "9040322",
    "prefectureCode": "47",
    "prefectureNumber": 47,
    "prefecture": "沖縄県",
    "city": "中頭郡読谷村",
    "town": "波平"
  },
  "9040323": {
    "zipcode": "9040323",
    "prefectureCode": "47",
    "prefectureNumber": 47,
    "prefecture": "沖縄県",
    "city": "中頭郡読谷村",
    "town": "高志保"
  },
  "9040324": {
    "zipcode": "9040324",
    "prefectureCode": "47",
    "prefectureNumber": 47,
    "prefecture": "沖縄県",
    "city": "中頭郡読谷村",
    "town": "長浜"
  },
  "9040325": {
    "zipcode": "9040325",
    "prefectureCode": "47",
    "prefectureNumber": 47,
    "prefecture": "沖縄県",
    "city": "中頭郡読谷村",
    "town": "瀬名波"
  },
  "9040326": {
    "zipcode": "9040326",
    "prefectureCode": "47",
    "prefectureNumber": 47,
    "prefecture": "沖縄県",
    "city": "中頭郡読谷村",
    "town": "渡慶次"
  },
  "9040327": {
    "zipcode": "9040327",
    "prefectureCode": "47",
    "prefectureNumber": 47,
    "prefecture": "沖縄県",
    "city": "中頭郡読谷村",
    "town": "儀間"
  },
  "9040328": {
    "zipcode": "9040328",
    "prefectureCode": "47",
    "prefectureNumber": 47,
    "prefecture": "沖縄県",
    "city": "中頭郡読谷村",
    "town": "宇座"
  },
  "9040400": {
    "zipcode": "9040400",
    "prefectureCode": "47",
    "prefectureNumber": 47,
    "prefecture": "沖縄県",
    "city": "国頭郡恩納村",
    "town": "以下に掲載がない場合"
  },
  "9040401": {
    "zipcode": "9040401",
    "prefectureCode": "47",
    "prefectureNumber": 47,
    "prefecture": "沖縄県",
    "city": "国頭郡恩納村",
    "town": "名嘉真"
  },
  "9040402": {
    "zipcode": "9040402",
    "prefectureCode": "47",
    "prefectureNumber": 47,
    "prefecture": "沖縄県",
    "city": "国頭郡恩納村",
    "town": "安富祖"
  },
  "9040403": {
    "zipcode": "9040403",
    "prefectureCode": "47",
    "prefectureNumber": 47,
    "prefecture": "沖縄県",
    "city": "国頭郡恩納村",
    "town": "喜瀬武原"
  },
  "9040404": {
    "zipcode": "9040404",
    "prefectureCode": "47",
    "prefectureNumber": 47,
    "prefecture": "沖縄県",
    "city": "国頭郡恩納村",
    "town": "瀬良垣"
  },
  "9040411": {
    "zipcode": "9040411",
    "prefectureCode": "47",
    "prefectureNumber": 47,
    "prefecture": "沖縄県",
    "city": "国頭郡恩納村",
    "town": "恩納"
  },
  "9040412": {
    "zipcode": "9040412",
    "prefectureCode": "47",
    "prefectureNumber": 47,
    "prefecture": "沖縄県",
    "city": "国頭郡恩納村",
    "town": "谷茶"
  },
  "9040413": {
    "zipcode": "9040413",
    "prefectureCode": "47",
    "prefectureNumber": 47,
    "prefecture": "沖縄県",
    "city": "国頭郡恩納村",
    "town": "冨着"
  },
  "9040414": {
    "zipcode": "9040414",
    "prefectureCode": "47",
    "prefectureNumber": 47,
    "prefecture": "沖縄県",
    "city": "国頭郡恩納村",
    "town": "前兼久"
  },
  "9040415": {
    "zipcode": "9040415",
    "prefectureCode": "47",
    "prefectureNumber": 47,
    "prefecture": "沖縄県",
    "city": "国頭郡恩納村",
    "town": "仲泊"
  },
  "9040416": {
    "zipcode": "9040416",
    "prefectureCode": "47",
    "prefectureNumber": 47,
    "prefecture": "沖縄県",
    "city": "国頭郡恩納村",
    "town": "山田"
  },
  "9040417": {
    "zipcode": "9040417",
    "prefectureCode": "47",
    "prefectureNumber": 47,
    "prefecture": "沖縄県",
    "city": "国頭郡恩納村",
    "town": "真栄田"
  },
  "9041101": {
    "zipcode": "9041101",
    "prefectureCode": "47",
    "prefectureNumber": 47,
    "prefecture": "沖縄県",
    "city": "うるま市",
    "town": "石川東山本町"
  },
  "9041102": {
    "zipcode": "9041102",
    "prefectureCode": "47",
    "prefectureNumber": 47,
    "prefecture": "沖縄県",
    "city": "うるま市",
    "town": "石川東山"
  },
  "9041103": {
    "zipcode": "9041103",
    "prefectureCode": "47",
    "prefectureNumber": 47,
    "prefecture": "沖縄県",
    "city": "うるま市",
    "town": "石川赤崎"
  },
  "9041104": {
    "zipcode": "9041104",
    "prefectureCode": "47",
    "prefectureNumber": 47,
    "prefecture": "沖縄県",
    "city": "うるま市",
    "town": "石川石崎"
  },
  "9041105": {
    "zipcode": "9041105",
    "prefectureCode": "47",
    "prefectureNumber": 47,
    "prefecture": "沖縄県",
    "city": "うるま市",
    "town": "石川白浜"
  },
  "9041106": {
    "zipcode": "9041106",
    "prefectureCode": "47",
    "prefectureNumber": 47,
    "prefecture": "沖縄県",
    "city": "うるま市",
    "town": "石川"
  },
  "9041107": {
    "zipcode": "9041107",
    "prefectureCode": "47",
    "prefectureNumber": 47,
    "prefecture": "沖縄県",
    "city": "うるま市",
    "town": "石川曙"
  },
  "9041108": {
    "zipcode": "9041108",
    "prefectureCode": "47",
    "prefectureNumber": 47,
    "prefecture": "沖縄県",
    "city": "うるま市",
    "town": "石川東恩納崎"
  },
  "9041111": {
    "zipcode": "9041111",
    "prefectureCode": "47",
    "prefectureNumber": 47,
    "prefecture": "沖縄県",
    "city": "うるま市",
    "town": "石川東恩納"
  },
  "9041112": {
    "zipcode": "9041112",
    "prefectureCode": "47",
    "prefectureNumber": 47,
    "prefecture": "沖縄県",
    "city": "うるま市",
    "town": "石川楚南"
  },
  "9041113": {
    "zipcode": "9041113",
    "prefectureCode": "47",
    "prefectureNumber": 47,
    "prefecture": "沖縄県",
    "city": "うるま市",
    "town": "石川山城"
  },
  "9041114": {
    "zipcode": "9041114",
    "prefectureCode": "47",
    "prefectureNumber": 47,
    "prefecture": "沖縄県",
    "city": "うるま市",
    "town": "石川嘉手苅"
  },
  "9041115": {
    "zipcode": "9041115",
    "prefectureCode": "47",
    "prefectureNumber": 47,
    "prefecture": "沖縄県",
    "city": "うるま市",
    "town": "石川伊波"
  },
  "9041200": {
    "zipcode": "9041200",
    "prefectureCode": "47",
    "prefectureNumber": 47,
    "prefecture": "沖縄県",
    "city": "国頭郡金武町",
    "town": "以下に掲載がない場合"
  },
  "9041201": {
    "zipcode": "9041201",
    "prefectureCode": "47",
    "prefectureNumber": 47,
    "prefecture": "沖縄県",
    "city": "国頭郡金武町",
    "town": "金武"
  },
  "9041202": {
    "zipcode": "9041202",
    "prefectureCode": "47",
    "prefectureNumber": 47,
    "prefecture": "沖縄県",
    "city": "国頭郡金武町",
    "town": "伊芸"
  },
  "9041203": {
    "zipcode": "9041203",
    "prefectureCode": "47",
    "prefectureNumber": 47,
    "prefecture": "沖縄県",
    "city": "国頭郡金武町",
    "town": "屋嘉"
  },
  "9041300": {
    "zipcode": "9041300",
    "prefectureCode": "47",
    "prefectureNumber": 47,
    "prefecture": "沖縄県",
    "city": "国頭郡宜野座村",
    "town": "以下に掲載がない場合"
  },
  "9041301": {
    "zipcode": "9041301",
    "prefectureCode": "47",
    "prefectureNumber": 47,
    "prefecture": "沖縄県",
    "city": "国頭郡宜野座村",
    "town": "松田"
  },
  "9041302": {
    "zipcode": "9041302",
    "prefectureCode": "47",
    "prefectureNumber": 47,
    "prefecture": "沖縄県",
    "city": "国頭郡宜野座村",
    "town": "宜野座"
  },
  "9041303": {
    "zipcode": "9041303",
    "prefectureCode": "47",
    "prefectureNumber": 47,
    "prefecture": "沖縄県",
    "city": "国頭郡宜野座村",
    "town": "惣慶"
  },
  "9041304": {
    "zipcode": "9041304",
    "prefectureCode": "47",
    "prefectureNumber": 47,
    "prefecture": "沖縄県",
    "city": "国頭郡宜野座村",
    "town": "漢那"
  },
  "9042141": {
    "zipcode": "9042141",
    "prefectureCode": "47",
    "prefectureNumber": 47,
    "prefecture": "沖縄県",
    "city": "沖縄市",
    "town": "池原"
  },
  "9042142": {
    "zipcode": "9042142",
    "prefectureCode": "47",
    "prefectureNumber": 47,
    "prefecture": "沖縄県",
    "city": "沖縄市",
    "town": "登川"
  },
  "9042143": {
    "zipcode": "9042143",
    "prefectureCode": "47",
    "prefectureNumber": 47,
    "prefecture": "沖縄県",
    "city": "沖縄市",
    "town": "知花"
  },
  "9042144": {
    "zipcode": "9042144",
    "prefectureCode": "47",
    "prefectureNumber": 47,
    "prefecture": "沖縄県",
    "city": "沖縄市",
    "town": "白川"
  },
  "9042145": {
    "zipcode": "9042145",
    "prefectureCode": "47",
    "prefectureNumber": 47,
    "prefecture": "沖縄県",
    "city": "沖縄市",
    "town": "倉敷"
  },
  "9042151": {
    "zipcode": "9042151",
    "prefectureCode": "47",
    "prefectureNumber": 47,
    "prefecture": "沖縄県",
    "city": "沖縄市",
    "town": "松本"
  },
  "9042152": {
    "zipcode": "9042152",
    "prefectureCode": "47",
    "prefectureNumber": 47,
    "prefecture": "沖縄県",
    "city": "沖縄市",
    "town": "明道"
  },
  "9042153": {
    "zipcode": "9042153",
    "prefectureCode": "47",
    "prefectureNumber": 47,
    "prefecture": "沖縄県",
    "city": "沖縄市",
    "town": "美里"
  },
  "9042154": {
    "zipcode": "9042154",
    "prefectureCode": "47",
    "prefectureNumber": 47,
    "prefecture": "沖縄県",
    "city": "沖縄市",
    "town": "東"
  },
  "9042155": {
    "zipcode": "9042155",
    "prefectureCode": "47",
    "prefectureNumber": 47,
    "prefecture": "沖縄県",
    "city": "沖縄市",
    "town": "美原"
  },
  "9042156": {
    "zipcode": "9042156",
    "prefectureCode": "47",
    "prefectureNumber": 47,
    "prefecture": "沖縄県",
    "city": "沖縄市",
    "town": "美里仲原町"
  },
  "9042161": {
    "zipcode": "9042161",
    "prefectureCode": "47",
    "prefectureNumber": 47,
    "prefecture": "沖縄県",
    "city": "沖縄市",
    "town": "古謝"
  },
  "9042162": {
    "zipcode": "9042162",
    "prefectureCode": "47",
    "prefectureNumber": 47,
    "prefecture": "沖縄県",
    "city": "沖縄市",
    "town": "海邦町"
  },
  "9042163": {
    "zipcode": "9042163",
    "prefectureCode": "47",
    "prefectureNumber": 47,
    "prefecture": "沖縄県",
    "city": "沖縄市",
    "town": "大里"
  },
  "9042164": {
    "zipcode": "9042164",
    "prefectureCode": "47",
    "prefectureNumber": 47,
    "prefecture": "沖縄県",
    "city": "沖縄市",
    "town": "桃原"
  },
  "9042165": {
    "zipcode": "9042165",
    "prefectureCode": "47",
    "prefectureNumber": 47,
    "prefecture": "沖縄県",
    "city": "沖縄市",
    "town": "宮里"
  },
  "9042166": {
    "zipcode": "9042166",
    "prefectureCode": "47",
    "prefectureNumber": 47,
    "prefecture": "沖縄県",
    "city": "沖縄市",
    "town": "古謝津嘉山町"
  },
  "9042171": {
    "zipcode": "9042171",
    "prefectureCode": "47",
    "prefectureNumber": 47,
    "prefecture": "沖縄県",
    "city": "沖縄市",
    "town": "高原"
  },
  "9042172": {
    "zipcode": "9042172",
    "prefectureCode": "47",
    "prefectureNumber": 47,
    "prefecture": "沖縄県",
    "city": "沖縄市",
    "town": "泡瀬"
  },
  "9042173": {
    "zipcode": "9042173",
    "prefectureCode": "47",
    "prefectureNumber": 47,
    "prefecture": "沖縄県",
    "city": "沖縄市",
    "town": "比屋根"
  },
  "9042174": {
    "zipcode": "9042174",
    "prefectureCode": "47",
    "prefectureNumber": 47,
    "prefecture": "沖縄県",
    "city": "沖縄市",
    "town": "与儀"
  },
  "9042175": {
    "zipcode": "9042175",
    "prefectureCode": "47",
    "prefectureNumber": 47,
    "prefecture": "沖縄県",
    "city": "沖縄市",
    "town": "潮乃森"
  },
  "9042200": {
    "zipcode": "9042200",
    "prefectureCode": "47",
    "prefectureNumber": 47,
    "prefecture": "沖縄県",
    "city": "うるま市",
    "town": "以下に掲載がない場合"
  },
  "9042201": {
    "zipcode": "9042201",
    "prefectureCode": "47",
    "prefectureNumber": 47,
    "prefecture": "沖縄県",
    "city": "うるま市",
    "town": "昆布"
  },
  "9042202": {
    "zipcode": "9042202",
    "prefectureCode": "47",
    "prefectureNumber": 47,
    "prefecture": "沖縄県",
    "city": "うるま市",
    "town": "天願"
  },
  "9042203": {
    "zipcode": "9042203",
    "prefectureCode": "47",
    "prefectureNumber": 47,
    "prefecture": "沖縄県",
    "city": "うるま市",
    "town": "川崎"
  },
  "9042204": {
    "zipcode": "9042204",
    "prefectureCode": "47",
    "prefectureNumber": 47,
    "prefecture": "沖縄県",
    "city": "うるま市",
    "town": "西原"
  },
  "9042205": {
    "zipcode": "9042205",
    "prefectureCode": "47",
    "prefectureNumber": 47,
    "prefecture": "沖縄県",
    "city": "うるま市",
    "town": "栄野比"
  },
  "9042211": {
    "zipcode": "9042211",
    "prefectureCode": "47",
    "prefectureNumber": 47,
    "prefecture": "沖縄県",
    "city": "うるま市",
    "town": "宇堅"
  },
  "9042212": {
    "zipcode": "9042212",
    "prefectureCode": "47",
    "prefectureNumber": 47,
    "prefecture": "沖縄県",
    "city": "うるま市",
    "town": "赤野"
  },
  "9042213": {
    "zipcode": "9042213",
    "prefectureCode": "47",
    "prefectureNumber": 47,
    "prefecture": "沖縄県",
    "city": "うるま市",
    "town": "田場"
  },
  "9042214": {
    "zipcode": "9042214",
    "prefectureCode": "47",
    "prefectureNumber": 47,
    "prefecture": "沖縄県",
    "city": "うるま市",
    "town": "安慶名"
  },
  "9042215": {
    "zipcode": "9042215",
    "prefectureCode": "47",
    "prefectureNumber": 47,
    "prefecture": "沖縄県",
    "city": "うるま市",
    "town": "みどり町"
  },
  "9042221": {
    "zipcode": "9042221",
    "prefectureCode": "47",
    "prefectureNumber": 47,
    "prefecture": "沖縄県",
    "city": "うるま市",
    "town": "平良川"
  },
  "9042222": {
    "zipcode": "9042222",
    "prefectureCode": "47",
    "prefectureNumber": 47,
    "prefecture": "沖縄県",
    "city": "うるま市",
    "town": "上江洲"
  },
  "9042223": {
    "zipcode": "9042223",
    "prefectureCode": "47",
    "prefectureNumber": 47,
    "prefecture": "沖縄県",
    "city": "うるま市",
    "town": "具志川"
  },
  "9042224": {
    "zipcode": "9042224",
    "prefectureCode": "47",
    "prefectureNumber": 47,
    "prefecture": "沖縄県",
    "city": "うるま市",
    "town": "大田"
  },
  "9042225": {
    "zipcode": "9042225",
    "prefectureCode": "47",
    "prefectureNumber": 47,
    "prefecture": "沖縄県",
    "city": "うるま市",
    "town": "喜屋武"
  },
  "9042226": {
    "zipcode": "9042226",
    "prefectureCode": "47",
    "prefectureNumber": 47,
    "prefecture": "沖縄県",
    "city": "うるま市",
    "town": "仲嶺"
  },
  "9042231": {
    "zipcode": "9042231",
    "prefectureCode": "47",
    "prefectureNumber": 47,
    "prefecture": "沖縄県",
    "city": "うるま市",
    "town": "塩屋"
  },
  "9042232": {
    "zipcode": "9042232",
    "prefectureCode": "47",
    "prefectureNumber": 47,
    "prefecture": "沖縄県",
    "city": "うるま市",
    "town": "川田"
  },
  "9042233": {
    "zipcode": "9042233",
    "prefectureCode": "47",
    "prefectureNumber": 47,
    "prefecture": "沖縄県",
    "city": "うるま市",
    "town": "豊原"
  },
  "9042234": {
    "zipcode": "9042234",
    "prefectureCode": "47",
    "prefectureNumber": 47,
    "prefecture": "沖縄県",
    "city": "うるま市",
    "town": "州崎"
  },
  "9042235": {
    "zipcode": "9042235",
    "prefectureCode": "47",
    "prefectureNumber": 47,
    "prefecture": "沖縄県",
    "city": "うるま市",
    "town": "前原"
  },
  "9042236": {
    "zipcode": "9042236",
    "prefectureCode": "47",
    "prefectureNumber": 47,
    "prefecture": "沖縄県",
    "city": "うるま市",
    "town": "喜仲"
  },
  "9042241": {
    "zipcode": "9042241",
    "prefectureCode": "47",
    "prefectureNumber": 47,
    "prefecture": "沖縄県",
    "city": "うるま市",
    "town": "兼箇段"
  },
  "9042242": {
    "zipcode": "9042242",
    "prefectureCode": "47",
    "prefectureNumber": 47,
    "prefecture": "沖縄県",
    "city": "うるま市",
    "town": "高江洲"
  },
  "9042243": {
    "zipcode": "9042243",
    "prefectureCode": "47",
    "prefectureNumber": 47,
    "prefecture": "沖縄県",
    "city": "うるま市",
    "town": "宮里"
  },
  "9042244": {
    "zipcode": "9042244",
    "prefectureCode": "47",
    "prefectureNumber": 47,
    "prefecture": "沖縄県",
    "city": "うるま市",
    "town": "江洲"
  },
  "9042245": {
    "zipcode": "9042245",
    "prefectureCode": "47",
    "prefectureNumber": 47,
    "prefecture": "沖縄県",
    "city": "うるま市",
    "town": "赤道"
  },
  "9042301": {
    "zipcode": "9042301",
    "prefectureCode": "47",
    "prefectureNumber": 47,
    "prefecture": "沖縄県",
    "city": "うるま市",
    "town": "与那城照間"
  },
  "9042302": {
    "zipcode": "9042302",
    "prefectureCode": "47",
    "prefectureNumber": 47,
    "prefecture": "沖縄県",
    "city": "うるま市",
    "town": "与那城西原"
  },
  "9042303": {
    "zipcode": "9042303",
    "prefectureCode": "47",
    "prefectureNumber": 47,
    "prefecture": "沖縄県",
    "city": "うるま市",
    "town": "与那城"
  },
  "9042304": {
    "zipcode": "9042304",
    "prefectureCode": "47",
    "prefectureNumber": 47,
    "prefecture": "沖縄県",
    "city": "うるま市",
    "town": "与那城屋慶名"
  },
  "9042305": {
    "zipcode": "9042305",
    "prefectureCode": "47",
    "prefectureNumber": 47,
    "prefecture": "沖縄県",
    "city": "うるま市",
    "town": "与那城中央"
  },
  "9042306": {
    "zipcode": "9042306",
    "prefectureCode": "47",
    "prefectureNumber": 47,
    "prefecture": "沖縄県",
    "city": "うるま市",
    "town": "与那城安勢理"
  },
  "9042307": {
    "zipcode": "9042307",
    "prefectureCode": "47",
    "prefectureNumber": 47,
    "prefecture": "沖縄県",
    "city": "うるま市",
    "town": "与那城饒辺"
  },
  "9042311": {
    "zipcode": "9042311",
    "prefectureCode": "47",
    "prefectureNumber": 47,
    "prefecture": "沖縄県",
    "city": "うるま市",
    "town": "勝連南風原"
  },
  "9042312": {
    "zipcode": "9042312",
    "prefectureCode": "47",
    "prefectureNumber": 47,
    "prefecture": "沖縄県",
    "city": "うるま市",
    "town": "勝連平安名"
  },
  "9042313": {
    "zipcode": "9042313",
    "prefectureCode": "47",
    "prefectureNumber": 47,
    "prefecture": "沖縄県",
    "city": "うるま市",
    "town": "勝連内間"
  },
  "9042314": {
    "zipcode": "9042314",
    "prefectureCode": "47",
    "prefectureNumber": 47,
    "prefecture": "沖縄県",
    "city": "うるま市",
    "town": "勝連平敷屋"
  },
  "9042315": {
    "zipcode": "9042315",
    "prefectureCode": "47",
    "prefectureNumber": 47,
    "prefecture": "沖縄県",
    "city": "うるま市",
    "town": "勝連浜"
  },
  "9042316": {
    "zipcode": "9042316",
    "prefectureCode": "47",
    "prefectureNumber": 47,
    "prefecture": "沖縄県",
    "city": "うるま市",
    "town": "勝連比嘉"
  },
  "9042317": {
    "zipcode": "9042317",
    "prefectureCode": "47",
    "prefectureNumber": 47,
    "prefecture": "沖縄県",
    "city": "うるま市",
    "town": "勝連津堅"
  },
  "9042421": {
    "zipcode": "9042421",
    "prefectureCode": "47",
    "prefectureNumber": 47,
    "prefecture": "沖縄県",
    "city": "うるま市",
    "town": "与那城伊計"
  },
  "9042422": {
    "zipcode": "9042422",
    "prefectureCode": "47",
    "prefectureNumber": 47,
    "prefecture": "沖縄県",
    "city": "うるま市",
    "town": "与那城池味"
  },
  "9042423": {
    "zipcode": "9042423",
    "prefectureCode": "47",
    "prefectureNumber": 47,
    "prefecture": "沖縄県",
    "city": "うるま市",
    "town": "与那城宮城"
  },
  "9042424": {
    "zipcode": "9042424",
    "prefectureCode": "47",
    "prefectureNumber": 47,
    "prefecture": "沖縄県",
    "city": "うるま市",
    "town": "与那城上原"
  },
  "9042425": {
    "zipcode": "9042425",
    "prefectureCode": "47",
    "prefectureNumber": 47,
    "prefecture": "沖縄県",
    "city": "うるま市",
    "town": "与那城桃原"
  },
  "9042426": {
    "zipcode": "9042426",
    "prefectureCode": "47",
    "prefectureNumber": 47,
    "prefecture": "沖縄県",
    "city": "うるま市",
    "town": "与那城平安座"
  },
  "9042427": {
    "zipcode": "9042427",
    "prefectureCode": "47",
    "prefectureNumber": 47,
    "prefecture": "沖縄県",
    "city": "うるま市",
    "town": "与那城屋平"
  },
  "9042428": {
    "zipcode": "9042428",
    "prefectureCode": "47",
    "prefectureNumber": 47,
    "prefecture": "沖縄県",
    "city": "うるま市",
    "town": "与那城平宮"
  }
}
