{
  "9050000": {
    "zipcode": "9050000",
    "prefectureCode": "47",
    "prefectureNumber": 47,
    "prefecture": "沖縄県",
    "city": "名護市",
    "town": "以下に掲載がない場合"
  },
  "9050001": {
    "zipcode": "9050001",
    "prefectureCode": "47",
    "prefectureNumber": 47,
    "prefecture": "沖縄県",
    "city": "名護市",
    "town": "安和"
  },
  "9050002": {
    "zipcode": "9050002",
    "prefectureCode": "47",
    "prefectureNumber": 47,
    "prefecture": "沖縄県",
    "city": "名護市",
    "town": "勝山"
  },
  "9050003": {
    "zipcode": "9050003",
    "prefectureCode": "47",
    "prefectureNumber": 47,
    "prefecture": "沖縄県",
    "city": "名護市",
    "town": "旭川"
  },
  "9050004": {
    "zipcode": "9050004",
    "prefectureCode": "47",
    "prefectureNumber": 47,
    "prefecture": "沖縄県",
    "city": "名護市",
    "town": "中山"
  },
  "9050005": {
    "zipcode": "9050005",
    "prefectureCode": "47",
    "prefectureNumber": 47,
    "prefecture": "沖縄県",
    "city": "名護市",
    "town": "為又"
  },
  "9050006": {
    "zipcode": "9050006",
    "prefectureCode": "47",
    "prefectureNumber": 47,
    "prefecture": "沖縄県",
    "city": "名護市",
    "town": "宇茂佐"
  },
  "9050007": {
    "zipcode": "9050007",
    "prefectureCode": "47",
    "prefectureNumber": 47,
    "prefecture": "沖縄県",
    "city": "名護市",
    "town": "屋部"
  },
  "9050008": {
    "zipcode": "9050008",
    "prefectureCode": "47",
    "prefectureNumber": 47,
    "prefecture": "沖縄県",
    "city": "名護市",
    "town": "山入端"
  },
  "9050009": {
    "zipcode": "9050009",
    "prefectureCode": "47",
    "prefectureNumber": 47,
    "prefecture": "沖縄県",
    "city": "名護市",
    "town": "宇茂佐の森"
  },
  "9050011": {
    "zipcode": "9050011",
    "prefectureCode": "47",
    "prefectureNumber": 47,
    "prefecture": "沖縄県",
    "city": "名護市",
    "town": "宮里"
  },
  "9050012": {
    "zipcode": "9050012",
    "prefectureCode": "47",
    "prefectureNumber": 47,
    "prefecture": "沖縄県",
    "city": "名護市",
    "town": "名護"
  },
  "9050013": {
    "zipcode": "9050013",
    "prefectureCode": "47",
    "prefectureNumber": 47,
    "prefecture": "沖縄県",
    "city": "名護市",
    "town": "城"
  },
  "9050014": {
    "zipcode": "9050014",
    "prefectureCode": "47",
    "prefectureNumber": 47,
    "prefecture": "沖縄県",
    "city": "名護市",
    "town": "港"
  },
  "9050015": {
    "zipcode": "9050015",
    "prefectureCode": "47",
    "prefectureNumber": 47,
    "prefecture": "沖縄県",
    "city": "名護市",
    "town": "大南"
  },
  "9050016": {
    "zipcode": "9050016",
    "prefectureCode": "47",
    "prefectureNumber": 47,
    "prefecture": "沖縄県",
    "city": "名護市",
    "town": "大東"
  },
  "9050017": {
    "zipcode": "9050017",
    "prefectureCode": "47",
    "prefectureNumber": 47,
    "prefecture": "沖縄県",
    "city": "名護市",
    "town": "大中"
  },
  "9050018": {
    "zipcode": "9050018",
    "prefectureCode": "47",
    "prefectureNumber": 47,
    "prefecture": "沖縄県",
    "city": "名護市",
    "town": "大西"
  },
  "9050019": {
    "zipcode": "9050019",
    "prefectureCode": "47",
    "prefectureNumber": 47,
    "prefecture": "沖縄県",
    "city": "名護市",
    "town": "大北"
  },
  "9050021": {
    "zipcode": "9050021",
    "prefectureCode": "47",
    "prefectureNumber": 47,
    "prefecture": "沖縄県",
    "city": "名護市",
    "town": "東江"
  },
  "9050022": {
    "zipcode": "9050022",
    "prefectureCode": "47",
    "prefectureNumber": 47,
    "prefecture": "沖縄県",
    "city": "名護市",
    "town": "世冨慶"
  },
  "9050023": {
    "zipcode": "9050023",
    "prefectureCode": "47",
    "prefectureNumber": 47,
    "prefecture": "沖縄県",
    "city": "名護市",
    "town": "数久田"
  },
  "9050024": {
    "zipcode": "9050024",
    "prefectureCode": "47",
    "prefectureNumber": 47,
    "prefecture": "沖縄県",
    "city": "名護市",
    "town": "許田"
  },
  "9050025": {
    "zipcode": "9050025",
    "prefectureCode": "47",
    "prefectureNumber": 47,
    "prefecture": "沖縄県",
    "city": "名護市",
    "town": "幸喜"
  },
  "9050026": {
    "zipcode": "9050026",
    "prefectureCode": "47",
    "prefectureNumber": 47,
    "prefecture": "沖縄県",
    "city": "名護市",
    "town": "喜瀬"
  },
  "9050200": {
    "zipcode": "9050200",
    "prefectureCode": "47",
    "prefectureNumber": 47,
    "prefecture": "沖縄県",
    "city": "国頭郡本部町",
    "town": "以下に掲載がない場合"
  },
  "9050201": {
    "zipcode": "9050201",
    "prefectureCode": "47",
    "prefectureNumber": 47,
    "prefecture": "沖縄県",
    "city": "国頭郡本部町",
    "town": "具志堅"
  },
  "9050202": {
    "zipcode": "9050202",
    "prefectureCode": "47",
    "prefectureNumber": 47,
    "prefecture": "沖縄県",
    "city": "国頭郡本部町",
    "town": "嘉津宇"
  },
  "9050203": {
    "zipcode": "9050203",
    "prefectureCode": "47",
    "prefectureNumber": 47,
    "prefecture": "沖縄県",
    "city": "国頭郡本部町",
    "town": "謝花"
  },
  "9050204": {
    "zipcode": "9050204",
    "prefectureCode": "47",
    "prefectureNumber": 47,
    "prefecture": "沖縄県",
    "city": "国頭郡本部町",
    "town": "豊原"
  },
  "9050205": {
    "zipcode": "9050205",
    "prefectureCode": "47",
    "prefectureNumber": 47,
    "prefecture": "沖縄県",
    "city": "国頭郡本部町",
    "town": "山川"
  },
  "9050206": {
    "zipcode": "9050206",
    "prefectureCode": "47",
    "prefectureNumber": 47,
    "prefecture": "沖縄県",
    "city": "国頭郡本部町",
    "town": "石川"
  },
  "9050207": {
    "zipcode": "9050207",
    "prefectureCode": "47",
    "prefectureNumber": 47,
    "prefecture": "沖縄県",
    "city": "国頭郡本部町",
    "town": "備瀬"
  },
  "9050208": {
    "zipcode": "9050208",
    "prefectureCode": "47",
    "prefectureNumber": 47,
    "prefecture": "沖縄県",
    "city": "国頭郡本部町",
    "town": "新里"
  },
  "9050209": {
    "zipcode": "9050209",
    "prefectureCode": "47",
    "prefectureNumber": 47,
    "prefecture": "沖縄県",
    "city": "国頭郡本部町",
    "town": "北里"
  },
  "9050211": {
    "zipcode": "9050211",
    "prefectureCode": "47",
    "prefectureNumber": 47,
    "prefecture": "沖縄県",
    "city": "国頭郡本部町",
    "town": "東"
  },
  "9050212": {
    "zipcode": "9050212",
    "prefectureCode": "47",
    "prefectureNumber": 47,
    "prefecture": "沖縄県",
    "city": "国頭郡本部町",
    "town": "大浜"
  },
  "9050213": {
    "zipcode": "9050213",
    "prefectureCode": "47",
    "prefectureNumber": 47,
    "prefecture": "沖縄県",
    "city": "国頭郡本部町",
    "town": "谷茶"
  },
  "9050214": {
    "zipcode": "9050214",
    "prefectureCode": "47",
    "prefectureNumber": 47,
    "prefecture": "沖縄県",
    "city": "国頭郡本部町",
    "town": "渡久地"
  },
  "9050215": {
    "zipcode": "9050215",
    "prefectureCode": "47",
    "prefectureNumber": 47,
    "prefecture": "沖縄県",
    "city": "国頭郡本部町",
    "town": "野原"
  },
  "9050216": {
    "zipcode": "9050216",
    "prefectureCode": "47",
    "prefectureNumber": 47,
    "prefecture": "沖縄県",
    "city": "国頭郡本部町",
    "town": "浜元"
  },
  "9050217": {
    "zipcode": "9050217",
    "prefectureCode": "47",
    "prefectureNumber": 47,
    "prefecture": "沖縄県",
    "city": "国頭郡本部町",
    "town": "浦崎"
  },
  "9050218": {
    "zipcode": "9050218",
    "prefectureCode": "47",
    "prefectureNumber": 47,
    "prefecture": "沖縄県",
    "city": "国頭郡本部町",
    "town": "古島"
  },
  "9050219": {
    "zipcode": "9050219",
    "prefectureCode": "47",
    "prefectureNumber": 47,
    "prefecture": "沖縄県",
    "city": "国頭郡本部町",
    "town": "山里"
  },
  "9050221": {
    "zipcode": "9050221",
    "prefectureCode": "47",
    "prefectureNumber": 47,
    "prefecture": "沖縄県",
    "city": "国頭郡本部町",
    "town": "伊豆味"
  },
  "9050222": {
    "zipcode": "9050222",
    "prefectureCode": "47",
    "prefectureNumber": 47,
    "prefecture": "沖縄県",
    "city": "国頭郡本部町",
    "town": "並里"
  },
  "9050223": {
    "zipcode": "9050223",
    "prefectureCode": "47",
    "prefectureNumber": 47,
    "prefecture": "沖縄県",
    "city": "国頭郡本部町",
    "town": "大嘉陽"
  },
  "9050224": {
    "zipcode": "9050224",
    "prefectureCode": "47",
    "prefectureNumber": 47,
    "prefecture": "沖縄県",
    "city": "国頭郡本部町",
    "town": "辺名地"
  },
  "9050225": {
    "zipcode": "9050225",
    "prefectureCode": "47",
    "prefectureNumber": 47,
    "prefecture": "沖縄県",
    "city": "国頭郡本部町",
    "town": "崎本部"
  },
  "9050226": {
    "zipcode": "9050226",
    "prefectureCode": "47",
    "prefectureNumber": 47,
    "prefecture": "沖縄県",
    "city": "国頭郡本部町",
    "town": "健堅"
  },
  "9050227": {
    "zipcode": "9050227",
    "prefectureCode": "47",
    "prefectureNumber": 47,
    "prefecture": "沖縄県",
    "city": "国頭郡本部町",
    "town": "瀬底"
  },
  "9050228": {
    "zipcode": "9050228",
    "prefectureCode": "47",
    "prefectureNumber": 47,
    "prefecture": "沖縄県",
    "city": "国頭郡本部町",
    "town": "伊野波"
  },
  "9050229": {
    "zipcode": "9050229",
    "prefectureCode": "47",
    "prefectureNumber": 47,
    "prefecture": "沖縄県",
    "city": "国頭郡本部町",
    "town": "大堂"
  },
  "9050400": {
    "zipcode": "9050400",
    "prefectureCode": "47",
    "prefectureNumber": 47,
    "prefecture": "沖縄県",
    "city": "国頭郡今帰仁村",
    "town": "以下に掲載がない場合"
  },
  "9050401": {
    "zipcode": "9050401",
    "prefectureCode": "47",
    "prefectureNumber": 47,
    "prefecture": "沖縄県",
    "city": "国頭郡今帰仁村",
    "town": "仲宗根"
  },
  "9050402": {
    "zipcode": "9050402",
    "prefectureCode": "47",
    "prefectureNumber": 47,
    "prefecture": "沖縄県",
    "city": "国頭郡今帰仁村",
    "town": "渡喜仁"
  },
  "9050403": {
    "zipcode": "9050403",
    "prefectureCode": "47",
    "prefectureNumber": 47,
    "prefecture": "沖縄県",
    "city": "国頭郡今帰仁村",
    "town": "運天"
  },
  "9050404": {
    "zipcode": "9050404",
    "prefectureCode": "47",
    "prefectureNumber": 47,
    "prefecture": "沖縄県",
    "city": "国頭郡今帰仁村",
    "town": "上運天"
  },
  "9050405": {
    "zipcode": "9050405",
    "prefectureCode": "47",
    "prefectureNumber": 47,
    "prefecture": "沖縄県",
    "city": "国頭郡今帰仁村",
    "town": "勢理客"
  },
  "9050406": {
    "zipcode": "9050406",
    "prefectureCode": "47",
    "prefectureNumber": 47,
    "prefecture": "沖縄県",
    "city": "国頭郡今帰仁村",
    "town": "古宇利"
  },
  "9050411": {
    "zipcode": "9050411",
    "prefectureCode": "47",
    "prefectureNumber": 47,
    "prefecture": "沖縄県",
    "city": "国頭郡今帰仁村",
    "town": "天底"
  },
  "9050412": {
    "zipcode": "9050412",
    "prefectureCode": "47",
    "prefectureNumber": 47,
    "prefecture": "沖縄県",
    "city": "国頭郡今帰仁村",
    "town": "湧川"
  },
  "9050413": {
    "zipcode": "9050413",
    "prefectureCode": "47",
    "prefectureNumber": 47,
    "prefecture": "沖縄県",
    "city": "国頭郡今帰仁村",
    "town": "呉我山"
  },
  "9050414": {
    "zipcode": "9050414",
    "prefectureCode": "47",
    "prefectureNumber": 47,
    "prefecture": "沖縄県",
    "city": "国頭郡今帰仁村",
    "town": "謝名"
  },
  "9050415": {
    "zipcode": "9050415",
    "prefectureCode": "47",
    "prefectureNumber": 47,
    "prefecture": "沖縄県",
    "city": "国頭郡今帰仁村",
    "town": "玉城"
  },
  "9050421": {
    "zipcode": "9050421",
    "prefectureCode": "47",
    "prefectureNumber": 47,
    "prefecture": "沖縄県",
    "city": "国頭郡今帰仁村",
    "town": "越地"
  },
  "9050422": {
    "zipcode": "9050422",
    "prefectureCode": "47",
    "prefectureNumber": 47,
    "prefecture": "沖縄県",
    "city": "国頭郡今帰仁村",
    "town": "崎山"
  },
  "9050423": {
    "zipcode": "9050423",
    "prefectureCode": "47",
    "prefectureNumber": 47,
    "prefecture": "沖縄県",
    "city": "国頭郡今帰仁村",
    "town": "平敷"
  },
  "9050424": {
    "zipcode": "9050424",
    "prefectureCode": "47",
    "prefectureNumber": 47,
    "prefecture": "沖縄県",
    "city": "国頭郡今帰仁村",
    "town": "仲尾次"
  },
  "9050425": {
    "zipcode": "9050425",
    "prefectureCode": "47",
    "prefectureNumber": 47,
    "prefecture": "沖縄県",
    "city": "国頭郡今帰仁村",
    "town": "与那嶺"
  },
  "9050426": {
    "zipcode": "9050426",
    "prefectureCode": "47",
    "prefectureNumber": 47,
    "prefecture": "沖縄県",
    "city": "国頭郡今帰仁村",
    "town": "諸志"
  },
  "9050427": {
    "zipcode": "9050427",
    "prefectureCode": "47",
    "prefectureNumber": 47,
    "prefecture": "沖縄県",
    "city": "国頭郡今帰仁村",
    "town": "兼次"
  },
  "9050428": {
    "zipcode": "9050428",
    "prefectureCode": "47",
    "prefectureNumber": 47,
    "prefecture": "沖縄県",
    "city": "国頭郡今帰仁村",
    "town": "今泊"
  },
  "9050500": {
    "zipcode": "9050500",
    "prefectureCode": "47",
    "prefectureNumber": 47,
    "prefecture": "沖縄県",
    "city": "国頭郡伊江村",
    "town": "以下に掲載がない場合"
  },
  "9050501": {
    "zipcode": "9050501",
    "prefectureCode": "47",
    "prefectureNumber": 47,
    "prefecture": "沖縄県",
    "city": "国頭郡伊江村",
    "town": "東江上"
  },
  "9050502": {
    "zipcode": "9050502",
    "prefectureCode": "47",
    "prefectureNumber": 47,
    "prefecture": "沖縄県",
    "city": "国頭郡伊江村",
    "town": "東江前"
  },
  "9050503": {
    "zipcode": "9050503",
    "prefectureCode": "47",
    "prefectureNumber": 47,
    "prefecture": "沖縄県",
    "city": "国頭郡伊江村",
    "town": "川平"
  },
  "9050504": {
    "zipcode": "9050504",
    "prefectureCode": "47",
    "prefectureNumber": 47,
    "prefecture": "沖縄県",
    "city": "国頭郡伊江村",
    "town": "西江前"
  },
  "9050505": {
    "zipcode": "9050505",
    "prefectureCode": "47",
    "prefectureNumber": 47,
    "prefecture": "沖縄県",
    "city": "国頭郡伊江村",
    "town": "西江上"
  },
  "9050600": {
    "zipcode": "9050600",
    "prefectureCode": "47",
    "prefectureNumber": 47,
    "prefecture": "沖縄県",
    "city": "島尻郡伊是名村",
    "town": "以下に掲載がない場合"
  },
  "9050601": {
    "zipcode": "9050601",
    "prefectureCode": "47",
    "prefectureNumber": 47,
    "prefecture": "沖縄県",
    "city": "島尻郡伊是名村",
    "town": "内花"
  },
  "9050602": {
    "zipcode": "9050602",
    "prefectureCode": "47",
    "prefectureNumber": 47,
    "prefecture": "沖縄県",
    "city": "島尻郡伊是名村",
    "town": "諸見"
  },
  "9050603": {
    "zipcode": "9050603",
    "prefectureCode": "47",
    "prefectureNumber": 47,
    "prefecture": "沖縄県",
    "city": "島尻郡伊是名村",
    "town": "仲田"
  },
  "9050604": {
    "zipcode": "9050604",
    "prefectureCode": "47",
    "prefectureNumber": 47,
    "prefecture": "沖縄県",
    "city": "島尻郡伊是名村",
    "town": "伊是名"
  },
  "9050605": {
    "zipcode": "9050605",
    "prefectureCode": "47",
    "prefectureNumber": 47,
    "prefecture": "沖縄県",
    "city": "島尻郡伊是名村",
    "town": "勢理客"
  },
  "9050700": {
    "zipcode": "9050700",
    "prefectureCode": "47",
    "prefectureNumber": 47,
    "prefecture": "沖縄県",
    "city": "島尻郡伊平屋村",
    "town": "以下に掲載がない場合"
  },
  "9050701": {
    "zipcode": "9050701",
    "prefectureCode": "47",
    "prefectureNumber": 47,
    "prefecture": "沖縄県",
    "city": "島尻郡伊平屋村",
    "town": "田名"
  },
  "9050702": {
    "zipcode": "9050702",
    "prefectureCode": "47",
    "prefectureNumber": 47,
    "prefecture": "沖縄県",
    "city": "島尻郡伊平屋村",
    "town": "前泊"
  },
  "9050703": {
    "zipcode": "9050703",
    "prefectureCode": "47",
    "prefectureNumber": 47,
    "prefecture": "沖縄県",
    "city": "島尻郡伊平屋村",
    "town": "我喜屋"
  },
  "9050704": {
    "zipcode": "9050704",
    "prefectureCode": "47",
    "prefectureNumber": 47,
    "prefecture": "沖縄県",
    "city": "島尻郡伊平屋村",
    "town": "島尻"
  },
  "9050705": {
    "zipcode": "9050705",
    "prefectureCode": "47",
    "prefectureNumber": 47,
    "prefecture": "沖縄県",
    "city": "島尻郡伊平屋村",
    "town": "野甫"
  },
  "9051141": {
    "zipcode": "9051141",
    "prefectureCode": "47",
    "prefectureNumber": 47,
    "prefecture": "沖縄県",
    "city": "名護市",
    "town": "源河"
  },
  "9051142": {
    "zipcode": "9051142",
    "prefectureCode": "47",
    "prefectureNumber": 47,
    "prefecture": "沖縄県",
    "city": "名護市",
    "town": "稲嶺"
  },
  "9051143": {
    "zipcode": "9051143",
    "prefectureCode": "47",
    "prefectureNumber": 47,
    "prefecture": "沖縄県",
    "city": "名護市",
    "town": "真喜屋"
  },
  "9051144": {
    "zipcode": "9051144",
    "prefectureCode": "47",
    "prefectureNumber": 47,
    "prefecture": "沖縄県",
    "city": "名護市",
    "town": "仲尾次"
  },
  "9051145": {
    "zipcode": "9051145",
    "prefectureCode": "47",
    "prefectureNumber": 47,
    "prefecture": "沖縄県",
    "city": "名護市",
    "town": "川上"
  },
  "9051146": {
    "zipcode": "9051146",
    "prefectureCode": "47",
    "prefectureNumber": 47,
    "prefecture": "沖縄県",
    "city": "名護市",
    "town": "親川"
  },
  "9051147": {
    "zipcode": "9051147",
    "prefectureCode": "47",
    "prefectureNumber": 47,
    "prefecture": "沖縄県",
    "city": "名護市",
    "town": "田井等"
  },
  "9051151": {
    "zipcode": "9051151",
    "prefectureCode": "47",
    "prefectureNumber": 47,
    "prefecture": "沖縄県",
    "city": "名護市",
    "town": "振慶名"
  },
  "9051152": {
    "zipcode": "9051152",
    "prefectureCode": "47",
    "prefectureNumber": 47,
    "prefecture": "沖縄県",
    "city": "名護市",
    "town": "伊差川"
  },
  "9051153": {
    "zipcode": "9051153",
    "prefectureCode": "47",
    "prefectureNumber": 47,
    "prefecture": "沖縄県",
    "city": "名護市",
    "town": "仲尾"
  },
  "9051154": {
    "zipcode": "9051154",
    "prefectureCode": "47",
    "prefectureNumber": 47,
    "prefecture": "沖縄県",
    "city": "名護市",
    "town": "呉我"
  },
  "9051155": {
    "zipcode": "9051155",
    "prefectureCode": "47",
    "prefectureNumber": 47,
    "prefecture": "沖縄県",
    "city": "名護市",
    "town": "我部祖河"
  },
  "9051156": {
    "zipcode": "9051156",
    "prefectureCode": "47",
    "prefectureNumber": 47,
    "prefecture": "沖縄県",
    "city": "名護市",
    "town": "古我知"
  },
  "9051200": {
    "zipcode": "9051200",
    "prefectureCode": "47",
    "prefectureNumber": 47,
    "prefecture": "沖縄県",
    "city": "国頭郡東村",
    "town": "以下に掲載がない場合"
  },
  "9051201": {
    "zipcode": "9051201",
    "prefectureCode": "47",
    "prefectureNumber": 47,
    "prefecture": "沖縄県",
    "city": "国頭郡東村",
    "town": "高江"
  },
  "9051202": {
    "zipcode": "9051202",
    "prefectureCode": "47",
    "prefectureNumber": 47,
    "prefecture": "沖縄県",
    "city": "国頭郡東村",
    "town": "宮城"
  },
  "9051203": {
    "zipcode": "9051203",
    "prefectureCode": "47",
    "prefectureNumber": 47,
    "prefecture": "沖縄県",
    "city": "国頭郡東村",
    "town": "川田"
  },
  "9051204": {
    "zipcode": "9051204",
    "prefectureCode": "47",
    "prefectureNumber": 47,
    "prefecture": "沖縄県",
    "city": "国頭郡東村",
    "town": "平良"
  },
  "9051205": {
    "zipcode": "9051205",
    "prefectureCode": "47",
    "prefectureNumber": 47,
    "prefecture": "沖縄県",
    "city": "国頭郡東村",
    "town": "慶佐次"
  },
  "9051206": {
    "zipcode": "9051206",
    "prefectureCode": "47",
    "prefectureNumber": 47,
    "prefecture": "沖縄県",
    "city": "国頭郡東村",
    "town": "有銘"
  },
  "9051300": {
    "zipcode": "9051300",
    "prefectureCode": "47",
    "prefectureNumber": 47,
    "prefecture": "沖縄県",
    "city": "国頭郡大宜味村",
    "town": "以下に掲載がない場合"
  },
  "9051301": {
    "zipcode": "9051301",
    "prefectureCode": "47",
    "prefectureNumber": 47,
    "prefecture": "沖縄県",
    "city": "国頭郡大宜味村",
    "town": "田嘉里"
  },
  "9051302": {
    "zipcode": "9051302",
    "prefectureCode": "47",
    "prefectureNumber": 47,
    "prefecture": "沖縄県",
    "city": "国頭郡大宜味村",
    "town": "謝名城"
  },
  "9051303": {
    "zipcode": "9051303",
    "prefectureCode": "47",
    "prefectureNumber": 47,
    "prefecture": "沖縄県",
    "city": "国頭郡大宜味村",
    "town": "喜如嘉"
  },
  "9051304": {
    "zipcode": "9051304",
    "prefectureCode": "47",
    "prefectureNumber": 47,
    "prefecture": "沖縄県",
    "city": "国頭郡大宜味村",
    "town": "饒波"
  },
  "9051305": {
    "zipcode": "9051305",
    "prefectureCode": "47",
    "prefectureNumber": 47,
    "prefecture": "沖縄県",
    "city": "国頭郡大宜味村",
    "town": "大兼久"
  },
  "9051306": {
    "zipcode": "9051306",
    "prefectureCode": "47",
    "prefectureNumber": 47,
    "prefecture": "沖縄県",
    "city": "国頭郡大宜味村",
    "town": "大宜味"
  },
  "9051307": {
    "zipcode": "9051307",
    "prefectureCode": "47",
    "prefectureNumber": 47,
    "prefecture": "沖縄県",
    "city": "国頭郡大宜味村",
    "town": "根路銘"
  },
  "9051308": {
    "zipcode": "9051308",
    "prefectureCode": "47",
    "prefectureNumber": 47,
    "prefecture": "沖縄県",
    "city": "国頭郡大宜味村",
    "town": "上原"
  },
  "9051311": {
    "zipcode": "9051311",
    "prefectureCode": "47",
    "prefectureNumber": 47,
    "prefecture": "沖縄県",
    "city": "国頭郡大宜味村",
    "town": "塩屋"
  },
  "9051312": {
    "zipcode": "9051312",
    "prefectureCode": "47",
    "prefectureNumber": 47,
    "prefecture": "沖縄県",
    "city": "国頭郡大宜味村",
    "town": "屋古"
  },
  "9051313": {
    "zipcode": "9051313",
    "prefectureCode": "47",
    "prefectureNumber": 47,
    "prefecture": "沖縄県",
    "city": "国頭郡大宜味村",
    "town": "押川"
  },
  "9051314": {
    "zipcode": "9051314",
    "prefectureCode": "47",
    "prefectureNumber": 47,
    "prefecture": "沖縄県",
    "city": "国頭郡大宜味村",
    "town": "田港"
  },
  "9051315": {
    "zipcode": "9051315",
    "prefectureCode": "47",
    "prefectureNumber": 47,
    "prefecture": "沖縄県",
    "city": "国頭郡大宜味村",
    "town": "大保"
  },
  "9051316": {
    "zipcode": "9051316",
    "prefectureCode": "47",
    "prefectureNumber": 47,
    "prefecture": "沖縄県",
    "city": "国頭郡大宜味村",
    "town": "白浜"
  },
  "9051317": {
    "zipcode": "9051317",
    "prefectureCode": "47",
    "prefectureNumber": 47,
    "prefecture": "沖縄県",
    "city": "国頭郡大宜味村",
    "town": "江洲"
  },
  "9051318": {
    "zipcode": "9051318",
    "prefectureCode": "47",
    "prefectureNumber": 47,
    "prefecture": "沖縄県",
    "city": "国頭郡大宜味村",
    "town": "津波"
  },
  "9051319": {
    "zipcode": "9051319",
    "prefectureCode": "47",
    "prefectureNumber": 47,
    "prefecture": "沖縄県",
    "city": "国頭郡大宜味村",
    "town": "宮城"
  },
  "9051400": {
    "zipcode": "9051400",
    "prefectureCode": "47",
    "prefectureNumber": 47,
    "prefecture": "沖縄県",
    "city": "国頭郡国頭村",
    "town": "以下に掲載がない場合"
  },
  "9051411": {
    "zipcode": "9051411",
    "prefectureCode": "47",
    "prefectureNumber": 47,
    "prefecture": "沖縄県",
    "city": "国頭郡国頭村",
    "town": "辺土名"
  },
  "9051412": {
    "zipcode": "9051412",
    "prefectureCode": "47",
    "prefectureNumber": 47,
    "prefecture": "沖縄県",
    "city": "国頭郡国頭村",
    "town": "奥間"
  },
  "9051413": {
    "zipcode": "9051413",
    "prefectureCode": "47",
    "prefectureNumber": 47,
    "prefecture": "沖縄県",
    "city": "国頭郡国頭村",
    "town": "比地"
  },
  "9051414": {
    "zipcode": "9051414",
    "prefectureCode": "47",
    "prefectureNumber": 47,
    "prefecture": "沖縄県",
    "city": "国頭郡国頭村",
    "town": "半地"
  },
  "9051415": {
    "zipcode": "9051415",
    "prefectureCode": "47",
    "prefectureNumber": 47,
    "prefecture": "沖縄県",
    "city": "国頭郡国頭村",
    "town": "浜"
  },
  "9051416": {
    "zipcode": "9051416",
    "prefectureCode": "47",
    "prefectureNumber": 47,
    "prefecture": "沖縄県",
    "city": "国頭郡国頭村",
    "town": "鏡地"
  },
  "9051417": {
    "zipcode": "9051417",
    "prefectureCode": "47",
    "prefectureNumber": 47,
    "prefecture": "沖縄県",
    "city": "国頭郡国頭村",
    "town": "桃原"
  },
  "9051421": {
    "zipcode": "9051421",
    "prefectureCode": "47",
    "prefectureNumber": 47,
    "prefecture": "沖縄県",
    "city": "国頭郡国頭村",
    "town": "辺戸"
  },
  "9051422": {
    "zipcode": "9051422",
    "prefectureCode": "47",
    "prefectureNumber": 47,
    "prefecture": "沖縄県",
    "city": "国頭郡国頭村",
    "town": "宜名真"
  },
  "9051423": {
    "zipcode": "9051423",
    "prefectureCode": "47",
    "prefectureNumber": 47,
    "prefecture": "沖縄県",
    "city": "国頭郡国頭村",
    "town": "宇嘉"
  },
  "9051424": {
    "zipcode": "9051424",
    "prefectureCode": "47",
    "prefectureNumber": 47,
    "prefecture": "沖縄県",
    "city": "国頭郡国頭村",
    "town": "辺野喜"
  },
  "9051425": {
    "zipcode": "9051425",
    "prefectureCode": "47",
    "prefectureNumber": 47,
    "prefecture": "沖縄県",
    "city": "国頭郡国頭村",
    "town": "佐手"
  },
  "9051426": {
    "zipcode": "9051426",
    "prefectureCode": "47",
    "prefectureNumber": 47,
    "prefecture": "沖縄県",
    "city": "国頭郡国頭村",
    "town": "謝敷"
  },
  "9051427": {
    "zipcode": "9051427",
    "prefectureCode": "47",
    "prefectureNumber": 47,
    "prefecture": "沖縄県",
    "city": "国頭郡国頭村",
    "town": "与那"
  },
  "9051428": {
    "zipcode": "9051428",
    "prefectureCode": "47",
    "prefectureNumber": 47,
    "prefecture": "沖縄県",
    "city": "国頭郡国頭村",
    "town": "伊地"
  },
  "9051429": {
    "zipcode": "9051429",
    "prefectureCode": "47",
    "prefectureNumber": 47,
    "prefecture": "沖縄県",
    "city": "国頭郡国頭村",
    "town": "宇良"
  },
  "9051501": {
    "zipcode": "9051501",
    "prefectureCode": "47",
    "prefectureNumber": 47,
    "prefecture": "沖縄県",
    "city": "国頭郡国頭村",
    "town": "奥"
  },
  "9051502": {
    "zipcode": "9051502",
    "prefectureCode": "47",
    "prefectureNumber": 47,
    "prefecture": "沖縄県",
    "city": "国頭郡国頭村",
    "town": "楚洲"
  },
  "9051503": {
    "zipcode": "9051503",
    "prefectureCode": "47",
    "prefectureNumber": 47,
    "prefecture": "沖縄県",
    "city": "国頭郡国頭村",
    "town": "安田"
  },
  "9051504": {
    "zipcode": "9051504",
    "prefectureCode": "47",
    "prefectureNumber": 47,
    "prefecture": "沖縄県",
    "city": "国頭郡国頭村",
    "town": "安波"
  },
  "9051631": {
    "zipcode": "9051631",
    "prefectureCode": "47",
    "prefectureNumber": 47,
    "prefecture": "沖縄県",
    "city": "名護市",
    "town": "屋我"
  },
  "9051632": {
    "zipcode": "9051632",
    "prefectureCode": "47",
    "prefectureNumber": 47,
    "prefecture": "沖縄県",
    "city": "名護市",
    "town": "饒平名"
  },
  "9051633": {
    "zipcode": "9051633",
    "prefectureCode": "47",
    "prefectureNumber": 47,
    "prefecture": "沖縄県",
    "city": "名護市",
    "town": "我部"
  },
  "9051634": {
    "zipcode": "9051634",
    "prefectureCode": "47",
    "prefectureNumber": 47,
    "prefecture": "沖縄県",
    "city": "名護市",
    "town": "運天原"
  },
  "9051635": {
    "zipcode": "9051635",
    "prefectureCode": "47",
    "prefectureNumber": 47,
    "prefecture": "沖縄県",
    "city": "名護市",
    "town": "済井出"
  },
  "9052171": {
    "zipcode": "9052171",
    "prefectureCode": "47",
    "prefectureNumber": 47,
    "prefecture": "沖縄県",
    "city": "名護市",
    "town": "辺野古"
  },
  "9052172": {
    "zipcode": "9052172",
    "prefectureCode": "47",
    "prefectureNumber": 47,
    "prefecture": "沖縄県",
    "city": "名護市",
    "town": "豊原"
  },
  "9052173": {
    "zipcode": "9052173",
    "prefectureCode": "47",
    "prefectureNumber": 47,
    "prefecture": "沖縄県",
    "city": "名護市",
    "town": "久志"
  },
  "9052261": {
    "zipcode": "9052261",
    "prefectureCode": "47",
    "prefectureNumber": 47,
    "prefecture": "沖縄県",
    "city": "名護市",
    "town": "天仁屋"
  },
  "9052262": {
    "zipcode": "9052262",
    "prefectureCode": "47",
    "prefectureNumber": 47,
    "prefecture": "沖縄県",
    "city": "名護市",
    "town": "嘉陽"
  },
  "9052263": {
    "zipcode": "9052263",
    "prefectureCode": "47",
    "prefectureNumber": 47,
    "prefecture": "沖縄県",
    "city": "名護市",
    "town": "安部"
  },
  "9052264": {
    "zipcode": "9052264",
    "prefectureCode": "47",
    "prefectureNumber": 47,
    "prefecture": "沖縄県",
    "city": "名護市",
    "town": "三原"
  },
  "9052265": {
    "zipcode": "9052265",
    "prefectureCode": "47",
    "prefectureNumber": 47,
    "prefecture": "沖縄県",
    "city": "名護市",
    "town": "汀間"
  },
  "9052266": {
    "zipcode": "9052266",
    "prefectureCode": "47",
    "prefectureNumber": 47,
    "prefecture": "沖縄県",
    "city": "名護市",
    "town": "瀬嵩"
  },
  "9052267": {
    "zipcode": "9052267",
    "prefectureCode": "47",
    "prefectureNumber": 47,
    "prefecture": "沖縄県",
    "city": "名護市",
    "town": "大浦"
  },
  "9052268": {
    "zipcode": "9052268",
    "prefectureCode": "47",
    "prefectureNumber": 47,
    "prefecture": "沖縄県",
    "city": "名護市",
    "town": "大川"
  },
  "9052269": {
    "zipcode": "9052269",
    "prefectureCode": "47",
    "prefectureNumber": 47,
    "prefecture": "沖縄県",
    "city": "名護市",
    "town": "二見"
  }
}
