{
  "9060000": {
    "zipcode": "9060000",
    "prefectureCode": "47",
    "prefectureNumber": 47,
    "prefecture": "沖縄県",
    "city": "宮古島市",
    "town": "以下に掲載がない場合"
  },
  "9060001": {
    "zipcode": "9060001",
    "prefectureCode": "47",
    "prefectureNumber": 47,
    "prefecture": "沖縄県",
    "city": "宮古島市",
    "town": "平良大神"
  },
  "9060002": {
    "zipcode": "9060002",
    "prefectureCode": "47",
    "prefectureNumber": 47,
    "prefecture": "沖縄県",
    "city": "宮古島市",
    "town": "平良狩俣"
  },
  "9060003": {
    "zipcode": "9060003",
    "prefectureCode": "47",
    "prefectureNumber": 47,
    "prefecture": "沖縄県",
    "city": "宮古島市",
    "town": "平良島尻"
  },
  "9060004": {
    "zipcode": "9060004",
    "prefectureCode": "47",
    "prefectureNumber": 47,
    "prefecture": "沖縄県",
    "city": "宮古島市",
    "town": "平良大浦"
  },
  "9060005": {
    "zipcode": "9060005",
    "prefectureCode": "47",
    "prefectureNumber": 47,
    "prefecture": "沖縄県",
    "city": "宮古島市",
    "town": "平良西原"
  },
  "9060006": {
    "zipcode": "9060006",
    "prefectureCode": "47",
    "prefectureNumber": 47,
    "prefecture": "沖縄県",
    "city": "宮古島市",
    "town": "平良西仲宗根"
  },
  "9060007": {
    "zipcode": "9060007",
    "prefectureCode": "47",
    "prefectureNumber": 47,
    "prefecture": "沖縄県",
    "city": "宮古島市",
    "town": "平良東仲宗根"
  },
  "9060008": {
    "zipcode": "9060008",
    "prefectureCode": "47",
    "prefectureNumber": 47,
    "prefecture": "沖縄県",
    "city": "宮古島市",
    "town": "平良荷川取"
  },
  "9060011": {
    "zipcode": "9060011",
    "prefectureCode": "47",
    "prefectureNumber": 47,
    "prefecture": "沖縄県",
    "city": "宮古島市",
    "town": "平良東仲宗根添"
  },
  "9060012": {
    "zipcode": "9060012",
    "prefectureCode": "47",
    "prefectureNumber": 47,
    "prefecture": "沖縄県",
    "city": "宮古島市",
    "town": "平良西里"
  },
  "9060013": {
    "zipcode": "9060013",
    "prefectureCode": "47",
    "prefectureNumber": 47,
    "prefecture": "沖縄県",
    "city": "宮古島市",
    "town": "平良下里"
  },
  "9060014": {
    "zipcode": "9060014",
    "prefectureCode": "47",
    "prefectureNumber": 47,
    "prefecture": "沖縄県",
    "city": "宮古島市",
    "town": "平良松原"
  },
  "9060015": {
    "zipcode": "9060015",
    "prefectureCode": "47",
    "prefectureNumber": 47,
    "prefecture": "沖縄県",
    "city": "宮古島市",
    "town": "平良久貝"
  },
  "9060101": {
    "zipcode": "9060101",
    "prefectureCode": "47",
    "prefectureNumber": 47,
    "prefecture": "沖縄県",
    "city": "宮古島市",
    "town": "城辺保良"
  },
  "9060102": {
    "zipcode": "9060102",
    "prefectureCode": "47",
    "prefectureNumber": 47,
    "prefecture": "沖縄県",
    "city": "宮古島市",
    "town": "城辺新城"
  },
  "9060103": {
    "zipcode": "9060103",
    "prefectureCode": "47",
    "prefectureNumber": 47,
    "prefecture": "沖縄県",
    "city": "宮古島市",
    "town": "城辺福里"
  },
  "9060104": {
    "zipcode": "9060104",
    "prefectureCode": "47",
    "prefectureNumber": 47,
    "prefecture": "沖縄県",
    "city": "宮古島市",
    "town": "城辺比嘉"
  },
  "9060105": {
    "zipcode": "9060105",
    "prefectureCode": "47",
    "prefectureNumber": 47,
    "prefecture": "沖縄県",
    "city": "宮古島市",
    "town": "城辺長間"
  },
  "9060106": {
    "zipcode": "9060106",
    "prefectureCode": "47",
    "prefectureNumber": 47,
    "prefecture": "沖縄県",
    "city": "宮古島市",
    "town": "城辺西里添"
  },
  "9060107": {
    "zipcode": "9060107",
    "prefectureCode": "47",
    "prefectureNumber": 47,
    "prefecture": "沖縄県",
    "city": "宮古島市",
    "town": "城辺友利"
  },
  "9060108": {
    "zipcode": "9060108",
    "prefectureCode": "47",
    "prefectureNumber": 47,
    "prefecture": "沖縄県",
    "city": "宮古島市",
    "town": "城辺砂川"
  },
  "9060109": {
    "zipcode": "9060109",
    "prefectureCode": "47",
    "prefectureNumber": 47,
    "prefecture": "沖縄県",
    "city": "宮古島市",
    "town": "城辺下里添"
  },
  "9060201": {
    "zipcode": "9060201",
    "prefectureCode": "47",
    "prefectureNumber": 47,
    "prefecture": "沖縄県",
    "city": "宮古島市",
    "town": "上野野原"
  },
  "9060202": {
    "zipcode": "9060202",
    "prefectureCode": "47",
    "prefectureNumber": 47,
    "prefecture": "沖縄県",
    "city": "宮古島市",
    "town": "上野新里"
  },
  "9060203": {
    "zipcode": "9060203",
    "prefectureCode": "47",
    "prefectureNumber": 47,
    "prefecture": "沖縄県",
    "city": "宮古島市",
    "town": "上野宮国"
  },
  "9060204": {
    "zipcode": "9060204",
    "prefectureCode": "47",
    "prefectureNumber": 47,
    "prefecture": "沖縄県",
    "city": "宮古島市",
    "town": "上野上野"
  },
  "9060301": {
    "zipcode": "9060301",
    "prefectureCode": "47",
    "prefectureNumber": 47,
    "prefecture": "沖縄県",
    "city": "宮古島市",
    "town": "下地川満"
  },
  "9060302": {
    "zipcode": "9060302",
    "prefectureCode": "47",
    "prefectureNumber": 47,
    "prefecture": "沖縄県",
    "city": "宮古島市",
    "town": "下地嘉手苅"
  },
  "9060303": {
    "zipcode": "9060303",
    "prefectureCode": "47",
    "prefectureNumber": 47,
    "prefecture": "沖縄県",
    "city": "宮古島市",
    "town": "下地洲鎌"
  },
  "9060304": {
    "zipcode": "9060304",
    "prefectureCode": "47",
    "prefectureNumber": 47,
    "prefecture": "沖縄県",
    "city": "宮古島市",
    "town": "下地上地"
  },
  "9060305": {
    "zipcode": "9060305",
    "prefectureCode": "47",
    "prefectureNumber": 47,
    "prefecture": "沖縄県",
    "city": "宮古島市",
    "town": "下地与那覇"
  },
  "9060306": {
    "zipcode": "9060306",
    "prefectureCode": "47",
    "prefectureNumber": 47,
    "prefecture": "沖縄県",
    "city": "宮古島市",
    "town": "下地来間"
  },
  "9060421": {
    "zipcode": "9060421",
    "prefectureCode": "47",
    "prefectureNumber": 47,
    "prefecture": "沖縄県",
    "city": "宮古島市",
    "town": "平良池間"
  },
  "9060422": {
    "zipcode": "9060422",
    "prefectureCode": "47",
    "prefectureNumber": 47,
    "prefecture": "沖縄県",
    "city": "宮古島市",
    "town": "平良前里"
  },
  "9060501": {
    "zipcode": "9060501",
    "prefectureCode": "47",
    "prefectureNumber": 47,
    "prefecture": "沖縄県",
    "city": "宮古島市",
    "town": "伊良部前里添"
  },
  "9060502": {
    "zipcode": "9060502",
    "prefectureCode": "47",
    "prefectureNumber": 47,
    "prefecture": "沖縄県",
    "city": "宮古島市",
    "town": "伊良部池間添"
  },
  "9060503": {
    "zipcode": "9060503",
    "prefectureCode": "47",
    "prefectureNumber": 47,
    "prefecture": "沖縄県",
    "city": "宮古島市",
    "town": "伊良部伊良部"
  },
  "9060504": {
    "zipcode": "9060504",
    "prefectureCode": "47",
    "prefectureNumber": 47,
    "prefecture": "沖縄県",
    "city": "宮古島市",
    "town": "伊良部仲地"
  },
  "9060505": {
    "zipcode": "9060505",
    "prefectureCode": "47",
    "prefectureNumber": 47,
    "prefecture": "沖縄県",
    "city": "宮古島市",
    "town": "伊良部国仲"
  },
  "9060506": {
    "zipcode": "9060506",
    "prefectureCode": "47",
    "prefectureNumber": 47,
    "prefecture": "沖縄県",
    "city": "宮古島市",
    "town": "伊良部長浜"
  },
  "9060507": {
    "zipcode": "9060507",
    "prefectureCode": "47",
    "prefectureNumber": 47,
    "prefecture": "沖縄県",
    "city": "宮古島市",
    "town": "伊良部佐和田"
  },
  "9060600": {
    "zipcode": "9060600",
    "prefectureCode": "47",
    "prefectureNumber": 47,
    "prefecture": "沖縄県",
    "city": "宮古郡多良間村",
    "town": "以下に掲載がない場合"
  },
  "9060601": {
    "zipcode": "9060601",
    "prefectureCode": "47",
    "prefectureNumber": 47,
    "prefecture": "沖縄県",
    "city": "宮古郡多良間村",
    "town": "塩川"
  },
  "9060602": {
    "zipcode": "9060602",
    "prefectureCode": "47",
    "prefectureNumber": 47,
    "prefecture": "沖縄県",
    "city": "宮古郡多良間村",
    "town": "仲筋"
  },
  "9060603": {
    "zipcode": "9060603",
    "prefectureCode": "47",
    "prefectureNumber": 47,
    "prefecture": "沖縄県",
    "city": "宮古郡多良間村",
    "town": "水納"
  }
}
