{
  "9070000": {
    "zipcode": "9070000",
    "prefectureCode": "47",
    "prefectureNumber": 47,
    "prefecture": "沖縄県",
    "city": "八重山郡竹富町",
    "town": "以下に掲載がない場合"
  },
  "9070001": {
    "zipcode": "9070001",
    "prefectureCode": "47",
    "prefectureNumber": 47,
    "prefecture": "沖縄県",
    "city": "石垣市",
    "town": "大浜"
  },
  "9070002": {
    "zipcode": "9070002",
    "prefectureCode": "47",
    "prefectureNumber": 47,
    "prefecture": "沖縄県",
    "city": "石垣市",
    "town": "真栄里"
  },
  "9070003": {
    "zipcode": "9070003",
    "prefectureCode": "47",
    "prefectureNumber": 47,
    "prefecture": "沖縄県",
    "city": "石垣市",
    "town": "平得"
  },
  "9070004": {
    "zipcode": "9070004",
    "prefectureCode": "47",
    "prefectureNumber": 47,
    "prefecture": "沖縄県",
    "city": "石垣市",
    "town": "登野城"
  },
  "9070011": {
    "zipcode": "9070011",
    "prefectureCode": "47",
    "prefectureNumber": 47,
    "prefecture": "沖縄県",
    "city": "石垣市",
    "town": "八島町"
  },
  "9070012": {
    "zipcode": "9070012",
    "prefectureCode": "47",
    "prefectureNumber": 47,
    "prefecture": "沖縄県",
    "city": "石垣市",
    "town": "美崎町"
  },
  "9070013": {
    "zipcode": "9070013",
    "prefectureCode": "47",
    "prefectureNumber": 47,
    "prefecture": "沖縄県",
    "city": "石垣市",
    "town": "浜崎町"
  },
  "9070014": {
    "zipcode": "9070014",
    "prefectureCode": "47",
    "prefectureNumber": 47,
    "prefecture": "沖縄県",
    "city": "石垣市",
    "town": "新栄町"
  },
  "9070015": {
    "zipcode": "9070015",
    "prefectureCode": "47",
    "prefectureNumber": 47,
    "prefecture": "沖縄県",
    "city": "石垣市",
    "town": "南ぬ浜町"
  },
  "9070021": {
    "zipcode": "9070021",
    "prefectureCode": "47",
    "prefectureNumber": 47,
    "prefecture": "沖縄県",
    "city": "石垣市",
    "town": "名蔵"
  },
  "9070022": {
    "zipcode": "9070022",
    "prefectureCode": "47",
    "prefectureNumber": 47,
    "prefecture": "沖縄県",
    "city": "石垣市",
    "town": "大川"
  },
  "9070023": {
    "zipcode": "9070023",
    "prefectureCode": "47",
    "prefectureNumber": 47,
    "prefecture": "沖縄県",
    "city": "石垣市",
    "town": "石垣"
  },
  "9070024": {
    "zipcode": "9070024",
    "prefectureCode": "47",
    "prefectureNumber": 47,
    "prefecture": "沖縄県",
    "city": "石垣市",
    "town": "新川"
  },
  "9070031": {
    "zipcode": "9070031",
    "prefectureCode": "47",
    "prefectureNumber": 47,
    "prefecture": "沖縄県",
    "city": "石垣市",
    "town": "登野城尖閣"
  },
  "9070241": {
    "zipcode": "9070241",
    "prefectureCode": "47",
    "prefectureNumber": 47,
    "prefecture": "沖縄県",
    "city": "石垣市",
    "town": "桃里"
  },
  "9070242": {
    "zipcode": "9070242",
    "prefectureCode": "47",
    "prefectureNumber": 47,
    "prefecture": "沖縄県",
    "city": "石垣市",
    "town": "白保"
  },
  "9070243": {
    "zipcode": "9070243",
    "prefectureCode": "47",
    "prefectureNumber": 47,
    "prefecture": "沖縄県",
    "city": "石垣市",
    "town": "宮良"
  },
  "9070244": {
    "zipcode": "9070244",
    "prefectureCode": "47",
    "prefectureNumber": 47,
    "prefecture": "沖縄県",
    "city": "石垣市",
    "town": "盛山"
  },
  "9070331": {
    "zipcode": "9070331",
    "prefectureCode": "47",
    "prefectureNumber": 47,
    "prefecture": "沖縄県",
    "city": "石垣市",
    "town": "平久保"
  },
  "9070332": {
    "zipcode": "9070332",
    "prefectureCode": "47",
    "prefectureNumber": 47,
    "prefecture": "沖縄県",
    "city": "石垣市",
    "town": "伊原間"
  },
  "9070333": {
    "zipcode": "9070333",
    "prefectureCode": "47",
    "prefectureNumber": 47,
    "prefecture": "沖縄県",
    "city": "石垣市",
    "town": "野底"
  },
  "9070451": {
    "zipcode": "9070451",
    "prefectureCode": "47",
    "prefectureNumber": 47,
    "prefecture": "沖縄県",
    "city": "石垣市",
    "town": "桴海"
  },
  "9070452": {
    "zipcode": "9070452",
    "prefectureCode": "47",
    "prefectureNumber": 47,
    "prefecture": "沖縄県",
    "city": "石垣市",
    "town": "崎枝"
  },
  "9070453": {
    "zipcode": "9070453",
    "prefectureCode": "47",
    "prefectureNumber": 47,
    "prefecture": "沖縄県",
    "city": "石垣市",
    "town": "川平"
  },
  "9071101": {
    "zipcode": "9071101",
    "prefectureCode": "47",
    "prefectureNumber": 47,
    "prefecture": "沖縄県",
    "city": "八重山郡竹富町",
    "town": "竹富"
  },
  "9071221": {
    "zipcode": "9071221",
    "prefectureCode": "47",
    "prefectureNumber": 47,
    "prefecture": "沖縄県",
    "city": "八重山郡竹富町",
    "town": "小浜"
  },
  "9071311": {
    "zipcode": "9071311",
    "prefectureCode": "47",
    "prefectureNumber": 47,
    "prefecture": "沖縄県",
    "city": "八重山郡竹富町",
    "town": "黒島"
  },
  "9071431": {
    "zipcode": "9071431",
    "prefectureCode": "47",
    "prefectureNumber": 47,
    "prefecture": "沖縄県",
    "city": "八重山郡竹富町",
    "town": "高那"
  },
  "9071432": {
    "zipcode": "9071432",
    "prefectureCode": "47",
    "prefectureNumber": 47,
    "prefecture": "沖縄県",
    "city": "八重山郡竹富町",
    "town": "古見"
  },
  "9071433": {
    "zipcode": "9071433",
    "prefectureCode": "47",
    "prefectureNumber": 47,
    "prefecture": "沖縄県",
    "city": "八重山郡竹富町",
    "town": "南風見仲"
  },
  "9071434": {
    "zipcode": "9071434",
    "prefectureCode": "47",
    "prefectureNumber": 47,
    "prefecture": "沖縄県",
    "city": "八重山郡竹富町",
    "town": "南風見"
  },
  "9071435": {
    "zipcode": "9071435",
    "prefectureCode": "47",
    "prefectureNumber": 47,
    "prefecture": "沖縄県",
    "city": "八重山郡竹富町",
    "town": "新城"
  },
  "9071541": {
    "zipcode": "9071541",
    "prefectureCode": "47",
    "prefectureNumber": 47,
    "prefecture": "沖縄県",
    "city": "八重山郡竹富町",
    "town": "上原"
  },
  "9071542": {
    "zipcode": "9071542",
    "prefectureCode": "47",
    "prefectureNumber": 47,
    "prefecture": "沖縄県",
    "city": "八重山郡竹富町",
    "town": "西表"
  },
  "9071543": {
    "zipcode": "9071543",
    "prefectureCode": "47",
    "prefectureNumber": 47,
    "prefecture": "沖縄県",
    "city": "八重山郡竹富町",
    "town": "崎山"
  },
  "9071544": {
    "zipcode": "9071544",
    "prefectureCode": "47",
    "prefectureNumber": 47,
    "prefecture": "沖縄県",
    "city": "八重山郡竹富町",
    "town": "鳩間"
  },
  "9071751": {
    "zipcode": "9071751",
    "prefectureCode": "47",
    "prefectureNumber": 47,
    "prefecture": "沖縄県",
    "city": "八重山郡竹富町",
    "town": "波照間"
  },
  "9071800": {
    "zipcode": "9071800",
    "prefectureCode": "47",
    "prefectureNumber": 47,
    "prefecture": "沖縄県",
    "city": "八重山郡与那国町",
    "town": "以下に掲載がない場合"
  },
  "9071801": {
    "zipcode": "9071801",
    "prefectureCode": "47",
    "prefectureNumber": 47,
    "prefecture": "沖縄県",
    "city": "八重山郡与那国町",
    "town": "与那国"
  }
}
