{
  "9130001": {
    "zipcode": "9130001",
    "prefectureCode": "18",
    "prefectureNumber": 18,
    "prefecture": "福井県",
    "city": "坂井市",
    "town": "三国町池上"
  },
  "9130002": {
    "zipcode": "9130002",
    "prefectureCode": "18",
    "prefectureNumber": 18,
    "prefecture": "福井県",
    "city": "坂井市",
    "town": "三国町加戸"
  },
  "9130003": {
    "zipcode": "9130003",
    "prefectureCode": "18",
    "prefectureNumber": 18,
    "prefecture": "福井県",
    "city": "坂井市",
    "town": "三国町西谷"
  },
  "9130004": {
    "zipcode": "9130004",
    "prefectureCode": "18",
    "prefectureNumber": 18,
    "prefecture": "福井県",
    "city": "坂井市",
    "town": "三国町平山"
  },
  "9130005": {
    "zipcode": "9130005",
    "prefectureCode": "18",
    "prefectureNumber": 18,
    "prefecture": "福井県",
    "city": "坂井市",
    "town": "三国町浜地"
  },
  "9130011": {
    "zipcode": "9130011",
    "prefectureCode": "18",
    "prefectureNumber": 18,
    "prefecture": "福井県",
    "city": "坂井市",
    "town": "三国町水居"
  },
  "9130012": {
    "zipcode": "9130012",
    "prefectureCode": "18",
    "prefectureNumber": 18,
    "prefecture": "福井県",
    "city": "坂井市",
    "town": "三国町西今市"
  },
  "9130013": {
    "zipcode": "9130013",
    "prefectureCode": "18",
    "prefectureNumber": 18,
    "prefecture": "福井県",
    "city": "坂井市",
    "town": "三国町藤沢"
  },
  "9130014": {
    "zipcode": "9130014",
    "prefectureCode": "18",
    "prefectureNumber": 18,
    "prefecture": "福井県",
    "city": "坂井市",
    "town": "三国町玉江"
  },
  "9130015": {
    "zipcode": "9130015",
    "prefectureCode": "18",
    "prefectureNumber": 18,
    "prefecture": "福井県",
    "city": "坂井市",
    "town": "三国町野中"
  },
  "9130016": {
    "zipcode": "9130016",
    "prefectureCode": "18",
    "prefectureNumber": 18,
    "prefecture": "福井県",
    "city": "坂井市",
    "town": "三国町三国東"
  },
  "9130017": {
    "zipcode": "9130017",
    "prefectureCode": "18",
    "prefectureNumber": 18,
    "prefecture": "福井県",
    "city": "坂井市",
    "town": "三国町竹松"
  },
  "9130021": {
    "zipcode": "9130021",
    "prefectureCode": "18",
    "prefectureNumber": 18,
    "prefecture": "福井県",
    "city": "坂井市",
    "town": "三国町楽円"
  },
  "9130022": {
    "zipcode": "9130022",
    "prefectureCode": "18",
    "prefectureNumber": 18,
    "prefecture": "福井県",
    "city": "坂井市",
    "town": "三国町油屋"
  },
  "9130023": {
    "zipcode": "9130023",
    "prefectureCode": "18",
    "prefectureNumber": 18,
    "prefecture": "福井県",
    "city": "坂井市",
    "town": "三国町石丸"
  },
  "9130024": {
    "zipcode": "9130024",
    "prefectureCode": "18",
    "prefectureNumber": 18,
    "prefecture": "福井県",
    "city": "坂井市",
    "town": "三国町池見"
  },
  "9130025": {
    "zipcode": "9130025",
    "prefectureCode": "18",
    "prefectureNumber": 18,
    "prefecture": "福井県",
    "city": "坂井市",
    "town": "三国町川崎"
  },
  "9130026": {
    "zipcode": "9130026",
    "prefectureCode": "18",
    "prefectureNumber": 18,
    "prefecture": "福井県",
    "city": "坂井市",
    "town": "三国町殿島"
  },
  "9130027": {
    "zipcode": "9130027",
    "prefectureCode": "18",
    "prefectureNumber": 18,
    "prefecture": "福井県",
    "city": "坂井市",
    "town": "三国町汐見"
  },
  "9130031": {
    "zipcode": "9130031",
    "prefectureCode": "18",
    "prefectureNumber": 18,
    "prefecture": "福井県",
    "city": "坂井市",
    "town": "三国町新保（その他）"
  },
  "9130032": {
    "zipcode": "9130032",
    "prefectureCode": "18",
    "prefectureNumber": 18,
    "prefecture": "福井県",
    "city": "坂井市",
    "town": "三国町山岸（その他）"
  },
  "9130033": {
    "zipcode": "9130033",
    "prefectureCode": "18",
    "prefectureNumber": 18,
    "prefecture": "福井県",
    "city": "坂井市",
    "town": "三国町下野"
  },
  "9130034": {
    "zipcode": "9130034",
    "prefectureCode": "18",
    "prefectureNumber": 18,
    "prefecture": "福井県",
    "city": "坂井市",
    "town": "三国町西野中"
  },
  "9130035": {
    "zipcode": "9130035",
    "prefectureCode": "18",
    "prefectureNumber": 18,
    "prefecture": "福井県",
    "city": "坂井市",
    "town": "三国町横越"
  },
  "9130036": {
    "zipcode": "9130036",
    "prefectureCode": "18",
    "prefectureNumber": 18,
    "prefecture": "福井県",
    "city": "坂井市",
    "town": "三国町米納津（その他）"
  },
  "9130037": {
    "zipcode": "9130037",
    "prefectureCode": "18",
    "prefectureNumber": 18,
    "prefecture": "福井県",
    "city": "坂井市",
    "town": "三国町黒目（その他）"
  },
  "9130038": {
    "zipcode": "9130038",
    "prefectureCode": "18",
    "prefectureNumber": 18,
    "prefecture": "福井県",
    "city": "坂井市",
    "town": "三国町米納津（テクノポート）"
  },
  "9130041": {
    "zipcode": "9130041",
    "prefectureCode": "18",
    "prefectureNumber": 18,
    "prefecture": "福井県",
    "city": "坂井市",
    "town": "三国町覚善"
  },
  "9130042": {
    "zipcode": "9130042",
    "prefectureCode": "18",
    "prefectureNumber": 18,
    "prefecture": "福井県",
    "city": "坂井市",
    "town": "三国町中央"
  },
  "9130043": {
    "zipcode": "9130043",
    "prefectureCode": "18",
    "prefectureNumber": 18,
    "prefecture": "福井県",
    "city": "坂井市",
    "town": "三国町錦"
  },
  "9130044": {
    "zipcode": "9130044",
    "prefectureCode": "18",
    "prefectureNumber": 18,
    "prefecture": "福井県",
    "city": "坂井市",
    "town": "三国町山王"
  },
  "9130045": {
    "zipcode": "9130045",
    "prefectureCode": "18",
    "prefectureNumber": 18,
    "prefecture": "福井県",
    "city": "坂井市",
    "town": "三国町南本町"
  },
  "9130046": {
    "zipcode": "9130046",
    "prefectureCode": "18",
    "prefectureNumber": 18,
    "prefecture": "福井県",
    "city": "坂井市",
    "town": "三国町北本町"
  },
  "9130047": {
    "zipcode": "9130047",
    "prefectureCode": "18",
    "prefectureNumber": 18,
    "prefecture": "福井県",
    "city": "坂井市",
    "town": "三国町神明"
  },
  "9130048": {
    "zipcode": "9130048",
    "prefectureCode": "18",
    "prefectureNumber": 18,
    "prefecture": "福井県",
    "city": "坂井市",
    "town": "三国町緑ケ丘"
  },
  "9130051": {
    "zipcode": "9130051",
    "prefectureCode": "18",
    "prefectureNumber": 18,
    "prefecture": "福井県",
    "city": "坂井市",
    "town": "三国町嵩"
  },
  "9130052": {
    "zipcode": "9130052",
    "prefectureCode": "18",
    "prefectureNumber": 18,
    "prefecture": "福井県",
    "city": "坂井市",
    "town": "三国町運動公園"
  },
  "9130053": {
    "zipcode": "9130053",
    "prefectureCode": "18",
    "prefectureNumber": 18,
    "prefecture": "福井県",
    "city": "坂井市",
    "town": "三国町青葉台"
  },
  "9130054": {
    "zipcode": "9130054",
    "prefectureCode": "18",
    "prefectureNumber": 18,
    "prefecture": "福井県",
    "city": "坂井市",
    "town": "三国町滝谷"
  },
  "9130055": {
    "zipcode": "9130055",
    "prefectureCode": "18",
    "prefectureNumber": 18,
    "prefecture": "福井県",
    "city": "坂井市",
    "town": "三国町つつじが丘"
  },
  "9130056": {
    "zipcode": "9130056",
    "prefectureCode": "18",
    "prefectureNumber": 18,
    "prefecture": "福井県",
    "city": "坂井市",
    "town": "三国町宿"
  },
  "9130057": {
    "zipcode": "9130057",
    "prefectureCode": "18",
    "prefectureNumber": 18,
    "prefecture": "福井県",
    "city": "坂井市",
    "town": "三国町米ケ脇"
  },
  "9130058": {
    "zipcode": "9130058",
    "prefectureCode": "18",
    "prefectureNumber": 18,
    "prefecture": "福井県",
    "city": "坂井市",
    "town": "三国町新宿"
  },
  "9130061": {
    "zipcode": "9130061",
    "prefectureCode": "18",
    "prefectureNumber": 18,
    "prefecture": "福井県",
    "city": "坂井市",
    "town": "三国町梶"
  },
  "9130062": {
    "zipcode": "9130062",
    "prefectureCode": "18",
    "prefectureNumber": 18,
    "prefecture": "福井県",
    "city": "坂井市",
    "town": "三国町陣ケ岡"
  },
  "9130063": {
    "zipcode": "9130063",
    "prefectureCode": "18",
    "prefectureNumber": 18,
    "prefecture": "福井県",
    "city": "坂井市",
    "town": "三国町安島（東尋坊）"
  },
  "9130064": {
    "zipcode": "9130064",
    "prefectureCode": "18",
    "prefectureNumber": 18,
    "prefecture": "福井県",
    "city": "坂井市",
    "town": "三国町安島（その他）"
  },
  "9130065": {
    "zipcode": "9130065",
    "prefectureCode": "18",
    "prefectureNumber": 18,
    "prefecture": "福井県",
    "city": "坂井市",
    "town": "三国町崎"
  }
}
