{
  "9140000": {
    "zipcode": "9140000",
    "prefectureCode": "18",
    "prefectureNumber": 18,
    "prefecture": "福井県",
    "city": "敦賀市",
    "town": "以下に掲載がない場合"
  },
  "9140001": {
    "zipcode": "9140001",
    "prefectureCode": "18",
    "prefectureNumber": 18,
    "prefecture": "福井県",
    "city": "敦賀市",
    "town": "新保"
  },
  "9140002": {
    "zipcode": "9140002",
    "prefectureCode": "18",
    "prefectureNumber": 18,
    "prefecture": "福井県",
    "city": "敦賀市",
    "town": "葉原"
  },
  "9140003": {
    "zipcode": "9140003",
    "prefectureCode": "18",
    "prefectureNumber": 18,
    "prefecture": "福井県",
    "city": "敦賀市",
    "town": "獺河内"
  },
  "9140004": {
    "zipcode": "9140004",
    "prefectureCode": "18",
    "prefectureNumber": 18,
    "prefecture": "福井県",
    "city": "敦賀市",
    "town": "池河内"
  },
  "9140005": {
    "zipcode": "9140005",
    "prefectureCode": "18",
    "prefectureNumber": 18,
    "prefecture": "福井県",
    "city": "敦賀市",
    "town": "樫曲"
  },
  "9140006": {
    "zipcode": "9140006",
    "prefectureCode": "18",
    "prefectureNumber": 18,
    "prefecture": "福井県",
    "city": "敦賀市",
    "town": "越坂"
  },
  "9140007": {
    "zipcode": "9140007",
    "prefectureCode": "18",
    "prefectureNumber": 18,
    "prefecture": "福井県",
    "city": "敦賀市",
    "town": "田尻"
  },
  "9140011": {
    "zipcode": "9140011",
    "prefectureCode": "18",
    "prefectureNumber": 18,
    "prefecture": "福井県",
    "city": "敦賀市",
    "town": "深山寺"
  },
  "9140012": {
    "zipcode": "9140012",
    "prefectureCode": "18",
    "prefectureNumber": 18,
    "prefecture": "福井県",
    "city": "敦賀市",
    "town": "川北"
  },
  "9140013": {
    "zipcode": "9140013",
    "prefectureCode": "18",
    "prefectureNumber": 18,
    "prefecture": "福井県",
    "city": "敦賀市",
    "town": "谷口"
  },
  "9140014": {
    "zipcode": "9140014",
    "prefectureCode": "18",
    "prefectureNumber": 18,
    "prefecture": "福井県",
    "city": "敦賀市",
    "town": "井川"
  },
  "9140015": {
    "zipcode": "9140015",
    "prefectureCode": "18",
    "prefectureNumber": 18,
    "prefecture": "福井県",
    "city": "敦賀市",
    "town": "河原町"
  },
  "9140016": {
    "zipcode": "9140016",
    "prefectureCode": "18",
    "prefectureNumber": 18,
    "prefecture": "福井県",
    "city": "敦賀市",
    "town": "余座"
  },
  "9140017": {
    "zipcode": "9140017",
    "prefectureCode": "18",
    "prefectureNumber": 18,
    "prefecture": "福井県",
    "city": "敦賀市",
    "town": "藤ケ丘町"
  },
  "9140018": {
    "zipcode": "9140018",
    "prefectureCode": "18",
    "prefectureNumber": 18,
    "prefecture": "福井県",
    "city": "敦賀市",
    "town": "大蔵"
  },
  "9140021": {
    "zipcode": "9140021",
    "prefectureCode": "18",
    "prefectureNumber": 18,
    "prefecture": "福井県",
    "city": "敦賀市",
    "town": "泉ケ丘町"
  },
  "9140022": {
    "zipcode": "9140022",
    "prefectureCode": "18",
    "prefectureNumber": 18,
    "prefecture": "福井県",
    "city": "敦賀市",
    "town": "高野"
  },
  "9140023": {
    "zipcode": "9140023",
    "prefectureCode": "18",
    "prefectureNumber": 18,
    "prefecture": "福井県",
    "city": "敦賀市",
    "town": "深川町"
  },
  "9140024": {
    "zipcode": "9140024",
    "prefectureCode": "18",
    "prefectureNumber": 18,
    "prefecture": "福井県",
    "city": "敦賀市",
    "town": "吉河"
  },
  "9140025": {
    "zipcode": "9140025",
    "prefectureCode": "18",
    "prefectureNumber": 18,
    "prefecture": "福井県",
    "city": "敦賀市",
    "town": "樋ノ水町"
  },
  "9140026": {
    "zipcode": "9140026",
    "prefectureCode": "18",
    "prefectureNumber": 18,
    "prefecture": "福井県",
    "city": "敦賀市",
    "town": "木ノ芽町"
  },
  "9140027": {
    "zipcode": "9140027",
    "prefectureCode": "18",
    "prefectureNumber": 18,
    "prefecture": "福井県",
    "city": "敦賀市",
    "town": "若泉町"
  },
  "9140028": {
    "zipcode": "9140028",
    "prefectureCode": "18",
    "prefectureNumber": 18,
    "prefecture": "福井県",
    "city": "敦賀市",
    "town": "中"
  },
  "9140031": {
    "zipcode": "9140031",
    "prefectureCode": "18",
    "prefectureNumber": 18,
    "prefecture": "福井県",
    "city": "敦賀市",
    "town": "谷"
  },
  "9140032": {
    "zipcode": "9140032",
    "prefectureCode": "18",
    "prefectureNumber": 18,
    "prefecture": "福井県",
    "city": "敦賀市",
    "town": "小河"
  },
  "9140033": {
    "zipcode": "9140033",
    "prefectureCode": "18",
    "prefectureNumber": 18,
    "prefecture": "福井県",
    "city": "敦賀市",
    "town": "鳩原"
  },
  "9140034": {
    "zipcode": "9140034",
    "prefectureCode": "18",
    "prefectureNumber": 18,
    "prefecture": "福井県",
    "city": "敦賀市",
    "town": "小河口"
  },
  "9140035": {
    "zipcode": "9140035",
    "prefectureCode": "18",
    "prefectureNumber": 18,
    "prefecture": "福井県",
    "city": "敦賀市",
    "town": "山泉"
  },
  "9140036": {
    "zipcode": "9140036",
    "prefectureCode": "18",
    "prefectureNumber": 18,
    "prefecture": "福井県",
    "city": "敦賀市",
    "town": "堂"
  },
  "9140037": {
    "zipcode": "9140037",
    "prefectureCode": "18",
    "prefectureNumber": 18,
    "prefecture": "福井県",
    "city": "敦賀市",
    "town": "道口"
  },
  "9140038": {
    "zipcode": "9140038",
    "prefectureCode": "18",
    "prefectureNumber": 18,
    "prefecture": "福井県",
    "city": "敦賀市",
    "town": "坂下"
  },
  "9140039": {
    "zipcode": "9140039",
    "prefectureCode": "18",
    "prefectureNumber": 18,
    "prefecture": "福井県",
    "city": "敦賀市",
    "town": "羽織町"
  },
  "9140041": {
    "zipcode": "9140041",
    "prefectureCode": "18",
    "prefectureNumber": 18,
    "prefecture": "福井県",
    "city": "敦賀市",
    "town": "布田町"
  },
  "9140042": {
    "zipcode": "9140042",
    "prefectureCode": "18",
    "prefectureNumber": 18,
    "prefecture": "福井県",
    "city": "敦賀市",
    "town": "石ケ町"
  },
  "9140043": {
    "zipcode": "9140043",
    "prefectureCode": "18",
    "prefectureNumber": 18,
    "prefecture": "福井県",
    "city": "敦賀市",
    "town": "衣掛町"
  },
  "9140044": {
    "zipcode": "9140044",
    "prefectureCode": "18",
    "prefectureNumber": 18,
    "prefecture": "福井県",
    "city": "敦賀市",
    "town": "岡山町"
  },
  "9140045": {
    "zipcode": "9140045",
    "prefectureCode": "18",
    "prefectureNumber": 18,
    "prefecture": "福井県",
    "city": "敦賀市",
    "town": "古田刈"
  },
  "9140046": {
    "zipcode": "9140046",
    "prefectureCode": "18",
    "prefectureNumber": 18,
    "prefecture": "福井県",
    "city": "敦賀市",
    "town": "長沢"
  },
  "9140047": {
    "zipcode": "9140047",
    "prefectureCode": "18",
    "prefectureNumber": 18,
    "prefecture": "福井県",
    "city": "敦賀市",
    "town": "東洋町"
  },
  "9140051": {
    "zipcode": "9140051",
    "prefectureCode": "18",
    "prefectureNumber": 18,
    "prefecture": "福井県",
    "city": "敦賀市",
    "town": "本町"
  },
  "9140052": {
    "zipcode": "9140052",
    "prefectureCode": "18",
    "prefectureNumber": 18,
    "prefecture": "福井県",
    "city": "敦賀市",
    "town": "清水町"
  },
  "9140053": {
    "zipcode": "9140053",
    "prefectureCode": "18",
    "prefectureNumber": 18,
    "prefecture": "福井県",
    "city": "敦賀市",
    "town": "舞崎町"
  },
  "9140054": {
    "zipcode": "9140054",
    "prefectureCode": "18",
    "prefectureNumber": 18,
    "prefecture": "福井県",
    "city": "敦賀市",
    "town": "白銀町"
  },
  "9140055": {
    "zipcode": "9140055",
    "prefectureCode": "18",
    "prefectureNumber": 18,
    "prefecture": "福井県",
    "city": "敦賀市",
    "town": "鉄輪町"
  },
  "9140056": {
    "zipcode": "9140056",
    "prefectureCode": "18",
    "prefectureNumber": 18,
    "prefecture": "福井県",
    "city": "敦賀市",
    "town": "津内町"
  },
  "9140057": {
    "zipcode": "9140057",
    "prefectureCode": "18",
    "prefectureNumber": 18,
    "prefecture": "福井県",
    "city": "敦賀市",
    "town": "開町"
  },
  "9140058": {
    "zipcode": "9140058",
    "prefectureCode": "18",
    "prefectureNumber": 18,
    "prefecture": "福井県",
    "city": "敦賀市",
    "town": "三島町"
  },
  "9140059": {
    "zipcode": "9140059",
    "prefectureCode": "18",
    "prefectureNumber": 18,
    "prefecture": "福井県",
    "city": "敦賀市",
    "town": "国広町"
  },
  "9140061": {
    "zipcode": "9140061",
    "prefectureCode": "18",
    "prefectureNumber": 18,
    "prefecture": "福井県",
    "city": "敦賀市",
    "town": "蓬莱町"
  },
  "9140062": {
    "zipcode": "9140062",
    "prefectureCode": "18",
    "prefectureNumber": 18,
    "prefecture": "福井県",
    "city": "敦賀市",
    "town": "相生町"
  },
  "9140063": {
    "zipcode": "9140063",
    "prefectureCode": "18",
    "prefectureNumber": 18,
    "prefecture": "福井県",
    "city": "敦賀市",
    "town": "神楽町"
  },
  "9140064": {
    "zipcode": "9140064",
    "prefectureCode": "18",
    "prefectureNumber": 18,
    "prefecture": "福井県",
    "city": "敦賀市",
    "town": "結城町"
  },
  "9140065": {
    "zipcode": "9140065",
    "prefectureCode": "18",
    "prefectureNumber": 18,
    "prefecture": "福井県",
    "city": "敦賀市",
    "town": "松栄町"
  },
  "9140066": {
    "zipcode": "9140066",
    "prefectureCode": "18",
    "prefectureNumber": 18,
    "prefecture": "福井県",
    "city": "敦賀市",
    "town": "川崎町"
  },
  "9140071": {
    "zipcode": "9140071",
    "prefectureCode": "18",
    "prefectureNumber": 18,
    "prefecture": "福井県",
    "city": "敦賀市",
    "town": "泉"
  },
  "9140072": {
    "zipcode": "9140072",
    "prefectureCode": "18",
    "prefectureNumber": 18,
    "prefecture": "福井県",
    "city": "敦賀市",
    "town": "金ケ崎町"
  },
  "9140073": {
    "zipcode": "9140073",
    "prefectureCode": "18",
    "prefectureNumber": 18,
    "prefecture": "福井県",
    "city": "敦賀市",
    "town": "天筒町"
  },
  "9140074": {
    "zipcode": "9140074",
    "prefectureCode": "18",
    "prefectureNumber": 18,
    "prefecture": "福井県",
    "city": "敦賀市",
    "town": "角鹿町"
  },
  "9140075": {
    "zipcode": "9140075",
    "prefectureCode": "18",
    "prefectureNumber": 18,
    "prefecture": "福井県",
    "city": "敦賀市",
    "town": "曙町"
  },
  "9140076": {
    "zipcode": "9140076",
    "prefectureCode": "18",
    "prefectureNumber": 18,
    "prefecture": "福井県",
    "city": "敦賀市",
    "town": "元町"
  },
  "9140077": {
    "zipcode": "9140077",
    "prefectureCode": "18",
    "prefectureNumber": 18,
    "prefecture": "福井県",
    "city": "敦賀市",
    "town": "栄新町"
  },
  "9140078": {
    "zipcode": "9140078",
    "prefectureCode": "18",
    "prefectureNumber": 18,
    "prefecture": "福井県",
    "city": "敦賀市",
    "town": "桜町"
  },
  "9140079": {
    "zipcode": "9140079",
    "prefectureCode": "18",
    "prefectureNumber": 18,
    "prefecture": "福井県",
    "city": "敦賀市",
    "town": "港町"
  },
  "9140121": {
    "zipcode": "9140121",
    "prefectureCode": "18",
    "prefectureNumber": 18,
    "prefecture": "福井県",
    "city": "敦賀市",
    "town": "野神"
  },
  "9140122": {
    "zipcode": "9140122",
    "prefectureCode": "18",
    "prefectureNumber": 18,
    "prefecture": "福井県",
    "city": "敦賀市",
    "town": "新和町"
  },
  "9140123": {
    "zipcode": "9140123",
    "prefectureCode": "18",
    "prefectureNumber": 18,
    "prefecture": "福井県",
    "city": "敦賀市",
    "town": "和久野"
  },
  "9140124": {
    "zipcode": "9140124",
    "prefectureCode": "18",
    "prefectureNumber": 18,
    "prefecture": "福井県",
    "city": "敦賀市",
    "town": "市野々町"
  },
  "9140125": {
    "zipcode": "9140125",
    "prefectureCode": "18",
    "prefectureNumber": 18,
    "prefecture": "福井県",
    "city": "敦賀市",
    "town": "若葉町"
  },
  "9140131": {
    "zipcode": "9140131",
    "prefectureCode": "18",
    "prefectureNumber": 18,
    "prefecture": "福井県",
    "city": "敦賀市",
    "town": "公文名"
  },
  "9140132": {
    "zipcode": "9140132",
    "prefectureCode": "18",
    "prefectureNumber": 18,
    "prefecture": "福井県",
    "city": "敦賀市",
    "town": "御名"
  },
  "9140133": {
    "zipcode": "9140133",
    "prefectureCode": "18",
    "prefectureNumber": 18,
    "prefecture": "福井県",
    "city": "敦賀市",
    "town": "みどりケ丘町"
  },
  "9140134": {
    "zipcode": "9140134",
    "prefectureCode": "18",
    "prefectureNumber": 18,
    "prefecture": "福井県",
    "city": "敦賀市",
    "town": "山"
  },
  "9140135": {
    "zipcode": "9140135",
    "prefectureCode": "18",
    "prefectureNumber": 18,
    "prefecture": "福井県",
    "city": "敦賀市",
    "town": "長谷"
  },
  "9140136": {
    "zipcode": "9140136",
    "prefectureCode": "18",
    "prefectureNumber": 18,
    "prefecture": "福井県",
    "city": "敦賀市",
    "town": "砂流"
  },
  "9140137": {
    "zipcode": "9140137",
    "prefectureCode": "18",
    "prefectureNumber": 18,
    "prefecture": "福井県",
    "city": "敦賀市",
    "town": "ひばりケ丘町"
  },
  "9140138": {
    "zipcode": "9140138",
    "prefectureCode": "18",
    "prefectureNumber": 18,
    "prefecture": "福井県",
    "city": "敦賀市",
    "town": "櫛林"
  },
  "9140141": {
    "zipcode": "9140141",
    "prefectureCode": "18",
    "prefectureNumber": 18,
    "prefecture": "福井県",
    "city": "敦賀市",
    "town": "莇生野"
  },
  "9140142": {
    "zipcode": "9140142",
    "prefectureCode": "18",
    "prefectureNumber": 18,
    "prefecture": "福井県",
    "city": "敦賀市",
    "town": "萩野町"
  },
  "9140143": {
    "zipcode": "9140143",
    "prefectureCode": "18",
    "prefectureNumber": 18,
    "prefecture": "福井県",
    "city": "敦賀市",
    "town": "沢"
  },
  "9140144": {
    "zipcode": "9140144",
    "prefectureCode": "18",
    "prefectureNumber": 18,
    "prefecture": "福井県",
    "city": "敦賀市",
    "town": "桜ケ丘町"
  },
  "9140145": {
    "zipcode": "9140145",
    "prefectureCode": "18",
    "prefectureNumber": 18,
    "prefecture": "福井県",
    "city": "敦賀市",
    "town": "野坂"
  },
  "9140146": {
    "zipcode": "9140146",
    "prefectureCode": "18",
    "prefectureNumber": 18,
    "prefecture": "福井県",
    "city": "敦賀市",
    "town": "金山"
  },
  "9140147": {
    "zipcode": "9140147",
    "prefectureCode": "18",
    "prefectureNumber": 18,
    "prefecture": "福井県",
    "city": "敦賀市",
    "town": "関"
  },
  "9140261": {
    "zipcode": "9140261",
    "prefectureCode": "18",
    "prefectureNumber": 18,
    "prefecture": "福井県",
    "city": "敦賀市",
    "town": "元比田"
  },
  "9140262": {
    "zipcode": "9140262",
    "prefectureCode": "18",
    "prefectureNumber": 18,
    "prefecture": "福井県",
    "city": "敦賀市",
    "town": "大比田"
  },
  "9140263": {
    "zipcode": "9140263",
    "prefectureCode": "18",
    "prefectureNumber": 18,
    "prefecture": "福井県",
    "city": "敦賀市",
    "town": "横浜"
  },
  "9140264": {
    "zipcode": "9140264",
    "prefectureCode": "18",
    "prefectureNumber": 18,
    "prefecture": "福井県",
    "city": "敦賀市",
    "town": "杉津"
  },
  "9140265": {
    "zipcode": "9140265",
    "prefectureCode": "18",
    "prefectureNumber": 18,
    "prefecture": "福井県",
    "city": "敦賀市",
    "town": "阿曽"
  },
  "9140266": {
    "zipcode": "9140266",
    "prefectureCode": "18",
    "prefectureNumber": 18,
    "prefecture": "福井県",
    "city": "敦賀市",
    "town": "挙野"
  },
  "9140267": {
    "zipcode": "9140267",
    "prefectureCode": "18",
    "prefectureNumber": 18,
    "prefecture": "福井県",
    "city": "敦賀市",
    "town": "五幡"
  },
  "9140268": {
    "zipcode": "9140268",
    "prefectureCode": "18",
    "prefectureNumber": 18,
    "prefecture": "福井県",
    "city": "敦賀市",
    "town": "江良"
  },
  "9140271": {
    "zipcode": "9140271",
    "prefectureCode": "18",
    "prefectureNumber": 18,
    "prefecture": "福井県",
    "city": "敦賀市",
    "town": "泉（東浦）"
  },
  "9140272": {
    "zipcode": "9140272",
    "prefectureCode": "18",
    "prefectureNumber": 18,
    "prefecture": "福井県",
    "city": "敦賀市",
    "town": "赤崎"
  },
  "9140273": {
    "zipcode": "9140273",
    "prefectureCode": "18",
    "prefectureNumber": 18,
    "prefecture": "福井県",
    "city": "敦賀市",
    "town": "田結"
  },
  "9140274": {
    "zipcode": "9140274",
    "prefectureCode": "18",
    "prefectureNumber": 18,
    "prefecture": "福井県",
    "city": "敦賀市",
    "town": "鞠山"
  },
  "9140301": {
    "zipcode": "9140301",
    "prefectureCode": "18",
    "prefectureNumber": 18,
    "prefecture": "福井県",
    "city": "敦賀市",
    "town": "市橋"
  },
  "9140302": {
    "zipcode": "9140302",
    "prefectureCode": "18",
    "prefectureNumber": 18,
    "prefecture": "福井県",
    "city": "敦賀市",
    "town": "疋田"
  },
  "9140303": {
    "zipcode": "9140303",
    "prefectureCode": "18",
    "prefectureNumber": 18,
    "prefecture": "福井県",
    "city": "敦賀市",
    "town": "追分"
  },
  "9140304": {
    "zipcode": "9140304",
    "prefectureCode": "18",
    "prefectureNumber": 18,
    "prefecture": "福井県",
    "city": "敦賀市",
    "town": "深坂"
  },
  "9140305": {
    "zipcode": "9140305",
    "prefectureCode": "18",
    "prefectureNumber": 18,
    "prefecture": "福井県",
    "city": "敦賀市",
    "town": "駄口"
  },
  "9140306": {
    "zipcode": "9140306",
    "prefectureCode": "18",
    "prefectureNumber": 18,
    "prefecture": "福井県",
    "city": "敦賀市",
    "town": "山中"
  },
  "9140311": {
    "zipcode": "9140311",
    "prefectureCode": "18",
    "prefectureNumber": 18,
    "prefecture": "福井県",
    "city": "敦賀市",
    "town": "奥野"
  },
  "9140312": {
    "zipcode": "9140312",
    "prefectureCode": "18",
    "prefectureNumber": 18,
    "prefecture": "福井県",
    "city": "敦賀市",
    "town": "曽々木"
  },
  "9140313": {
    "zipcode": "9140313",
    "prefectureCode": "18",
    "prefectureNumber": 18,
    "prefecture": "福井県",
    "city": "敦賀市",
    "town": "刀根"
  },
  "9140314": {
    "zipcode": "9140314",
    "prefectureCode": "18",
    "prefectureNumber": 18,
    "prefecture": "福井県",
    "city": "敦賀市",
    "town": "杉箸"
  },
  "9140315": {
    "zipcode": "9140315",
    "prefectureCode": "18",
    "prefectureNumber": 18,
    "prefecture": "福井県",
    "city": "敦賀市",
    "town": "麻生口"
  },
  "9140316": {
    "zipcode": "9140316",
    "prefectureCode": "18",
    "prefectureNumber": 18,
    "prefecture": "福井県",
    "city": "敦賀市",
    "town": "奥麻生"
  },
  "9140317": {
    "zipcode": "9140317",
    "prefectureCode": "18",
    "prefectureNumber": 18,
    "prefecture": "福井県",
    "city": "敦賀市",
    "town": "新道"
  },
  "9140801": {
    "zipcode": "9140801",
    "prefectureCode": "18",
    "prefectureNumber": 18,
    "prefecture": "福井県",
    "city": "敦賀市",
    "town": "松島町"
  },
  "9140802": {
    "zipcode": "9140802",
    "prefectureCode": "18",
    "prefectureNumber": 18,
    "prefecture": "福井県",
    "city": "敦賀市",
    "town": "呉竹町"
  },
  "9140803": {
    "zipcode": "9140803",
    "prefectureCode": "18",
    "prefectureNumber": 18,
    "prefecture": "福井県",
    "city": "敦賀市",
    "town": "新松島町"
  },
  "9140805": {
    "zipcode": "9140805",
    "prefectureCode": "18",
    "prefectureNumber": 18,
    "prefecture": "福井県",
    "city": "敦賀市",
    "town": "鋳物師町"
  },
  "9140806": {
    "zipcode": "9140806",
    "prefectureCode": "18",
    "prefectureNumber": 18,
    "prefecture": "福井県",
    "city": "敦賀市",
    "town": "松原町"
  },
  "9140807": {
    "zipcode": "9140807",
    "prefectureCode": "18",
    "prefectureNumber": 18,
    "prefecture": "福井県",
    "city": "敦賀市",
    "town": "松葉町"
  },
  "9140811": {
    "zipcode": "9140811",
    "prefectureCode": "18",
    "prefectureNumber": 18,
    "prefecture": "福井県",
    "city": "敦賀市",
    "town": "中央町"
  },
  "9140812": {
    "zipcode": "9140812",
    "prefectureCode": "18",
    "prefectureNumber": 18,
    "prefecture": "福井県",
    "city": "敦賀市",
    "town": "昭和町"
  },
  "9140813": {
    "zipcode": "9140813",
    "prefectureCode": "18",
    "prefectureNumber": 18,
    "prefecture": "福井県",
    "city": "敦賀市",
    "town": "呉羽町"
  },
  "9140814": {
    "zipcode": "9140814",
    "prefectureCode": "18",
    "prefectureNumber": 18,
    "prefecture": "福井県",
    "city": "敦賀市",
    "town": "木崎"
  },
  "9140815": {
    "zipcode": "9140815",
    "prefectureCode": "18",
    "prefectureNumber": 18,
    "prefecture": "福井県",
    "city": "敦賀市",
    "town": "平和町"
  },
  "9140821": {
    "zipcode": "9140821",
    "prefectureCode": "18",
    "prefectureNumber": 18,
    "prefecture": "福井県",
    "city": "敦賀市",
    "town": "櫛川"
  },
  "9140822": {
    "zipcode": "9140822",
    "prefectureCode": "18",
    "prefectureNumber": 18,
    "prefecture": "福井県",
    "city": "敦賀市",
    "town": "櫛川町"
  },
  "9140823": {
    "zipcode": "9140823",
    "prefectureCode": "18",
    "prefectureNumber": 18,
    "prefecture": "福井県",
    "city": "敦賀市",
    "town": "沓見"
  },
  "9140824": {
    "zipcode": "9140824",
    "prefectureCode": "18",
    "prefectureNumber": 18,
    "prefecture": "福井県",
    "city": "敦賀市",
    "town": "原"
  },
  "9140825": {
    "zipcode": "9140825",
    "prefectureCode": "18",
    "prefectureNumber": 18,
    "prefecture": "福井県",
    "city": "敦賀市",
    "town": "永大町"
  },
  "9140831": {
    "zipcode": "9140831",
    "prefectureCode": "18",
    "prefectureNumber": 18,
    "prefecture": "福井県",
    "city": "敦賀市",
    "town": "沓"
  },
  "9140832": {
    "zipcode": "9140832",
    "prefectureCode": "18",
    "prefectureNumber": 18,
    "prefecture": "福井県",
    "city": "敦賀市",
    "town": "常宮"
  },
  "9140833": {
    "zipcode": "9140833",
    "prefectureCode": "18",
    "prefectureNumber": 18,
    "prefecture": "福井県",
    "city": "敦賀市",
    "town": "縄間"
  },
  "9140834": {
    "zipcode": "9140834",
    "prefectureCode": "18",
    "prefectureNumber": 18,
    "prefecture": "福井県",
    "city": "敦賀市",
    "town": "名子"
  },
  "9140835": {
    "zipcode": "9140835",
    "prefectureCode": "18",
    "prefectureNumber": 18,
    "prefecture": "福井県",
    "city": "敦賀市",
    "town": "二村"
  },
  "9140841": {
    "zipcode": "9140841",
    "prefectureCode": "18",
    "prefectureNumber": 18,
    "prefecture": "福井県",
    "city": "敦賀市",
    "town": "立石"
  },
  "9140842": {
    "zipcode": "9140842",
    "prefectureCode": "18",
    "prefectureNumber": 18,
    "prefecture": "福井県",
    "city": "敦賀市",
    "town": "明神町"
  },
  "9140843": {
    "zipcode": "9140843",
    "prefectureCode": "18",
    "prefectureNumber": 18,
    "prefecture": "福井県",
    "city": "敦賀市",
    "town": "浦底"
  },
  "9140844": {
    "zipcode": "9140844",
    "prefectureCode": "18",
    "prefectureNumber": 18,
    "prefecture": "福井県",
    "city": "敦賀市",
    "town": "色浜"
  },
  "9140845": {
    "zipcode": "9140845",
    "prefectureCode": "18",
    "prefectureNumber": 18,
    "prefecture": "福井県",
    "city": "敦賀市",
    "town": "手"
  }
}
