{
  "9150000": {
    "zipcode": "9150000",
    "prefectureCode": "18",
    "prefectureNumber": 18,
    "prefecture": "福井県",
    "city": "越前市",
    "town": "以下に掲載がない場合"
  },
  "9150001": {
    "zipcode": "9150001",
    "prefectureCode": "18",
    "prefectureNumber": 18,
    "prefecture": "福井県",
    "city": "越前市",
    "town": "中新庄町"
  },
  "9150002": {
    "zipcode": "9150002",
    "prefectureCode": "18",
    "prefectureNumber": 18,
    "prefecture": "福井県",
    "city": "越前市",
    "town": "長尾町"
  },
  "9150003": {
    "zipcode": "9150003",
    "prefectureCode": "18",
    "prefectureNumber": 18,
    "prefecture": "福井県",
    "city": "越前市",
    "town": "戸谷町"
  },
  "9150004": {
    "zipcode": "9150004",
    "prefectureCode": "18",
    "prefectureNumber": 18,
    "prefecture": "福井県",
    "city": "越前市",
    "town": "北町"
  },
  "9150005": {
    "zipcode": "9150005",
    "prefectureCode": "18",
    "prefectureNumber": 18,
    "prefecture": "福井県",
    "city": "越前市",
    "town": "真柄町"
  },
  "9150006": {
    "zipcode": "9150006",
    "prefectureCode": "18",
    "prefectureNumber": 18,
    "prefecture": "福井県",
    "city": "越前市",
    "town": "杉崎町"
  },
  "9150007": {
    "zipcode": "9150007",
    "prefectureCode": "18",
    "prefectureNumber": 18,
    "prefecture": "福井県",
    "city": "越前市",
    "town": "三ツ屋町"
  },
  "9150011": {
    "zipcode": "9150011",
    "prefectureCode": "18",
    "prefectureNumber": 18,
    "prefecture": "福井県",
    "city": "越前市",
    "town": "上真柄町"
  },
  "9150012": {
    "zipcode": "9150012",
    "prefectureCode": "18",
    "prefectureNumber": 18,
    "prefecture": "福井県",
    "city": "越前市",
    "town": "清水頭町"
  },
  "9150013": {
    "zipcode": "9150013",
    "prefectureCode": "18",
    "prefectureNumber": 18,
    "prefecture": "福井県",
    "city": "越前市",
    "town": "宮谷町"
  },
  "9150014": {
    "zipcode": "9150014",
    "prefectureCode": "18",
    "prefectureNumber": 18,
    "prefecture": "福井県",
    "city": "越前市",
    "town": "西尾町"
  },
  "9150015": {
    "zipcode": "9150015",
    "prefectureCode": "18",
    "prefectureNumber": 18,
    "prefecture": "福井県",
    "city": "越前市",
    "town": "大手町"
  },
  "9150016": {
    "zipcode": "9150016",
    "prefectureCode": "18",
    "prefectureNumber": 18,
    "prefecture": "福井県",
    "city": "越前市",
    "town": "岩内町"
  },
  "9150021": {
    "zipcode": "9150021",
    "prefectureCode": "18",
    "prefectureNumber": 18,
    "prefecture": "福井県",
    "city": "越前市",
    "town": "北小山町"
  },
  "9150022": {
    "zipcode": "9150022",
    "prefectureCode": "18",
    "prefectureNumber": 18,
    "prefecture": "福井県",
    "city": "越前市",
    "town": "南小山町"
  },
  "9150023": {
    "zipcode": "9150023",
    "prefectureCode": "18",
    "prefectureNumber": 18,
    "prefecture": "福井県",
    "city": "越前市",
    "town": "池泉町"
  },
  "9150024": {
    "zipcode": "9150024",
    "prefectureCode": "18",
    "prefectureNumber": 18,
    "prefecture": "福井県",
    "city": "越前市",
    "town": "上大坪町"
  },
  "9150025": {
    "zipcode": "9150025",
    "prefectureCode": "18",
    "prefectureNumber": 18,
    "prefecture": "福井県",
    "city": "越前市",
    "town": "味真野町"
  },
  "9150026": {
    "zipcode": "9150026",
    "prefectureCode": "18",
    "prefectureNumber": 18,
    "prefecture": "福井県",
    "city": "越前市",
    "town": "五分市町"
  },
  "9150031": {
    "zipcode": "9150031",
    "prefectureCode": "18",
    "prefectureNumber": 18,
    "prefecture": "福井県",
    "city": "越前市",
    "town": "余川町"
  },
  "9150032": {
    "zipcode": "9150032",
    "prefectureCode": "18",
    "prefectureNumber": 18,
    "prefecture": "福井県",
    "city": "越前市",
    "town": "檜尾谷町"
  },
  "9150033": {
    "zipcode": "9150033",
    "prefectureCode": "18",
    "prefectureNumber": 18,
    "prefecture": "福井県",
    "city": "越前市",
    "town": "蓑脇町"
  },
  "9150034": {
    "zipcode": "9150034",
    "prefectureCode": "18",
    "prefectureNumber": 18,
    "prefecture": "福井県",
    "city": "越前市",
    "town": "中居町"
  },
  "9150035": {
    "zipcode": "9150035",
    "prefectureCode": "18",
    "prefectureNumber": 18,
    "prefecture": "福井県",
    "city": "越前市",
    "town": "入谷町"
  },
  "9150036": {
    "zipcode": "9150036",
    "prefectureCode": "18",
    "prefectureNumber": 18,
    "prefecture": "福井県",
    "city": "越前市",
    "town": "文室町"
  },
  "9150037": {
    "zipcode": "9150037",
    "prefectureCode": "18",
    "prefectureNumber": 18,
    "prefecture": "福井県",
    "city": "越前市",
    "town": "萱谷町"
  },
  "9150041": {
    "zipcode": "9150041",
    "prefectureCode": "18",
    "prefectureNumber": 18,
    "prefecture": "福井県",
    "city": "越前市",
    "town": "葛岡町"
  },
  "9150042": {
    "zipcode": "9150042",
    "prefectureCode": "18",
    "prefectureNumber": 18,
    "prefecture": "福井県",
    "city": "越前市",
    "town": "大屋町"
  },
  "9150043": {
    "zipcode": "9150043",
    "prefectureCode": "18",
    "prefectureNumber": 18,
    "prefecture": "福井県",
    "city": "越前市",
    "town": "庄田町"
  },
  "9150044": {
    "zipcode": "9150044",
    "prefectureCode": "18",
    "prefectureNumber": 18,
    "prefecture": "福井県",
    "city": "越前市",
    "town": "平林町"
  },
  "9150045": {
    "zipcode": "9150045",
    "prefectureCode": "18",
    "prefectureNumber": 18,
    "prefecture": "福井県",
    "city": "越前市",
    "town": "荒谷町"
  },
  "9150046": {
    "zipcode": "9150046",
    "prefectureCode": "18",
    "prefectureNumber": 18,
    "prefecture": "福井県",
    "city": "越前市",
    "town": "西谷町"
  },
  "9150051": {
    "zipcode": "9150051",
    "prefectureCode": "18",
    "prefectureNumber": 18,
    "prefecture": "福井県",
    "city": "越前市",
    "town": "帆山町"
  },
  "9150052": {
    "zipcode": "9150052",
    "prefectureCode": "18",
    "prefectureNumber": 18,
    "prefecture": "福井県",
    "city": "越前市",
    "town": "矢放町"
  },
  "9150053": {
    "zipcode": "9150053",
    "prefectureCode": "18",
    "prefectureNumber": 18,
    "prefecture": "福井県",
    "city": "越前市",
    "town": "問屋町"
  },
  "9150054": {
    "zipcode": "9150054",
    "prefectureCode": "18",
    "prefectureNumber": 18,
    "prefecture": "福井県",
    "city": "越前市",
    "town": "小野谷町"
  },
  "9150055": {
    "zipcode": "9150055",
    "prefectureCode": "18",
    "prefectureNumber": 18,
    "prefecture": "福井県",
    "city": "越前市",
    "town": "畑町"
  },
  "9150056": {
    "zipcode": "9150056",
    "prefectureCode": "18",
    "prefectureNumber": 18,
    "prefecture": "福井県",
    "city": "越前市",
    "town": "向新保町"
  },
  "9150057": {
    "zipcode": "9150057",
    "prefectureCode": "18",
    "prefectureNumber": 18,
    "prefecture": "福井県",
    "city": "越前市",
    "town": "矢船町"
  },
  "9150061": {
    "zipcode": "9150061",
    "prefectureCode": "18",
    "prefectureNumber": 18,
    "prefecture": "福井県",
    "city": "越前市",
    "town": "堀川町"
  },
  "9150062": {
    "zipcode": "9150062",
    "prefectureCode": "18",
    "prefectureNumber": 18,
    "prefecture": "福井県",
    "city": "越前市",
    "town": "姫川"
  },
  "9150063": {
    "zipcode": "9150063",
    "prefectureCode": "18",
    "prefectureNumber": 18,
    "prefecture": "福井県",
    "city": "越前市",
    "town": "若竹町"
  },
  "9150064": {
    "zipcode": "9150064",
    "prefectureCode": "18",
    "prefectureNumber": 18,
    "prefecture": "福井県",
    "city": "越前市",
    "town": "あおば町"
  },
  "9150065": {
    "zipcode": "9150065",
    "prefectureCode": "18",
    "prefectureNumber": 18,
    "prefecture": "福井県",
    "city": "越前市",
    "town": "豊町"
  },
  "9150066": {
    "zipcode": "9150066",
    "prefectureCode": "18",
    "prefectureNumber": 18,
    "prefecture": "福井県",
    "city": "越前市",
    "town": "神明町"
  },
  "9150067": {
    "zipcode": "9150067",
    "prefectureCode": "18",
    "prefectureNumber": 18,
    "prefecture": "福井県",
    "city": "越前市",
    "town": "住吉町"
  },
  "9150068": {
    "zipcode": "9150068",
    "prefectureCode": "18",
    "prefectureNumber": 18,
    "prefecture": "福井県",
    "city": "越前市",
    "town": "天王町"
  },
  "9150069": {
    "zipcode": "9150069",
    "prefectureCode": "18",
    "prefectureNumber": 18,
    "prefecture": "福井県",
    "city": "越前市",
    "town": "吾妻町"
  },
  "9150071": {
    "zipcode": "9150071",
    "prefectureCode": "18",
    "prefectureNumber": 18,
    "prefecture": "福井県",
    "city": "越前市",
    "town": "府中"
  },
  "9150072": {
    "zipcode": "9150072",
    "prefectureCode": "18",
    "prefectureNumber": 18,
    "prefecture": "福井県",
    "city": "越前市",
    "town": "万代町"
  },
  "9150073": {
    "zipcode": "9150073",
    "prefectureCode": "18",
    "prefectureNumber": 18,
    "prefecture": "福井県",
    "city": "越前市",
    "town": "錦町"
  },
  "9150074": {
    "zipcode": "9150074",
    "prefectureCode": "18",
    "prefectureNumber": 18,
    "prefecture": "福井県",
    "city": "越前市",
    "town": "蓬莱町"
  },
  "9150075": {
    "zipcode": "9150075",
    "prefectureCode": "18",
    "prefectureNumber": 18,
    "prefecture": "福井県",
    "city": "越前市",
    "town": "幸町"
  },
  "9150076": {
    "zipcode": "9150076",
    "prefectureCode": "18",
    "prefectureNumber": 18,
    "prefecture": "福井県",
    "city": "越前市",
    "town": "国府"
  },
  "9150081": {
    "zipcode": "9150081",
    "prefectureCode": "18",
    "prefectureNumber": 18,
    "prefecture": "福井県",
    "city": "越前市",
    "town": "馬上免町"
  },
  "9150082": {
    "zipcode": "9150082",
    "prefectureCode": "18",
    "prefectureNumber": 18,
    "prefecture": "福井県",
    "city": "越前市",
    "town": "国高"
  },
  "9150083": {
    "zipcode": "9150083",
    "prefectureCode": "18",
    "prefectureNumber": 18,
    "prefecture": "福井県",
    "city": "越前市",
    "town": "押田"
  },
  "9150084": {
    "zipcode": "9150084",
    "prefectureCode": "18",
    "prefectureNumber": 18,
    "prefecture": "福井県",
    "city": "越前市",
    "town": "村国"
  },
  "9150085": {
    "zipcode": "9150085",
    "prefectureCode": "18",
    "prefectureNumber": 18,
    "prefecture": "福井県",
    "city": "越前市",
    "town": "八幡"
  },
  "9150091": {
    "zipcode": "9150091",
    "prefectureCode": "18",
    "prefectureNumber": 18,
    "prefecture": "福井県",
    "city": "越前市",
    "town": "高木町"
  },
  "9150092": {
    "zipcode": "9150092",
    "prefectureCode": "18",
    "prefectureNumber": 18,
    "prefecture": "福井県",
    "city": "越前市",
    "town": "塚町"
  },
  "9150093": {
    "zipcode": "9150093",
    "prefectureCode": "18",
    "prefectureNumber": 18,
    "prefecture": "福井県",
    "city": "越前市",
    "town": "庄町"
  },
  "9150094": {
    "zipcode": "9150094",
    "prefectureCode": "18",
    "prefectureNumber": 18,
    "prefecture": "福井県",
    "city": "越前市",
    "town": "横市町"
  },
  "9150095": {
    "zipcode": "9150095",
    "prefectureCode": "18",
    "prefectureNumber": 18,
    "prefecture": "福井県",
    "city": "越前市",
    "town": "稲寄町"
  },
  "9150096": {
    "zipcode": "9150096",
    "prefectureCode": "18",
    "prefectureNumber": 18,
    "prefecture": "福井県",
    "city": "越前市",
    "town": "瓜生町"
  },
  "9150097": {
    "zipcode": "9150097",
    "prefectureCode": "18",
    "prefectureNumber": 18,
    "prefecture": "福井県",
    "city": "越前市",
    "town": "長土呂町"
  },
  "9150201": {
    "zipcode": "9150201",
    "prefectureCode": "18",
    "prefectureNumber": 18,
    "prefecture": "福井県",
    "city": "越前市",
    "town": "西河内町"
  },
  "9150202": {
    "zipcode": "9150202",
    "prefectureCode": "18",
    "prefectureNumber": 18,
    "prefecture": "福井県",
    "city": "越前市",
    "town": "相木町"
  },
  "9150203": {
    "zipcode": "9150203",
    "prefectureCode": "18",
    "prefectureNumber": 18,
    "prefecture": "福井県",
    "city": "越前市",
    "town": "横住町"
  },
  "9150204": {
    "zipcode": "9150204",
    "prefectureCode": "18",
    "prefectureNumber": 18,
    "prefecture": "福井県",
    "city": "越前市",
    "town": "寺地町"
  },
  "9150205": {
    "zipcode": "9150205",
    "prefectureCode": "18",
    "prefectureNumber": 18,
    "prefecture": "福井県",
    "city": "越前市",
    "town": "波垣町"
  },
  "9150206": {
    "zipcode": "9150206",
    "prefectureCode": "18",
    "prefectureNumber": 18,
    "prefecture": "福井県",
    "city": "越前市",
    "town": "春山町"
  },
  "9150207": {
    "zipcode": "9150207",
    "prefectureCode": "18",
    "prefectureNumber": 18,
    "prefecture": "福井県",
    "city": "越前市",
    "town": "東樫尾町"
  },
  "9150208": {
    "zipcode": "9150208",
    "prefectureCode": "18",
    "prefectureNumber": 18,
    "prefecture": "福井県",
    "city": "越前市",
    "town": "領家町"
  },
  "9150209": {
    "zipcode": "9150209",
    "prefectureCode": "18",
    "prefectureNumber": 18,
    "prefecture": "福井県",
    "city": "越前市",
    "town": "藤木町"
  },
  "9150211": {
    "zipcode": "9150211",
    "prefectureCode": "18",
    "prefectureNumber": 18,
    "prefecture": "福井県",
    "city": "越前市",
    "town": "室谷町"
  },
  "9150212": {
    "zipcode": "9150212",
    "prefectureCode": "18",
    "prefectureNumber": 18,
    "prefecture": "福井県",
    "city": "越前市",
    "town": "長谷町"
  },
  "9150213": {
    "zipcode": "9150213",
    "prefectureCode": "18",
    "prefectureNumber": 18,
    "prefecture": "福井県",
    "city": "越前市",
    "town": "南中町"
  },
  "9150214": {
    "zipcode": "9150214",
    "prefectureCode": "18",
    "prefectureNumber": 18,
    "prefecture": "福井県",
    "city": "越前市",
    "town": "赤谷町"
  },
  "9150215": {
    "zipcode": "9150215",
    "prefectureCode": "18",
    "prefectureNumber": 18,
    "prefecture": "福井県",
    "city": "越前市",
    "town": "柳元町"
  },
  "9150216": {
    "zipcode": "9150216",
    "prefectureCode": "18",
    "prefectureNumber": 18,
    "prefecture": "福井県",
    "city": "越前市",
    "town": "市野々町"
  },
  "9150217": {
    "zipcode": "9150217",
    "prefectureCode": "18",
    "prefectureNumber": 18,
    "prefecture": "福井県",
    "city": "越前市",
    "town": "水間町"
  },
  "9150218": {
    "zipcode": "9150218",
    "prefectureCode": "18",
    "prefectureNumber": 18,
    "prefecture": "福井県",
    "city": "越前市",
    "town": "大谷町"
  },
  "9150219": {
    "zipcode": "9150219",
    "prefectureCode": "18",
    "prefectureNumber": 18,
    "prefecture": "福井県",
    "city": "越前市",
    "town": "殿町"
  },
  "9150221": {
    "zipcode": "9150221",
    "prefectureCode": "18",
    "prefectureNumber": 18,
    "prefecture": "福井県",
    "city": "越前市",
    "town": "杉尾町"
  },
  "9150222": {
    "zipcode": "9150222",
    "prefectureCode": "18",
    "prefectureNumber": 18,
    "prefecture": "福井県",
    "city": "越前市",
    "town": "轟井町"
  },
  "9150223": {
    "zipcode": "9150223",
    "prefectureCode": "18",
    "prefectureNumber": 18,
    "prefecture": "福井県",
    "city": "越前市",
    "town": "長五町"
  },
  "9150224": {
    "zipcode": "9150224",
    "prefectureCode": "18",
    "prefectureNumber": 18,
    "prefecture": "福井県",
    "city": "越前市",
    "town": "八石町"
  },
  "9150225": {
    "zipcode": "9150225",
    "prefectureCode": "18",
    "prefectureNumber": 18,
    "prefecture": "福井県",
    "city": "越前市",
    "town": "別印町"
  },
  "9150226": {
    "zipcode": "9150226",
    "prefectureCode": "18",
    "prefectureNumber": 18,
    "prefecture": "福井県",
    "city": "越前市",
    "town": "南坂下町"
  },
  "9150227": {
    "zipcode": "9150227",
    "prefectureCode": "18",
    "prefectureNumber": 18,
    "prefecture": "福井県",
    "city": "越前市",
    "town": "中印町"
  },
  "9150228": {
    "zipcode": "9150228",
    "prefectureCode": "18",
    "prefectureNumber": 18,
    "prefecture": "福井県",
    "city": "越前市",
    "town": "大平町"
  },
  "9150231": {
    "zipcode": "9150231",
    "prefectureCode": "18",
    "prefectureNumber": 18,
    "prefecture": "福井県",
    "city": "越前市",
    "town": "定友町"
  },
  "9150232": {
    "zipcode": "9150232",
    "prefectureCode": "18",
    "prefectureNumber": 18,
    "prefecture": "福井県",
    "city": "越前市",
    "town": "新在家町"
  },
  "9150233": {
    "zipcode": "9150233",
    "prefectureCode": "18",
    "prefectureNumber": 18,
    "prefecture": "福井県",
    "city": "越前市",
    "town": "岩本町"
  },
  "9150234": {
    "zipcode": "9150234",
    "prefectureCode": "18",
    "prefectureNumber": 18,
    "prefecture": "福井県",
    "city": "越前市",
    "town": "大滝町"
  },
  "9150235": {
    "zipcode": "9150235",
    "prefectureCode": "18",
    "prefectureNumber": 18,
    "prefecture": "福井県",
    "city": "越前市",
    "town": "不老町"
  },
  "9150241": {
    "zipcode": "9150241",
    "prefectureCode": "18",
    "prefectureNumber": 18,
    "prefecture": "福井県",
    "city": "越前市",
    "town": "粟田部町中央"
  },
  "9150242": {
    "zipcode": "9150242",
    "prefectureCode": "18",
    "prefectureNumber": 18,
    "prefecture": "福井県",
    "city": "越前市",
    "town": "粟田部町"
  },
  "9150243": {
    "zipcode": "9150243",
    "prefectureCode": "18",
    "prefectureNumber": 18,
    "prefecture": "福井県",
    "city": "越前市",
    "town": "千原町"
  },
  "9150244": {
    "zipcode": "9150244",
    "prefectureCode": "18",
    "prefectureNumber": 18,
    "prefecture": "福井県",
    "city": "越前市",
    "town": "西樫尾町"
  },
  "9150251": {
    "zipcode": "9150251",
    "prefectureCode": "18",
    "prefectureNumber": 18,
    "prefecture": "福井県",
    "city": "越前市",
    "town": "東庄境町"
  },
  "9150252": {
    "zipcode": "9150252",
    "prefectureCode": "18",
    "prefectureNumber": 18,
    "prefecture": "福井県",
    "city": "越前市",
    "town": "西庄境町"
  },
  "9150253": {
    "zipcode": "9150253",
    "prefectureCode": "18",
    "prefectureNumber": 18,
    "prefecture": "福井県",
    "city": "越前市",
    "town": "中津山町"
  },
  "9150254": {
    "zipcode": "9150254",
    "prefectureCode": "18",
    "prefectureNumber": 18,
    "prefecture": "福井県",
    "city": "越前市",
    "town": "国中町"
  },
  "9150255": {
    "zipcode": "9150255",
    "prefectureCode": "18",
    "prefectureNumber": 18,
    "prefecture": "福井県",
    "city": "越前市",
    "town": "新堂町"
  },
  "9150256": {
    "zipcode": "9150256",
    "prefectureCode": "18",
    "prefectureNumber": 18,
    "prefecture": "福井県",
    "city": "越前市",
    "town": "赤坂町"
  },
  "9150261": {
    "zipcode": "9150261",
    "prefectureCode": "18",
    "prefectureNumber": 18,
    "prefecture": "福井県",
    "city": "越前市",
    "town": "朽飯町"
  },
  "9150262": {
    "zipcode": "9150262",
    "prefectureCode": "18",
    "prefectureNumber": 18,
    "prefecture": "福井県",
    "city": "越前市",
    "town": "高岡町"
  },
  "9150263": {
    "zipcode": "9150263",
    "prefectureCode": "18",
    "prefectureNumber": 18,
    "prefecture": "福井県",
    "city": "越前市",
    "town": "山室町"
  },
  "9150264": {
    "zipcode": "9150264",
    "prefectureCode": "18",
    "prefectureNumber": 18,
    "prefecture": "福井県",
    "city": "越前市",
    "town": "野岡町"
  },
  "9150265": {
    "zipcode": "9150265",
    "prefectureCode": "18",
    "prefectureNumber": 18,
    "prefecture": "福井県",
    "city": "越前市",
    "town": "仲山"
  },
  "9150801": {
    "zipcode": "9150801",
    "prefectureCode": "18",
    "prefectureNumber": 18,
    "prefecture": "福井県",
    "city": "越前市",
    "town": "家久町"
  },
  "9150802": {
    "zipcode": "9150802",
    "prefectureCode": "18",
    "prefectureNumber": 18,
    "prefecture": "福井県",
    "city": "越前市",
    "town": "北府本町"
  },
  "9150803": {
    "zipcode": "9150803",
    "prefectureCode": "18",
    "prefectureNumber": 18,
    "prefecture": "福井県",
    "city": "越前市",
    "town": "平出"
  },
  "9150804": {
    "zipcode": "9150804",
    "prefectureCode": "18",
    "prefectureNumber": 18,
    "prefecture": "福井県",
    "city": "越前市",
    "town": "新保町"
  },
  "9150805": {
    "zipcode": "9150805",
    "prefectureCode": "18",
    "prefectureNumber": 18,
    "prefecture": "福井県",
    "city": "越前市",
    "town": "芝原"
  },
  "9150806": {
    "zipcode": "9150806",
    "prefectureCode": "18",
    "prefectureNumber": 18,
    "prefecture": "福井県",
    "city": "越前市",
    "town": "本保町"
  },
  "9150811": {
    "zipcode": "9150811",
    "prefectureCode": "18",
    "prefectureNumber": 18,
    "prefecture": "福井県",
    "city": "越前市",
    "town": "本多"
  },
  "9150812": {
    "zipcode": "9150812",
    "prefectureCode": "18",
    "prefectureNumber": 18,
    "prefecture": "福井県",
    "city": "越前市",
    "town": "桂町"
  },
  "9150813": {
    "zipcode": "9150813",
    "prefectureCode": "18",
    "prefectureNumber": 18,
    "prefecture": "福井県",
    "city": "越前市",
    "town": "京町"
  },
  "9150814": {
    "zipcode": "9150814",
    "prefectureCode": "18",
    "prefectureNumber": 18,
    "prefecture": "福井県",
    "city": "越前市",
    "town": "中央"
  },
  "9150815": {
    "zipcode": "9150815",
    "prefectureCode": "18",
    "prefectureNumber": 18,
    "prefecture": "福井県",
    "city": "越前市",
    "town": "深草"
  },
  "9150816": {
    "zipcode": "9150816",
    "prefectureCode": "18",
    "prefectureNumber": 18,
    "prefecture": "福井県",
    "city": "越前市",
    "town": "小松"
  },
  "9150821": {
    "zipcode": "9150821",
    "prefectureCode": "18",
    "prefectureNumber": 18,
    "prefecture": "福井県",
    "city": "越前市",
    "town": "若松町"
  },
  "9150822": {
    "zipcode": "9150822",
    "prefectureCode": "18",
    "prefectureNumber": 18,
    "prefecture": "福井県",
    "city": "越前市",
    "town": "元町"
  },
  "9150823": {
    "zipcode": "9150823",
    "prefectureCode": "18",
    "prefectureNumber": 18,
    "prefecture": "福井県",
    "city": "越前市",
    "town": "本町"
  },
  "9150824": {
    "zipcode": "9150824",
    "prefectureCode": "18",
    "prefectureNumber": 18,
    "prefecture": "福井県",
    "city": "越前市",
    "town": "武生柳町"
  },
  "9150825": {
    "zipcode": "9150825",
    "prefectureCode": "18",
    "prefectureNumber": 18,
    "prefecture": "福井県",
    "city": "越前市",
    "town": "南"
  },
  "9150826": {
    "zipcode": "9150826",
    "prefectureCode": "18",
    "prefectureNumber": 18,
    "prefecture": "福井県",
    "city": "越前市",
    "town": "御幸町"
  },
  "9150827": {
    "zipcode": "9150827",
    "prefectureCode": "18",
    "prefectureNumber": 18,
    "prefecture": "福井県",
    "city": "越前市",
    "town": "平和町"
  },
  "9150831": {
    "zipcode": "9150831",
    "prefectureCode": "18",
    "prefectureNumber": 18,
    "prefecture": "福井県",
    "city": "越前市",
    "town": "日野美"
  },
  "9150832": {
    "zipcode": "9150832",
    "prefectureCode": "18",
    "prefectureNumber": 18,
    "prefecture": "福井県",
    "city": "越前市",
    "town": "高瀬"
  },
  "9150833": {
    "zipcode": "9150833",
    "prefectureCode": "18",
    "prefectureNumber": 18,
    "prefecture": "福井県",
    "city": "越前市",
    "town": "沢町"
  },
  "9150834": {
    "zipcode": "9150834",
    "prefectureCode": "18",
    "prefectureNumber": 18,
    "prefecture": "福井県",
    "city": "越前市",
    "town": "北千福町"
  },
  "9150835": {
    "zipcode": "9150835",
    "prefectureCode": "18",
    "prefectureNumber": 18,
    "prefecture": "福井県",
    "city": "越前市",
    "town": "岡本町"
  },
  "9150836": {
    "zipcode": "9150836",
    "prefectureCode": "18",
    "prefectureNumber": 18,
    "prefecture": "福井県",
    "city": "越前市",
    "town": "野上町"
  },
  "9150841": {
    "zipcode": "9150841",
    "prefectureCode": "18",
    "prefectureNumber": 18,
    "prefecture": "福井県",
    "city": "越前市",
    "town": "文京"
  },
  "9150842": {
    "zipcode": "9150842",
    "prefectureCode": "18",
    "prefectureNumber": 18,
    "prefecture": "福井県",
    "city": "越前市",
    "town": "常久町"
  },
  "9150843": {
    "zipcode": "9150843",
    "prefectureCode": "18",
    "prefectureNumber": 18,
    "prefecture": "福井県",
    "city": "越前市",
    "town": "月見町"
  },
  "9150844": {
    "zipcode": "9150844",
    "prefectureCode": "18",
    "prefectureNumber": 18,
    "prefecture": "福井県",
    "city": "越前市",
    "town": "妙法寺町"
  },
  "9150845": {
    "zipcode": "9150845",
    "prefectureCode": "18",
    "prefectureNumber": 18,
    "prefecture": "福井県",
    "city": "越前市",
    "town": "三ツ口町"
  },
  "9150846": {
    "zipcode": "9150846",
    "prefectureCode": "18",
    "prefectureNumber": 18,
    "prefecture": "福井県",
    "city": "越前市",
    "town": "千福町"
  },
  "9150847": {
    "zipcode": "9150847",
    "prefectureCode": "18",
    "prefectureNumber": 18,
    "prefecture": "福井県",
    "city": "越前市",
    "town": "東千福町"
  },
  "9150851": {
    "zipcode": "9150851",
    "prefectureCode": "18",
    "prefectureNumber": 18,
    "prefecture": "福井県",
    "city": "越前市",
    "town": "畷町"
  },
  "9150852": {
    "zipcode": "9150852",
    "prefectureCode": "18",
    "prefectureNumber": 18,
    "prefecture": "福井県",
    "city": "越前市",
    "town": "松森町"
  },
  "9150853": {
    "zipcode": "9150853",
    "prefectureCode": "18",
    "prefectureNumber": 18,
    "prefecture": "福井県",
    "city": "越前市",
    "town": "行松町"
  },
  "9150854": {
    "zipcode": "9150854",
    "prefectureCode": "18",
    "prefectureNumber": 18,
    "prefecture": "福井県",
    "city": "越前市",
    "town": "富士見が丘"
  },
  "9150855": {
    "zipcode": "9150855",
    "prefectureCode": "18",
    "prefectureNumber": 18,
    "prefecture": "福井県",
    "city": "越前市",
    "town": "下平吹町"
  },
  "9150856": {
    "zipcode": "9150856",
    "prefectureCode": "18",
    "prefectureNumber": 18,
    "prefecture": "福井県",
    "city": "越前市",
    "town": "中平吹町"
  },
  "9150857": {
    "zipcode": "9150857",
    "prefectureCode": "18",
    "prefectureNumber": 18,
    "prefecture": "福井県",
    "city": "越前市",
    "town": "四郎丸町"
  },
  "9150861": {
    "zipcode": "9150861",
    "prefectureCode": "18",
    "prefectureNumber": 18,
    "prefecture": "福井県",
    "city": "越前市",
    "town": "今宿町"
  },
  "9150862": {
    "zipcode": "9150862",
    "prefectureCode": "18",
    "prefectureNumber": 18,
    "prefecture": "福井県",
    "city": "越前市",
    "town": "国兼町"
  },
  "9150863": {
    "zipcode": "9150863",
    "prefectureCode": "18",
    "prefectureNumber": 18,
    "prefecture": "福井県",
    "city": "越前市",
    "town": "大塩町"
  },
  "9150864": {
    "zipcode": "9150864",
    "prefectureCode": "18",
    "prefectureNumber": 18,
    "prefecture": "福井県",
    "city": "越前市",
    "town": "上小松町"
  },
  "9150865": {
    "zipcode": "9150865",
    "prefectureCode": "18",
    "prefectureNumber": 18,
    "prefecture": "福井県",
    "city": "越前市",
    "town": "森久町"
  },
  "9150871": {
    "zipcode": "9150871",
    "prefectureCode": "18",
    "prefectureNumber": 18,
    "prefecture": "福井県",
    "city": "越前市",
    "town": "向が丘町"
  },
  "9150872": {
    "zipcode": "9150872",
    "prefectureCode": "18",
    "prefectureNumber": 18,
    "prefecture": "福井県",
    "city": "越前市",
    "town": "広瀬町"
  },
  "9150873": {
    "zipcode": "9150873",
    "prefectureCode": "18",
    "prefectureNumber": 18,
    "prefecture": "福井県",
    "city": "越前市",
    "town": "池ノ上町"
  },
  "9150874": {
    "zipcode": "9150874",
    "prefectureCode": "18",
    "prefectureNumber": 18,
    "prefecture": "福井県",
    "city": "越前市",
    "town": "向陽町"
  },
  "9150875": {
    "zipcode": "9150875",
    "prefectureCode": "18",
    "prefectureNumber": 18,
    "prefecture": "福井県",
    "city": "越前市",
    "town": "塚原町"
  },
  "9150876": {
    "zipcode": "9150876",
    "prefectureCode": "18",
    "prefectureNumber": 18,
    "prefecture": "福井県",
    "city": "越前市",
    "town": "白崎町"
  },
  "9150877": {
    "zipcode": "9150877",
    "prefectureCode": "18",
    "prefectureNumber": 18,
    "prefecture": "福井県",
    "city": "越前市",
    "town": "春日野町"
  },
  "9150881": {
    "zipcode": "9150881",
    "prefectureCode": "18",
    "prefectureNumber": 18,
    "prefecture": "福井県",
    "city": "越前市",
    "town": "下太田町"
  },
  "9150882": {
    "zipcode": "9150882",
    "prefectureCode": "18",
    "prefectureNumber": 18,
    "prefecture": "福井県",
    "city": "越前市",
    "town": "上太田町"
  },
  "9150883": {
    "zipcode": "9150883",
    "prefectureCode": "18",
    "prefectureNumber": 18,
    "prefecture": "福井県",
    "city": "越前市",
    "town": "新町"
  },
  "9150884": {
    "zipcode": "9150884",
    "prefectureCode": "18",
    "prefectureNumber": 18,
    "prefecture": "福井県",
    "city": "越前市",
    "town": "大虫本町"
  },
  "9150885": {
    "zipcode": "9150885",
    "prefectureCode": "18",
    "prefectureNumber": 18,
    "prefecture": "福井県",
    "city": "越前市",
    "town": "大虫町"
  },
  "9150886": {
    "zipcode": "9150886",
    "prefectureCode": "18",
    "prefectureNumber": 18,
    "prefecture": "福井県",
    "city": "越前市",
    "town": "上四目町"
  },
  "9150887": {
    "zipcode": "9150887",
    "prefectureCode": "18",
    "prefectureNumber": 18,
    "prefecture": "福井県",
    "city": "越前市",
    "town": "下四目町"
  },
  "9150888": {
    "zipcode": "9150888",
    "prefectureCode": "18",
    "prefectureNumber": 18,
    "prefecture": "福井県",
    "city": "越前市",
    "town": "高森町"
  },
  "9150891": {
    "zipcode": "9150891",
    "prefectureCode": "18",
    "prefectureNumber": 18,
    "prefecture": "福井県",
    "city": "越前市",
    "town": "余田町"
  },
  "9150892": {
    "zipcode": "9150892",
    "prefectureCode": "18",
    "prefectureNumber": 18,
    "prefecture": "福井県",
    "city": "越前市",
    "town": "氷坂町"
  },
  "9150893": {
    "zipcode": "9150893",
    "prefectureCode": "18",
    "prefectureNumber": 18,
    "prefecture": "福井県",
    "city": "越前市",
    "town": "片屋町"
  },
  "9150894": {
    "zipcode": "9150894",
    "prefectureCode": "18",
    "prefectureNumber": 18,
    "prefecture": "福井県",
    "city": "越前市",
    "town": "丹生郷町"
  },
  "9150895": {
    "zipcode": "9150895",
    "prefectureCode": "18",
    "prefectureNumber": 18,
    "prefecture": "福井県",
    "city": "越前市",
    "town": "三ツ俣町"
  },
  "9150896": {
    "zipcode": "9150896",
    "prefectureCode": "18",
    "prefectureNumber": 18,
    "prefecture": "福井県",
    "city": "越前市",
    "town": "横根町"
  },
  "9150897": {
    "zipcode": "9150897",
    "prefectureCode": "18",
    "prefectureNumber": 18,
    "prefecture": "福井県",
    "city": "越前市",
    "town": "北山町"
  },
  "9151101": {
    "zipcode": "9151101",
    "prefectureCode": "18",
    "prefectureNumber": 18,
    "prefecture": "福井県",
    "city": "南条郡南越前町",
    "town": "具谷"
  },
  "9151102": {
    "zipcode": "9151102",
    "prefectureCode": "18",
    "prefectureNumber": 18,
    "prefecture": "福井県",
    "city": "南条郡南越前町",
    "town": "菅谷"
  },
  "9151103": {
    "zipcode": "9151103",
    "prefectureCode": "18",
    "prefectureNumber": 18,
    "prefecture": "福井県",
    "city": "南条郡南越前町",
    "town": "大谷"
  },
  "9151104": {
    "zipcode": "9151104",
    "prefectureCode": "18",
    "prefectureNumber": 18,
    "prefecture": "福井県",
    "city": "南条郡南越前町",
    "town": "大良"
  },
  "9151105": {
    "zipcode": "9151105",
    "prefectureCode": "18",
    "prefectureNumber": 18,
    "prefecture": "福井県",
    "city": "南条郡南越前町",
    "town": "赤萩"
  },
  "9151106": {
    "zipcode": "9151106",
    "prefectureCode": "18",
    "prefectureNumber": 18,
    "prefecture": "福井県",
    "city": "南条郡南越前町",
    "town": "河内"
  },
  "9151111": {
    "zipcode": "9151111",
    "prefectureCode": "18",
    "prefectureNumber": 18,
    "prefecture": "福井県",
    "city": "南条郡南越前町",
    "town": "河野"
  },
  "9151112": {
    "zipcode": "9151112",
    "prefectureCode": "18",
    "prefectureNumber": 18,
    "prefecture": "福井県",
    "city": "南条郡南越前町",
    "town": "今泉"
  },
  "9151113": {
    "zipcode": "9151113",
    "prefectureCode": "18",
    "prefectureNumber": 18,
    "prefecture": "福井県",
    "city": "南条郡南越前町",
    "town": "甲楽城"
  },
  "9151114": {
    "zipcode": "9151114",
    "prefectureCode": "18",
    "prefectureNumber": 18,
    "prefecture": "福井県",
    "city": "南条郡南越前町",
    "town": "八田"
  },
  "9151201": {
    "zipcode": "9151201",
    "prefectureCode": "18",
    "prefectureNumber": 18,
    "prefecture": "福井県",
    "city": "越前市",
    "town": "安養寺町"
  },
  "9151202": {
    "zipcode": "9151202",
    "prefectureCode": "18",
    "prefectureNumber": 18,
    "prefecture": "福井県",
    "city": "越前市",
    "town": "黒川町"
  },
  "9151203": {
    "zipcode": "9151203",
    "prefectureCode": "18",
    "prefectureNumber": 18,
    "prefecture": "福井県",
    "city": "越前市",
    "town": "上杉本町"
  },
  "9151204": {
    "zipcode": "9151204",
    "prefectureCode": "18",
    "prefectureNumber": 18,
    "prefecture": "福井県",
    "city": "越前市",
    "town": "都辺町"
  },
  "9151205": {
    "zipcode": "9151205",
    "prefectureCode": "18",
    "prefectureNumber": 18,
    "prefecture": "福井県",
    "city": "越前市",
    "town": "萩原町"
  },
  "9151211": {
    "zipcode": "9151211",
    "prefectureCode": "18",
    "prefectureNumber": 18,
    "prefecture": "福井県",
    "city": "越前市",
    "town": "堀町"
  },
  "9151212": {
    "zipcode": "9151212",
    "prefectureCode": "18",
    "prefectureNumber": 18,
    "prefecture": "福井県",
    "city": "越前市",
    "town": "仏谷町"
  },
  "9151213": {
    "zipcode": "9151213",
    "prefectureCode": "18",
    "prefectureNumber": 18,
    "prefecture": "福井県",
    "city": "越前市",
    "town": "丸岡町"
  },
  "9151214": {
    "zipcode": "9151214",
    "prefectureCode": "18",
    "prefectureNumber": 18,
    "prefecture": "福井県",
    "city": "越前市",
    "town": "勝蓮花町"
  },
  "9151215": {
    "zipcode": "9151215",
    "prefectureCode": "18",
    "prefectureNumber": 18,
    "prefecture": "福井県",
    "city": "越前市",
    "town": "小野町"
  },
  "9151221": {
    "zipcode": "9151221",
    "prefectureCode": "18",
    "prefectureNumber": 18,
    "prefecture": "福井県",
    "city": "越前市",
    "town": "勾当原町"
  },
  "9151222": {
    "zipcode": "9151222",
    "prefectureCode": "18",
    "prefectureNumber": 18,
    "prefecture": "福井県",
    "city": "越前市",
    "town": "下中津原町"
  },
  "9151223": {
    "zipcode": "9151223",
    "prefectureCode": "18",
    "prefectureNumber": 18,
    "prefecture": "福井県",
    "city": "越前市",
    "town": "中津原町"
  },
  "9151224": {
    "zipcode": "9151224",
    "prefectureCode": "18",
    "prefectureNumber": 18,
    "prefecture": "福井県",
    "city": "越前市",
    "town": "下別所町"
  },
  "9151225": {
    "zipcode": "9151225",
    "prefectureCode": "18",
    "prefectureNumber": 18,
    "prefecture": "福井県",
    "city": "越前市",
    "town": "湯谷町"
  },
  "9151226": {
    "zipcode": "9151226",
    "prefectureCode": "18",
    "prefectureNumber": 18,
    "prefecture": "福井県",
    "city": "越前市",
    "town": "中山町"
  },
  "9151231": {
    "zipcode": "9151231",
    "prefectureCode": "18",
    "prefectureNumber": 18,
    "prefecture": "福井県",
    "city": "越前市",
    "town": "千合谷町"
  },
  "9151232": {
    "zipcode": "9151232",
    "prefectureCode": "18",
    "prefectureNumber": 18,
    "prefecture": "福井県",
    "city": "越前市",
    "town": "二階堂町"
  },
  "9151233": {
    "zipcode": "9151233",
    "prefectureCode": "18",
    "prefectureNumber": 18,
    "prefecture": "福井県",
    "city": "越前市",
    "town": "菖蒲谷町"
  },
  "9151234": {
    "zipcode": "9151234",
    "prefectureCode": "18",
    "prefectureNumber": 18,
    "prefecture": "福井県",
    "city": "越前市",
    "town": "土山町"
  },
  "9151235": {
    "zipcode": "9151235",
    "prefectureCode": "18",
    "prefectureNumber": 18,
    "prefecture": "福井県",
    "city": "越前市",
    "town": "安戸町"
  },
  "9151241": {
    "zipcode": "9151241",
    "prefectureCode": "18",
    "prefectureNumber": 18,
    "prefecture": "福井県",
    "city": "越前市",
    "town": "曽原町"
  },
  "9151242": {
    "zipcode": "9151242",
    "prefectureCode": "18",
    "prefectureNumber": 18,
    "prefecture": "福井県",
    "city": "越前市",
    "town": "粟野町"
  },
  "9151243": {
    "zipcode": "9151243",
    "prefectureCode": "18",
    "prefectureNumber": 18,
    "prefecture": "福井県",
    "city": "越前市",
    "town": "小杉町"
  },
  "9151244": {
    "zipcode": "9151244",
    "prefectureCode": "18",
    "prefectureNumber": 18,
    "prefecture": "福井県",
    "city": "越前市",
    "town": "牧町"
  },
  "9151245": {
    "zipcode": "9151245",
    "prefectureCode": "18",
    "prefectureNumber": 18,
    "prefecture": "福井県",
    "city": "越前市",
    "town": "若須町"
  },
  "9151246": {
    "zipcode": "9151246",
    "prefectureCode": "18",
    "prefectureNumber": 18,
    "prefecture": "福井県",
    "city": "越前市",
    "town": "中野町"
  }
}
