{
  "9160000": {
    "zipcode": "9160000",
    "prefectureCode": "18",
    "prefectureNumber": 18,
    "prefecture": "福井県",
    "city": "鯖江市",
    "town": "以下に掲載がない場合"
  },
  "9160001": {
    "zipcode": "9160001",
    "prefectureCode": "18",
    "prefectureNumber": 18,
    "prefecture": "福井県",
    "city": "鯖江市",
    "town": "吉江町"
  },
  "9160002": {
    "zipcode": "9160002",
    "prefectureCode": "18",
    "prefectureNumber": 18,
    "prefecture": "福井県",
    "city": "鯖江市",
    "town": "米岡町"
  },
  "9160003": {
    "zipcode": "9160003",
    "prefectureCode": "18",
    "prefectureNumber": 18,
    "prefecture": "福井県",
    "city": "鯖江市",
    "town": "田所町"
  },
  "9160004": {
    "zipcode": "9160004",
    "prefectureCode": "18",
    "prefectureNumber": 18,
    "prefecture": "福井県",
    "city": "鯖江市",
    "town": "糺町"
  },
  "9160005": {
    "zipcode": "9160005",
    "prefectureCode": "18",
    "prefectureNumber": 18,
    "prefecture": "福井県",
    "city": "鯖江市",
    "town": "杉本町"
  },
  "9160006": {
    "zipcode": "9160006",
    "prefectureCode": "18",
    "prefectureNumber": 18,
    "prefecture": "福井県",
    "city": "鯖江市",
    "town": "西番町"
  },
  "9160007": {
    "zipcode": "9160007",
    "prefectureCode": "18",
    "prefectureNumber": 18,
    "prefecture": "福井県",
    "city": "鯖江市",
    "town": "三尾野出作町"
  },
  "9160008": {
    "zipcode": "9160008",
    "prefectureCode": "18",
    "prefectureNumber": 18,
    "prefecture": "福井県",
    "city": "鯖江市",
    "town": "入町"
  },
  "9160011": {
    "zipcode": "9160011",
    "prefectureCode": "18",
    "prefectureNumber": 18,
    "prefecture": "福井県",
    "city": "鯖江市",
    "town": "つつじケ丘町"
  },
  "9160012": {
    "zipcode": "9160012",
    "prefectureCode": "18",
    "prefectureNumber": 18,
    "prefecture": "福井県",
    "city": "鯖江市",
    "town": "東米岡"
  },
  "9160013": {
    "zipcode": "9160013",
    "prefectureCode": "18",
    "prefectureNumber": 18,
    "prefecture": "福井県",
    "city": "鯖江市",
    "town": "鳥羽"
  },
  "9160014": {
    "zipcode": "9160014",
    "prefectureCode": "18",
    "prefectureNumber": 18,
    "prefecture": "福井県",
    "city": "鯖江市",
    "town": "鳥羽町"
  },
  "9160015": {
    "zipcode": "9160015",
    "prefectureCode": "18",
    "prefectureNumber": 18,
    "prefecture": "福井県",
    "city": "鯖江市",
    "town": "御幸町"
  },
  "9160016": {
    "zipcode": "9160016",
    "prefectureCode": "18",
    "prefectureNumber": 18,
    "prefecture": "福井県",
    "city": "鯖江市",
    "town": "神中町"
  },
  "9160017": {
    "zipcode": "9160017",
    "prefectureCode": "18",
    "prefectureNumber": 18,
    "prefecture": "福井県",
    "city": "鯖江市",
    "town": "神明町"
  },
  "9160018": {
    "zipcode": "9160018",
    "prefectureCode": "18",
    "prefectureNumber": 18,
    "prefecture": "福井県",
    "city": "鯖江市",
    "town": "幸町"
  },
  "9160019": {
    "zipcode": "9160019",
    "prefectureCode": "18",
    "prefectureNumber": 18,
    "prefecture": "福井県",
    "city": "鯖江市",
    "town": "丸山町"
  },
  "9160021": {
    "zipcode": "9160021",
    "prefectureCode": "18",
    "prefectureNumber": 18,
    "prefecture": "福井県",
    "city": "鯖江市",
    "town": "三六町"
  },
  "9160022": {
    "zipcode": "9160022",
    "prefectureCode": "18",
    "prefectureNumber": 18,
    "prefecture": "福井県",
    "city": "鯖江市",
    "town": "水落町"
  },
  "9160023": {
    "zipcode": "9160023",
    "prefectureCode": "18",
    "prefectureNumber": 18,
    "prefecture": "福井県",
    "city": "鯖江市",
    "town": "西山町"
  },
  "9160024": {
    "zipcode": "9160024",
    "prefectureCode": "18",
    "prefectureNumber": 18,
    "prefecture": "福井県",
    "city": "鯖江市",
    "town": "長泉寺町"
  },
  "9160025": {
    "zipcode": "9160025",
    "prefectureCode": "18",
    "prefectureNumber": 18,
    "prefecture": "福井県",
    "city": "鯖江市",
    "town": "旭町"
  },
  "9160026": {
    "zipcode": "9160026",
    "prefectureCode": "18",
    "prefectureNumber": 18,
    "prefecture": "福井県",
    "city": "鯖江市",
    "town": "本町"
  },
  "9160027": {
    "zipcode": "9160027",
    "prefectureCode": "18",
    "prefectureNumber": 18,
    "prefecture": "福井県",
    "city": "鯖江市",
    "town": "桜町"
  },
  "9160028": {
    "zipcode": "9160028",
    "prefectureCode": "18",
    "prefectureNumber": 18,
    "prefecture": "福井県",
    "city": "鯖江市",
    "town": "小黒町"
  },
  "9160029": {
    "zipcode": "9160029",
    "prefectureCode": "18",
    "prefectureNumber": 18,
    "prefecture": "福井県",
    "city": "鯖江市",
    "town": "北野町"
  },
  "9160031": {
    "zipcode": "9160031",
    "prefectureCode": "18",
    "prefectureNumber": 18,
    "prefecture": "福井県",
    "city": "鯖江市",
    "town": "橋立町"
  },
  "9160032": {
    "zipcode": "9160032",
    "prefectureCode": "18",
    "prefectureNumber": 18,
    "prefecture": "福井県",
    "city": "鯖江市",
    "town": "舟枝町"
  },
  "9160033": {
    "zipcode": "9160033",
    "prefectureCode": "18",
    "prefectureNumber": 18,
    "prefecture": "福井県",
    "city": "鯖江市",
    "town": "中野町"
  },
  "9160034": {
    "zipcode": "9160034",
    "prefectureCode": "18",
    "prefectureNumber": 18,
    "prefecture": "福井県",
    "city": "鯖江市",
    "town": "下新庄町"
  },
  "9160035": {
    "zipcode": "9160035",
    "prefectureCode": "18",
    "prefectureNumber": 18,
    "prefecture": "福井県",
    "city": "鯖江市",
    "town": "新町"
  },
  "9160036": {
    "zipcode": "9160036",
    "prefectureCode": "18",
    "prefectureNumber": 18,
    "prefecture": "福井県",
    "city": "鯖江市",
    "town": "横越町"
  },
  "9160037": {
    "zipcode": "9160037",
    "prefectureCode": "18",
    "prefectureNumber": 18,
    "prefecture": "福井県",
    "city": "鯖江市",
    "town": "上河端町"
  },
  "9160038": {
    "zipcode": "9160038",
    "prefectureCode": "18",
    "prefectureNumber": 18,
    "prefecture": "福井県",
    "city": "鯖江市",
    "town": "下河端町"
  },
  "9160041": {
    "zipcode": "9160041",
    "prefectureCode": "18",
    "prefectureNumber": 18,
    "prefecture": "福井県",
    "city": "鯖江市",
    "town": "東鯖江"
  },
  "9160042": {
    "zipcode": "9160042",
    "prefectureCode": "18",
    "prefectureNumber": 18,
    "prefecture": "福井県",
    "city": "鯖江市",
    "town": "新横江"
  },
  "9160043": {
    "zipcode": "9160043",
    "prefectureCode": "18",
    "prefectureNumber": 18,
    "prefecture": "福井県",
    "city": "鯖江市",
    "town": "定次町"
  },
  "9160044": {
    "zipcode": "9160044",
    "prefectureCode": "18",
    "prefectureNumber": 18,
    "prefecture": "福井県",
    "city": "鯖江市",
    "town": "五郎丸町"
  },
  "9160045": {
    "zipcode": "9160045",
    "prefectureCode": "18",
    "prefectureNumber": 18,
    "prefecture": "福井県",
    "city": "鯖江市",
    "town": "宮前"
  },
  "9160046": {
    "zipcode": "9160046",
    "prefectureCode": "18",
    "prefectureNumber": 18,
    "prefecture": "福井県",
    "city": "鯖江市",
    "town": "横江町"
  },
  "9160047": {
    "zipcode": "9160047",
    "prefectureCode": "18",
    "prefectureNumber": 18,
    "prefecture": "福井県",
    "city": "鯖江市",
    "town": "柳町"
  },
  "9160051": {
    "zipcode": "9160051",
    "prefectureCode": "18",
    "prefectureNumber": 18,
    "prefecture": "福井県",
    "city": "鯖江市",
    "town": "屋形町"
  },
  "9160052": {
    "zipcode": "9160052",
    "prefectureCode": "18",
    "prefectureNumber": 18,
    "prefecture": "福井県",
    "city": "鯖江市",
    "town": "深江町"
  },
  "9160053": {
    "zipcode": "9160053",
    "prefectureCode": "18",
    "prefectureNumber": 18,
    "prefecture": "福井県",
    "city": "鯖江市",
    "town": "日の出町"
  },
  "9160054": {
    "zipcode": "9160054",
    "prefectureCode": "18",
    "prefectureNumber": 18,
    "prefecture": "福井県",
    "city": "鯖江市",
    "town": "舟津町"
  },
  "9160055": {
    "zipcode": "9160055",
    "prefectureCode": "18",
    "prefectureNumber": 18,
    "prefecture": "福井県",
    "city": "鯖江市",
    "town": "上鯖江町"
  },
  "9160056": {
    "zipcode": "9160056",
    "prefectureCode": "18",
    "prefectureNumber": 18,
    "prefecture": "福井県",
    "city": "鯖江市",
    "town": "住吉町"
  },
  "9160057": {
    "zipcode": "9160057",
    "prefectureCode": "18",
    "prefectureNumber": 18,
    "prefecture": "福井県",
    "city": "鯖江市",
    "town": "有定町"
  },
  "9160061": {
    "zipcode": "9160061",
    "prefectureCode": "18",
    "prefectureNumber": 18,
    "prefecture": "福井県",
    "city": "鯖江市",
    "town": "平井町"
  },
  "9160062": {
    "zipcode": "9160062",
    "prefectureCode": "18",
    "prefectureNumber": 18,
    "prefecture": "福井県",
    "city": "鯖江市",
    "town": "熊田町"
  },
  "9160063": {
    "zipcode": "9160063",
    "prefectureCode": "18",
    "prefectureNumber": 18,
    "prefecture": "福井県",
    "city": "鯖江市",
    "town": "鳥井町"
  },
  "9160064": {
    "zipcode": "9160064",
    "prefectureCode": "18",
    "prefectureNumber": 18,
    "prefecture": "福井県",
    "city": "鯖江市",
    "town": "下司町"
  },
  "9160065": {
    "zipcode": "9160065",
    "prefectureCode": "18",
    "prefectureNumber": 18,
    "prefecture": "福井県",
    "city": "鯖江市",
    "town": "当田町"
  },
  "9160066": {
    "zipcode": "9160066",
    "prefectureCode": "18",
    "prefectureNumber": 18,
    "prefecture": "福井県",
    "city": "鯖江市",
    "town": "上氏家町"
  },
  "9160067": {
    "zipcode": "9160067",
    "prefectureCode": "18",
    "prefectureNumber": 18,
    "prefecture": "福井県",
    "city": "鯖江市",
    "town": "下氏家町"
  },
  "9160068": {
    "zipcode": "9160068",
    "prefectureCode": "18",
    "prefectureNumber": 18,
    "prefecture": "福井県",
    "city": "鯖江市",
    "town": "二丁掛町"
  },
  "9160071": {
    "zipcode": "9160071",
    "prefectureCode": "18",
    "prefectureNumber": 18,
    "prefecture": "福井県",
    "city": "鯖江市",
    "town": "持明寺町"
  },
  "9160072": {
    "zipcode": "9160072",
    "prefectureCode": "18",
    "prefectureNumber": 18,
    "prefecture": "福井県",
    "city": "鯖江市",
    "town": "冬島町"
  },
  "9160073": {
    "zipcode": "9160073",
    "prefectureCode": "18",
    "prefectureNumber": 18,
    "prefecture": "福井県",
    "city": "鯖江市",
    "town": "下野田町"
  },
  "9160074": {
    "zipcode": "9160074",
    "prefectureCode": "18",
    "prefectureNumber": 18,
    "prefecture": "福井県",
    "city": "鯖江市",
    "town": "上野田町"
  },
  "9160075": {
    "zipcode": "9160075",
    "prefectureCode": "18",
    "prefectureNumber": 18,
    "prefecture": "福井県",
    "city": "鯖江市",
    "town": "漆原町"
  },
  "9160076": {
    "zipcode": "9160076",
    "prefectureCode": "18",
    "prefectureNumber": 18,
    "prefecture": "福井県",
    "city": "鯖江市",
    "town": "石生谷町"
  },
  "9160077": {
    "zipcode": "9160077",
    "prefectureCode": "18",
    "prefectureNumber": 18,
    "prefecture": "福井県",
    "city": "鯖江市",
    "town": "和田町"
  },
  "9160078": {
    "zipcode": "9160078",
    "prefectureCode": "18",
    "prefectureNumber": 18,
    "prefecture": "福井県",
    "city": "鯖江市",
    "town": "西大井町"
  },
  "9160081": {
    "zipcode": "9160081",
    "prefectureCode": "18",
    "prefectureNumber": 18,
    "prefecture": "福井県",
    "city": "鯖江市",
    "town": "石田下町"
  },
  "9160082": {
    "zipcode": "9160082",
    "prefectureCode": "18",
    "prefectureNumber": 18,
    "prefecture": "福井県",
    "city": "鯖江市",
    "town": "石田中町"
  },
  "9160083": {
    "zipcode": "9160083",
    "prefectureCode": "18",
    "prefectureNumber": 18,
    "prefecture": "福井県",
    "city": "鯖江市",
    "town": "石田上町"
  },
  "9160084": {
    "zipcode": "9160084",
    "prefectureCode": "18",
    "prefectureNumber": 18,
    "prefecture": "福井県",
    "city": "鯖江市",
    "town": "小泉町"
  },
  "9160085": {
    "zipcode": "9160085",
    "prefectureCode": "18",
    "prefectureNumber": 18,
    "prefecture": "福井県",
    "city": "鯖江市",
    "town": "大倉町"
  },
  "9160086": {
    "zipcode": "9160086",
    "prefectureCode": "18",
    "prefectureNumber": 18,
    "prefecture": "福井県",
    "city": "鯖江市",
    "town": "吉田町"
  },
  "9160087": {
    "zipcode": "9160087",
    "prefectureCode": "18",
    "prefectureNumber": 18,
    "prefecture": "福井県",
    "city": "鯖江市",
    "town": "田村町"
  },
  "9160088": {
    "zipcode": "9160088",
    "prefectureCode": "18",
    "prefectureNumber": 18,
    "prefecture": "福井県",
    "city": "鯖江市",
    "town": "川去町"
  },
  "9160101": {
    "zipcode": "9160101",
    "prefectureCode": "18",
    "prefectureNumber": 18,
    "prefecture": "福井県",
    "city": "丹生郡越前町",
    "town": "天谷"
  },
  "9160102": {
    "zipcode": "9160102",
    "prefectureCode": "18",
    "prefectureNumber": 18,
    "prefecture": "福井県",
    "city": "丹生郡越前町",
    "town": "真木"
  },
  "9160103": {
    "zipcode": "9160103",
    "prefectureCode": "18",
    "prefectureNumber": 18,
    "prefecture": "福井県",
    "city": "丹生郡越前町",
    "town": "杖立"
  },
  "9160104": {
    "zipcode": "9160104",
    "prefectureCode": "18",
    "prefectureNumber": 18,
    "prefecture": "福井県",
    "city": "丹生郡越前町",
    "town": "森"
  },
  "9160105": {
    "zipcode": "9160105",
    "prefectureCode": "18",
    "prefectureNumber": 18,
    "prefecture": "福井県",
    "city": "丹生郡越前町",
    "town": "清水"
  },
  "9160106": {
    "zipcode": "9160106",
    "prefectureCode": "18",
    "prefectureNumber": 18,
    "prefecture": "福井県",
    "city": "丹生郡越前町",
    "town": "大玉"
  },
  "9160107": {
    "zipcode": "9160107",
    "prefectureCode": "18",
    "prefectureNumber": 18,
    "prefecture": "福井県",
    "city": "丹生郡越前町",
    "town": "上糸生"
  },
  "9160108": {
    "zipcode": "9160108",
    "prefectureCode": "18",
    "prefectureNumber": 18,
    "prefecture": "福井県",
    "city": "丹生郡越前町",
    "town": "小川"
  },
  "9160111": {
    "zipcode": "9160111",
    "prefectureCode": "18",
    "prefectureNumber": 18,
    "prefecture": "福井県",
    "city": "丹生郡越前町",
    "town": "小倉"
  },
  "9160112": {
    "zipcode": "9160112",
    "prefectureCode": "18",
    "prefectureNumber": 18,
    "prefecture": "福井県",
    "city": "丹生郡越前町",
    "town": "葛野"
  },
  "9160113": {
    "zipcode": "9160113",
    "prefectureCode": "18",
    "prefectureNumber": 18,
    "prefecture": "福井県",
    "city": "丹生郡越前町",
    "town": "野田"
  },
  "9160114": {
    "zipcode": "9160114",
    "prefectureCode": "18",
    "prefectureNumber": 18,
    "prefecture": "福井県",
    "city": "丹生郡越前町",
    "town": "下糸生"
  },
  "9160115": {
    "zipcode": "9160115",
    "prefectureCode": "18",
    "prefectureNumber": 18,
    "prefecture": "福井県",
    "city": "丹生郡越前町",
    "town": "脇"
  },
  "9160116": {
    "zipcode": "9160116",
    "prefectureCode": "18",
    "prefectureNumber": 18,
    "prefecture": "福井県",
    "city": "丹生郡越前町",
    "town": "中野"
  },
  "9160117": {
    "zipcode": "9160117",
    "prefectureCode": "18",
    "prefectureNumber": 18,
    "prefecture": "福井県",
    "city": "丹生郡越前町",
    "town": "大谷寺"
  },
  "9160121": {
    "zipcode": "9160121",
    "prefectureCode": "18",
    "prefectureNumber": 18,
    "prefecture": "福井県",
    "city": "丹生郡越前町",
    "town": "大畑"
  },
  "9160122": {
    "zipcode": "9160122",
    "prefectureCode": "18",
    "prefectureNumber": 18,
    "prefecture": "福井県",
    "city": "丹生郡越前町",
    "town": "天王"
  },
  "9160123": {
    "zipcode": "9160123",
    "prefectureCode": "18",
    "prefectureNumber": 18,
    "prefecture": "福井県",
    "city": "丹生郡越前町",
    "town": "天宝"
  },
  "9160124": {
    "zipcode": "9160124",
    "prefectureCode": "18",
    "prefectureNumber": 18,
    "prefecture": "福井県",
    "city": "丹生郡越前町",
    "town": "宝泉寺"
  },
  "9160125": {
    "zipcode": "9160125",
    "prefectureCode": "18",
    "prefectureNumber": 18,
    "prefecture": "福井県",
    "city": "丹生郡越前町",
    "town": "横山"
  },
  "9160126": {
    "zipcode": "9160126",
    "prefectureCode": "18",
    "prefectureNumber": 18,
    "prefecture": "福井県",
    "city": "丹生郡越前町",
    "town": "牛越"
  },
  "9160127": {
    "zipcode": "9160127",
    "prefectureCode": "18",
    "prefectureNumber": 18,
    "prefecture": "福井県",
    "city": "丹生郡越前町",
    "town": "野末"
  },
  "9160131": {
    "zipcode": "9160131",
    "prefectureCode": "18",
    "prefectureNumber": 18,
    "prefecture": "福井県",
    "city": "丹生郡越前町",
    "town": "乙坂"
  },
  "9160132": {
    "zipcode": "9160132",
    "prefectureCode": "18",
    "prefectureNumber": 18,
    "prefecture": "福井県",
    "city": "丹生郡越前町",
    "town": "田中"
  },
  "9160133": {
    "zipcode": "9160133",
    "prefectureCode": "18",
    "prefectureNumber": 18,
    "prefecture": "福井県",
    "city": "丹生郡越前町",
    "town": "気比庄"
  },
  "9160134": {
    "zipcode": "9160134",
    "prefectureCode": "18",
    "prefectureNumber": 18,
    "prefecture": "福井県",
    "city": "丹生郡越前町",
    "town": "新庄"
  },
  "9160135": {
    "zipcode": "9160135",
    "prefectureCode": "18",
    "prefectureNumber": 18,
    "prefecture": "福井県",
    "city": "丹生郡越前町",
    "town": "市"
  },
  "9160136": {
    "zipcode": "9160136",
    "prefectureCode": "18",
    "prefectureNumber": 18,
    "prefecture": "福井県",
    "city": "丹生郡越前町",
    "town": "栃川"
  },
  "9160137": {
    "zipcode": "9160137",
    "prefectureCode": "18",
    "prefectureNumber": 18,
    "prefecture": "福井県",
    "city": "丹生郡越前町",
    "town": "宮の西団地"
  },
  "9160141": {
    "zipcode": "9160141",
    "prefectureCode": "18",
    "prefectureNumber": 18,
    "prefecture": "福井県",
    "city": "丹生郡越前町",
    "town": "西田中"
  },
  "9160142": {
    "zipcode": "9160142",
    "prefectureCode": "18",
    "prefectureNumber": 18,
    "prefecture": "福井県",
    "city": "丹生郡越前町",
    "town": "上川去"
  },
  "9160143": {
    "zipcode": "9160143",
    "prefectureCode": "18",
    "prefectureNumber": 18,
    "prefecture": "福井県",
    "city": "丹生郡越前町",
    "town": "漆本"
  },
  "9160144": {
    "zipcode": "9160144",
    "prefectureCode": "18",
    "prefectureNumber": 18,
    "prefecture": "福井県",
    "city": "丹生郡越前町",
    "town": "佐々生"
  },
  "9160145": {
    "zipcode": "9160145",
    "prefectureCode": "18",
    "prefectureNumber": 18,
    "prefecture": "福井県",
    "city": "丹生郡越前町",
    "town": "岩開"
  },
  "9160146": {
    "zipcode": "9160146",
    "prefectureCode": "18",
    "prefectureNumber": 18,
    "prefecture": "福井県",
    "city": "丹生郡越前町",
    "town": "朝日"
  },
  "9160147": {
    "zipcode": "9160147",
    "prefectureCode": "18",
    "prefectureNumber": 18,
    "prefecture": "福井県",
    "city": "丹生郡越前町",
    "town": "内郡"
  },
  "9160151": {
    "zipcode": "9160151",
    "prefectureCode": "18",
    "prefectureNumber": 18,
    "prefecture": "福井県",
    "city": "丹生郡越前町",
    "town": "金谷"
  },
  "9160152": {
    "zipcode": "9160152",
    "prefectureCode": "18",
    "prefectureNumber": 18,
    "prefecture": "福井県",
    "city": "丹生郡越前町",
    "town": "青野"
  },
  "9160153": {
    "zipcode": "9160153",
    "prefectureCode": "18",
    "prefectureNumber": 18,
    "prefecture": "福井県",
    "city": "丹生郡越前町",
    "town": "頭谷"
  },
  "9160154": {
    "zipcode": "9160154",
    "prefectureCode": "18",
    "prefectureNumber": 18,
    "prefecture": "福井県",
    "city": "丹生郡越前町",
    "town": "境野"
  },
  "9160155": {
    "zipcode": "9160155",
    "prefectureCode": "18",
    "prefectureNumber": 18,
    "prefecture": "福井県",
    "city": "丹生郡越前町",
    "town": "茱原"
  },
  "9160156": {
    "zipcode": "9160156",
    "prefectureCode": "18",
    "prefectureNumber": 18,
    "prefecture": "福井県",
    "city": "丹生郡越前町",
    "town": "東内郡"
  },
  "9160200": {
    "zipcode": "9160200",
    "prefectureCode": "18",
    "prefectureNumber": 18,
    "prefecture": "福井県",
    "city": "丹生郡越前町",
    "town": "以下に掲載がない場合"
  },
  "9160201": {
    "zipcode": "9160201",
    "prefectureCode": "18",
    "prefectureNumber": 18,
    "prefecture": "福井県",
    "city": "丹生郡越前町",
    "town": "入尾"
  },
  "9160202": {
    "zipcode": "9160202",
    "prefectureCode": "18",
    "prefectureNumber": 18,
    "prefecture": "福井県",
    "city": "丹生郡越前町",
    "town": "細野"
  },
  "9160203": {
    "zipcode": "9160203",
    "prefectureCode": "18",
    "prefectureNumber": 18,
    "prefecture": "福井県",
    "city": "丹生郡越前町",
    "town": "山田"
  },
  "9160204": {
    "zipcode": "9160204",
    "prefectureCode": "18",
    "prefectureNumber": 18,
    "prefecture": "福井県",
    "city": "丹生郡越前町",
    "town": "中"
  },
  "9160205": {
    "zipcode": "9160205",
    "prefectureCode": "18",
    "prefectureNumber": 18,
    "prefecture": "福井県",
    "city": "丹生郡越前町",
    "town": "赤井谷"
  },
  "9160206": {
    "zipcode": "9160206",
    "prefectureCode": "18",
    "prefectureNumber": 18,
    "prefecture": "福井県",
    "city": "丹生郡越前町",
    "town": "笈松"
  },
  "9160211": {
    "zipcode": "9160211",
    "prefectureCode": "18",
    "prefectureNumber": 18,
    "prefecture": "福井県",
    "city": "丹生郡越前町",
    "town": "笹川"
  },
  "9160212": {
    "zipcode": "9160212",
    "prefectureCode": "18",
    "prefectureNumber": 18,
    "prefecture": "福井県",
    "city": "丹生郡越前町",
    "town": "岩倉"
  },
  "9160213": {
    "zipcode": "9160213",
    "prefectureCode": "18",
    "prefectureNumber": 18,
    "prefecture": "福井県",
    "city": "丹生郡越前町",
    "town": "桜谷"
  },
  "9160214": {
    "zipcode": "9160214",
    "prefectureCode": "18",
    "prefectureNumber": 18,
    "prefecture": "福井県",
    "city": "丹生郡越前町",
    "town": "上戸"
  },
  "9160215": {
    "zipcode": "9160215",
    "prefectureCode": "18",
    "prefectureNumber": 18,
    "prefecture": "福井県",
    "city": "丹生郡越前町",
    "town": "織田"
  },
  "9160216": {
    "zipcode": "9160216",
    "prefectureCode": "18",
    "prefectureNumber": 18,
    "prefecture": "福井県",
    "city": "丹生郡越前町",
    "town": "打越"
  },
  "9160217": {
    "zipcode": "9160217",
    "prefectureCode": "18",
    "prefectureNumber": 18,
    "prefecture": "福井県",
    "city": "丹生郡越前町",
    "town": "丸山"
  },
  "9160218": {
    "zipcode": "9160218",
    "prefectureCode": "18",
    "prefectureNumber": 18,
    "prefecture": "福井県",
    "city": "丹生郡越前町",
    "town": "萩野"
  },
  "9160219": {
    "zipcode": "9160219",
    "prefectureCode": "18",
    "prefectureNumber": 18,
    "prefecture": "福井県",
    "city": "丹生郡越前町",
    "town": "西ケ丘"
  },
  "9160221": {
    "zipcode": "9160221",
    "prefectureCode": "18",
    "prefectureNumber": 18,
    "prefecture": "福井県",
    "city": "丹生郡越前町",
    "town": "三崎"
  },
  "9160222": {
    "zipcode": "9160222",
    "prefectureCode": "18",
    "prefectureNumber": 18,
    "prefecture": "福井県",
    "city": "丹生郡越前町",
    "town": "大王丸"
  },
  "9160223": {
    "zipcode": "9160223",
    "prefectureCode": "18",
    "prefectureNumber": 18,
    "prefecture": "福井県",
    "city": "丹生郡越前町",
    "town": "下河原"
  },
  "9160224": {
    "zipcode": "9160224",
    "prefectureCode": "18",
    "prefectureNumber": 18,
    "prefecture": "福井県",
    "city": "丹生郡越前町",
    "town": "平等"
  },
  "9160225": {
    "zipcode": "9160225",
    "prefectureCode": "18",
    "prefectureNumber": 18,
    "prefecture": "福井県",
    "city": "丹生郡越前町",
    "town": "上山中"
  },
  "9160226": {
    "zipcode": "9160226",
    "prefectureCode": "18",
    "prefectureNumber": 18,
    "prefecture": "福井県",
    "city": "丹生郡越前町",
    "town": "下山中"
  },
  "9160227": {
    "zipcode": "9160227",
    "prefectureCode": "18",
    "prefectureNumber": 18,
    "prefecture": "福井県",
    "city": "丹生郡越前町",
    "town": "四ツ杉"
  },
  "9160251": {
    "zipcode": "9160251",
    "prefectureCode": "18",
    "prefectureNumber": 18,
    "prefecture": "福井県",
    "city": "丹生郡越前町",
    "town": "大谷"
  },
  "9160252": {
    "zipcode": "9160252",
    "prefectureCode": "18",
    "prefectureNumber": 18,
    "prefecture": "福井県",
    "city": "丹生郡越前町",
    "town": "蝉口"
  },
  "9160253": {
    "zipcode": "9160253",
    "prefectureCode": "18",
    "prefectureNumber": 18,
    "prefecture": "福井県",
    "city": "丹生郡越前町",
    "town": "蚊谷寺"
  },
  "9160254": {
    "zipcode": "9160254",
    "prefectureCode": "18",
    "prefectureNumber": 18,
    "prefecture": "福井県",
    "city": "丹生郡越前町",
    "town": "広野"
  },
  "9160255": {
    "zipcode": "9160255",
    "prefectureCode": "18",
    "prefectureNumber": 18,
    "prefecture": "福井県",
    "city": "丹生郡越前町",
    "town": "江波"
  },
  "9160261": {
    "zipcode": "9160261",
    "prefectureCode": "18",
    "prefectureNumber": 18,
    "prefecture": "福井県",
    "city": "丹生郡越前町",
    "town": "野"
  },
  "9160262": {
    "zipcode": "9160262",
    "prefectureCode": "18",
    "prefectureNumber": 18,
    "prefecture": "福井県",
    "city": "丹生郡越前町",
    "town": "宇須尾"
  },
  "9160263": {
    "zipcode": "9160263",
    "prefectureCode": "18",
    "prefectureNumber": 18,
    "prefecture": "福井県",
    "city": "丹生郡越前町",
    "town": "円満"
  },
  "9160264": {
    "zipcode": "9160264",
    "prefectureCode": "18",
    "prefectureNumber": 18,
    "prefecture": "福井県",
    "city": "丹生郡越前町",
    "town": "八田"
  },
  "9160265": {
    "zipcode": "9160265",
    "prefectureCode": "18",
    "prefectureNumber": 18,
    "prefecture": "福井県",
    "city": "丹生郡越前町",
    "town": "八田新保"
  },
  "9160266": {
    "zipcode": "9160266",
    "prefectureCode": "18",
    "prefectureNumber": 18,
    "prefecture": "福井県",
    "city": "丹生郡越前町",
    "town": "寺"
  },
  "9160267": {
    "zipcode": "9160267",
    "prefectureCode": "18",
    "prefectureNumber": 18,
    "prefecture": "福井県",
    "city": "丹生郡越前町",
    "town": "上野"
  },
  "9160268": {
    "zipcode": "9160268",
    "prefectureCode": "18",
    "prefectureNumber": 18,
    "prefecture": "福井県",
    "city": "丹生郡越前町",
    "town": "陶の谷"
  },
  "9160271": {
    "zipcode": "9160271",
    "prefectureCode": "18",
    "prefectureNumber": 18,
    "prefecture": "福井県",
    "city": "丹生郡越前町",
    "town": "舟場"
  },
  "9160272": {
    "zipcode": "9160272",
    "prefectureCode": "18",
    "prefectureNumber": 18,
    "prefecture": "福井県",
    "city": "丹生郡越前町",
    "town": "樫津"
  },
  "9160273": {
    "zipcode": "9160273",
    "prefectureCode": "18",
    "prefectureNumber": 18,
    "prefecture": "福井県",
    "city": "丹生郡越前町",
    "town": "小曽原"
  },
  "9160274": {
    "zipcode": "9160274",
    "prefectureCode": "18",
    "prefectureNumber": 18,
    "prefecture": "福井県",
    "city": "丹生郡越前町",
    "town": "増谷"
  },
  "9160275": {
    "zipcode": "9160275",
    "prefectureCode": "18",
    "prefectureNumber": 18,
    "prefecture": "福井県",
    "city": "丹生郡越前町",
    "town": "熊谷"
  },
  "9160276": {
    "zipcode": "9160276",
    "prefectureCode": "18",
    "prefectureNumber": 18,
    "prefecture": "福井県",
    "city": "丹生郡越前町",
    "town": "古屋"
  },
  "9160301": {
    "zipcode": "9160301",
    "prefectureCode": "18",
    "prefectureNumber": 18,
    "prefecture": "福井県",
    "city": "丹生郡越前町",
    "town": "梨子ヶ平"
  },
  "9160302": {
    "zipcode": "9160302",
    "prefectureCode": "18",
    "prefectureNumber": 18,
    "prefecture": "福井県",
    "city": "丹生郡越前町",
    "town": "左右"
  },
  "9160303": {
    "zipcode": "9160303",
    "prefectureCode": "18",
    "prefectureNumber": 18,
    "prefecture": "福井県",
    "city": "丹生郡越前町",
    "town": "血ケ平"
  },
  "9160304": {
    "zipcode": "9160304",
    "prefectureCode": "18",
    "prefectureNumber": 18,
    "prefecture": "福井県",
    "city": "丹生郡越前町",
    "town": "玉川"
  },
  "9160311": {
    "zipcode": "9160311",
    "prefectureCode": "18",
    "prefectureNumber": 18,
    "prefecture": "福井県",
    "city": "丹生郡越前町",
    "town": "梅浦"
  },
  "9160312": {
    "zipcode": "9160312",
    "prefectureCode": "18",
    "prefectureNumber": 18,
    "prefecture": "福井県",
    "city": "丹生郡越前町",
    "town": "宿"
  },
  "9160313": {
    "zipcode": "9160313",
    "prefectureCode": "18",
    "prefectureNumber": 18,
    "prefecture": "福井県",
    "city": "丹生郡越前町",
    "town": "新保"
  },
  "9160314": {
    "zipcode": "9160314",
    "prefectureCode": "18",
    "prefectureNumber": 18,
    "prefecture": "福井県",
    "city": "丹生郡越前町",
    "town": "城ケ谷"
  },
  "9160315": {
    "zipcode": "9160315",
    "prefectureCode": "18",
    "prefectureNumber": 18,
    "prefecture": "福井県",
    "city": "丹生郡越前町",
    "town": "小樟"
  },
  "9160316": {
    "zipcode": "9160316",
    "prefectureCode": "18",
    "prefectureNumber": 18,
    "prefecture": "福井県",
    "city": "丹生郡越前町",
    "town": "大樟"
  },
  "9160421": {
    "zipcode": "9160421",
    "prefectureCode": "18",
    "prefectureNumber": 18,
    "prefecture": "福井県",
    "city": "丹生郡越前町",
    "town": "道口"
  },
  "9160422": {
    "zipcode": "9160422",
    "prefectureCode": "18",
    "prefectureNumber": 18,
    "prefecture": "福井県",
    "city": "丹生郡越前町",
    "town": "厨"
  },
  "9160423": {
    "zipcode": "9160423",
    "prefectureCode": "18",
    "prefectureNumber": 18,
    "prefecture": "福井県",
    "city": "丹生郡越前町",
    "town": "茂原"
  },
  "9160424": {
    "zipcode": "9160424",
    "prefectureCode": "18",
    "prefectureNumber": 18,
    "prefecture": "福井県",
    "city": "丹生郡越前町",
    "town": "白浜"
  },
  "9160425": {
    "zipcode": "9160425",
    "prefectureCode": "18",
    "prefectureNumber": 18,
    "prefecture": "福井県",
    "city": "丹生郡越前町",
    "town": "高佐"
  },
  "9160426": {
    "zipcode": "9160426",
    "prefectureCode": "18",
    "prefectureNumber": 18,
    "prefecture": "福井県",
    "city": "丹生郡越前町",
    "town": "米ノ"
  },
  "9160427": {
    "zipcode": "9160427",
    "prefectureCode": "18",
    "prefectureNumber": 18,
    "prefecture": "福井県",
    "city": "丹生郡越前町",
    "town": "六呂師"
  },
  "9160428": {
    "zipcode": "9160428",
    "prefectureCode": "18",
    "prefectureNumber": 18,
    "prefecture": "福井県",
    "city": "丹生郡越前町",
    "town": "午房ケ平"
  },
  "9161101": {
    "zipcode": "9161101",
    "prefectureCode": "18",
    "prefectureNumber": 18,
    "prefecture": "福井県",
    "city": "鯖江市",
    "town": "大正寺町"
  },
  "9161102": {
    "zipcode": "9161102",
    "prefectureCode": "18",
    "prefectureNumber": 18,
    "prefecture": "福井県",
    "city": "鯖江市",
    "town": "大野町"
  },
  "9161103": {
    "zipcode": "9161103",
    "prefectureCode": "18",
    "prefectureNumber": 18,
    "prefecture": "福井県",
    "city": "鯖江市",
    "town": "別所町"
  },
  "9161104": {
    "zipcode": "9161104",
    "prefectureCode": "18",
    "prefectureNumber": 18,
    "prefecture": "福井県",
    "city": "鯖江市",
    "town": "乙坂今北町"
  },
  "9161105": {
    "zipcode": "9161105",
    "prefectureCode": "18",
    "prefectureNumber": 18,
    "prefecture": "福井県",
    "city": "鯖江市",
    "town": "吉谷町"
  },
  "9161106": {
    "zipcode": "9161106",
    "prefectureCode": "18",
    "prefectureNumber": 18,
    "prefecture": "福井県",
    "city": "鯖江市",
    "town": "四方谷町"
  },
  "9161107": {
    "zipcode": "9161107",
    "prefectureCode": "18",
    "prefectureNumber": 18,
    "prefecture": "福井県",
    "city": "鯖江市",
    "town": "南井町"
  },
  "9161111": {
    "zipcode": "9161111",
    "prefectureCode": "18",
    "prefectureNumber": 18,
    "prefecture": "福井県",
    "city": "鯖江市",
    "town": "上戸口町"
  },
  "9161112": {
    "zipcode": "9161112",
    "prefectureCode": "18",
    "prefectureNumber": 18,
    "prefecture": "福井県",
    "city": "鯖江市",
    "town": "中戸口町"
  },
  "9161113": {
    "zipcode": "9161113",
    "prefectureCode": "18",
    "prefectureNumber": 18,
    "prefecture": "福井県",
    "city": "鯖江市",
    "town": "戸口町"
  },
  "9161114": {
    "zipcode": "9161114",
    "prefectureCode": "18",
    "prefectureNumber": 18,
    "prefecture": "福井県",
    "city": "鯖江市",
    "town": "磯部町"
  },
  "9161115": {
    "zipcode": "9161115",
    "prefectureCode": "18",
    "prefectureNumber": 18,
    "prefecture": "福井県",
    "city": "鯖江市",
    "town": "落井町"
  },
  "9161116": {
    "zipcode": "9161116",
    "prefectureCode": "18",
    "prefectureNumber": 18,
    "prefecture": "福井県",
    "city": "鯖江市",
    "town": "川島町"
  },
  "9161118": {
    "zipcode": "9161118",
    "prefectureCode": "18",
    "prefectureNumber": 18,
    "prefecture": "福井県",
    "city": "鯖江市",
    "town": "松成町"
  },
  "9161133": {
    "zipcode": "9161133",
    "prefectureCode": "18",
    "prefectureNumber": 18,
    "prefecture": "福井県",
    "city": "鯖江市",
    "town": "中野松成"
  },
  "9161221": {
    "zipcode": "9161221",
    "prefectureCode": "18",
    "prefectureNumber": 18,
    "prefecture": "福井県",
    "city": "鯖江市",
    "town": "西袋町"
  },
  "9161222": {
    "zipcode": "9161222",
    "prefectureCode": "18",
    "prefectureNumber": 18,
    "prefecture": "福井県",
    "city": "鯖江市",
    "town": "河和田町"
  },
  "9161223": {
    "zipcode": "9161223",
    "prefectureCode": "18",
    "prefectureNumber": 18,
    "prefecture": "福井県",
    "city": "鯖江市",
    "town": "片山町"
  },
  "9161224": {
    "zipcode": "9161224",
    "prefectureCode": "18",
    "prefectureNumber": 18,
    "prefecture": "福井県",
    "city": "鯖江市",
    "town": "莇生田町"
  },
  "9161225": {
    "zipcode": "9161225",
    "prefectureCode": "18",
    "prefectureNumber": 18,
    "prefecture": "福井県",
    "city": "鯖江市",
    "town": "別司町"
  },
  "9161231": {
    "zipcode": "9161231",
    "prefectureCode": "18",
    "prefectureNumber": 18,
    "prefecture": "福井県",
    "city": "鯖江市",
    "town": "金谷町"
  },
  "9161232": {
    "zipcode": "9161232",
    "prefectureCode": "18",
    "prefectureNumber": 18,
    "prefecture": "福井県",
    "city": "鯖江市",
    "town": "寺中町"
  },
  "9161233": {
    "zipcode": "9161233",
    "prefectureCode": "18",
    "prefectureNumber": 18,
    "prefecture": "福井県",
    "city": "鯖江市",
    "town": "尾花町"
  },
  "9161234": {
    "zipcode": "9161234",
    "prefectureCode": "18",
    "prefectureNumber": 18,
    "prefecture": "福井県",
    "city": "鯖江市",
    "town": "沢町"
  },
  "9161235": {
    "zipcode": "9161235",
    "prefectureCode": "18",
    "prefectureNumber": 18,
    "prefecture": "福井県",
    "city": "鯖江市",
    "town": "上河内町"
  },
  "9161236": {
    "zipcode": "9161236",
    "prefectureCode": "18",
    "prefectureNumber": 18,
    "prefecture": "福井県",
    "city": "鯖江市",
    "town": "東清水町"
  },
  "9161237": {
    "zipcode": "9161237",
    "prefectureCode": "18",
    "prefectureNumber": 18,
    "prefecture": "福井県",
    "city": "鯖江市",
    "town": "北中町"
  }
}
