{
  "9170000": {
    "zipcode": "9170000",
    "prefectureCode": "18",
    "prefectureNumber": 18,
    "prefecture": "福井県",
    "city": "小浜市",
    "town": "以下に掲載がない場合"
  },
  "9170001": {
    "zipcode": "9170001",
    "prefectureCode": "18",
    "prefectureNumber": 18,
    "prefecture": "福井県",
    "city": "小浜市",
    "town": "福谷"
  },
  "9170002": {
    "zipcode": "9170002",
    "prefectureCode": "18",
    "prefectureNumber": 18,
    "prefecture": "福井県",
    "city": "小浜市",
    "town": "北塩屋"
  },
  "9170003": {
    "zipcode": "9170003",
    "prefectureCode": "18",
    "prefectureNumber": 18,
    "prefecture": "福井県",
    "city": "小浜市",
    "town": "学園町"
  },
  "9170004": {
    "zipcode": "9170004",
    "prefectureCode": "18",
    "prefectureNumber": 18,
    "prefecture": "福井県",
    "city": "小浜市",
    "town": "湊"
  },
  "9170005": {
    "zipcode": "9170005",
    "prefectureCode": "18",
    "prefectureNumber": 18,
    "prefecture": "福井県",
    "city": "小浜市",
    "town": "板屋町"
  },
  "9170006": {
    "zipcode": "9170006",
    "prefectureCode": "18",
    "prefectureNumber": 18,
    "prefecture": "福井県",
    "city": "小浜市",
    "town": "小松原"
  },
  "9170007": {
    "zipcode": "9170007",
    "prefectureCode": "18",
    "prefectureNumber": 18,
    "prefecture": "福井県",
    "city": "小浜市",
    "town": "西長町"
  },
  "9170008": {
    "zipcode": "9170008",
    "prefectureCode": "18",
    "prefectureNumber": 18,
    "prefecture": "福井県",
    "city": "小浜市",
    "town": "新小松原"
  },
  "9170011": {
    "zipcode": "9170011",
    "prefectureCode": "18",
    "prefectureNumber": 18,
    "prefecture": "福井県",
    "city": "小浜市",
    "town": "奈胡"
  },
  "9170012": {
    "zipcode": "9170012",
    "prefectureCode": "18",
    "prefectureNumber": 18,
    "prefecture": "福井県",
    "city": "小浜市",
    "town": "熊野"
  },
  "9170013": {
    "zipcode": "9170013",
    "prefectureCode": "18",
    "prefectureNumber": 18,
    "prefecture": "福井県",
    "city": "小浜市",
    "town": "太良庄"
  },
  "9170014": {
    "zipcode": "9170014",
    "prefectureCode": "18",
    "prefectureNumber": 18,
    "prefecture": "福井県",
    "city": "小浜市",
    "town": "高塚"
  },
  "9170015": {
    "zipcode": "9170015",
    "prefectureCode": "18",
    "prefectureNumber": 18,
    "prefecture": "福井県",
    "city": "小浜市",
    "town": "栗田"
  },
  "9170016": {
    "zipcode": "9170016",
    "prefectureCode": "18",
    "prefectureNumber": 18,
    "prefecture": "福井県",
    "city": "小浜市",
    "town": "次吉"
  },
  "9170017": {
    "zipcode": "9170017",
    "prefectureCode": "18",
    "prefectureNumber": 18,
    "prefecture": "福井県",
    "city": "小浜市",
    "town": "羽賀"
  },
  "9170018": {
    "zipcode": "9170018",
    "prefectureCode": "18",
    "prefectureNumber": 18,
    "prefecture": "福井県",
    "city": "小浜市",
    "town": "松ケ崎"
  },
  "9170019": {
    "zipcode": "9170019",
    "prefectureCode": "18",
    "prefectureNumber": 18,
    "prefecture": "福井県",
    "city": "小浜市",
    "town": "山王前"
  },
  "9170021": {
    "zipcode": "9170021",
    "prefectureCode": "18",
    "prefectureNumber": 18,
    "prefecture": "福井県",
    "city": "小浜市",
    "town": "竹原"
  },
  "9170022": {
    "zipcode": "9170022",
    "prefectureCode": "18",
    "prefectureNumber": 18,
    "prefecture": "福井県",
    "city": "小浜市",
    "town": "上竹原"
  },
  "9170023": {
    "zipcode": "9170023",
    "prefectureCode": "18",
    "prefectureNumber": 18,
    "prefecture": "福井県",
    "city": "小浜市",
    "town": "府中"
  },
  "9170024": {
    "zipcode": "9170024",
    "prefectureCode": "18",
    "prefectureNumber": 18,
    "prefecture": "福井県",
    "city": "小浜市",
    "town": "和久里"
  },
  "9170025": {
    "zipcode": "9170025",
    "prefectureCode": "18",
    "prefectureNumber": 18,
    "prefecture": "福井県",
    "city": "小浜市",
    "town": "木崎"
  },
  "9170026": {
    "zipcode": "9170026",
    "prefectureCode": "18",
    "prefectureNumber": 18,
    "prefecture": "福井県",
    "city": "小浜市",
    "town": "多田"
  },
  "9170027": {
    "zipcode": "9170027",
    "prefectureCode": "18",
    "prefectureNumber": 18,
    "prefecture": "福井県",
    "city": "小浜市",
    "town": "生守団地"
  },
  "9170028": {
    "zipcode": "9170028",
    "prefectureCode": "18",
    "prefectureNumber": 18,
    "prefecture": "福井県",
    "city": "小浜市",
    "town": "野代"
  },
  "9170031": {
    "zipcode": "9170031",
    "prefectureCode": "18",
    "prefectureNumber": 18,
    "prefecture": "福井県",
    "city": "小浜市",
    "town": "谷田部"
  },
  "9170032": {
    "zipcode": "9170032",
    "prefectureCode": "18",
    "prefectureNumber": 18,
    "prefecture": "福井県",
    "city": "小浜市",
    "town": "尾崎"
  },
  "9170033": {
    "zipcode": "9170033",
    "prefectureCode": "18",
    "prefectureNumber": 18,
    "prefecture": "福井県",
    "city": "小浜市",
    "town": "須縄"
  },
  "9170034": {
    "zipcode": "9170034",
    "prefectureCode": "18",
    "prefectureNumber": 18,
    "prefecture": "福井県",
    "city": "小浜市",
    "town": "奥田縄"
  },
  "9170035": {
    "zipcode": "9170035",
    "prefectureCode": "18",
    "prefectureNumber": 18,
    "prefecture": "福井県",
    "city": "小浜市",
    "town": "口田縄"
  },
  "9170036": {
    "zipcode": "9170036",
    "prefectureCode": "18",
    "prefectureNumber": 18,
    "prefecture": "福井県",
    "city": "小浜市",
    "town": "中井"
  },
  "9170037": {
    "zipcode": "9170037",
    "prefectureCode": "18",
    "prefectureNumber": 18,
    "prefecture": "福井県",
    "city": "小浜市",
    "town": "東相生"
  },
  "9170041": {
    "zipcode": "9170041",
    "prefectureCode": "18",
    "prefectureNumber": 18,
    "prefecture": "福井県",
    "city": "小浜市",
    "town": "青井"
  },
  "9170042": {
    "zipcode": "9170042",
    "prefectureCode": "18",
    "prefectureNumber": 18,
    "prefecture": "福井県",
    "city": "小浜市",
    "town": "東勢"
  },
  "9170043": {
    "zipcode": "9170043",
    "prefectureCode": "18",
    "prefectureNumber": 18,
    "prefecture": "福井県",
    "city": "小浜市",
    "town": "西勢"
  },
  "9170044": {
    "zipcode": "9170044",
    "prefectureCode": "18",
    "prefectureNumber": 18,
    "prefecture": "福井県",
    "city": "小浜市",
    "town": "飯盛"
  },
  "9170045": {
    "zipcode": "9170045",
    "prefectureCode": "18",
    "prefectureNumber": 18,
    "prefecture": "福井県",
    "city": "小浜市",
    "town": "下加斗"
  },
  "9170046": {
    "zipcode": "9170046",
    "prefectureCode": "18",
    "prefectureNumber": 18,
    "prefecture": "福井県",
    "city": "小浜市",
    "town": "岡津"
  },
  "9170047": {
    "zipcode": "9170047",
    "prefectureCode": "18",
    "prefectureNumber": 18,
    "prefecture": "福井県",
    "city": "小浜市",
    "town": "鯉川"
  },
  "9170051": {
    "zipcode": "9170051",
    "prefectureCode": "18",
    "prefectureNumber": 18,
    "prefecture": "福井県",
    "city": "小浜市",
    "town": "小浜白鳥"
  },
  "9170052": {
    "zipcode": "9170052",
    "prefectureCode": "18",
    "prefectureNumber": 18,
    "prefecture": "福井県",
    "city": "小浜市",
    "town": "小浜男山"
  },
  "9170053": {
    "zipcode": "9170053",
    "prefectureCode": "18",
    "prefectureNumber": 18,
    "prefecture": "福井県",
    "city": "小浜市",
    "town": "小浜大宮"
  },
  "9170054": {
    "zipcode": "9170054",
    "prefectureCode": "18",
    "prefectureNumber": 18,
    "prefecture": "福井県",
    "city": "小浜市",
    "town": "伏原"
  },
  "9170055": {
    "zipcode": "9170055",
    "prefectureCode": "18",
    "prefectureNumber": 18,
    "prefecture": "福井県",
    "city": "小浜市",
    "town": "小浜浅間"
  },
  "9170056": {
    "zipcode": "9170056",
    "prefectureCode": "18",
    "prefectureNumber": 18,
    "prefecture": "福井県",
    "city": "小浜市",
    "town": "小浜大原"
  },
  "9170057": {
    "zipcode": "9170057",
    "prefectureCode": "18",
    "prefectureNumber": 18,
    "prefecture": "福井県",
    "city": "小浜市",
    "town": "小浜飛鳥"
  },
  "9170058": {
    "zipcode": "9170058",
    "prefectureCode": "18",
    "prefectureNumber": 18,
    "prefecture": "福井県",
    "city": "小浜市",
    "town": "小浜香取"
  },
  "9170059": {
    "zipcode": "9170059",
    "prefectureCode": "18",
    "prefectureNumber": 18,
    "prefecture": "福井県",
    "city": "小浜市",
    "town": "小浜貴船"
  },
  "9170061": {
    "zipcode": "9170061",
    "prefectureCode": "18",
    "prefectureNumber": 18,
    "prefecture": "福井県",
    "city": "小浜市",
    "town": "小浜玉前"
  },
  "9170062": {
    "zipcode": "9170062",
    "prefectureCode": "18",
    "prefectureNumber": 18,
    "prefecture": "福井県",
    "city": "小浜市",
    "town": "小浜今宮"
  },
  "9170063": {
    "zipcode": "9170063",
    "prefectureCode": "18",
    "prefectureNumber": 18,
    "prefecture": "福井県",
    "city": "小浜市",
    "town": "小浜酒井"
  },
  "9170064": {
    "zipcode": "9170064",
    "prefectureCode": "18",
    "prefectureNumber": 18,
    "prefecture": "福井県",
    "city": "小浜市",
    "town": "小浜竜田"
  },
  "9170065": {
    "zipcode": "9170065",
    "prefectureCode": "18",
    "prefectureNumber": 18,
    "prefecture": "福井県",
    "city": "小浜市",
    "town": "小浜住吉"
  },
  "9170066": {
    "zipcode": "9170066",
    "prefectureCode": "18",
    "prefectureNumber": 18,
    "prefecture": "福井県",
    "city": "小浜市",
    "town": "小浜神田"
  },
  "9170067": {
    "zipcode": "9170067",
    "prefectureCode": "18",
    "prefectureNumber": 18,
    "prefecture": "福井県",
    "city": "小浜市",
    "town": "小浜鹿島"
  },
  "9170068": {
    "zipcode": "9170068",
    "prefectureCode": "18",
    "prefectureNumber": 18,
    "prefecture": "福井県",
    "city": "小浜市",
    "town": "小浜日吉"
  },
  "9170069": {
    "zipcode": "9170069",
    "prefectureCode": "18",
    "prefectureNumber": 18,
    "prefecture": "福井県",
    "city": "小浜市",
    "town": "小浜白鬚"
  },
  "9170071": {
    "zipcode": "9170071",
    "prefectureCode": "18",
    "prefectureNumber": 18,
    "prefecture": "福井県",
    "city": "小浜市",
    "town": "一番町"
  },
  "9170072": {
    "zipcode": "9170072",
    "prefectureCode": "18",
    "prefectureNumber": 18,
    "prefecture": "福井県",
    "city": "小浜市",
    "town": "千種"
  },
  "9170073": {
    "zipcode": "9170073",
    "prefectureCode": "18",
    "prefectureNumber": 18,
    "prefecture": "福井県",
    "city": "小浜市",
    "town": "四谷町"
  },
  "9170074": {
    "zipcode": "9170074",
    "prefectureCode": "18",
    "prefectureNumber": 18,
    "prefecture": "福井県",
    "city": "小浜市",
    "town": "後瀬町"
  },
  "9170075": {
    "zipcode": "9170075",
    "prefectureCode": "18",
    "prefectureNumber": 18,
    "prefecture": "福井県",
    "city": "小浜市",
    "town": "南川町"
  },
  "9170076": {
    "zipcode": "9170076",
    "prefectureCode": "18",
    "prefectureNumber": 18,
    "prefecture": "福井県",
    "city": "小浜市",
    "town": "湯岡"
  },
  "9170077": {
    "zipcode": "9170077",
    "prefectureCode": "18",
    "prefectureNumber": 18,
    "prefecture": "福井県",
    "city": "小浜市",
    "town": "駅前町"
  },
  "9170078": {
    "zipcode": "9170078",
    "prefectureCode": "18",
    "prefectureNumber": 18,
    "prefecture": "福井県",
    "city": "小浜市",
    "town": "大手町"
  },
  "9170081": {
    "zipcode": "9170081",
    "prefectureCode": "18",
    "prefectureNumber": 18,
    "prefecture": "福井県",
    "city": "小浜市",
    "town": "川崎"
  },
  "9170082": {
    "zipcode": "9170082",
    "prefectureCode": "18",
    "prefectureNumber": 18,
    "prefecture": "福井県",
    "city": "小浜市",
    "town": "小浜津島"
  },
  "9170083": {
    "zipcode": "9170083",
    "prefectureCode": "18",
    "prefectureNumber": 18,
    "prefecture": "福井県",
    "city": "小浜市",
    "town": "小浜清滝"
  },
  "9170084": {
    "zipcode": "9170084",
    "prefectureCode": "18",
    "prefectureNumber": 18,
    "prefecture": "福井県",
    "city": "小浜市",
    "town": "小浜広峰"
  },
  "9170085": {
    "zipcode": "9170085",
    "prefectureCode": "18",
    "prefectureNumber": 18,
    "prefecture": "福井県",
    "city": "小浜市",
    "town": "小浜生玉"
  },
  "9170086": {
    "zipcode": "9170086",
    "prefectureCode": "18",
    "prefectureNumber": 18,
    "prefecture": "福井県",
    "city": "小浜市",
    "town": "小浜塩竈"
  },
  "9170087": {
    "zipcode": "9170087",
    "prefectureCode": "18",
    "prefectureNumber": 18,
    "prefecture": "福井県",
    "city": "小浜市",
    "town": "小浜鈴鹿"
  },
  "9170088": {
    "zipcode": "9170088",
    "prefectureCode": "18",
    "prefectureNumber": 18,
    "prefecture": "福井県",
    "city": "小浜市",
    "town": "小浜多賀"
  },
  "9170091": {
    "zipcode": "9170091",
    "prefectureCode": "18",
    "prefectureNumber": 18,
    "prefecture": "福井県",
    "city": "小浜市",
    "town": "西津"
  },
  "9170092": {
    "zipcode": "9170092",
    "prefectureCode": "18",
    "prefectureNumber": 18,
    "prefecture": "福井県",
    "city": "小浜市",
    "town": "山手"
  },
  "9170093": {
    "zipcode": "9170093",
    "prefectureCode": "18",
    "prefectureNumber": 18,
    "prefecture": "福井県",
    "city": "小浜市",
    "town": "水取"
  },
  "9170094": {
    "zipcode": "9170094",
    "prefectureCode": "18",
    "prefectureNumber": 18,
    "prefecture": "福井県",
    "city": "小浜市",
    "town": "丸山"
  },
  "9170095": {
    "zipcode": "9170095",
    "prefectureCode": "18",
    "prefectureNumber": 18,
    "prefecture": "福井県",
    "city": "小浜市",
    "town": "城内"
  },
  "9170096": {
    "zipcode": "9170096",
    "prefectureCode": "18",
    "prefectureNumber": 18,
    "prefecture": "福井県",
    "city": "小浜市",
    "town": "雲浜"
  },
  "9170097": {
    "zipcode": "9170097",
    "prefectureCode": "18",
    "prefectureNumber": 18,
    "prefecture": "福井県",
    "city": "小浜市",
    "town": "堀屋敷"
  },
  "9170101": {
    "zipcode": "9170101",
    "prefectureCode": "18",
    "prefectureNumber": 18,
    "prefecture": "福井県",
    "city": "小浜市",
    "town": "田烏"
  },
  "9170102": {
    "zipcode": "9170102",
    "prefectureCode": "18",
    "prefectureNumber": 18,
    "prefecture": "福井県",
    "city": "小浜市",
    "town": "矢代"
  },
  "9170103": {
    "zipcode": "9170103",
    "prefectureCode": "18",
    "prefectureNumber": 18,
    "prefecture": "福井県",
    "city": "小浜市",
    "town": "志積"
  },
  "9170104": {
    "zipcode": "9170104",
    "prefectureCode": "18",
    "prefectureNumber": 18,
    "prefecture": "福井県",
    "city": "小浜市",
    "town": "犬熊"
  },
  "9170105": {
    "zipcode": "9170105",
    "prefectureCode": "18",
    "prefectureNumber": 18,
    "prefecture": "福井県",
    "city": "小浜市",
    "town": "阿納"
  },
  "9170106": {
    "zipcode": "9170106",
    "prefectureCode": "18",
    "prefectureNumber": 18,
    "prefecture": "福井県",
    "city": "小浜市",
    "town": "阿納尻"
  },
  "9170107": {
    "zipcode": "9170107",
    "prefectureCode": "18",
    "prefectureNumber": 18,
    "prefecture": "福井県",
    "city": "小浜市",
    "town": "甲ケ崎"
  },
  "9170111": {
    "zipcode": "9170111",
    "prefectureCode": "18",
    "prefectureNumber": 18,
    "prefecture": "福井県",
    "city": "小浜市",
    "town": "西小川"
  },
  "9170112": {
    "zipcode": "9170112",
    "prefectureCode": "18",
    "prefectureNumber": 18,
    "prefecture": "福井県",
    "city": "小浜市",
    "town": "加尾"
  },
  "9170113": {
    "zipcode": "9170113",
    "prefectureCode": "18",
    "prefectureNumber": 18,
    "prefecture": "福井県",
    "city": "小浜市",
    "town": "宇久"
  },
  "9170114": {
    "zipcode": "9170114",
    "prefectureCode": "18",
    "prefectureNumber": 18,
    "prefecture": "福井県",
    "city": "小浜市",
    "town": "若狭"
  },
  "9170115": {
    "zipcode": "9170115",
    "prefectureCode": "18",
    "prefectureNumber": 18,
    "prefecture": "福井県",
    "city": "小浜市",
    "town": "仏谷"
  },
  "9170116": {
    "zipcode": "9170116",
    "prefectureCode": "18",
    "prefectureNumber": 18,
    "prefecture": "福井県",
    "city": "小浜市",
    "town": "堅海"
  },
  "9170117": {
    "zipcode": "9170117",
    "prefectureCode": "18",
    "prefectureNumber": 18,
    "prefecture": "福井県",
    "city": "小浜市",
    "town": "泊"
  },
  "9170221": {
    "zipcode": "9170221",
    "prefectureCode": "18",
    "prefectureNumber": 18,
    "prefecture": "福井県",
    "city": "小浜市",
    "town": "大谷"
  },
  "9170222": {
    "zipcode": "9170222",
    "prefectureCode": "18",
    "prefectureNumber": 18,
    "prefecture": "福井県",
    "city": "小浜市",
    "town": "新保"
  },
  "9170223": {
    "zipcode": "9170223",
    "prefectureCode": "18",
    "prefectureNumber": 18,
    "prefecture": "福井県",
    "city": "小浜市",
    "town": "加茂"
  },
  "9170224": {
    "zipcode": "9170224",
    "prefectureCode": "18",
    "prefectureNumber": 18,
    "prefecture": "福井県",
    "city": "小浜市",
    "town": "竹長"
  },
  "9170225": {
    "zipcode": "9170225",
    "prefectureCode": "18",
    "prefectureNumber": 18,
    "prefecture": "福井県",
    "city": "小浜市",
    "town": "本保"
  },
  "9170226": {
    "zipcode": "9170226",
    "prefectureCode": "18",
    "prefectureNumber": 18,
    "prefecture": "福井県",
    "city": "小浜市",
    "town": "平野"
  },
  "9170231": {
    "zipcode": "9170231",
    "prefectureCode": "18",
    "prefectureNumber": 18,
    "prefecture": "福井県",
    "city": "小浜市",
    "town": "国分"
  },
  "9170232": {
    "zipcode": "9170232",
    "prefectureCode": "18",
    "prefectureNumber": 18,
    "prefecture": "福井県",
    "city": "小浜市",
    "town": "東市場"
  },
  "9170233": {
    "zipcode": "9170233",
    "prefectureCode": "18",
    "prefectureNumber": 18,
    "prefecture": "福井県",
    "city": "小浜市",
    "town": "太興寺"
  },
  "9170234": {
    "zipcode": "9170234",
    "prefectureCode": "18",
    "prefectureNumber": 18,
    "prefecture": "福井県",
    "city": "小浜市",
    "town": "上野"
  },
  "9170235": {
    "zipcode": "9170235",
    "prefectureCode": "18",
    "prefectureNumber": 18,
    "prefecture": "福井県",
    "city": "小浜市",
    "town": "四分一"
  },
  "9170236": {
    "zipcode": "9170236",
    "prefectureCode": "18",
    "prefectureNumber": 18,
    "prefecture": "福井県",
    "city": "小浜市",
    "town": "三分一"
  },
  "9170237": {
    "zipcode": "9170237",
    "prefectureCode": "18",
    "prefectureNumber": 18,
    "prefecture": "福井県",
    "city": "小浜市",
    "town": "門前"
  },
  "9170238": {
    "zipcode": "9170238",
    "prefectureCode": "18",
    "prefectureNumber": 18,
    "prefecture": "福井県",
    "city": "小浜市",
    "town": "池河内"
  },
  "9170241": {
    "zipcode": "9170241",
    "prefectureCode": "18",
    "prefectureNumber": 18,
    "prefecture": "福井県",
    "city": "小浜市",
    "town": "中村"
  },
  "9170242": {
    "zipcode": "9170242",
    "prefectureCode": "18",
    "prefectureNumber": 18,
    "prefecture": "福井県",
    "city": "小浜市",
    "town": "中の宮"
  },
  "9170243": {
    "zipcode": "9170243",
    "prefectureCode": "18",
    "prefectureNumber": 18,
    "prefecture": "福井県",
    "city": "小浜市",
    "town": "竜前"
  },
  "9170244": {
    "zipcode": "9170244",
    "prefectureCode": "18",
    "prefectureNumber": 18,
    "prefecture": "福井県",
    "city": "小浜市",
    "town": "神宮寺"
  },
  "9170245": {
    "zipcode": "9170245",
    "prefectureCode": "18",
    "prefectureNumber": 18,
    "prefecture": "福井県",
    "city": "小浜市",
    "town": "忠野"
  },
  "9170246": {
    "zipcode": "9170246",
    "prefectureCode": "18",
    "prefectureNumber": 18,
    "prefecture": "福井県",
    "city": "小浜市",
    "town": "下根来"
  },
  "9170247": {
    "zipcode": "9170247",
    "prefectureCode": "18",
    "prefectureNumber": 18,
    "prefecture": "福井県",
    "city": "小浜市",
    "town": "中ノ畑"
  },
  "9170248": {
    "zipcode": "9170248",
    "prefectureCode": "18",
    "prefectureNumber": 18,
    "prefecture": "福井県",
    "city": "小浜市",
    "town": "上根来"
  },
  "9170249": {
    "zipcode": "9170249",
    "prefectureCode": "18",
    "prefectureNumber": 18,
    "prefecture": "福井県",
    "city": "小浜市",
    "town": "宮の前"
  },
  "9170351": {
    "zipcode": "9170351",
    "prefectureCode": "18",
    "prefectureNumber": 18,
    "prefecture": "福井県",
    "city": "小浜市",
    "town": "田茂谷"
  },
  "9170352": {
    "zipcode": "9170352",
    "prefectureCode": "18",
    "prefectureNumber": 18,
    "prefecture": "福井県",
    "city": "小浜市",
    "town": "深谷"
  },
  "9170353": {
    "zipcode": "9170353",
    "prefectureCode": "18",
    "prefectureNumber": 18,
    "prefecture": "福井県",
    "city": "小浜市",
    "town": "深野"
  },
  "9170354": {
    "zipcode": "9170354",
    "prefectureCode": "18",
    "prefectureNumber": 18,
    "prefecture": "福井県",
    "city": "小浜市",
    "town": "和多田"
  },
  "9170355": {
    "zipcode": "9170355",
    "prefectureCode": "18",
    "prefectureNumber": 18,
    "prefecture": "福井県",
    "city": "小浜市",
    "town": "下田"
  },
  "9170356": {
    "zipcode": "9170356",
    "prefectureCode": "18",
    "prefectureNumber": 18,
    "prefecture": "福井県",
    "city": "小浜市",
    "town": "上田"
  },
  "9170357": {
    "zipcode": "9170357",
    "prefectureCode": "18",
    "prefectureNumber": 18,
    "prefecture": "福井県",
    "city": "小浜市",
    "town": "小屋"
  },
  "9170361": {
    "zipcode": "9170361",
    "prefectureCode": "18",
    "prefectureNumber": 18,
    "prefecture": "福井県",
    "city": "大飯郡おおい町",
    "town": "名田庄虫谷"
  },
  "9170362": {
    "zipcode": "9170362",
    "prefectureCode": "18",
    "prefectureNumber": 18,
    "prefecture": "福井県",
    "city": "大飯郡おおい町",
    "town": "名田庄永谷"
  },
  "9170363": {
    "zipcode": "9170363",
    "prefectureCode": "18",
    "prefectureNumber": 18,
    "prefecture": "福井県",
    "city": "大飯郡おおい町",
    "town": "名田庄挙野"
  },
  "9170364": {
    "zipcode": "9170364",
    "prefectureCode": "18",
    "prefectureNumber": 18,
    "prefecture": "福井県",
    "city": "大飯郡おおい町",
    "town": "名田庄虫鹿野"
  },
  "9170365": {
    "zipcode": "9170365",
    "prefectureCode": "18",
    "prefectureNumber": 18,
    "prefecture": "福井県",
    "city": "大飯郡おおい町",
    "town": "名田庄小倉畑"
  },
  "9170371": {
    "zipcode": "9170371",
    "prefectureCode": "18",
    "prefectureNumber": 18,
    "prefecture": "福井県",
    "city": "大飯郡おおい町",
    "town": "名田庄小倉"
  },
  "9170372": {
    "zipcode": "9170372",
    "prefectureCode": "18",
    "prefectureNumber": 18,
    "prefecture": "福井県",
    "city": "大飯郡おおい町",
    "town": "名田庄堂本"
  },
  "9170373": {
    "zipcode": "9170373",
    "prefectureCode": "18",
    "prefectureNumber": 18,
    "prefecture": "福井県",
    "city": "大飯郡おおい町",
    "town": "名田庄槇谷"
  },
  "9170374": {
    "zipcode": "9170374",
    "prefectureCode": "18",
    "prefectureNumber": 18,
    "prefecture": "福井県",
    "city": "大飯郡おおい町",
    "town": "名田庄中"
  },
  "9170375": {
    "zipcode": "9170375",
    "prefectureCode": "18",
    "prefectureNumber": 18,
    "prefecture": "福井県",
    "city": "大飯郡おおい町",
    "town": "名田庄納田終"
  },
  "9170381": {
    "zipcode": "9170381",
    "prefectureCode": "18",
    "prefectureNumber": 18,
    "prefecture": "福井県",
    "city": "大飯郡おおい町",
    "town": "名田庄三重"
  },
  "9170382": {
    "zipcode": "9170382",
    "prefectureCode": "18",
    "prefectureNumber": 18,
    "prefecture": "福井県",
    "city": "大飯郡おおい町",
    "town": "名田庄久坂"
  },
  "9170383": {
    "zipcode": "9170383",
    "prefectureCode": "18",
    "prefectureNumber": 18,
    "prefecture": "福井県",
    "city": "大飯郡おおい町",
    "town": "名田庄下"
  },
  "9170384": {
    "zipcode": "9170384",
    "prefectureCode": "18",
    "prefectureNumber": 18,
    "prefecture": "福井県",
    "city": "大飯郡おおい町",
    "town": "名田庄西谷"
  },
  "9170385": {
    "zipcode": "9170385",
    "prefectureCode": "18",
    "prefectureNumber": 18,
    "prefecture": "福井県",
    "city": "大飯郡おおい町",
    "town": "名田庄井上"
  },
  "9170386": {
    "zipcode": "9170386",
    "prefectureCode": "18",
    "prefectureNumber": 18,
    "prefecture": "福井県",
    "city": "大飯郡おおい町",
    "town": "名田庄口坂本"
  },
  "9170387": {
    "zipcode": "9170387",
    "prefectureCode": "18",
    "prefectureNumber": 18,
    "prefecture": "福井県",
    "city": "大飯郡おおい町",
    "town": "名田庄奥坂本"
  }
}
