{
  "9180000": {
    "zipcode": "9180000",
    "prefectureCode": "18",
    "prefectureNumber": 18,
    "prefecture": "福井県",
    "city": "福井市",
    "town": "以下に掲載がない場合"
  },
  "9188001": {
    "zipcode": "9188001",
    "prefectureCode": "18",
    "prefectureNumber": 18,
    "prefecture": "福井県",
    "city": "福井市",
    "town": "つくも"
  },
  "9188002": {
    "zipcode": "9188002",
    "prefectureCode": "18",
    "prefectureNumber": 18,
    "prefecture": "福井県",
    "city": "福井市",
    "town": "左内町"
  },
  "9188003": {
    "zipcode": "9188003",
    "prefectureCode": "18",
    "prefectureNumber": 18,
    "prefecture": "福井県",
    "city": "福井市",
    "town": "毛矢"
  },
  "9188004": {
    "zipcode": "9188004",
    "prefectureCode": "18",
    "prefectureNumber": 18,
    "prefecture": "福井県",
    "city": "福井市",
    "town": "西木田"
  },
  "9188005": {
    "zipcode": "9188005",
    "prefectureCode": "18",
    "prefectureNumber": 18,
    "prefecture": "福井県",
    "city": "福井市",
    "town": "みのり"
  },
  "9188006": {
    "zipcode": "9188006",
    "prefectureCode": "18",
    "prefectureNumber": 18,
    "prefecture": "福井県",
    "city": "福井市",
    "town": "足羽上町"
  },
  "9188007": {
    "zipcode": "9188007",
    "prefectureCode": "18",
    "prefectureNumber": 18,
    "prefecture": "福井県",
    "city": "福井市",
    "town": "足羽"
  },
  "9188008": {
    "zipcode": "9188008",
    "prefectureCode": "18",
    "prefectureNumber": 18,
    "prefecture": "福井県",
    "city": "福井市",
    "town": "有楽町"
  },
  "9188009": {
    "zipcode": "9188009",
    "prefectureCode": "18",
    "prefectureNumber": 18,
    "prefecture": "福井県",
    "city": "福井市",
    "town": "山奥町"
  },
  "9188011": {
    "zipcode": "9188011",
    "prefectureCode": "18",
    "prefectureNumber": 18,
    "prefecture": "福井県",
    "city": "福井市",
    "town": "月見"
  },
  "9188012": {
    "zipcode": "9188012",
    "prefectureCode": "18",
    "prefectureNumber": 18,
    "prefecture": "福井県",
    "city": "福井市",
    "town": "花堂北"
  },
  "9188013": {
    "zipcode": "9188013",
    "prefectureCode": "18",
    "prefectureNumber": 18,
    "prefecture": "福井県",
    "city": "福井市",
    "town": "花堂東"
  },
  "9188014": {
    "zipcode": "9188014",
    "prefectureCode": "18",
    "prefectureNumber": 18,
    "prefecture": "福井県",
    "city": "福井市",
    "town": "花堂中"
  },
  "9188015": {
    "zipcode": "9188015",
    "prefectureCode": "18",
    "prefectureNumber": 18,
    "prefecture": "福井県",
    "city": "福井市",
    "town": "花堂南"
  },
  "9188016": {
    "zipcode": "9188016",
    "prefectureCode": "18",
    "prefectureNumber": 18,
    "prefecture": "福井県",
    "city": "福井市",
    "town": "江端町"
  },
  "9188017": {
    "zipcode": "9188017",
    "prefectureCode": "18",
    "prefectureNumber": 18,
    "prefecture": "福井県",
    "city": "福井市",
    "town": "下荒井町"
  },
  "9188018": {
    "zipcode": "9188018",
    "prefectureCode": "18",
    "prefectureNumber": 18,
    "prefecture": "福井県",
    "city": "福井市",
    "town": "大島町"
  },
  "9188021": {
    "zipcode": "9188021",
    "prefectureCode": "18",
    "prefectureNumber": 18,
    "prefecture": "福井県",
    "city": "福井市",
    "town": "門前町"
  },
  "9188022": {
    "zipcode": "9188022",
    "prefectureCode": "18",
    "prefectureNumber": 18,
    "prefecture": "福井県",
    "city": "福井市",
    "town": "西谷町"
  },
  "9188023": {
    "zipcode": "9188023",
    "prefectureCode": "18",
    "prefectureNumber": 18,
    "prefecture": "福井県",
    "city": "福井市",
    "town": "西谷"
  },
  "9188024": {
    "zipcode": "9188024",
    "prefectureCode": "18",
    "prefectureNumber": 18,
    "prefecture": "福井県",
    "city": "福井市",
    "town": "舞屋町"
  },
  "9188025": {
    "zipcode": "9188025",
    "prefectureCode": "18",
    "prefectureNumber": 18,
    "prefecture": "福井県",
    "city": "福井市",
    "town": "江守中町"
  },
  "9188026": {
    "zipcode": "9188026",
    "prefectureCode": "18",
    "prefectureNumber": 18,
    "prefecture": "福井県",
    "city": "福井市",
    "town": "渕町"
  },
  "9188027": {
    "zipcode": "9188027",
    "prefectureCode": "18",
    "prefectureNumber": 18,
    "prefecture": "福井県",
    "city": "福井市",
    "town": "福町"
  },
  "9188031": {
    "zipcode": "9188031",
    "prefectureCode": "18",
    "prefectureNumber": 18,
    "prefecture": "福井県",
    "city": "福井市",
    "town": "種池町"
  },
  "9188032": {
    "zipcode": "9188032",
    "prefectureCode": "18",
    "prefectureNumber": 18,
    "prefecture": "福井県",
    "city": "福井市",
    "town": "南江守町"
  },
  "9188033": {
    "zipcode": "9188033",
    "prefectureCode": "18",
    "prefectureNumber": 18,
    "prefecture": "福井県",
    "city": "福井市",
    "town": "合谷町"
  },
  "9188034": {
    "zipcode": "9188034",
    "prefectureCode": "18",
    "prefectureNumber": 18,
    "prefecture": "福井県",
    "city": "福井市",
    "town": "南居町"
  },
  "9188035": {
    "zipcode": "9188035",
    "prefectureCode": "18",
    "prefectureNumber": 18,
    "prefecture": "福井県",
    "city": "福井市",
    "town": "江守の里"
  },
  "9188036": {
    "zipcode": "9188036",
    "prefectureCode": "18",
    "prefectureNumber": 18,
    "prefecture": "福井県",
    "city": "福井市",
    "town": "新下江守町"
  },
  "9188037": {
    "zipcode": "9188037",
    "prefectureCode": "18",
    "prefectureNumber": 18,
    "prefecture": "福井県",
    "city": "福井市",
    "town": "下江守町"
  },
  "9188041": {
    "zipcode": "9188041",
    "prefectureCode": "18",
    "prefectureNumber": 18,
    "prefecture": "福井県",
    "city": "福井市",
    "town": "西下野町"
  },
  "9188042": {
    "zipcode": "9188042",
    "prefectureCode": "18",
    "prefectureNumber": 18,
    "prefecture": "福井県",
    "city": "福井市",
    "town": "東下野町"
  },
  "9188043": {
    "zipcode": "9188043",
    "prefectureCode": "18",
    "prefectureNumber": 18,
    "prefecture": "福井県",
    "city": "福井市",
    "town": "狐橋"
  },
  "9188044": {
    "zipcode": "9188044",
    "prefectureCode": "18",
    "prefectureNumber": 18,
    "prefecture": "福井県",
    "city": "福井市",
    "town": "高塚町"
  },
  "9188045": {
    "zipcode": "9188045",
    "prefectureCode": "18",
    "prefectureNumber": 18,
    "prefecture": "福井県",
    "city": "福井市",
    "town": "福新町"
  },
  "9188046": {
    "zipcode": "9188046",
    "prefectureCode": "18",
    "prefectureNumber": 18,
    "prefecture": "福井県",
    "city": "福井市",
    "town": "運動公園"
  },
  "9188047": {
    "zipcode": "9188047",
    "prefectureCode": "18",
    "prefectureNumber": 18,
    "prefecture": "福井県",
    "city": "福井市",
    "town": "久喜津町"
  },
  "9188051": {
    "zipcode": "9188051",
    "prefectureCode": "18",
    "prefectureNumber": 18,
    "prefecture": "福井県",
    "city": "福井市",
    "town": "桃園"
  },
  "9188052": {
    "zipcode": "9188052",
    "prefectureCode": "18",
    "prefectureNumber": 18,
    "prefecture": "福井県",
    "city": "福井市",
    "town": "明里町"
  },
  "9188053": {
    "zipcode": "9188053",
    "prefectureCode": "18",
    "prefectureNumber": 18,
    "prefecture": "福井県",
    "city": "福井市",
    "town": "小山谷町"
  },
  "9188054": {
    "zipcode": "9188054",
    "prefectureCode": "18",
    "prefectureNumber": 18,
    "prefecture": "福井県",
    "city": "福井市",
    "town": "加茂河原町"
  },
  "9188055": {
    "zipcode": "9188055",
    "prefectureCode": "18",
    "prefectureNumber": 18,
    "prefecture": "福井県",
    "city": "福井市",
    "town": "若杉町"
  },
  "9188056": {
    "zipcode": "9188056",
    "prefectureCode": "18",
    "prefectureNumber": 18,
    "prefecture": "福井県",
    "city": "福井市",
    "town": "若杉浜"
  },
  "9188057": {
    "zipcode": "9188057",
    "prefectureCode": "18",
    "prefectureNumber": 18,
    "prefecture": "福井県",
    "city": "福井市",
    "town": "加茂河原"
  },
  "9188058": {
    "zipcode": "9188058",
    "prefectureCode": "18",
    "prefectureNumber": 18,
    "prefecture": "福井県",
    "city": "福井市",
    "town": "加茂緑苑町"
  },
  "9188061": {
    "zipcode": "9188061",
    "prefectureCode": "18",
    "prefectureNumber": 18,
    "prefecture": "福井県",
    "city": "福井市",
    "town": "金屋町"
  },
  "9188062": {
    "zipcode": "9188062",
    "prefectureCode": "18",
    "prefectureNumber": 18,
    "prefecture": "福井県",
    "city": "福井市",
    "town": "下市町"
  },
  "9188063": {
    "zipcode": "9188063",
    "prefectureCode": "18",
    "prefectureNumber": 18,
    "prefecture": "福井県",
    "city": "福井市",
    "town": "大瀬町"
  },
  "9188064": {
    "zipcode": "9188064",
    "prefectureCode": "18",
    "prefectureNumber": 18,
    "prefecture": "福井県",
    "city": "福井市",
    "town": "西学園"
  },
  "9188065": {
    "zipcode": "9188065",
    "prefectureCode": "18",
    "prefectureNumber": 18,
    "prefecture": "福井県",
    "city": "福井市",
    "town": "水越"
  },
  "9188066": {
    "zipcode": "9188066",
    "prefectureCode": "18",
    "prefectureNumber": 18,
    "prefecture": "福井県",
    "city": "福井市",
    "town": "渡町"
  },
  "9188067": {
    "zipcode": "9188067",
    "prefectureCode": "18",
    "prefectureNumber": 18,
    "prefecture": "福井県",
    "city": "福井市",
    "town": "飯塚町"
  },
  "9188068": {
    "zipcode": "9188068",
    "prefectureCode": "18",
    "prefectureNumber": 18,
    "prefecture": "福井県",
    "city": "福井市",
    "town": "角折町"
  },
  "9188071": {
    "zipcode": "9188071",
    "prefectureCode": "18",
    "prefectureNumber": 18,
    "prefecture": "福井県",
    "city": "福井市",
    "town": "恐神町"
  },
  "9188072": {
    "zipcode": "9188072",
    "prefectureCode": "18",
    "prefectureNumber": 18,
    "prefecture": "福井県",
    "city": "福井市",
    "town": "北堀町"
  },
  "9188073": {
    "zipcode": "9188073",
    "prefectureCode": "18",
    "prefectureNumber": 18,
    "prefecture": "福井県",
    "city": "福井市",
    "town": "安田町"
  },
  "9188074": {
    "zipcode": "9188074",
    "prefectureCode": "18",
    "prefectureNumber": 18,
    "prefecture": "福井県",
    "city": "福井市",
    "town": "細坂町"
  },
  "9188075": {
    "zipcode": "9188075",
    "prefectureCode": "18",
    "prefectureNumber": 18,
    "prefecture": "福井県",
    "city": "福井市",
    "town": "羽坂町"
  },
  "9188076": {
    "zipcode": "9188076",
    "prefectureCode": "18",
    "prefectureNumber": 18,
    "prefecture": "福井県",
    "city": "福井市",
    "town": "本堂町"
  },
  "9188077": {
    "zipcode": "9188077",
    "prefectureCode": "18",
    "prefectureNumber": 18,
    "prefecture": "福井県",
    "city": "福井市",
    "town": "末町"
  },
  "9188078": {
    "zipcode": "9188078",
    "prefectureCode": "18",
    "prefectureNumber": 18,
    "prefecture": "福井県",
    "city": "福井市",
    "town": "更毛町"
  },
  "9188081": {
    "zipcode": "9188081",
    "prefectureCode": "18",
    "prefectureNumber": 18,
    "prefecture": "福井県",
    "city": "福井市",
    "town": "上一光町"
  },
  "9188082": {
    "zipcode": "9188082",
    "prefectureCode": "18",
    "prefectureNumber": 18,
    "prefecture": "福井県",
    "city": "福井市",
    "town": "下一光町"
  },
  "9188083": {
    "zipcode": "9188083",
    "prefectureCode": "18",
    "prefectureNumber": 18,
    "prefecture": "福井県",
    "city": "福井市",
    "town": "五太子町"
  },
  "9188101": {
    "zipcode": "9188101",
    "prefectureCode": "18",
    "prefectureNumber": 18,
    "prefecture": "福井県",
    "city": "福井市",
    "town": "一本木町"
  },
  "9188102": {
    "zipcode": "9188102",
    "prefectureCode": "18",
    "prefectureNumber": 18,
    "prefecture": "福井県",
    "city": "福井市",
    "town": "西板垣町"
  },
  "9188103": {
    "zipcode": "9188103",
    "prefectureCode": "18",
    "prefectureNumber": 18,
    "prefecture": "福井県",
    "city": "福井市",
    "town": "板垣町"
  },
  "9188104": {
    "zipcode": "9188104",
    "prefectureCode": "18",
    "prefectureNumber": 18,
    "prefecture": "福井県",
    "city": "福井市",
    "town": "板垣"
  },
  "9188105": {
    "zipcode": "9188105",
    "prefectureCode": "18",
    "prefectureNumber": 18,
    "prefecture": "福井県",
    "city": "福井市",
    "town": "木田"
  },
  "9188106": {
    "zipcode": "9188106",
    "prefectureCode": "18",
    "prefectureNumber": 18,
    "prefecture": "福井県",
    "city": "福井市",
    "town": "木田町"
  },
  "9188107": {
    "zipcode": "9188107",
    "prefectureCode": "18",
    "prefectureNumber": 18,
    "prefecture": "福井県",
    "city": "福井市",
    "town": "春日町"
  },
  "9188108": {
    "zipcode": "9188108",
    "prefectureCode": "18",
    "prefectureNumber": 18,
    "prefecture": "福井県",
    "city": "福井市",
    "town": "春日"
  },
  "9188111": {
    "zipcode": "9188111",
    "prefectureCode": "18",
    "prefectureNumber": 18,
    "prefecture": "福井県",
    "city": "福井市",
    "town": "馬垣町"
  },
  "9188112": {
    "zipcode": "9188112",
    "prefectureCode": "18",
    "prefectureNumber": 18,
    "prefecture": "福井県",
    "city": "福井市",
    "town": "下馬"
  },
  "9188113": {
    "zipcode": "9188113",
    "prefectureCode": "18",
    "prefectureNumber": 18,
    "prefecture": "福井県",
    "city": "福井市",
    "town": "下馬町"
  },
  "9188114": {
    "zipcode": "9188114",
    "prefectureCode": "18",
    "prefectureNumber": 18,
    "prefecture": "福井県",
    "city": "福井市",
    "town": "羽水"
  },
  "9188115": {
    "zipcode": "9188115",
    "prefectureCode": "18",
    "prefectureNumber": 18,
    "prefecture": "福井県",
    "city": "福井市",
    "town": "別所町"
  },
  "9188116": {
    "zipcode": "9188116",
    "prefectureCode": "18",
    "prefectureNumber": 18,
    "prefecture": "福井県",
    "city": "福井市",
    "town": "大町"
  },
  "9188131": {
    "zipcode": "9188131",
    "prefectureCode": "18",
    "prefectureNumber": 18,
    "prefecture": "福井県",
    "city": "福井市",
    "town": "小稲津町"
  },
  "9188132": {
    "zipcode": "9188132",
    "prefectureCode": "18",
    "prefectureNumber": 18,
    "prefecture": "福井県",
    "city": "福井市",
    "town": "上六条町"
  },
  "9188133": {
    "zipcode": "9188133",
    "prefectureCode": "18",
    "prefectureNumber": 18,
    "prefecture": "福井県",
    "city": "福井市",
    "town": "上莇生田町"
  },
  "9188134": {
    "zipcode": "9188134",
    "prefectureCode": "18",
    "prefectureNumber": 18,
    "prefecture": "福井県",
    "city": "福井市",
    "town": "下莇生田町"
  },
  "9188135": {
    "zipcode": "9188135",
    "prefectureCode": "18",
    "prefectureNumber": 18,
    "prefecture": "福井県",
    "city": "福井市",
    "town": "下六条町"
  },
  "9188136": {
    "zipcode": "9188136",
    "prefectureCode": "18",
    "prefectureNumber": 18,
    "prefecture": "福井県",
    "city": "福井市",
    "town": "天王町"
  },
  "9188151": {
    "zipcode": "9188151",
    "prefectureCode": "18",
    "prefectureNumber": 18,
    "prefecture": "福井県",
    "city": "福井市",
    "town": "中荒井町"
  },
  "9188152": {
    "zipcode": "9188152",
    "prefectureCode": "18",
    "prefectureNumber": 18,
    "prefecture": "福井県",
    "city": "福井市",
    "town": "今市町"
  },
  "9188153": {
    "zipcode": "9188153",
    "prefectureCode": "18",
    "prefectureNumber": 18,
    "prefecture": "福井県",
    "city": "福井市",
    "town": "安保町"
  },
  "9188154": {
    "zipcode": "9188154",
    "prefectureCode": "18",
    "prefectureNumber": 18,
    "prefecture": "福井県",
    "city": "福井市",
    "town": "冬野町"
  },
  "9188155": {
    "zipcode": "9188155",
    "prefectureCode": "18",
    "prefectureNumber": 18,
    "prefecture": "福井県",
    "city": "福井市",
    "town": "杉谷町"
  },
  "9188156": {
    "zipcode": "9188156",
    "prefectureCode": "18",
    "prefectureNumber": 18,
    "prefecture": "福井県",
    "city": "福井市",
    "town": "引目町"
  },
  "9188161": {
    "zipcode": "9188161",
    "prefectureCode": "18",
    "prefectureNumber": 18,
    "prefecture": "福井県",
    "city": "福井市",
    "town": "鉾ケ崎町"
  },
  "9188162": {
    "zipcode": "9188162",
    "prefectureCode": "18",
    "prefectureNumber": 18,
    "prefecture": "福井県",
    "city": "福井市",
    "town": "角原町"
  },
  "9188163": {
    "zipcode": "9188163",
    "prefectureCode": "18",
    "prefectureNumber": 18,
    "prefecture": "福井県",
    "city": "福井市",
    "town": "生野町"
  },
  "9188164": {
    "zipcode": "9188164",
    "prefectureCode": "18",
    "prefectureNumber": 18,
    "prefecture": "福井県",
    "city": "福井市",
    "town": "三本木町"
  },
  "9188165": {
    "zipcode": "9188165",
    "prefectureCode": "18",
    "prefectureNumber": 18,
    "prefecture": "福井県",
    "city": "福井市",
    "town": "徳尾町"
  },
  "9188166": {
    "zipcode": "9188166",
    "prefectureCode": "18",
    "prefectureNumber": 18,
    "prefecture": "福井県",
    "city": "福井市",
    "town": "主計中町"
  },
  "9188171": {
    "zipcode": "9188171",
    "prefectureCode": "18",
    "prefectureNumber": 18,
    "prefecture": "福井県",
    "city": "福井市",
    "town": "森行町"
  },
  "9188172": {
    "zipcode": "9188172",
    "prefectureCode": "18",
    "prefectureNumber": 18,
    "prefecture": "福井県",
    "city": "福井市",
    "town": "末広町"
  },
  "9188173": {
    "zipcode": "9188173",
    "prefectureCode": "18",
    "prefectureNumber": 18,
    "prefecture": "福井県",
    "city": "福井市",
    "town": "下江尻町"
  },
  "9188174": {
    "zipcode": "9188174",
    "prefectureCode": "18",
    "prefectureNumber": 18,
    "prefecture": "福井県",
    "city": "福井市",
    "town": "上江尻町"
  },
  "9188175": {
    "zipcode": "9188175",
    "prefectureCode": "18",
    "prefectureNumber": 18,
    "prefecture": "福井県",
    "city": "福井市",
    "town": "江尻ケ丘町"
  },
  "9188176": {
    "zipcode": "9188176",
    "prefectureCode": "18",
    "prefectureNumber": 18,
    "prefecture": "福井県",
    "city": "福井市",
    "town": "三十八社町"
  },
  "9188181": {
    "zipcode": "9188181",
    "prefectureCode": "18",
    "prefectureNumber": 18,
    "prefecture": "福井県",
    "city": "福井市",
    "town": "浅水町"
  },
  "9188182": {
    "zipcode": "9188182",
    "prefectureCode": "18",
    "prefectureNumber": 18,
    "prefecture": "福井県",
    "city": "福井市",
    "town": "浅水二日町"
  },
  "9188183": {
    "zipcode": "9188183",
    "prefectureCode": "18",
    "prefectureNumber": 18,
    "prefecture": "福井県",
    "city": "福井市",
    "town": "浅水三ケ町"
  },
  "9188184": {
    "zipcode": "9188184",
    "prefectureCode": "18",
    "prefectureNumber": 18,
    "prefecture": "福井県",
    "city": "福井市",
    "town": "真木町"
  },
  "9188185": {
    "zipcode": "9188185",
    "prefectureCode": "18",
    "prefectureNumber": 18,
    "prefecture": "福井県",
    "city": "福井市",
    "town": "中野町"
  },
  "9188186": {
    "zipcode": "9188186",
    "prefectureCode": "18",
    "prefectureNumber": 18,
    "prefecture": "福井県",
    "city": "福井市",
    "town": "中野"
  },
  "9188187": {
    "zipcode": "9188187",
    "prefectureCode": "18",
    "prefectureNumber": 18,
    "prefecture": "福井県",
    "city": "福井市",
    "town": "花守町"
  },
  "9188188": {
    "zipcode": "9188188",
    "prefectureCode": "18",
    "prefectureNumber": 18,
    "prefecture": "福井県",
    "city": "福井市",
    "town": "三尾野町"
  },
  "9188201": {
    "zipcode": "9188201",
    "prefectureCode": "18",
    "prefectureNumber": 18,
    "prefecture": "福井県",
    "city": "福井市",
    "town": "南四ツ居町"
  },
  "9188202": {
    "zipcode": "9188202",
    "prefectureCode": "18",
    "prefectureNumber": 18,
    "prefecture": "福井県",
    "city": "福井市",
    "town": "大東"
  },
  "9188203": {
    "zipcode": "9188203",
    "prefectureCode": "18",
    "prefectureNumber": 18,
    "prefecture": "福井県",
    "city": "福井市",
    "town": "上北野"
  },
  "9188204": {
    "zipcode": "9188204",
    "prefectureCode": "18",
    "prefectureNumber": 18,
    "prefecture": "福井県",
    "city": "福井市",
    "town": "南四ツ居"
  },
  "9188205": {
    "zipcode": "9188205",
    "prefectureCode": "18",
    "prefectureNumber": 18,
    "prefecture": "福井県",
    "city": "福井市",
    "town": "北四ツ居"
  },
  "9188206": {
    "zipcode": "9188206",
    "prefectureCode": "18",
    "prefectureNumber": 18,
    "prefecture": "福井県",
    "city": "福井市",
    "town": "北四ツ居町"
  },
  "9188207": {
    "zipcode": "9188207",
    "prefectureCode": "18",
    "prefectureNumber": 18,
    "prefecture": "福井県",
    "city": "福井市",
    "town": "円山"
  },
  "9188211": {
    "zipcode": "9188211",
    "prefectureCode": "18",
    "prefectureNumber": 18,
    "prefecture": "福井県",
    "city": "福井市",
    "town": "下中町"
  },
  "9188212": {
    "zipcode": "9188212",
    "prefectureCode": "18",
    "prefectureNumber": 18,
    "prefecture": "福井県",
    "city": "福井市",
    "town": "北今泉町"
  },
  "9188213": {
    "zipcode": "9188213",
    "prefectureCode": "18",
    "prefectureNumber": 18,
    "prefecture": "福井県",
    "city": "福井市",
    "town": "今泉町"
  },
  "9188214": {
    "zipcode": "9188214",
    "prefectureCode": "18",
    "prefectureNumber": 18,
    "prefecture": "福井県",
    "city": "福井市",
    "town": "東今泉町"
  },
  "9188215": {
    "zipcode": "9188215",
    "prefectureCode": "18",
    "prefectureNumber": 18,
    "prefecture": "福井県",
    "city": "福井市",
    "town": "寮町"
  },
  "9188216": {
    "zipcode": "9188216",
    "prefectureCode": "18",
    "prefectureNumber": 18,
    "prefecture": "福井県",
    "city": "福井市",
    "town": "殿下町"
  },
  "9188217": {
    "zipcode": "9188217",
    "prefectureCode": "18",
    "prefectureNumber": 18,
    "prefecture": "福井県",
    "city": "福井市",
    "town": "印田町"
  },
  "9188218": {
    "zipcode": "9188218",
    "prefectureCode": "18",
    "prefectureNumber": 18,
    "prefecture": "福井県",
    "city": "福井市",
    "town": "河増町"
  },
  "9188219": {
    "zipcode": "9188219",
    "prefectureCode": "18",
    "prefectureNumber": 18,
    "prefecture": "福井県",
    "city": "福井市",
    "town": "フェア河増"
  },
  "9188221": {
    "zipcode": "9188221",
    "prefectureCode": "18",
    "prefectureNumber": 18,
    "prefecture": "福井県",
    "city": "福井市",
    "town": "堅達町"
  },
  "9188222": {
    "zipcode": "9188222",
    "prefectureCode": "18",
    "prefectureNumber": 18,
    "prefecture": "福井県",
    "city": "福井市",
    "town": "坂下町"
  },
  "9188223": {
    "zipcode": "9188223",
    "prefectureCode": "18",
    "prefectureNumber": 18,
    "prefecture": "福井県",
    "city": "福井市",
    "town": "河水町"
  },
  "9188224": {
    "zipcode": "9188224",
    "prefectureCode": "18",
    "prefectureNumber": 18,
    "prefecture": "福井県",
    "city": "福井市",
    "town": "花野谷町"
  },
  "9188225": {
    "zipcode": "9188225",
    "prefectureCode": "18",
    "prefectureNumber": 18,
    "prefecture": "福井県",
    "city": "福井市",
    "town": "宮地町"
  },
  "9188226": {
    "zipcode": "9188226",
    "prefectureCode": "18",
    "prefectureNumber": 18,
    "prefecture": "福井県",
    "city": "福井市",
    "town": "大畑町"
  },
  "9188227": {
    "zipcode": "9188227",
    "prefectureCode": "18",
    "prefectureNumber": 18,
    "prefecture": "福井県",
    "city": "福井市",
    "town": "次郎丸町"
  },
  "9188228": {
    "zipcode": "9188228",
    "prefectureCode": "18",
    "prefectureNumber": 18,
    "prefecture": "福井県",
    "city": "福井市",
    "town": "岡西谷町"
  },
  "9188231": {
    "zipcode": "9188231",
    "prefectureCode": "18",
    "prefectureNumber": 18,
    "prefecture": "福井県",
    "city": "福井市",
    "town": "問屋町"
  },
  "9188232": {
    "zipcode": "9188232",
    "prefectureCode": "18",
    "prefectureNumber": 18,
    "prefecture": "福井県",
    "city": "福井市",
    "town": "荒木別所町"
  },
  "9188233": {
    "zipcode": "9188233",
    "prefectureCode": "18",
    "prefectureNumber": 18,
    "prefecture": "福井県",
    "city": "福井市",
    "town": "合島町"
  },
  "9188234": {
    "zipcode": "9188234",
    "prefectureCode": "18",
    "prefectureNumber": 18,
    "prefecture": "福井県",
    "city": "福井市",
    "town": "曽万布町"
  },
  "9188235": {
    "zipcode": "9188235",
    "prefectureCode": "18",
    "prefectureNumber": 18,
    "prefecture": "福井県",
    "city": "福井市",
    "town": "和田中町"
  },
  "9188236": {
    "zipcode": "9188236",
    "prefectureCode": "18",
    "prefectureNumber": 18,
    "prefecture": "福井県",
    "city": "福井市",
    "town": "和田中"
  },
  "9188237": {
    "zipcode": "9188237",
    "prefectureCode": "18",
    "prefectureNumber": 18,
    "prefecture": "福井県",
    "city": "福井市",
    "town": "和田東"
  },
  "9188238": {
    "zipcode": "9188238",
    "prefectureCode": "18",
    "prefectureNumber": 18,
    "prefecture": "福井県",
    "city": "福井市",
    "town": "和田"
  },
  "9188239": {
    "zipcode": "9188239",
    "prefectureCode": "18",
    "prefectureNumber": 18,
    "prefecture": "福井県",
    "city": "福井市",
    "town": "成和"
  }
}
