{
  "9210000": {
    "zipcode": "9210000",
    "prefectureCode": "17",
    "prefectureNumber": 17,
    "prefecture": "石川県",
    "city": "野々市市",
    "town": "以下に掲載がない場合"
  },
  "9218001": {
    "zipcode": "9218001",
    "prefectureCode": "17",
    "prefectureNumber": 17,
    "prefecture": "石川県",
    "city": "金沢市",
    "town": "高畠"
  },
  "9218002": {
    "zipcode": "9218002",
    "prefectureCode": "17",
    "prefectureNumber": 17,
    "prefecture": "石川県",
    "city": "金沢市",
    "town": "玉鉾"
  },
  "9218003": {
    "zipcode": "9218003",
    "prefectureCode": "17",
    "prefectureNumber": 17,
    "prefecture": "石川県",
    "city": "金沢市",
    "town": "玉鉾町"
  },
  "9218004": {
    "zipcode": "9218004",
    "prefectureCode": "17",
    "prefectureNumber": 17,
    "prefecture": "石川県",
    "city": "金沢市",
    "town": "米丸町"
  },
  "9218005": {
    "zipcode": "9218005",
    "prefectureCode": "17",
    "prefectureNumber": 17,
    "prefecture": "石川県",
    "city": "金沢市",
    "town": "間明町"
  },
  "9218006": {
    "zipcode": "9218006",
    "prefectureCode": "17",
    "prefectureNumber": 17,
    "prefecture": "石川県",
    "city": "金沢市",
    "town": "進和町"
  },
  "9218011": {
    "zipcode": "9218011",
    "prefectureCode": "17",
    "prefectureNumber": 17,
    "prefecture": "石川県",
    "city": "金沢市",
    "town": "入江"
  },
  "9218012": {
    "zipcode": "9218012",
    "prefectureCode": "17",
    "prefectureNumber": 17,
    "prefecture": "石川県",
    "city": "金沢市",
    "town": "本江町"
  },
  "9218013": {
    "zipcode": "9218013",
    "prefectureCode": "17",
    "prefectureNumber": 17,
    "prefecture": "石川県",
    "city": "金沢市",
    "town": "新神田"
  },
  "9218014": {
    "zipcode": "9218014",
    "prefectureCode": "17",
    "prefectureNumber": 17,
    "prefecture": "石川県",
    "city": "金沢市",
    "town": "糸田"
  },
  "9218015": {
    "zipcode": "9218015",
    "prefectureCode": "17",
    "prefectureNumber": 17,
    "prefecture": "石川県",
    "city": "金沢市",
    "town": "東力"
  },
  "9218016": {
    "zipcode": "9218016",
    "prefectureCode": "17",
    "prefectureNumber": 17,
    "prefecture": "石川県",
    "city": "金沢市",
    "town": "東力町"
  },
  "9218021": {
    "zipcode": "9218021",
    "prefectureCode": "17",
    "prefectureNumber": 17,
    "prefecture": "石川県",
    "city": "金沢市",
    "town": "御影町"
  },
  "9218022": {
    "zipcode": "9218022",
    "prefectureCode": "17",
    "prefectureNumber": 17,
    "prefecture": "石川県",
    "city": "金沢市",
    "town": "中村町"
  },
  "9218023": {
    "zipcode": "9218023",
    "prefectureCode": "17",
    "prefectureNumber": 17,
    "prefecture": "石川県",
    "city": "金沢市",
    "town": "千日町"
  },
  "9218024": {
    "zipcode": "9218024",
    "prefectureCode": "17",
    "prefectureNumber": 17,
    "prefecture": "石川県",
    "city": "金沢市",
    "town": "白菊町"
  },
  "9218025": {
    "zipcode": "9218025",
    "prefectureCode": "17",
    "prefectureNumber": 17,
    "prefecture": "石川県",
    "city": "金沢市",
    "town": "増泉"
  },
  "9218026": {
    "zipcode": "9218026",
    "prefectureCode": "17",
    "prefectureNumber": 17,
    "prefecture": "石川県",
    "city": "金沢市",
    "town": "糸田新町"
  },
  "9218027": {
    "zipcode": "9218027",
    "prefectureCode": "17",
    "prefectureNumber": 17,
    "prefecture": "石川県",
    "city": "金沢市",
    "town": "神田"
  },
  "9218031": {
    "zipcode": "9218031",
    "prefectureCode": "17",
    "prefectureNumber": 17,
    "prefecture": "石川県",
    "city": "金沢市",
    "town": "野町"
  },
  "9218032": {
    "zipcode": "9218032",
    "prefectureCode": "17",
    "prefectureNumber": 17,
    "prefecture": "石川県",
    "city": "金沢市",
    "town": "清川町"
  },
  "9218033": {
    "zipcode": "9218033",
    "prefectureCode": "17",
    "prefectureNumber": 17,
    "prefecture": "石川県",
    "city": "金沢市",
    "town": "寺町"
  },
  "9218034": {
    "zipcode": "9218034",
    "prefectureCode": "17",
    "prefectureNumber": 17,
    "prefecture": "石川県",
    "city": "金沢市",
    "town": "泉野町"
  },
  "9218035": {
    "zipcode": "9218035",
    "prefectureCode": "17",
    "prefectureNumber": 17,
    "prefecture": "石川県",
    "city": "金沢市",
    "town": "泉が丘"
  },
  "9218036": {
    "zipcode": "9218036",
    "prefectureCode": "17",
    "prefectureNumber": 17,
    "prefecture": "石川県",
    "city": "金沢市",
    "town": "弥生"
  },
  "9218041": {
    "zipcode": "9218041",
    "prefectureCode": "17",
    "prefectureNumber": 17,
    "prefecture": "石川県",
    "city": "金沢市",
    "town": "泉"
  },
  "9218042": {
    "zipcode": "9218042",
    "prefectureCode": "17",
    "prefectureNumber": 17,
    "prefecture": "石川県",
    "city": "金沢市",
    "town": "泉本町"
  },
  "9218043": {
    "zipcode": "9218043",
    "prefectureCode": "17",
    "prefectureNumber": 17,
    "prefecture": "石川県",
    "city": "金沢市",
    "town": "西泉"
  },
  "9218044": {
    "zipcode": "9218044",
    "prefectureCode": "17",
    "prefectureNumber": 17,
    "prefecture": "石川県",
    "city": "金沢市",
    "town": "米泉町"
  },
  "9218045": {
    "zipcode": "9218045",
    "prefectureCode": "17",
    "prefectureNumber": 17,
    "prefecture": "石川県",
    "city": "金沢市",
    "town": "大桑"
  },
  "9218046": {
    "zipcode": "9218046",
    "prefectureCode": "17",
    "prefectureNumber": 17,
    "prefecture": "石川県",
    "city": "金沢市",
    "town": "三小牛町（ヘ）"
  },
  "9218047": {
    "zipcode": "9218047",
    "prefectureCode": "17",
    "prefectureNumber": 17,
    "prefecture": "石川県",
    "city": "金沢市",
    "town": "大豆田本町（ハ、ロ）"
  },
  "9218051": {
    "zipcode": "9218051",
    "prefectureCode": "17",
    "prefectureNumber": 17,
    "prefecture": "石川県",
    "city": "金沢市",
    "town": "黒田"
  },
  "9218052": {
    "zipcode": "9218052",
    "prefectureCode": "17",
    "prefectureNumber": 17,
    "prefecture": "石川県",
    "city": "金沢市",
    "town": "保古"
  },
  "9218053": {
    "zipcode": "9218053",
    "prefectureCode": "17",
    "prefectureNumber": 17,
    "prefecture": "石川県",
    "city": "金沢市",
    "town": "保古町"
  },
  "9218054": {
    "zipcode": "9218054",
    "prefectureCode": "17",
    "prefectureNumber": 17,
    "prefecture": "石川県",
    "city": "金沢市",
    "town": "西金沢"
  },
  "9218055": {
    "zipcode": "9218055",
    "prefectureCode": "17",
    "prefectureNumber": 17,
    "prefecture": "石川県",
    "city": "金沢市",
    "town": "西金沢新町"
  },
  "9218056": {
    "zipcode": "9218056",
    "prefectureCode": "17",
    "prefectureNumber": 17,
    "prefecture": "石川県",
    "city": "金沢市",
    "town": "押野"
  },
  "9218061": {
    "zipcode": "9218061",
    "prefectureCode": "17",
    "prefectureNumber": 17,
    "prefecture": "石川県",
    "city": "金沢市",
    "town": "森戸"
  },
  "9218062": {
    "zipcode": "9218062",
    "prefectureCode": "17",
    "prefectureNumber": 17,
    "prefecture": "石川県",
    "city": "金沢市",
    "town": "新保本"
  },
  "9218063": {
    "zipcode": "9218063",
    "prefectureCode": "17",
    "prefectureNumber": 17,
    "prefecture": "石川県",
    "city": "金沢市",
    "town": "八日市出町"
  },
  "9218064": {
    "zipcode": "9218064",
    "prefectureCode": "17",
    "prefectureNumber": 17,
    "prefecture": "石川県",
    "city": "金沢市",
    "town": "八日市"
  },
  "9218065": {
    "zipcode": "9218065",
    "prefectureCode": "17",
    "prefectureNumber": 17,
    "prefecture": "石川県",
    "city": "金沢市",
    "town": "上荒屋"
  },
  "9218066": {
    "zipcode": "9218066",
    "prefectureCode": "17",
    "prefectureNumber": 17,
    "prefecture": "石川県",
    "city": "金沢市",
    "town": "矢木"
  },
  "9218101": {
    "zipcode": "9218101",
    "prefectureCode": "17",
    "prefectureNumber": 17,
    "prefecture": "石川県",
    "city": "金沢市",
    "town": "法島町"
  },
  "9218102": {
    "zipcode": "9218102",
    "prefectureCode": "17",
    "prefectureNumber": 17,
    "prefecture": "石川県",
    "city": "金沢市",
    "town": "西大桑町"
  },
  "9218103": {
    "zipcode": "9218103",
    "prefectureCode": "17",
    "prefectureNumber": 17,
    "prefecture": "石川県",
    "city": "金沢市",
    "town": "つつじが丘"
  },
  "9218104": {
    "zipcode": "9218104",
    "prefectureCode": "17",
    "prefectureNumber": 17,
    "prefecture": "石川県",
    "city": "金沢市",
    "town": "野田町"
  },
  "9218105": {
    "zipcode": "9218105",
    "prefectureCode": "17",
    "prefectureNumber": 17,
    "prefecture": "石川県",
    "city": "金沢市",
    "town": "平和町"
  },
  "9218106": {
    "zipcode": "9218106",
    "prefectureCode": "17",
    "prefectureNumber": 17,
    "prefecture": "石川県",
    "city": "金沢市",
    "town": "十一屋町"
  },
  "9218107": {
    "zipcode": "9218107",
    "prefectureCode": "17",
    "prefectureNumber": 17,
    "prefecture": "石川県",
    "city": "金沢市",
    "town": "野田"
  },
  "9218111": {
    "zipcode": "9218111",
    "prefectureCode": "17",
    "prefectureNumber": 17,
    "prefecture": "石川県",
    "city": "金沢市",
    "town": "若草町"
  },
  "9218112": {
    "zipcode": "9218112",
    "prefectureCode": "17",
    "prefectureNumber": 17,
    "prefecture": "石川県",
    "city": "金沢市",
    "town": "長坂"
  },
  "9218114": {
    "zipcode": "9218114",
    "prefectureCode": "17",
    "prefectureNumber": 17,
    "prefecture": "石川県",
    "city": "金沢市",
    "town": "長坂町"
  },
  "9218115": {
    "zipcode": "9218115",
    "prefectureCode": "17",
    "prefectureNumber": 17,
    "prefecture": "石川県",
    "city": "金沢市",
    "town": "長坂台"
  },
  "9218116": {
    "zipcode": "9218116",
    "prefectureCode": "17",
    "prefectureNumber": 17,
    "prefecture": "石川県",
    "city": "金沢市",
    "town": "泉野出町"
  },
  "9218117": {
    "zipcode": "9218117",
    "prefectureCode": "17",
    "prefectureNumber": 17,
    "prefecture": "石川県",
    "city": "金沢市",
    "town": "緑が丘"
  },
  "9218121": {
    "zipcode": "9218121",
    "prefectureCode": "17",
    "prefectureNumber": 17,
    "prefecture": "石川県",
    "city": "金沢市",
    "town": "平栗"
  },
  "9218122": {
    "zipcode": "9218122",
    "prefectureCode": "17",
    "prefectureNumber": 17,
    "prefecture": "石川県",
    "city": "金沢市",
    "town": "清瀬町"
  },
  "9218123": {
    "zipcode": "9218123",
    "prefectureCode": "17",
    "prefectureNumber": 17,
    "prefecture": "石川県",
    "city": "金沢市",
    "town": "坪野町"
  },
  "9218124": {
    "zipcode": "9218124",
    "prefectureCode": "17",
    "prefectureNumber": 17,
    "prefecture": "石川県",
    "city": "金沢市",
    "town": "倉ケ嶽"
  },
  "9218131": {
    "zipcode": "9218131",
    "prefectureCode": "17",
    "prefectureNumber": 17,
    "prefecture": "石川県",
    "city": "金沢市",
    "town": "三十苅町"
  },
  "9218132": {
    "zipcode": "9218132",
    "prefectureCode": "17",
    "prefectureNumber": 17,
    "prefecture": "石川県",
    "city": "金沢市",
    "town": "しじま台"
  },
  "9218133": {
    "zipcode": "9218133",
    "prefectureCode": "17",
    "prefectureNumber": 17,
    "prefecture": "石川県",
    "city": "金沢市",
    "town": "四十万町"
  },
  "9218134": {
    "zipcode": "9218134",
    "prefectureCode": "17",
    "prefectureNumber": 17,
    "prefecture": "石川県",
    "city": "金沢市",
    "town": "南四十万"
  },
  "9218135": {
    "zipcode": "9218135",
    "prefectureCode": "17",
    "prefectureNumber": 17,
    "prefecture": "石川県",
    "city": "金沢市",
    "town": "四十万"
  },
  "9218141": {
    "zipcode": "9218141",
    "prefectureCode": "17",
    "prefectureNumber": 17,
    "prefecture": "石川県",
    "city": "金沢市",
    "town": "馬替"
  },
  "9218142": {
    "zipcode": "9218142",
    "prefectureCode": "17",
    "prefectureNumber": 17,
    "prefecture": "石川県",
    "city": "金沢市",
    "town": "光が丘"
  },
  "9218143": {
    "zipcode": "9218143",
    "prefectureCode": "17",
    "prefectureNumber": 17,
    "prefecture": "石川県",
    "city": "金沢市",
    "town": "大額町"
  },
  "9218144": {
    "zipcode": "9218144",
    "prefectureCode": "17",
    "prefectureNumber": 17,
    "prefecture": "石川県",
    "city": "金沢市",
    "town": "額谷町"
  },
  "9218145": {
    "zipcode": "9218145",
    "prefectureCode": "17",
    "prefectureNumber": 17,
    "prefecture": "石川県",
    "city": "金沢市",
    "town": "額谷"
  },
  "9218146": {
    "zipcode": "9218146",
    "prefectureCode": "17",
    "prefectureNumber": 17,
    "prefecture": "石川県",
    "city": "金沢市",
    "town": "額乙丸町"
  },
  "9218147": {
    "zipcode": "9218147",
    "prefectureCode": "17",
    "prefectureNumber": 17,
    "prefecture": "石川県",
    "city": "金沢市",
    "town": "大額"
  },
  "9218148": {
    "zipcode": "9218148",
    "prefectureCode": "17",
    "prefectureNumber": 17,
    "prefecture": "石川県",
    "city": "金沢市",
    "town": "額新保"
  },
  "9218149": {
    "zipcode": "9218149",
    "prefectureCode": "17",
    "prefectureNumber": 17,
    "prefecture": "石川県",
    "city": "金沢市",
    "town": "額新町"
  },
  "9218151": {
    "zipcode": "9218151",
    "prefectureCode": "17",
    "prefectureNumber": 17,
    "prefecture": "石川県",
    "city": "金沢市",
    "town": "窪"
  },
  "9218152": {
    "zipcode": "9218152",
    "prefectureCode": "17",
    "prefectureNumber": 17,
    "prefecture": "石川県",
    "city": "金沢市",
    "town": "高尾"
  },
  "9218153": {
    "zipcode": "9218153",
    "prefectureCode": "17",
    "prefectureNumber": 17,
    "prefecture": "石川県",
    "city": "金沢市",
    "town": "高尾町"
  },
  "9218154": {
    "zipcode": "9218154",
    "prefectureCode": "17",
    "prefectureNumber": 17,
    "prefecture": "石川県",
    "city": "金沢市",
    "town": "高尾南"
  },
  "9218155": {
    "zipcode": "9218155",
    "prefectureCode": "17",
    "prefectureNumber": 17,
    "prefecture": "石川県",
    "city": "金沢市",
    "town": "高尾台"
  },
  "9218161": {
    "zipcode": "9218161",
    "prefectureCode": "17",
    "prefectureNumber": 17,
    "prefecture": "石川県",
    "city": "金沢市",
    "town": "有松"
  },
  "9218162": {
    "zipcode": "9218162",
    "prefectureCode": "17",
    "prefectureNumber": 17,
    "prefecture": "石川県",
    "city": "金沢市",
    "town": "三馬"
  },
  "9218163": {
    "zipcode": "9218163",
    "prefectureCode": "17",
    "prefectureNumber": 17,
    "prefecture": "石川県",
    "city": "金沢市",
    "town": "横川"
  },
  "9218164": {
    "zipcode": "9218164",
    "prefectureCode": "17",
    "prefectureNumber": 17,
    "prefecture": "石川県",
    "city": "金沢市",
    "town": "久安"
  },
  "9218171": {
    "zipcode": "9218171",
    "prefectureCode": "17",
    "prefectureNumber": 17,
    "prefecture": "石川県",
    "city": "金沢市",
    "town": "富樫"
  },
  "9218172": {
    "zipcode": "9218172",
    "prefectureCode": "17",
    "prefectureNumber": 17,
    "prefecture": "石川県",
    "city": "金沢市",
    "town": "伏見新町"
  },
  "9218173": {
    "zipcode": "9218173",
    "prefectureCode": "17",
    "prefectureNumber": 17,
    "prefecture": "石川県",
    "city": "金沢市",
    "town": "円光寺"
  },
  "9218174": {
    "zipcode": "9218174",
    "prefectureCode": "17",
    "prefectureNumber": 17,
    "prefecture": "石川県",
    "city": "金沢市",
    "town": "山科町"
  },
  "9218175": {
    "zipcode": "9218175",
    "prefectureCode": "17",
    "prefectureNumber": 17,
    "prefecture": "石川県",
    "city": "金沢市",
    "town": "山科"
  },
  "9218176": {
    "zipcode": "9218176",
    "prefectureCode": "17",
    "prefectureNumber": 17,
    "prefecture": "石川県",
    "city": "金沢市",
    "town": "円光寺本町"
  },
  "9218177": {
    "zipcode": "9218177",
    "prefectureCode": "17",
    "prefectureNumber": 17,
    "prefecture": "石川県",
    "city": "金沢市",
    "town": "伏見台"
  },
  "9218178": {
    "zipcode": "9218178",
    "prefectureCode": "17",
    "prefectureNumber": 17,
    "prefecture": "石川県",
    "city": "金沢市",
    "town": "寺地"
  },
  "9218801": {
    "zipcode": "9218801",
    "prefectureCode": "17",
    "prefectureNumber": 17,
    "prefecture": "石川県",
    "city": "野々市市",
    "town": "御経塚"
  },
  "9218802": {
    "zipcode": "9218802",
    "prefectureCode": "17",
    "prefectureNumber": 17,
    "prefecture": "石川県",
    "city": "野々市市",
    "town": "押野"
  },
  "9218803": {
    "zipcode": "9218803",
    "prefectureCode": "17",
    "prefectureNumber": 17,
    "prefecture": "石川県",
    "city": "野々市市",
    "town": "押越"
  },
  "9218804": {
    "zipcode": "9218804",
    "prefectureCode": "17",
    "prefectureNumber": 17,
    "prefecture": "石川県",
    "city": "野々市市",
    "town": "野代"
  },
  "9218805": {
    "zipcode": "9218805",
    "prefectureCode": "17",
    "prefectureNumber": 17,
    "prefecture": "石川県",
    "city": "野々市市",
    "town": "稲荷"
  },
  "9218806": {
    "zipcode": "9218806",
    "prefectureCode": "17",
    "prefectureNumber": 17,
    "prefecture": "石川県",
    "city": "野々市市",
    "town": "三日市"
  },
  "9218807": {
    "zipcode": "9218807",
    "prefectureCode": "17",
    "prefectureNumber": 17,
    "prefecture": "石川県",
    "city": "野々市市",
    "town": "二日市町"
  },
  "9218808": {
    "zipcode": "9218808",
    "prefectureCode": "17",
    "prefectureNumber": 17,
    "prefecture": "石川県",
    "city": "野々市市",
    "town": "長池"
  },
  "9218809": {
    "zipcode": "9218809",
    "prefectureCode": "17",
    "prefectureNumber": 17,
    "prefecture": "石川県",
    "city": "野々市市",
    "town": "二日市"
  },
  "9218811": {
    "zipcode": "9218811",
    "prefectureCode": "17",
    "prefectureNumber": 17,
    "prefecture": "石川県",
    "city": "野々市市",
    "town": "高橋町"
  },
  "9218812": {
    "zipcode": "9218812",
    "prefectureCode": "17",
    "prefectureNumber": 17,
    "prefecture": "石川県",
    "city": "野々市市",
    "town": "扇が丘"
  },
  "9218813": {
    "zipcode": "9218813",
    "prefectureCode": "17",
    "prefectureNumber": 17,
    "prefecture": "石川県",
    "city": "野々市市",
    "town": "住吉町"
  },
  "9218814": {
    "zipcode": "9218814",
    "prefectureCode": "17",
    "prefectureNumber": 17,
    "prefecture": "石川県",
    "city": "野々市市",
    "town": "菅原町"
  },
  "9218815": {
    "zipcode": "9218815",
    "prefectureCode": "17",
    "prefectureNumber": 17,
    "prefecture": "石川県",
    "city": "野々市市",
    "town": "本町"
  },
  "9218816": {
    "zipcode": "9218816",
    "prefectureCode": "17",
    "prefectureNumber": 17,
    "prefecture": "石川県",
    "city": "野々市市",
    "town": "若松町"
  },
  "9218817": {
    "zipcode": "9218817",
    "prefectureCode": "17",
    "prefectureNumber": 17,
    "prefecture": "石川県",
    "city": "野々市市",
    "town": "横宮町"
  },
  "9218821": {
    "zipcode": "9218821",
    "prefectureCode": "17",
    "prefectureNumber": 17,
    "prefecture": "石川県",
    "city": "野々市市",
    "town": "白山町"
  },
  "9218822": {
    "zipcode": "9218822",
    "prefectureCode": "17",
    "prefectureNumber": 17,
    "prefecture": "石川県",
    "city": "野々市市",
    "town": "矢作"
  },
  "9218823": {
    "zipcode": "9218823",
    "prefectureCode": "17",
    "prefectureNumber": 17,
    "prefecture": "石川県",
    "city": "野々市市",
    "town": "粟田"
  },
  "9218824": {
    "zipcode": "9218824",
    "prefectureCode": "17",
    "prefectureNumber": 17,
    "prefecture": "石川県",
    "city": "野々市市",
    "town": "新庄"
  },
  "9218825": {
    "zipcode": "9218825",
    "prefectureCode": "17",
    "prefectureNumber": 17,
    "prefecture": "石川県",
    "city": "野々市市",
    "town": "三納"
  },
  "9218831": {
    "zipcode": "9218831",
    "prefectureCode": "17",
    "prefectureNumber": 17,
    "prefecture": "石川県",
    "city": "野々市市",
    "town": "下林"
  },
  "9218832": {
    "zipcode": "9218832",
    "prefectureCode": "17",
    "prefectureNumber": 17,
    "prefecture": "石川県",
    "city": "野々市市",
    "town": "藤平田"
  },
  "9218833": {
    "zipcode": "9218833",
    "prefectureCode": "17",
    "prefectureNumber": 17,
    "prefecture": "石川県",
    "city": "野々市市",
    "town": "藤平"
  },
  "9218834": {
    "zipcode": "9218834",
    "prefectureCode": "17",
    "prefectureNumber": 17,
    "prefecture": "石川県",
    "city": "野々市市",
    "town": "中林"
  },
  "9218835": {
    "zipcode": "9218835",
    "prefectureCode": "17",
    "prefectureNumber": 17,
    "prefecture": "石川県",
    "city": "野々市市",
    "town": "上林"
  },
  "9218836": {
    "zipcode": "9218836",
    "prefectureCode": "17",
    "prefectureNumber": 17,
    "prefecture": "石川県",
    "city": "野々市市",
    "town": "末松"
  },
  "9218837": {
    "zipcode": "9218837",
    "prefectureCode": "17",
    "prefectureNumber": 17,
    "prefecture": "石川県",
    "city": "野々市市",
    "town": "清金"
  },
  "9218841": {
    "zipcode": "9218841",
    "prefectureCode": "17",
    "prefectureNumber": 17,
    "prefecture": "石川県",
    "city": "野々市市",
    "town": "郷町"
  },
  "9218842": {
    "zipcode": "9218842",
    "prefectureCode": "17",
    "prefectureNumber": 17,
    "prefecture": "石川県",
    "city": "野々市市",
    "town": "徳用"
  },
  "9218843": {
    "zipcode": "9218843",
    "prefectureCode": "17",
    "prefectureNumber": 17,
    "prefecture": "石川県",
    "city": "野々市市",
    "town": "田尻町"
  },
  "9218844": {
    "zipcode": "9218844",
    "prefectureCode": "17",
    "prefectureNumber": 17,
    "prefecture": "石川県",
    "city": "野々市市",
    "town": "堀内"
  },
  "9218845": {
    "zipcode": "9218845",
    "prefectureCode": "17",
    "prefectureNumber": 17,
    "prefecture": "石川県",
    "city": "野々市市",
    "town": "太平寺"
  },
  "9218846": {
    "zipcode": "9218846",
    "prefectureCode": "17",
    "prefectureNumber": 17,
    "prefecture": "石川県",
    "city": "野々市市",
    "town": "位川"
  },
  "9218847": {
    "zipcode": "9218847",
    "prefectureCode": "17",
    "prefectureNumber": 17,
    "prefecture": "石川県",
    "city": "野々市市",
    "town": "蓮花寺町"
  },
  "9218848": {
    "zipcode": "9218848",
    "prefectureCode": "17",
    "prefectureNumber": 17,
    "prefecture": "石川県",
    "city": "野々市市",
    "town": "柳町"
  },
  "9218849": {
    "zipcode": "9218849",
    "prefectureCode": "17",
    "prefectureNumber": 17,
    "prefecture": "石川県",
    "city": "野々市市",
    "town": "郷"
  }
}
