{
  "9220000": {
    "zipcode": "9220000",
    "prefectureCode": "17",
    "prefectureNumber": 17,
    "prefecture": "石川県",
    "city": "加賀市",
    "town": "以下に掲載がない場合"
  },
  "9220001": {
    "zipcode": "9220001",
    "prefectureCode": "17",
    "prefectureNumber": 17,
    "prefecture": "石川県",
    "city": "加賀市",
    "town": "大聖寺上木町"
  },
  "9220002": {
    "zipcode": "9220002",
    "prefectureCode": "17",
    "prefectureNumber": 17,
    "prefecture": "石川県",
    "city": "加賀市",
    "town": "大聖寺下福田町"
  },
  "9220003": {
    "zipcode": "9220003",
    "prefectureCode": "17",
    "prefectureNumber": 17,
    "prefecture": "石川県",
    "city": "加賀市",
    "town": "大聖寺荻生町"
  },
  "9220004": {
    "zipcode": "9220004",
    "prefectureCode": "17",
    "prefectureNumber": 17,
    "prefecture": "石川県",
    "city": "加賀市",
    "town": "豊町（ハ）"
  },
  "9220005": {
    "zipcode": "9220005",
    "prefectureCode": "17",
    "prefectureNumber": 17,
    "prefecture": "石川県",
    "city": "加賀市",
    "town": "大聖寺岡町"
  },
  "9220006": {
    "zipcode": "9220006",
    "prefectureCode": "17",
    "prefectureNumber": 17,
    "prefecture": "石川県",
    "city": "加賀市",
    "town": "大聖寺藤ノ木町"
  },
  "9220007": {
    "zipcode": "9220007",
    "prefectureCode": "17",
    "prefectureNumber": 17,
    "prefecture": "石川県",
    "city": "加賀市",
    "town": "大聖寺天神下町"
  },
  "9220011": {
    "zipcode": "9220011",
    "prefectureCode": "17",
    "prefectureNumber": 17,
    "prefecture": "石川県",
    "city": "加賀市",
    "town": "大聖寺平床"
  },
  "9220012": {
    "zipcode": "9220012",
    "prefectureCode": "17",
    "prefectureNumber": 17,
    "prefecture": "石川県",
    "city": "加賀市",
    "town": "下河崎町"
  },
  "9220013": {
    "zipcode": "9220013",
    "prefectureCode": "17",
    "prefectureNumber": 17,
    "prefecture": "石川県",
    "city": "加賀市",
    "town": "上河崎町"
  },
  "9220014": {
    "zipcode": "9220014",
    "prefectureCode": "17",
    "prefectureNumber": 17,
    "prefecture": "石川県",
    "city": "加賀市",
    "town": "中代町"
  },
  "9220015": {
    "zipcode": "9220015",
    "prefectureCode": "17",
    "prefectureNumber": 17,
    "prefecture": "石川県",
    "city": "加賀市",
    "town": "保賀町"
  },
  "9220021": {
    "zipcode": "9220021",
    "prefectureCode": "17",
    "prefectureNumber": 17,
    "prefecture": "石川県",
    "city": "加賀市",
    "town": "大聖寺新栄町"
  },
  "9220022": {
    "zipcode": "9220022",
    "prefectureCode": "17",
    "prefectureNumber": 17,
    "prefecture": "石川県",
    "city": "加賀市",
    "town": "大聖寺曙町"
  },
  "9220023": {
    "zipcode": "9220023",
    "prefectureCode": "17",
    "prefectureNumber": 17,
    "prefecture": "石川県",
    "city": "加賀市",
    "town": "大聖寺大名竹町"
  },
  "9220024": {
    "zipcode": "9220024",
    "prefectureCode": "17",
    "prefectureNumber": 17,
    "prefecture": "石川県",
    "city": "加賀市",
    "town": "大聖寺永町"
  },
  "9220025": {
    "zipcode": "9220025",
    "prefectureCode": "17",
    "prefectureNumber": 17,
    "prefecture": "石川県",
    "city": "加賀市",
    "town": "大聖寺耳聞山仲町"
  },
  "9220026": {
    "zipcode": "9220026",
    "prefectureCode": "17",
    "prefectureNumber": 17,
    "prefecture": "石川県",
    "city": "加賀市",
    "town": "大聖寺亀町"
  },
  "9220027": {
    "zipcode": "9220027",
    "prefectureCode": "17",
    "prefectureNumber": 17,
    "prefecture": "石川県",
    "city": "加賀市",
    "town": "大聖寺耳聞山町"
  },
  "9220028": {
    "zipcode": "9220028",
    "prefectureCode": "17",
    "prefectureNumber": 17,
    "prefecture": "石川県",
    "city": "加賀市",
    "town": "大聖寺麻畠町"
  },
  "9220031": {
    "zipcode": "9220031",
    "prefectureCode": "17",
    "prefectureNumber": 17,
    "prefecture": "石川県",
    "city": "加賀市",
    "town": "大聖寺木呂場町"
  },
  "9220032": {
    "zipcode": "9220032",
    "prefectureCode": "17",
    "prefectureNumber": 17,
    "prefecture": "石川県",
    "city": "加賀市",
    "town": "大聖寺金子町"
  },
  "9220033": {
    "zipcode": "9220033",
    "prefectureCode": "17",
    "prefectureNumber": 17,
    "prefecture": "石川県",
    "city": "加賀市",
    "town": "大聖寺法華坊町"
  },
  "9220034": {
    "zipcode": "9220034",
    "prefectureCode": "17",
    "prefectureNumber": 17,
    "prefecture": "石川県",
    "city": "加賀市",
    "town": "大聖寺荒町"
  },
  "9220035": {
    "zipcode": "9220035",
    "prefectureCode": "17",
    "prefectureNumber": 17,
    "prefecture": "石川県",
    "city": "加賀市",
    "town": "大聖寺鉄砲町"
  },
  "9220036": {
    "zipcode": "9220036",
    "prefectureCode": "17",
    "prefectureNumber": 17,
    "prefecture": "石川県",
    "city": "加賀市",
    "town": "大聖寺一本橋町"
  },
  "9220037": {
    "zipcode": "9220037",
    "prefectureCode": "17",
    "prefectureNumber": 17,
    "prefecture": "石川県",
    "city": "加賀市",
    "town": "大聖寺鍛冶町"
  },
  "9220038": {
    "zipcode": "9220038",
    "prefectureCode": "17",
    "prefectureNumber": 17,
    "prefecture": "石川県",
    "city": "加賀市",
    "town": "大聖寺山田町"
  },
  "9220041": {
    "zipcode": "9220041",
    "prefectureCode": "17",
    "prefectureNumber": 17,
    "prefecture": "石川県",
    "city": "加賀市",
    "town": "大聖寺本町"
  },
  "9220042": {
    "zipcode": "9220042",
    "prefectureCode": "17",
    "prefectureNumber": 17,
    "prefecture": "石川県",
    "city": "加賀市",
    "town": "大聖寺魚町"
  },
  "9220043": {
    "zipcode": "9220043",
    "prefectureCode": "17",
    "prefectureNumber": 17,
    "prefecture": "石川県",
    "city": "加賀市",
    "town": "大聖寺五軒町"
  },
  "9220044": {
    "zipcode": "9220044",
    "prefectureCode": "17",
    "prefectureNumber": 17,
    "prefecture": "石川県",
    "city": "加賀市",
    "town": "大聖寺東横町"
  },
  "9220045": {
    "zipcode": "9220045",
    "prefectureCode": "17",
    "prefectureNumber": 17,
    "prefecture": "石川県",
    "city": "加賀市",
    "town": "大聖寺十一町"
  },
  "9220046": {
    "zipcode": "9220046",
    "prefectureCode": "17",
    "prefectureNumber": 17,
    "prefecture": "石川県",
    "city": "加賀市",
    "town": "大聖寺観音町"
  },
  "9220047": {
    "zipcode": "9220047",
    "prefectureCode": "17",
    "prefectureNumber": 17,
    "prefecture": "石川県",
    "city": "加賀市",
    "town": "大聖寺中町"
  },
  "9220048": {
    "zipcode": "9220048",
    "prefectureCode": "17",
    "prefectureNumber": 17,
    "prefecture": "石川県",
    "city": "加賀市",
    "town": "大聖寺馬場町"
  },
  "9220051": {
    "zipcode": "9220051",
    "prefectureCode": "17",
    "prefectureNumber": 17,
    "prefecture": "石川県",
    "city": "加賀市",
    "town": "大聖寺仲町"
  },
  "9220052": {
    "zipcode": "9220052",
    "prefectureCode": "17",
    "prefectureNumber": 17,
    "prefecture": "石川県",
    "city": "加賀市",
    "town": "大聖寺福田町"
  },
  "9220053": {
    "zipcode": "9220053",
    "prefectureCode": "17",
    "prefectureNumber": 17,
    "prefecture": "石川県",
    "city": "加賀市",
    "town": "大聖寺鷹匠町"
  },
  "9220054": {
    "zipcode": "9220054",
    "prefectureCode": "17",
    "prefectureNumber": 17,
    "prefecture": "石川県",
    "city": "加賀市",
    "town": "大聖寺寺町"
  },
  "9220055": {
    "zipcode": "9220055",
    "prefectureCode": "17",
    "prefectureNumber": 17,
    "prefecture": "石川県",
    "city": "加賀市",
    "town": "大聖寺京町"
  },
  "9220056": {
    "zipcode": "9220056",
    "prefectureCode": "17",
    "prefectureNumber": 17,
    "prefecture": "石川県",
    "city": "加賀市",
    "town": "大聖寺片原町"
  },
  "9220057": {
    "zipcode": "9220057",
    "prefectureCode": "17",
    "prefectureNumber": 17,
    "prefecture": "石川県",
    "city": "加賀市",
    "town": "大聖寺八間道"
  },
  "9220061": {
    "zipcode": "9220061",
    "prefectureCode": "17",
    "prefectureNumber": 17,
    "prefecture": "石川県",
    "city": "加賀市",
    "town": "大聖寺相生町"
  },
  "9220062": {
    "zipcode": "9220062",
    "prefectureCode": "17",
    "prefectureNumber": 17,
    "prefecture": "石川県",
    "city": "加賀市",
    "town": "大聖寺松ケ根町"
  },
  "9220063": {
    "zipcode": "9220063",
    "prefectureCode": "17",
    "prefectureNumber": 17,
    "prefecture": "石川県",
    "city": "加賀市",
    "town": "大聖寺新町"
  },
  "9220064": {
    "zipcode": "9220064",
    "prefectureCode": "17",
    "prefectureNumber": 17,
    "prefecture": "石川県",
    "city": "加賀市",
    "town": "大聖寺北片原町"
  },
  "9220065": {
    "zipcode": "9220065",
    "prefectureCode": "17",
    "prefectureNumber": 17,
    "prefecture": "石川県",
    "city": "加賀市",
    "town": "大聖寺新旗陽町"
  },
  "9220066": {
    "zipcode": "9220066",
    "prefectureCode": "17",
    "prefectureNumber": 17,
    "prefecture": "石川県",
    "city": "加賀市",
    "town": "大聖寺殿町"
  },
  "9220067": {
    "zipcode": "9220067",
    "prefectureCode": "17",
    "prefectureNumber": 17,
    "prefecture": "石川県",
    "city": "加賀市",
    "town": "大聖寺番場町"
  },
  "9220068": {
    "zipcode": "9220068",
    "prefectureCode": "17",
    "prefectureNumber": 17,
    "prefecture": "石川県",
    "city": "加賀市",
    "town": "大聖寺新組町"
  },
  "9220101": {
    "zipcode": "9220101",
    "prefectureCode": "17",
    "prefectureNumber": 17,
    "prefecture": "石川県",
    "city": "加賀市",
    "town": "山中温泉二天町"
  },
  "9220102": {
    "zipcode": "9220102",
    "prefectureCode": "17",
    "prefectureNumber": 17,
    "prefecture": "石川県",
    "city": "加賀市",
    "town": "山中温泉長谷田町（日の出団地）"
  },
  "9220103": {
    "zipcode": "9220103",
    "prefectureCode": "17",
    "prefectureNumber": 17,
    "prefecture": "石川県",
    "city": "加賀市",
    "town": "山中温泉長谷田町（その他）"
  },
  "9220104": {
    "zipcode": "9220104",
    "prefectureCode": "17",
    "prefectureNumber": 17,
    "prefecture": "石川県",
    "city": "加賀市",
    "town": "山中温泉旭町"
  },
  "9220105": {
    "zipcode": "9220105",
    "prefectureCode": "17",
    "prefectureNumber": 17,
    "prefecture": "石川県",
    "city": "加賀市",
    "town": "山中温泉泉町"
  },
  "9220106": {
    "zipcode": "9220106",
    "prefectureCode": "17",
    "prefectureNumber": 17,
    "prefecture": "石川県",
    "city": "加賀市",
    "town": "山中温泉上原町（その他）"
  },
  "9220107": {
    "zipcode": "9220107",
    "prefectureCode": "17",
    "prefectureNumber": 17,
    "prefecture": "石川県",
    "city": "加賀市",
    "town": "山中温泉上原町（漆器団地）"
  },
  "9220108": {
    "zipcode": "9220108",
    "prefectureCode": "17",
    "prefectureNumber": 17,
    "prefecture": "石川県",
    "city": "加賀市",
    "town": "山中温泉上原町（しらさぎ団地）"
  },
  "9220109": {
    "zipcode": "9220109",
    "prefectureCode": "17",
    "prefectureNumber": 17,
    "prefecture": "石川県",
    "city": "加賀市",
    "town": "山中温泉宮の杜"
  },
  "9220111": {
    "zipcode": "9220111",
    "prefectureCode": "17",
    "prefectureNumber": 17,
    "prefecture": "石川県",
    "city": "加賀市",
    "town": "山中温泉塚谷町"
  },
  "9220112": {
    "zipcode": "9220112",
    "prefectureCode": "17",
    "prefectureNumber": 17,
    "prefecture": "石川県",
    "city": "加賀市",
    "town": "山中温泉西桂木町"
  },
  "9220113": {
    "zipcode": "9220113",
    "prefectureCode": "17",
    "prefectureNumber": 17,
    "prefecture": "石川県",
    "city": "加賀市",
    "town": "山中温泉東桂木町"
  },
  "9220114": {
    "zipcode": "9220114",
    "prefectureCode": "17",
    "prefectureNumber": 17,
    "prefecture": "石川県",
    "city": "加賀市",
    "town": "山中温泉東町"
  },
  "9220115": {
    "zipcode": "9220115",
    "prefectureCode": "17",
    "prefectureNumber": 17,
    "prefecture": "石川県",
    "city": "加賀市",
    "town": "山中温泉本町"
  },
  "9220116": {
    "zipcode": "9220116",
    "prefectureCode": "17",
    "prefectureNumber": 17,
    "prefecture": "石川県",
    "city": "加賀市",
    "town": "山中温泉白山町"
  },
  "9220117": {
    "zipcode": "9220117",
    "prefectureCode": "17",
    "prefectureNumber": 17,
    "prefecture": "石川県",
    "city": "加賀市",
    "town": "山中温泉上野町（その他）"
  },
  "9220118": {
    "zipcode": "9220118",
    "prefectureCode": "17",
    "prefectureNumber": 17,
    "prefecture": "石川県",
    "city": "加賀市",
    "town": "山中温泉加美谷台"
  },
  "9220121": {
    "zipcode": "9220121",
    "prefectureCode": "17",
    "prefectureNumber": 17,
    "prefecture": "石川県",
    "city": "加賀市",
    "town": "山中温泉富士見町"
  },
  "9220122": {
    "zipcode": "9220122",
    "prefectureCode": "17",
    "prefectureNumber": 17,
    "prefecture": "石川県",
    "city": "加賀市",
    "town": "山中温泉湯の本町"
  },
  "9220123": {
    "zipcode": "9220123",
    "prefectureCode": "17",
    "prefectureNumber": 17,
    "prefecture": "石川県",
    "city": "加賀市",
    "town": "山中温泉薬師町"
  },
  "9220124": {
    "zipcode": "9220124",
    "prefectureCode": "17",
    "prefectureNumber": 17,
    "prefecture": "石川県",
    "city": "加賀市",
    "town": "山中温泉湯の出町"
  },
  "9220125": {
    "zipcode": "9220125",
    "prefectureCode": "17",
    "prefectureNumber": 17,
    "prefecture": "石川県",
    "city": "加賀市",
    "town": "山中温泉栄町"
  },
  "9220126": {
    "zipcode": "9220126",
    "prefectureCode": "17",
    "prefectureNumber": 17,
    "prefecture": "石川県",
    "city": "加賀市",
    "town": "山中温泉河鹿町"
  },
  "9220127": {
    "zipcode": "9220127",
    "prefectureCode": "17",
    "prefectureNumber": 17,
    "prefecture": "石川県",
    "city": "加賀市",
    "town": "山中温泉下谷町"
  },
  "9220128": {
    "zipcode": "9220128",
    "prefectureCode": "17",
    "prefectureNumber": 17,
    "prefecture": "石川県",
    "city": "加賀市",
    "town": "山中温泉こおろぎ町"
  },
  "9220129": {
    "zipcode": "9220129",
    "prefectureCode": "17",
    "prefectureNumber": 17,
    "prefecture": "石川県",
    "city": "加賀市",
    "town": "山中温泉南町"
  },
  "9220131": {
    "zipcode": "9220131",
    "prefectureCode": "17",
    "prefectureNumber": 17,
    "prefecture": "石川県",
    "city": "加賀市",
    "town": "山中温泉四十九院町"
  },
  "9220132": {
    "zipcode": "9220132",
    "prefectureCode": "17",
    "prefectureNumber": 17,
    "prefecture": "石川県",
    "city": "加賀市",
    "town": "山中温泉中津原町"
  },
  "9220133": {
    "zipcode": "9220133",
    "prefectureCode": "17",
    "prefectureNumber": 17,
    "prefecture": "石川県",
    "city": "加賀市",
    "town": "山中温泉滝町"
  },
  "9220134": {
    "zipcode": "9220134",
    "prefectureCode": "17",
    "prefectureNumber": 17,
    "prefecture": "石川県",
    "city": "加賀市",
    "town": "山中温泉菅生谷町"
  },
  "9220135": {
    "zipcode": "9220135",
    "prefectureCode": "17",
    "prefectureNumber": 17,
    "prefecture": "石川県",
    "city": "加賀市",
    "town": "山中温泉大土町"
  },
  "9220136": {
    "zipcode": "9220136",
    "prefectureCode": "17",
    "prefectureNumber": 17,
    "prefecture": "石川県",
    "city": "加賀市",
    "town": "山中温泉真砂町"
  },
  "9220137": {
    "zipcode": "9220137",
    "prefectureCode": "17",
    "prefectureNumber": 17,
    "prefecture": "石川県",
    "city": "加賀市",
    "town": "山中温泉我谷町"
  },
  "9220138": {
    "zipcode": "9220138",
    "prefectureCode": "17",
    "prefectureNumber": 17,
    "prefecture": "石川県",
    "city": "加賀市",
    "town": "山中温泉栢野町"
  },
  "9220139": {
    "zipcode": "9220139",
    "prefectureCode": "17",
    "prefectureNumber": 17,
    "prefecture": "石川県",
    "city": "加賀市",
    "town": "山中温泉菅谷町"
  },
  "9220221": {
    "zipcode": "9220221",
    "prefectureCode": "17",
    "prefectureNumber": 17,
    "prefecture": "石川県",
    "city": "加賀市",
    "town": "丸山町"
  },
  "9220222": {
    "zipcode": "9220222",
    "prefectureCode": "17",
    "prefectureNumber": 17,
    "prefecture": "石川県",
    "city": "加賀市",
    "town": "上野町（丸山）"
  },
  "9220241": {
    "zipcode": "9220241",
    "prefectureCode": "17",
    "prefectureNumber": 17,
    "prefecture": "石川県",
    "city": "加賀市",
    "town": "加茂町"
  },
  "9220242": {
    "zipcode": "9220242",
    "prefectureCode": "17",
    "prefectureNumber": 17,
    "prefecture": "石川県",
    "city": "加賀市",
    "town": "山代温泉"
  },
  "9220243": {
    "zipcode": "9220243",
    "prefectureCode": "17",
    "prefectureNumber": 17,
    "prefecture": "石川県",
    "city": "加賀市",
    "town": "山代温泉（北部）"
  },
  "9220244": {
    "zipcode": "9220244",
    "prefectureCode": "17",
    "prefectureNumber": 17,
    "prefecture": "石川県",
    "city": "加賀市",
    "town": "山代温泉（神明町）"
  },
  "9220245": {
    "zipcode": "9220245",
    "prefectureCode": "17",
    "prefectureNumber": 17,
    "prefecture": "石川県",
    "city": "加賀市",
    "town": "山代温泉（山背台）"
  },
  "9220246": {
    "zipcode": "9220246",
    "prefectureCode": "17",
    "prefectureNumber": 17,
    "prefecture": "石川県",
    "city": "加賀市",
    "town": "山代温泉（八幡）"
  },
  "9220247": {
    "zipcode": "9220247",
    "prefectureCode": "17",
    "prefectureNumber": 17,
    "prefecture": "石川県",
    "city": "加賀市",
    "town": "山代温泉（上宮）"
  },
  "9220250": {
    "zipcode": "9220250",
    "prefectureCode": "17",
    "prefectureNumber": 17,
    "prefecture": "石川県",
    "city": "加賀市",
    "town": "山代温泉桜町"
  },
  "9220251": {
    "zipcode": "9220251",
    "prefectureCode": "17",
    "prefectureNumber": 17,
    "prefecture": "石川県",
    "city": "加賀市",
    "town": "山代温泉（大和町）"
  },
  "9220252": {
    "zipcode": "9220252",
    "prefectureCode": "17",
    "prefectureNumber": 17,
    "prefecture": "石川県",
    "city": "加賀市",
    "town": "山代温泉（九谷町）"
  },
  "9220253": {
    "zipcode": "9220253",
    "prefectureCode": "17",
    "prefectureNumber": 17,
    "prefecture": "石川県",
    "city": "加賀市",
    "town": "山代温泉（東山町）"
  },
  "9220254": {
    "zipcode": "9220254",
    "prefectureCode": "17",
    "prefectureNumber": 17,
    "prefecture": "石川県",
    "city": "加賀市",
    "town": "山代温泉（温泉通り）"
  },
  "9220255": {
    "zipcode": "9220255",
    "prefectureCode": "17",
    "prefectureNumber": 17,
    "prefecture": "石川県",
    "city": "加賀市",
    "town": "山代温泉（幸町）"
  },
  "9220256": {
    "zipcode": "9220256",
    "prefectureCode": "17",
    "prefectureNumber": 17,
    "prefecture": "石川県",
    "city": "加賀市",
    "town": "山代温泉（万松園通）"
  },
  "9220257": {
    "zipcode": "9220257",
    "prefectureCode": "17",
    "prefectureNumber": 17,
    "prefecture": "石川県",
    "city": "加賀市",
    "town": "山代温泉（桔梗丘）"
  },
  "9220258": {
    "zipcode": "9220258",
    "prefectureCode": "17",
    "prefectureNumber": 17,
    "prefecture": "石川県",
    "city": "加賀市",
    "town": "山代温泉（南町）"
  },
  "9220261": {
    "zipcode": "9220261",
    "prefectureCode": "17",
    "prefectureNumber": 17,
    "prefecture": "石川県",
    "city": "加賀市",
    "town": "横北町"
  },
  "9220262": {
    "zipcode": "9220262",
    "prefectureCode": "17",
    "prefectureNumber": 17,
    "prefecture": "石川県",
    "city": "加賀市",
    "town": "柏野町"
  },
  "9220263": {
    "zipcode": "9220263",
    "prefectureCode": "17",
    "prefectureNumber": 17,
    "prefecture": "石川県",
    "city": "加賀市",
    "town": "塔尾町"
  },
  "9220264": {
    "zipcode": "9220264",
    "prefectureCode": "17",
    "prefectureNumber": 17,
    "prefecture": "石川県",
    "city": "加賀市",
    "town": "須谷町"
  },
  "9220265": {
    "zipcode": "9220265",
    "prefectureCode": "17",
    "prefectureNumber": 17,
    "prefecture": "石川県",
    "city": "加賀市",
    "town": "水田丸町"
  },
  "9220266": {
    "zipcode": "9220266",
    "prefectureCode": "17",
    "prefectureNumber": 17,
    "prefecture": "石川県",
    "city": "加賀市",
    "town": "小坂町"
  },
  "9220267": {
    "zipcode": "9220267",
    "prefectureCode": "17",
    "prefectureNumber": 17,
    "prefecture": "石川県",
    "city": "加賀市",
    "town": "二ツ屋町"
  },
  "9220271": {
    "zipcode": "9220271",
    "prefectureCode": "17",
    "prefectureNumber": 17,
    "prefecture": "石川県",
    "city": "加賀市",
    "town": "尾俣町"
  },
  "9220273": {
    "zipcode": "9220273",
    "prefectureCode": "17",
    "prefectureNumber": 17,
    "prefecture": "石川県",
    "city": "加賀市",
    "town": "桂谷町"
  },
  "9220274": {
    "zipcode": "9220274",
    "prefectureCode": "17",
    "prefectureNumber": 17,
    "prefecture": "石川県",
    "city": "加賀市",
    "town": "別所町"
  },
  "9220275": {
    "zipcode": "9220275",
    "prefectureCode": "17",
    "prefectureNumber": 17,
    "prefecture": "石川県",
    "city": "加賀市",
    "town": "別所町（富士見ケ丘）"
  },
  "9220276": {
    "zipcode": "9220276",
    "prefectureCode": "17",
    "prefectureNumber": 17,
    "prefecture": "石川県",
    "city": "加賀市",
    "town": "河南町（淀町）"
  },
  "9220277": {
    "zipcode": "9220277",
    "prefectureCode": "17",
    "prefectureNumber": 17,
    "prefecture": "石川県",
    "city": "加賀市",
    "town": "河南町"
  },
  "9220278": {
    "zipcode": "9220278",
    "prefectureCode": "17",
    "prefectureNumber": 17,
    "prefecture": "石川県",
    "city": "加賀市",
    "town": "荒木町"
  },
  "9220301": {
    "zipcode": "9220301",
    "prefectureCode": "17",
    "prefectureNumber": 17,
    "prefecture": "石川県",
    "city": "加賀市",
    "town": "高塚町"
  },
  "9220302": {
    "zipcode": "9220302",
    "prefectureCode": "17",
    "prefectureNumber": 17,
    "prefecture": "石川県",
    "city": "加賀市",
    "town": "打越町"
  },
  "9220303": {
    "zipcode": "9220303",
    "prefectureCode": "17",
    "prefectureNumber": 17,
    "prefecture": "石川県",
    "city": "加賀市",
    "town": "箱宮町"
  },
  "9220304": {
    "zipcode": "9220304",
    "prefectureCode": "17",
    "prefectureNumber": 17,
    "prefecture": "石川県",
    "city": "加賀市",
    "town": "分校町"
  },
  "9220305": {
    "zipcode": "9220305",
    "prefectureCode": "17",
    "prefectureNumber": 17,
    "prefecture": "石川県",
    "city": "加賀市",
    "town": "梶井町"
  },
  "9220306": {
    "zipcode": "9220306",
    "prefectureCode": "17",
    "prefectureNumber": 17,
    "prefecture": "石川県",
    "city": "加賀市",
    "town": "中島町"
  },
  "9220307": {
    "zipcode": "9220307",
    "prefectureCode": "17",
    "prefectureNumber": 17,
    "prefecture": "石川県",
    "city": "加賀市",
    "town": "干拓町"
  },
  "9220311": {
    "zipcode": "9220311",
    "prefectureCode": "17",
    "prefectureNumber": 17,
    "prefecture": "石川県",
    "city": "加賀市",
    "town": "栄谷町"
  },
  "9220312": {
    "zipcode": "9220312",
    "prefectureCode": "17",
    "prefectureNumber": 17,
    "prefecture": "石川県",
    "city": "加賀市",
    "town": "宇谷町"
  },
  "9220313": {
    "zipcode": "9220313",
    "prefectureCode": "17",
    "prefectureNumber": 17,
    "prefecture": "石川県",
    "city": "加賀市",
    "town": "勅使町"
  },
  "9220314": {
    "zipcode": "9220314",
    "prefectureCode": "17",
    "prefectureNumber": 17,
    "prefecture": "石川県",
    "city": "加賀市",
    "town": "河原町"
  },
  "9220315": {
    "zipcode": "9220315",
    "prefectureCode": "17",
    "prefectureNumber": 17,
    "prefecture": "石川県",
    "city": "加賀市",
    "town": "清水町"
  },
  "9220316": {
    "zipcode": "9220316",
    "prefectureCode": "17",
    "prefectureNumber": 17,
    "prefecture": "石川県",
    "city": "加賀市",
    "town": "松山町"
  },
  "9220321": {
    "zipcode": "9220321",
    "prefectureCode": "17",
    "prefectureNumber": 17,
    "prefecture": "石川県",
    "city": "加賀市",
    "town": "森町"
  },
  "9220322": {
    "zipcode": "9220322",
    "prefectureCode": "17",
    "prefectureNumber": 17,
    "prefecture": "石川県",
    "city": "加賀市",
    "town": "上野町（その他）"
  },
  "9220323": {
    "zipcode": "9220323",
    "prefectureCode": "17",
    "prefectureNumber": 17,
    "prefecture": "石川県",
    "city": "加賀市",
    "town": "若葉台"
  },
  "9220324": {
    "zipcode": "9220324",
    "prefectureCode": "17",
    "prefectureNumber": 17,
    "prefecture": "石川県",
    "city": "加賀市",
    "town": "七日市新町"
  },
  "9220325": {
    "zipcode": "9220325",
    "prefectureCode": "17",
    "prefectureNumber": 17,
    "prefecture": "石川県",
    "city": "加賀市",
    "town": "二子塚町"
  },
  "9220326": {
    "zipcode": "9220326",
    "prefectureCode": "17",
    "prefectureNumber": 17,
    "prefecture": "石川県",
    "city": "加賀市",
    "town": "桑原町"
  },
  "9220331": {
    "zipcode": "9220331",
    "prefectureCode": "17",
    "prefectureNumber": 17,
    "prefecture": "石川県",
    "city": "加賀市",
    "town": "動橋町"
  },
  "9220332": {
    "zipcode": "9220332",
    "prefectureCode": "17",
    "prefectureNumber": 17,
    "prefecture": "石川県",
    "city": "加賀市",
    "town": "庄町"
  },
  "9220333": {
    "zipcode": "9220333",
    "prefectureCode": "17",
    "prefectureNumber": 17,
    "prefecture": "石川県",
    "city": "加賀市",
    "town": "津波倉町"
  },
  "9220334": {
    "zipcode": "9220334",
    "prefectureCode": "17",
    "prefectureNumber": 17,
    "prefecture": "石川県",
    "city": "加賀市",
    "town": "西島町"
  },
  "9220335": {
    "zipcode": "9220335",
    "prefectureCode": "17",
    "prefectureNumber": 17,
    "prefecture": "石川県",
    "city": "加賀市",
    "town": "七日市町"
  },
  "9220336": {
    "zipcode": "9220336",
    "prefectureCode": "17",
    "prefectureNumber": 17,
    "prefecture": "石川県",
    "city": "加賀市",
    "town": "八日市町"
  },
  "9220337": {
    "zipcode": "9220337",
    "prefectureCode": "17",
    "prefectureNumber": 17,
    "prefecture": "石川県",
    "city": "加賀市",
    "town": "合河町"
  },
  "9220401": {
    "zipcode": "9220401",
    "prefectureCode": "17",
    "prefectureNumber": 17,
    "prefecture": "石川県",
    "city": "加賀市",
    "town": "新保町"
  },
  "9220402": {
    "zipcode": "9220402",
    "prefectureCode": "17",
    "prefectureNumber": 17,
    "prefecture": "石川県",
    "city": "加賀市",
    "town": "柴山町"
  },
  "9220403": {
    "zipcode": "9220403",
    "prefectureCode": "17",
    "prefectureNumber": 17,
    "prefecture": "石川県",
    "city": "加賀市",
    "town": "一白町"
  },
  "9220404": {
    "zipcode": "9220404",
    "prefectureCode": "17",
    "prefectureNumber": 17,
    "prefecture": "石川県",
    "city": "加賀市",
    "town": "源平町"
  },
  "9220405": {
    "zipcode": "9220405",
    "prefectureCode": "17",
    "prefectureNumber": 17,
    "prefecture": "石川県",
    "city": "加賀市",
    "town": "手塚町"
  },
  "9220406": {
    "zipcode": "9220406",
    "prefectureCode": "17",
    "prefectureNumber": 17,
    "prefecture": "石川県",
    "city": "加賀市",
    "town": "伊切町"
  },
  "9220411": {
    "zipcode": "9220411",
    "prefectureCode": "17",
    "prefectureNumber": 17,
    "prefecture": "石川県",
    "city": "加賀市",
    "town": "潮津町"
  },
  "9220412": {
    "zipcode": "9220412",
    "prefectureCode": "17",
    "prefectureNumber": 17,
    "prefecture": "石川県",
    "city": "加賀市",
    "town": "片山津温泉"
  },
  "9220413": {
    "zipcode": "9220413",
    "prefectureCode": "17",
    "prefectureNumber": 17,
    "prefecture": "石川県",
    "city": "加賀市",
    "town": "湖城町"
  },
  "9220414": {
    "zipcode": "9220414",
    "prefectureCode": "17",
    "prefectureNumber": 17,
    "prefecture": "石川県",
    "city": "加賀市",
    "town": "片山津町"
  },
  "9220421": {
    "zipcode": "9220421",
    "prefectureCode": "17",
    "prefectureNumber": 17,
    "prefecture": "石川県",
    "city": "加賀市",
    "town": "冨塚町"
  },
  "9220422": {
    "zipcode": "9220422",
    "prefectureCode": "17",
    "prefectureNumber": 17,
    "prefecture": "石川県",
    "city": "加賀市",
    "town": "弓波町"
  },
  "9220423": {
    "zipcode": "9220423",
    "prefectureCode": "17",
    "prefectureNumber": 17,
    "prefecture": "石川県",
    "city": "加賀市",
    "town": "作見町"
  },
  "9220424": {
    "zipcode": "9220424",
    "prefectureCode": "17",
    "prefectureNumber": 17,
    "prefecture": "石川県",
    "city": "加賀市",
    "town": "小菅波町"
  },
  "9220425": {
    "zipcode": "9220425",
    "prefectureCode": "17",
    "prefectureNumber": 17,
    "prefecture": "石川県",
    "city": "加賀市",
    "town": "大菅波町"
  },
  "9220426": {
    "zipcode": "9220426",
    "prefectureCode": "17",
    "prefectureNumber": 17,
    "prefecture": "石川県",
    "city": "加賀市",
    "town": "天日町"
  },
  "9220427": {
    "zipcode": "9220427",
    "prefectureCode": "17",
    "prefectureNumber": 17,
    "prefecture": "石川県",
    "city": "加賀市",
    "town": "ときわ台"
  },
  "9220428": {
    "zipcode": "9220428",
    "prefectureCode": "17",
    "prefectureNumber": 17,
    "prefecture": "石川県",
    "city": "加賀市",
    "town": "尾中町"
  },
  "9220431": {
    "zipcode": "9220431",
    "prefectureCode": "17",
    "prefectureNumber": 17,
    "prefecture": "石川県",
    "city": "加賀市",
    "town": "山田町"
  },
  "9220432": {
    "zipcode": "9220432",
    "prefectureCode": "17",
    "prefectureNumber": 17,
    "prefecture": "石川県",
    "city": "加賀市",
    "town": "東山田町"
  },
  "9220433": {
    "zipcode": "9220433",
    "prefectureCode": "17",
    "prefectureNumber": 17,
    "prefecture": "石川県",
    "city": "加賀市",
    "town": "西山田町"
  },
  "9220434": {
    "zipcode": "9220434",
    "prefectureCode": "17",
    "prefectureNumber": 17,
    "prefecture": "石川県",
    "city": "加賀市",
    "town": "北山田町"
  },
  "9220435": {
    "zipcode": "9220435",
    "prefectureCode": "17",
    "prefectureNumber": 17,
    "prefecture": "石川県",
    "city": "加賀市",
    "town": "希望が丘"
  },
  "9220436": {
    "zipcode": "9220436",
    "prefectureCode": "17",
    "prefectureNumber": 17,
    "prefecture": "石川県",
    "city": "加賀市",
    "town": "松が丘"
  },
  "9220437": {
    "zipcode": "9220437",
    "prefectureCode": "17",
    "prefectureNumber": 17,
    "prefecture": "石川県",
    "city": "加賀市",
    "town": "白山台"
  },
  "9220441": {
    "zipcode": "9220441",
    "prefectureCode": "17",
    "prefectureNumber": 17,
    "prefecture": "石川県",
    "city": "加賀市",
    "town": "篠原新町"
  },
  "9220442": {
    "zipcode": "9220442",
    "prefectureCode": "17",
    "prefectureNumber": 17,
    "prefecture": "石川県",
    "city": "加賀市",
    "town": "篠原町"
  },
  "9220443": {
    "zipcode": "9220443",
    "prefectureCode": "17",
    "prefectureNumber": 17,
    "prefecture": "石川県",
    "city": "加賀市",
    "town": "野田町"
  },
  "9220444": {
    "zipcode": "9220444",
    "prefectureCode": "17",
    "prefectureNumber": 17,
    "prefecture": "石川県",
    "city": "加賀市",
    "town": "宮地町"
  },
  "9220445": {
    "zipcode": "9220445",
    "prefectureCode": "17",
    "prefectureNumber": 17,
    "prefecture": "石川県",
    "city": "加賀市",
    "town": "小塩辻町"
  },
  "9220446": {
    "zipcode": "9220446",
    "prefectureCode": "17",
    "prefectureNumber": 17,
    "prefecture": "石川県",
    "city": "加賀市",
    "town": "塩浜町"
  },
  "9220551": {
    "zipcode": "9220551",
    "prefectureCode": "17",
    "prefectureNumber": 17,
    "prefecture": "石川県",
    "city": "加賀市",
    "town": "美岬町"
  },
  "9220552": {
    "zipcode": "9220552",
    "prefectureCode": "17",
    "prefectureNumber": 17,
    "prefecture": "石川県",
    "city": "加賀市",
    "town": "田尻町"
  },
  "9220553": {
    "zipcode": "9220553",
    "prefectureCode": "17",
    "prefectureNumber": 17,
    "prefecture": "石川県",
    "city": "加賀市",
    "town": "小塩町"
  },
  "9220554": {
    "zipcode": "9220554",
    "prefectureCode": "17",
    "prefectureNumber": 17,
    "prefecture": "石川県",
    "city": "加賀市",
    "town": "橋立町"
  },
  "9220561": {
    "zipcode": "9220561",
    "prefectureCode": "17",
    "prefectureNumber": 17,
    "prefecture": "石川県",
    "city": "加賀市",
    "town": "宮町"
  },
  "9220562": {
    "zipcode": "9220562",
    "prefectureCode": "17",
    "prefectureNumber": 17,
    "prefecture": "石川県",
    "city": "加賀市",
    "town": "高尾町"
  },
  "9220563": {
    "zipcode": "9220563",
    "prefectureCode": "17",
    "prefectureNumber": 17,
    "prefecture": "石川県",
    "city": "加賀市",
    "town": "豊町"
  },
  "9220564": {
    "zipcode": "9220564",
    "prefectureCode": "17",
    "prefectureNumber": 17,
    "prefecture": "石川県",
    "city": "加賀市",
    "town": "片野町"
  },
  "9220565": {
    "zipcode": "9220565",
    "prefectureCode": "17",
    "prefectureNumber": 17,
    "prefecture": "石川県",
    "city": "加賀市",
    "town": "黒崎町"
  },
  "9220566": {
    "zipcode": "9220566",
    "prefectureCode": "17",
    "prefectureNumber": 17,
    "prefecture": "石川県",
    "city": "加賀市",
    "town": "深田町"
  },
  "9220671": {
    "zipcode": "9220671",
    "prefectureCode": "17",
    "prefectureNumber": 17,
    "prefecture": "石川県",
    "city": "加賀市",
    "town": "大聖寺瀬越町"
  },
  "9220672": {
    "zipcode": "9220672",
    "prefectureCode": "17",
    "prefectureNumber": 17,
    "prefecture": "石川県",
    "city": "加賀市",
    "town": "吉崎町"
  },
  "9220673": {
    "zipcode": "9220673",
    "prefectureCode": "17",
    "prefectureNumber": 17,
    "prefecture": "石川県",
    "city": "加賀市",
    "town": "塩屋町"
  },
  "9220679": {
    "zipcode": "9220679",
    "prefectureCode": "18",
    "prefectureNumber": 18,
    "prefecture": "福井県",
    "city": "あわら市",
    "town": "吉崎"
  },
  "9220801": {
    "zipcode": "9220801",
    "prefectureCode": "17",
    "prefectureNumber": 17,
    "prefecture": "石川県",
    "city": "加賀市",
    "town": "大聖寺関町"
  },
  "9220802": {
    "zipcode": "9220802",
    "prefectureCode": "17",
    "prefectureNumber": 17,
    "prefecture": "石川県",
    "city": "加賀市",
    "town": "大聖寺越前町"
  },
  "9220803": {
    "zipcode": "9220803",
    "prefectureCode": "17",
    "prefectureNumber": 17,
    "prefecture": "石川県",
    "city": "加賀市",
    "town": "大聖寺三ツ屋町"
  },
  "9220804": {
    "zipcode": "9220804",
    "prefectureCode": "17",
    "prefectureNumber": 17,
    "prefecture": "石川県",
    "city": "加賀市",
    "town": "大聖寺中新道"
  },
  "9220805": {
    "zipcode": "9220805",
    "prefectureCode": "17",
    "prefectureNumber": 17,
    "prefecture": "石川県",
    "city": "加賀市",
    "town": "大聖寺新屋敷町"
  },
  "9220806": {
    "zipcode": "9220806",
    "prefectureCode": "17",
    "prefectureNumber": 17,
    "prefecture": "石川県",
    "city": "加賀市",
    "town": "大聖寺大新道"
  },
  "9220807": {
    "zipcode": "9220807",
    "prefectureCode": "17",
    "prefectureNumber": 17,
    "prefecture": "石川県",
    "city": "加賀市",
    "town": "大聖寺神明町"
  },
  "9220811": {
    "zipcode": "9220811",
    "prefectureCode": "17",
    "prefectureNumber": 17,
    "prefecture": "石川県",
    "city": "加賀市",
    "town": "大聖寺南町"
  },
  "9220812": {
    "zipcode": "9220812",
    "prefectureCode": "17",
    "prefectureNumber": 17,
    "prefecture": "石川県",
    "city": "加賀市",
    "town": "大聖寺田原町"
  },
  "9220813": {
    "zipcode": "9220813",
    "prefectureCode": "17",
    "prefectureNumber": 17,
    "prefecture": "石川県",
    "city": "加賀市",
    "town": "大聖寺弓町"
  },
  "9220814": {
    "zipcode": "9220814",
    "prefectureCode": "17",
    "prefectureNumber": 17,
    "prefecture": "石川県",
    "city": "加賀市",
    "town": "大聖寺菅生町"
  },
  "9220815": {
    "zipcode": "9220815",
    "prefectureCode": "17",
    "prefectureNumber": 17,
    "prefecture": "石川県",
    "city": "加賀市",
    "town": "大聖寺菅生"
  },
  "9220816": {
    "zipcode": "9220816",
    "prefectureCode": "17",
    "prefectureNumber": 17,
    "prefecture": "石川県",
    "city": "加賀市",
    "town": "大聖寺東町"
  },
  "9220821": {
    "zipcode": "9220821",
    "prefectureCode": "17",
    "prefectureNumber": 17,
    "prefecture": "石川県",
    "city": "加賀市",
    "town": "南郷町"
  },
  "9220822": {
    "zipcode": "9220822",
    "prefectureCode": "17",
    "prefectureNumber": 17,
    "prefecture": "石川県",
    "city": "加賀市",
    "town": "吸坂町"
  },
  "9220823": {
    "zipcode": "9220823",
    "prefectureCode": "17",
    "prefectureNumber": 17,
    "prefecture": "石川県",
    "city": "加賀市",
    "town": "黒瀬町"
  },
  "9220824": {
    "zipcode": "9220824",
    "prefectureCode": "17",
    "prefectureNumber": 17,
    "prefecture": "石川県",
    "city": "加賀市",
    "town": "日谷町"
  },
  "9220825": {
    "zipcode": "9220825",
    "prefectureCode": "17",
    "prefectureNumber": 17,
    "prefecture": "石川県",
    "city": "加賀市",
    "town": "直下町"
  },
  "9220831": {
    "zipcode": "9220831",
    "prefectureCode": "17",
    "prefectureNumber": 17,
    "prefecture": "石川県",
    "city": "加賀市",
    "town": "幸町"
  },
  "9220832": {
    "zipcode": "9220832",
    "prefectureCode": "17",
    "prefectureNumber": 17,
    "prefecture": "石川県",
    "city": "加賀市",
    "town": "百々町"
  },
  "9220833": {
    "zipcode": "9220833",
    "prefectureCode": "17",
    "prefectureNumber": 17,
    "prefecture": "石川県",
    "city": "加賀市",
    "town": "曾宇町"
  },
  "9220834": {
    "zipcode": "9220834",
    "prefectureCode": "17",
    "prefectureNumber": 17,
    "prefecture": "石川県",
    "city": "加賀市",
    "town": "美谷が丘"
  },
  "9220835": {
    "zipcode": "9220835",
    "prefectureCode": "17",
    "prefectureNumber": 17,
    "prefecture": "石川県",
    "city": "加賀市",
    "town": "細坪町"
  },
  "9220836": {
    "zipcode": "9220836",
    "prefectureCode": "17",
    "prefectureNumber": 17,
    "prefecture": "石川県",
    "city": "加賀市",
    "town": "白鳥町"
  },
  "9220841": {
    "zipcode": "9220841",
    "prefectureCode": "17",
    "prefectureNumber": 17,
    "prefecture": "石川県",
    "city": "加賀市",
    "town": "大聖寺下屋敷町"
  },
  "9220842": {
    "zipcode": "9220842",
    "prefectureCode": "17",
    "prefectureNumber": 17,
    "prefecture": "石川県",
    "city": "加賀市",
    "town": "熊坂町"
  },
  "9220843": {
    "zipcode": "9220843",
    "prefectureCode": "17",
    "prefectureNumber": 17,
    "prefecture": "石川県",
    "city": "加賀市",
    "town": "大同町"
  },
  "9220844": {
    "zipcode": "9220844",
    "prefectureCode": "17",
    "prefectureNumber": 17,
    "prefecture": "石川県",
    "city": "加賀市",
    "town": "白望台町"
  },
  "9220851": {
    "zipcode": "9220851",
    "prefectureCode": "17",
    "prefectureNumber": 17,
    "prefecture": "石川県",
    "city": "加賀市",
    "town": "大聖寺錦城ケ丘"
  },
  "9220852": {
    "zipcode": "9220852",
    "prefectureCode": "17",
    "prefectureNumber": 17,
    "prefecture": "石川県",
    "city": "加賀市",
    "town": "大聖寺緑ケ丘"
  },
  "9220853": {
    "zipcode": "9220853",
    "prefectureCode": "17",
    "prefectureNumber": 17,
    "prefecture": "石川県",
    "city": "加賀市",
    "town": "大聖寺三ツ町"
  },
  "9220854": {
    "zipcode": "9220854",
    "prefectureCode": "17",
    "prefectureNumber": 17,
    "prefecture": "石川県",
    "city": "加賀市",
    "town": "三木町"
  },
  "9220855": {
    "zipcode": "9220855",
    "prefectureCode": "17",
    "prefectureNumber": 17,
    "prefecture": "石川県",
    "city": "加賀市",
    "town": "橘町"
  },
  "9220856": {
    "zipcode": "9220856",
    "prefectureCode": "17",
    "prefectureNumber": 17,
    "prefecture": "石川県",
    "city": "加賀市",
    "town": "奥谷町"
  },
  "9220857": {
    "zipcode": "9220857",
    "prefectureCode": "17",
    "prefectureNumber": 17,
    "prefecture": "石川県",
    "city": "加賀市",
    "town": "永井町"
  },
  "9220861": {
    "zipcode": "9220861",
    "prefectureCode": "17",
    "prefectureNumber": 17,
    "prefecture": "石川県",
    "city": "加賀市",
    "town": "大聖寺地方町"
  },
  "9220862": {
    "zipcode": "9220862",
    "prefectureCode": "17",
    "prefectureNumber": 17,
    "prefecture": "石川県",
    "city": "加賀市",
    "town": "大聖寺錦町"
  },
  "9220863": {
    "zipcode": "9220863",
    "prefectureCode": "17",
    "prefectureNumber": 17,
    "prefecture": "石川県",
    "city": "加賀市",
    "town": "大聖寺今出町"
  },
  "9220864": {
    "zipcode": "9220864",
    "prefectureCode": "17",
    "prefectureNumber": 17,
    "prefecture": "石川県",
    "city": "加賀市",
    "town": "大聖寺西栄町"
  },
  "9220865": {
    "zipcode": "9220865",
    "prefectureCode": "17",
    "prefectureNumber": 17,
    "prefecture": "石川県",
    "city": "加賀市",
    "town": "大聖寺西町"
  }
}
