{
  "9230000": {
    "zipcode": "9230000",
    "prefectureCode": "17",
    "prefectureNumber": 17,
    "prefecture": "石川県",
    "city": "小松市",
    "town": "以下に掲載がない場合"
  },
  "9230001": {
    "zipcode": "9230001",
    "prefectureCode": "17",
    "prefectureNumber": 17,
    "prefecture": "石川県",
    "city": "小松市",
    "town": "大島町"
  },
  "9230002": {
    "zipcode": "9230002",
    "prefectureCode": "17",
    "prefectureNumber": 17,
    "prefecture": "石川県",
    "city": "小松市",
    "town": "小島町"
  },
  "9230003": {
    "zipcode": "9230003",
    "prefectureCode": "17",
    "prefectureNumber": 17,
    "prefecture": "石川県",
    "city": "小松市",
    "town": "安宅町"
  },
  "9230004": {
    "zipcode": "9230004",
    "prefectureCode": "17",
    "prefectureNumber": 17,
    "prefecture": "石川県",
    "city": "小松市",
    "town": "長崎町"
  },
  "9230005": {
    "zipcode": "9230005",
    "prefectureCode": "17",
    "prefectureNumber": 17,
    "prefecture": "石川県",
    "city": "小松市",
    "town": "坊丸町"
  },
  "9230011": {
    "zipcode": "9230011",
    "prefectureCode": "17",
    "prefectureNumber": 17,
    "prefecture": "石川県",
    "city": "小松市",
    "town": "蛭川町"
  },
  "9230012": {
    "zipcode": "9230012",
    "prefectureCode": "17",
    "prefectureNumber": 17,
    "prefecture": "石川県",
    "city": "小松市",
    "town": "東蛭川町"
  },
  "9230013": {
    "zipcode": "9230013",
    "prefectureCode": "17",
    "prefectureNumber": 17,
    "prefecture": "石川県",
    "city": "小松市",
    "town": "城北町"
  },
  "9230014": {
    "zipcode": "9230014",
    "prefectureCode": "17",
    "prefectureNumber": 17,
    "prefecture": "石川県",
    "city": "小松市",
    "town": "松梨町"
  },
  "9230015": {
    "zipcode": "9230015",
    "prefectureCode": "17",
    "prefectureNumber": 17,
    "prefecture": "石川県",
    "city": "小松市",
    "town": "犬丸町"
  },
  "9230016": {
    "zipcode": "9230016",
    "prefectureCode": "17",
    "prefectureNumber": 17,
    "prefecture": "石川県",
    "city": "小松市",
    "town": "御館町"
  },
  "9230021": {
    "zipcode": "9230021",
    "prefectureCode": "17",
    "prefectureNumber": 17,
    "prefecture": "石川県",
    "city": "小松市",
    "town": "島田町"
  },
  "9230022": {
    "zipcode": "9230022",
    "prefectureCode": "17",
    "prefectureNumber": 17,
    "prefecture": "石川県",
    "city": "小松市",
    "town": "美原町"
  },
  "9230023": {
    "zipcode": "9230023",
    "prefectureCode": "17",
    "prefectureNumber": 17,
    "prefecture": "石川県",
    "city": "小松市",
    "town": "梅田町"
  },
  "9230024": {
    "zipcode": "9230024",
    "prefectureCode": "17",
    "prefectureNumber": 17,
    "prefecture": "石川県",
    "city": "小松市",
    "town": "茶屋町"
  },
  "9230025": {
    "zipcode": "9230025",
    "prefectureCode": "17",
    "prefectureNumber": 17,
    "prefecture": "石川県",
    "city": "小松市",
    "town": "天神町"
  },
  "9230026": {
    "zipcode": "9230026",
    "prefectureCode": "17",
    "prefectureNumber": 17,
    "prefecture": "石川県",
    "city": "小松市",
    "town": "下牧町"
  },
  "9230027": {
    "zipcode": "9230027",
    "prefectureCode": "17",
    "prefectureNumber": 17,
    "prefecture": "石川県",
    "city": "小松市",
    "town": "上牧町"
  },
  "9230028": {
    "zipcode": "9230028",
    "prefectureCode": "17",
    "prefectureNumber": 17,
    "prefecture": "石川県",
    "city": "小松市",
    "town": "梯町"
  },
  "9230031": {
    "zipcode": "9230031",
    "prefectureCode": "17",
    "prefectureNumber": 17,
    "prefecture": "石川県",
    "city": "小松市",
    "town": "高堂町"
  },
  "9230032": {
    "zipcode": "9230032",
    "prefectureCode": "17",
    "prefectureNumber": 17,
    "prefecture": "石川県",
    "city": "小松市",
    "town": "荒屋町"
  },
  "9230033": {
    "zipcode": "9230033",
    "prefectureCode": "17",
    "prefectureNumber": 17,
    "prefecture": "石川県",
    "city": "小松市",
    "town": "野田町"
  },
  "9230034": {
    "zipcode": "9230034",
    "prefectureCode": "17",
    "prefectureNumber": 17,
    "prefecture": "石川県",
    "city": "小松市",
    "town": "長田町"
  },
  "9230035": {
    "zipcode": "9230035",
    "prefectureCode": "17",
    "prefectureNumber": 17,
    "prefecture": "石川県",
    "city": "小松市",
    "town": "あけぼの町"
  },
  "9230036": {
    "zipcode": "9230036",
    "prefectureCode": "17",
    "prefectureNumber": 17,
    "prefecture": "石川県",
    "city": "小松市",
    "town": "平面町"
  },
  "9230037": {
    "zipcode": "9230037",
    "prefectureCode": "17",
    "prefectureNumber": 17,
    "prefecture": "石川県",
    "city": "小松市",
    "town": "問屋町"
  },
  "9230041": {
    "zipcode": "9230041",
    "prefectureCode": "17",
    "prefectureNumber": 17,
    "prefecture": "石川県",
    "city": "小松市",
    "town": "千代町"
  },
  "9230042": {
    "zipcode": "9230042",
    "prefectureCode": "17",
    "prefectureNumber": 17,
    "prefecture": "石川県",
    "city": "小松市",
    "town": "能美町"
  },
  "9230043": {
    "zipcode": "9230043",
    "prefectureCode": "17",
    "prefectureNumber": 17,
    "prefecture": "石川県",
    "city": "小松市",
    "town": "一針町"
  },
  "9230044": {
    "zipcode": "9230044",
    "prefectureCode": "17",
    "prefectureNumber": 17,
    "prefecture": "石川県",
    "city": "小松市",
    "town": "川辺町"
  },
  "9230051": {
    "zipcode": "9230051",
    "prefectureCode": "17",
    "prefectureNumber": 17,
    "prefecture": "石川県",
    "city": "小松市",
    "town": "上八里町"
  },
  "9230052": {
    "zipcode": "9230052",
    "prefectureCode": "17",
    "prefectureNumber": 17,
    "prefecture": "石川県",
    "city": "小松市",
    "town": "下八里町"
  },
  "9230053": {
    "zipcode": "9230053",
    "prefectureCode": "17",
    "prefectureNumber": 17,
    "prefecture": "石川県",
    "city": "小松市",
    "town": "河田町"
  },
  "9230054": {
    "zipcode": "9230054",
    "prefectureCode": "17",
    "prefectureNumber": 17,
    "prefecture": "石川県",
    "city": "小松市",
    "town": "小野町"
  },
  "9230055": {
    "zipcode": "9230055",
    "prefectureCode": "17",
    "prefectureNumber": 17,
    "prefecture": "石川県",
    "city": "小松市",
    "town": "古府町"
  },
  "9230056": {
    "zipcode": "9230056",
    "prefectureCode": "17",
    "prefectureNumber": 17,
    "prefecture": "石川県",
    "city": "小松市",
    "town": "八里台"
  },
  "9230061": {
    "zipcode": "9230061",
    "prefectureCode": "17",
    "prefectureNumber": 17,
    "prefecture": "石川県",
    "city": "小松市",
    "town": "国府台"
  },
  "9230062": {
    "zipcode": "9230062",
    "prefectureCode": "17",
    "prefectureNumber": 17,
    "prefecture": "石川県",
    "city": "小松市",
    "town": "里川町"
  },
  "9230063": {
    "zipcode": "9230063",
    "prefectureCode": "17",
    "prefectureNumber": 17,
    "prefecture": "石川県",
    "city": "小松市",
    "town": "鵜川町"
  },
  "9230064": {
    "zipcode": "9230064",
    "prefectureCode": "17",
    "prefectureNumber": 17,
    "prefecture": "石川県",
    "city": "小松市",
    "town": "遊泉寺町"
  },
  "9230065": {
    "zipcode": "9230065",
    "prefectureCode": "17",
    "prefectureNumber": 17,
    "prefecture": "石川県",
    "city": "小松市",
    "town": "立明寺町"
  },
  "9230066": {
    "zipcode": "9230066",
    "prefectureCode": "17",
    "prefectureNumber": 17,
    "prefecture": "石川県",
    "city": "小松市",
    "town": "埴田町"
  },
  "9230071": {
    "zipcode": "9230071",
    "prefectureCode": "17",
    "prefectureNumber": 17,
    "prefecture": "石川県",
    "city": "小松市",
    "town": "中海町"
  },
  "9230072": {
    "zipcode": "9230072",
    "prefectureCode": "17",
    "prefectureNumber": 17,
    "prefecture": "石川県",
    "city": "小松市",
    "town": "みどり町"
  },
  "9230073": {
    "zipcode": "9230073",
    "prefectureCode": "17",
    "prefectureNumber": 17,
    "prefecture": "石川県",
    "city": "小松市",
    "town": "岩渕町"
  },
  "9230074": {
    "zipcode": "9230074",
    "prefectureCode": "17",
    "prefectureNumber": 17,
    "prefecture": "石川県",
    "city": "小松市",
    "town": "桂町"
  },
  "9230075": {
    "zipcode": "9230075",
    "prefectureCode": "17",
    "prefectureNumber": 17,
    "prefecture": "石川県",
    "city": "小松市",
    "town": "原町"
  },
  "9230076": {
    "zipcode": "9230076",
    "prefectureCode": "17",
    "prefectureNumber": 17,
    "prefecture": "石川県",
    "city": "小松市",
    "town": "麦口町"
  },
  "9230077": {
    "zipcode": "9230077",
    "prefectureCode": "17",
    "prefectureNumber": 17,
    "prefecture": "石川県",
    "city": "小松市",
    "town": "上麦口町"
  },
  "9230078": {
    "zipcode": "9230078",
    "prefectureCode": "17",
    "prefectureNumber": 17,
    "prefecture": "石川県",
    "city": "小松市",
    "town": "中ノ峠町"
  },
  "9230151": {
    "zipcode": "9230151",
    "prefectureCode": "17",
    "prefectureNumber": 17,
    "prefecture": "石川県",
    "city": "小松市",
    "town": "正蓮寺町"
  },
  "9230152": {
    "zipcode": "9230152",
    "prefectureCode": "17",
    "prefectureNumber": 17,
    "prefecture": "石川県",
    "city": "小松市",
    "town": "五国寺町"
  },
  "9230153": {
    "zipcode": "9230153",
    "prefectureCode": "17",
    "prefectureNumber": 17,
    "prefecture": "石川県",
    "city": "小松市",
    "town": "金平町"
  },
  "9230154": {
    "zipcode": "9230154",
    "prefectureCode": "17",
    "prefectureNumber": 17,
    "prefecture": "石川県",
    "city": "小松市",
    "town": "金野町"
  },
  "9230155": {
    "zipcode": "9230155",
    "prefectureCode": "17",
    "prefectureNumber": 17,
    "prefecture": "石川県",
    "city": "小松市",
    "town": "江指町"
  },
  "9230156": {
    "zipcode": "9230156",
    "prefectureCode": "17",
    "prefectureNumber": 17,
    "prefecture": "石川県",
    "city": "小松市",
    "town": "大野町"
  },
  "9230157": {
    "zipcode": "9230157",
    "prefectureCode": "17",
    "prefectureNumber": 17,
    "prefecture": "石川県",
    "city": "小松市",
    "town": "花坂町"
  },
  "9230161": {
    "zipcode": "9230161",
    "prefectureCode": "17",
    "prefectureNumber": 17,
    "prefecture": "石川県",
    "city": "小松市",
    "town": "池城町"
  },
  "9230162": {
    "zipcode": "9230162",
    "prefectureCode": "17",
    "prefectureNumber": 17,
    "prefecture": "石川県",
    "city": "小松市",
    "town": "波佐羅町"
  },
  "9230163": {
    "zipcode": "9230163",
    "prefectureCode": "17",
    "prefectureNumber": 17,
    "prefecture": "石川県",
    "city": "小松市",
    "town": "塩原町"
  },
  "9230164": {
    "zipcode": "9230164",
    "prefectureCode": "17",
    "prefectureNumber": 17,
    "prefecture": "石川県",
    "city": "小松市",
    "town": "布橋町"
  },
  "9230165": {
    "zipcode": "9230165",
    "prefectureCode": "17",
    "prefectureNumber": 17,
    "prefecture": "石川県",
    "city": "小松市",
    "town": "沢町"
  },
  "9230166": {
    "zipcode": "9230166",
    "prefectureCode": "17",
    "prefectureNumber": 17,
    "prefecture": "石川県",
    "city": "小松市",
    "town": "松岡町"
  },
  "9230171": {
    "zipcode": "9230171",
    "prefectureCode": "17",
    "prefectureNumber": 17,
    "prefecture": "石川県",
    "city": "小松市",
    "town": "観音下町"
  },
  "9230172": {
    "zipcode": "9230172",
    "prefectureCode": "17",
    "prefectureNumber": 17,
    "prefecture": "石川県",
    "city": "小松市",
    "town": "尾小屋町"
  },
  "9230173": {
    "zipcode": "9230173",
    "prefectureCode": "17",
    "prefectureNumber": 17,
    "prefecture": "石川県",
    "city": "小松市",
    "town": "丸山町"
  },
  "9230174": {
    "zipcode": "9230174",
    "prefectureCode": "17",
    "prefectureNumber": 17,
    "prefecture": "石川県",
    "city": "小松市",
    "town": "花立町"
  },
  "9230175": {
    "zipcode": "9230175",
    "prefectureCode": "17",
    "prefectureNumber": 17,
    "prefecture": "石川県",
    "city": "小松市",
    "town": "新保町"
  },
  "9230176": {
    "zipcode": "9230176",
    "prefectureCode": "17",
    "prefectureNumber": 17,
    "prefecture": "石川県",
    "city": "小松市",
    "town": "西俣町"
  },
  "9230177": {
    "zipcode": "9230177",
    "prefectureCode": "17",
    "prefectureNumber": 17,
    "prefecture": "石川県",
    "city": "小松市",
    "town": "岩上町"
  },
  "9230181": {
    "zipcode": "9230181",
    "prefectureCode": "17",
    "prefectureNumber": 17,
    "prefecture": "石川県",
    "city": "小松市",
    "town": "長谷町"
  },
  "9230182": {
    "zipcode": "9230182",
    "prefectureCode": "17",
    "prefectureNumber": 17,
    "prefecture": "石川県",
    "city": "小松市",
    "town": "波佐谷町"
  },
  "9230183": {
    "zipcode": "9230183",
    "prefectureCode": "17",
    "prefectureNumber": 17,
    "prefecture": "石川県",
    "city": "小松市",
    "town": "瀬領町"
  },
  "9230184": {
    "zipcode": "9230184",
    "prefectureCode": "17",
    "prefectureNumber": 17,
    "prefecture": "石川県",
    "city": "小松市",
    "town": "打木町"
  },
  "9230185": {
    "zipcode": "9230185",
    "prefectureCode": "17",
    "prefectureNumber": 17,
    "prefecture": "石川県",
    "city": "小松市",
    "town": "赤瀬町"
  },
  "9230186": {
    "zipcode": "9230186",
    "prefectureCode": "17",
    "prefectureNumber": 17,
    "prefecture": "石川県",
    "city": "小松市",
    "town": "大杉町"
  },
  "9230187": {
    "zipcode": "9230187",
    "prefectureCode": "17",
    "prefectureNumber": 17,
    "prefecture": "石川県",
    "city": "小松市",
    "town": "上リ江町"
  },
  "9230301": {
    "zipcode": "9230301",
    "prefectureCode": "17",
    "prefectureNumber": 17,
    "prefecture": "石川県",
    "city": "小松市",
    "town": "矢崎町"
  },
  "9230302": {
    "zipcode": "9230302",
    "prefectureCode": "17",
    "prefectureNumber": 17,
    "prefecture": "石川県",
    "city": "小松市",
    "town": "符津町"
  },
  "9230303": {
    "zipcode": "9230303",
    "prefectureCode": "17",
    "prefectureNumber": 17,
    "prefecture": "石川県",
    "city": "小松市",
    "town": "島町"
  },
  "9230304": {
    "zipcode": "9230304",
    "prefectureCode": "17",
    "prefectureNumber": 17,
    "prefecture": "石川県",
    "city": "小松市",
    "town": "下粟津町"
  },
  "9230305": {
    "zipcode": "9230305",
    "prefectureCode": "17",
    "prefectureNumber": 17,
    "prefecture": "石川県",
    "city": "小松市",
    "town": "蓑輪町"
  },
  "9230306": {
    "zipcode": "9230306",
    "prefectureCode": "17",
    "prefectureNumber": 17,
    "prefecture": "石川県",
    "city": "小松市",
    "town": "松生町"
  },
  "9230311": {
    "zipcode": "9230311",
    "prefectureCode": "17",
    "prefectureNumber": 17,
    "prefecture": "石川県",
    "city": "小松市",
    "town": "木場町"
  },
  "9230312": {
    "zipcode": "9230312",
    "prefectureCode": "17",
    "prefectureNumber": 17,
    "prefecture": "石川県",
    "city": "小松市",
    "town": "木場台"
  },
  "9230313": {
    "zipcode": "9230313",
    "prefectureCode": "17",
    "prefectureNumber": 17,
    "prefecture": "石川県",
    "city": "小松市",
    "town": "津波倉町"
  },
  "9230314": {
    "zipcode": "9230314",
    "prefectureCode": "17",
    "prefectureNumber": 17,
    "prefecture": "石川県",
    "city": "小松市",
    "town": "おびし町"
  },
  "9230315": {
    "zipcode": "9230315",
    "prefectureCode": "17",
    "prefectureNumber": 17,
    "prefecture": "石川県",
    "city": "小松市",
    "town": "小山田町"
  },
  "9230316": {
    "zipcode": "9230316",
    "prefectureCode": "17",
    "prefectureNumber": 17,
    "prefecture": "石川県",
    "city": "小松市",
    "town": "井口町"
  },
  "9230321": {
    "zipcode": "9230321",
    "prefectureCode": "17",
    "prefectureNumber": 17,
    "prefecture": "石川県",
    "city": "小松市",
    "town": "白山田町"
  },
  "9230322": {
    "zipcode": "9230322",
    "prefectureCode": "17",
    "prefectureNumber": 17,
    "prefecture": "石川県",
    "city": "小松市",
    "town": "牧口町"
  },
  "9230323": {
    "zipcode": "9230323",
    "prefectureCode": "17",
    "prefectureNumber": 17,
    "prefecture": "石川県",
    "city": "小松市",
    "town": "西荒谷町"
  },
  "9230324": {
    "zipcode": "9230324",
    "prefectureCode": "17",
    "prefectureNumber": 17,
    "prefecture": "石川県",
    "city": "小松市",
    "town": "日用町"
  },
  "9230325": {
    "zipcode": "9230325",
    "prefectureCode": "17",
    "prefectureNumber": 17,
    "prefecture": "石川県",
    "city": "小松市",
    "town": "西原町"
  },
  "9230326": {
    "zipcode": "9230326",
    "prefectureCode": "17",
    "prefectureNumber": 17,
    "prefecture": "石川県",
    "city": "小松市",
    "town": "粟津町"
  },
  "9230327": {
    "zipcode": "9230327",
    "prefectureCode": "17",
    "prefectureNumber": 17,
    "prefecture": "石川県",
    "city": "小松市",
    "town": "戸津町"
  },
  "9230328": {
    "zipcode": "9230328",
    "prefectureCode": "17",
    "prefectureNumber": 17,
    "prefecture": "石川県",
    "city": "小松市",
    "town": "南陽町"
  },
  "9230331": {
    "zipcode": "9230331",
    "prefectureCode": "17",
    "prefectureNumber": 17,
    "prefecture": "石川県",
    "city": "小松市",
    "town": "上荒屋町"
  },
  "9230332": {
    "zipcode": "9230332",
    "prefectureCode": "17",
    "prefectureNumber": 17,
    "prefecture": "石川県",
    "city": "小松市",
    "town": "湯上町"
  },
  "9230333": {
    "zipcode": "9230333",
    "prefectureCode": "17",
    "prefectureNumber": 17,
    "prefecture": "石川県",
    "city": "小松市",
    "town": "馬場町"
  },
  "9230334": {
    "zipcode": "9230334",
    "prefectureCode": "17",
    "prefectureNumber": 17,
    "prefecture": "石川県",
    "city": "小松市",
    "town": "菩提町"
  },
  "9230335": {
    "zipcode": "9230335",
    "prefectureCode": "17",
    "prefectureNumber": 17,
    "prefecture": "石川県",
    "city": "小松市",
    "town": "滝ケ原町"
  },
  "9230336": {
    "zipcode": "9230336",
    "prefectureCode": "17",
    "prefectureNumber": 17,
    "prefecture": "石川県",
    "city": "小松市",
    "town": "那谷町"
  },
  "9230341": {
    "zipcode": "9230341",
    "prefectureCode": "17",
    "prefectureNumber": 17,
    "prefecture": "石川県",
    "city": "小松市",
    "town": "春日町"
  },
  "9230342": {
    "zipcode": "9230342",
    "prefectureCode": "17",
    "prefectureNumber": 17,
    "prefecture": "石川県",
    "city": "小松市",
    "town": "矢田野町"
  },
  "9230343": {
    "zipcode": "9230343",
    "prefectureCode": "17",
    "prefectureNumber": 17,
    "prefecture": "石川県",
    "city": "小松市",
    "town": "矢沢町"
  },
  "9230344": {
    "zipcode": "9230344",
    "prefectureCode": "17",
    "prefectureNumber": 17,
    "prefecture": "石川県",
    "city": "小松市",
    "town": "林町"
  },
  "9230345": {
    "zipcode": "9230345",
    "prefectureCode": "17",
    "prefectureNumber": 17,
    "prefecture": "石川県",
    "city": "小松市",
    "town": "二ツ梨町"
  },
  "9230801": {
    "zipcode": "9230801",
    "prefectureCode": "17",
    "prefectureNumber": 17,
    "prefecture": "石川県",
    "city": "小松市",
    "town": "園町"
  },
  "9230802": {
    "zipcode": "9230802",
    "prefectureCode": "17",
    "prefectureNumber": 17,
    "prefecture": "石川県",
    "city": "小松市",
    "town": "上小松町"
  },
  "9230803": {
    "zipcode": "9230803",
    "prefectureCode": "17",
    "prefectureNumber": 17,
    "prefecture": "石川県",
    "city": "小松市",
    "town": "宝町"
  },
  "9230804": {
    "zipcode": "9230804",
    "prefectureCode": "17",
    "prefectureNumber": 17,
    "prefecture": "石川県",
    "city": "小松市",
    "town": "光町"
  },
  "9230805": {
    "zipcode": "9230805",
    "prefectureCode": "17",
    "prefectureNumber": 17,
    "prefecture": "石川県",
    "city": "小松市",
    "town": "御宮町"
  },
  "9230806": {
    "zipcode": "9230806",
    "prefectureCode": "17",
    "prefectureNumber": 17,
    "prefecture": "石川県",
    "city": "小松市",
    "town": "小寺町"
  },
  "9230811": {
    "zipcode": "9230811",
    "prefectureCode": "17",
    "prefectureNumber": 17,
    "prefecture": "石川県",
    "city": "小松市",
    "town": "白江町"
  },
  "9230812": {
    "zipcode": "9230812",
    "prefectureCode": "17",
    "prefectureNumber": 17,
    "prefecture": "石川県",
    "city": "小松市",
    "town": "金屋町"
  },
  "9230813": {
    "zipcode": "9230813",
    "prefectureCode": "17",
    "prefectureNumber": 17,
    "prefecture": "石川県",
    "city": "小松市",
    "town": "糸町"
  },
  "9230814": {
    "zipcode": "9230814",
    "prefectureCode": "17",
    "prefectureNumber": 17,
    "prefecture": "石川県",
    "city": "小松市",
    "town": "白松町"
  },
  "9230821": {
    "zipcode": "9230821",
    "prefectureCode": "17",
    "prefectureNumber": 17,
    "prefecture": "石川県",
    "city": "小松市",
    "town": "佐々木町"
  },
  "9230822": {
    "zipcode": "9230822",
    "prefectureCode": "17",
    "prefectureNumber": 17,
    "prefecture": "石川県",
    "city": "小松市",
    "town": "光陽町"
  },
  "9230823": {
    "zipcode": "9230823",
    "prefectureCode": "17",
    "prefectureNumber": 17,
    "prefecture": "石川県",
    "city": "小松市",
    "town": "荒木田町"
  },
  "9230824": {
    "zipcode": "9230824",
    "prefectureCode": "17",
    "prefectureNumber": 17,
    "prefecture": "石川県",
    "city": "小松市",
    "town": "軽海町"
  },
  "9230825": {
    "zipcode": "9230825",
    "prefectureCode": "17",
    "prefectureNumber": 17,
    "prefecture": "石川県",
    "city": "小松市",
    "town": "西軽海町"
  },
  "9230826": {
    "zipcode": "9230826",
    "prefectureCode": "17",
    "prefectureNumber": 17,
    "prefecture": "石川県",
    "city": "小松市",
    "town": "希望丘"
  },
  "9230831": {
    "zipcode": "9230831",
    "prefectureCode": "17",
    "prefectureNumber": 17,
    "prefecture": "石川県",
    "city": "小松市",
    "town": "打越町"
  },
  "9230832": {
    "zipcode": "9230832",
    "prefectureCode": "17",
    "prefectureNumber": 17,
    "prefecture": "石川県",
    "city": "小松市",
    "town": "若杉町"
  },
  "9230833": {
    "zipcode": "9230833",
    "prefectureCode": "17",
    "prefectureNumber": 17,
    "prefecture": "石川県",
    "city": "小松市",
    "town": "八幡（加賀八幡）"
  },
  "9230834": {
    "zipcode": "9230834",
    "prefectureCode": "17",
    "prefectureNumber": 17,
    "prefecture": "石川県",
    "city": "小松市",
    "town": "千木野町"
  },
  "9230835": {
    "zipcode": "9230835",
    "prefectureCode": "17",
    "prefectureNumber": 17,
    "prefecture": "石川県",
    "city": "小松市",
    "town": "吉竹町"
  },
  "9230836": {
    "zipcode": "9230836",
    "prefectureCode": "17",
    "prefectureNumber": 17,
    "prefecture": "石川県",
    "city": "小松市",
    "town": "鹿町"
  },
  "9230841": {
    "zipcode": "9230841",
    "prefectureCode": "17",
    "prefectureNumber": 17,
    "prefecture": "石川県",
    "city": "小松市",
    "town": "本江町"
  },
  "9230842": {
    "zipcode": "9230842",
    "prefectureCode": "17",
    "prefectureNumber": 17,
    "prefecture": "石川県",
    "city": "小松市",
    "town": "東山町"
  },
  "9230843": {
    "zipcode": "9230843",
    "prefectureCode": "17",
    "prefectureNumber": 17,
    "prefecture": "石川県",
    "city": "小松市",
    "town": "蓮代寺町"
  },
  "9230844": {
    "zipcode": "9230844",
    "prefectureCode": "17",
    "prefectureNumber": 17,
    "prefecture": "石川県",
    "city": "小松市",
    "town": "三谷町"
  },
  "9230851": {
    "zipcode": "9230851",
    "prefectureCode": "17",
    "prefectureNumber": 17,
    "prefecture": "石川県",
    "city": "小松市",
    "town": "北浅井町"
  },
  "9230852": {
    "zipcode": "9230852",
    "prefectureCode": "17",
    "prefectureNumber": 17,
    "prefecture": "石川県",
    "city": "小松市",
    "town": "南浅井町"
  },
  "9230853": {
    "zipcode": "9230853",
    "prefectureCode": "17",
    "prefectureNumber": 17,
    "prefecture": "石川県",
    "city": "小松市",
    "town": "扇町"
  },
  "9230854": {
    "zipcode": "9230854",
    "prefectureCode": "17",
    "prefectureNumber": 17,
    "prefecture": "石川県",
    "city": "小松市",
    "town": "大領町"
  },
  "9230861": {
    "zipcode": "9230861",
    "prefectureCode": "17",
    "prefectureNumber": 17,
    "prefecture": "石川県",
    "city": "小松市",
    "town": "沖町"
  },
  "9230862": {
    "zipcode": "9230862",
    "prefectureCode": "17",
    "prefectureNumber": 17,
    "prefecture": "石川県",
    "city": "小松市",
    "town": "三田町"
  },
  "9230863": {
    "zipcode": "9230863",
    "prefectureCode": "17",
    "prefectureNumber": 17,
    "prefecture": "石川県",
    "city": "小松市",
    "town": "不動島町"
  },
  "9230864": {
    "zipcode": "9230864",
    "prefectureCode": "17",
    "prefectureNumber": 17,
    "prefecture": "石川県",
    "city": "小松市",
    "town": "有明町"
  },
  "9230865": {
    "zipcode": "9230865",
    "prefectureCode": "17",
    "prefectureNumber": 17,
    "prefecture": "石川県",
    "city": "小松市",
    "town": "福乃宮町"
  },
  "9230866": {
    "zipcode": "9230866",
    "prefectureCode": "17",
    "prefectureNumber": 17,
    "prefecture": "石川県",
    "city": "小松市",
    "town": "白嶺町"
  },
  "9230867": {
    "zipcode": "9230867",
    "prefectureCode": "17",
    "prefectureNumber": 17,
    "prefecture": "石川県",
    "city": "小松市",
    "town": "幸町"
  },
  "9230868": {
    "zipcode": "9230868",
    "prefectureCode": "17",
    "prefectureNumber": 17,
    "prefecture": "石川県",
    "city": "小松市",
    "town": "八日市町地方"
  },
  "9230869": {
    "zipcode": "9230869",
    "prefectureCode": "17",
    "prefectureNumber": 17,
    "prefecture": "石川県",
    "city": "小松市",
    "town": "こまつの杜"
  },
  "9230901": {
    "zipcode": "9230901",
    "prefectureCode": "17",
    "prefectureNumber": 17,
    "prefecture": "石川県",
    "city": "小松市",
    "town": "泉町"
  },
  "9230902": {
    "zipcode": "9230902",
    "prefectureCode": "17",
    "prefectureNumber": 17,
    "prefecture": "石川県",
    "city": "小松市",
    "town": "古城町"
  },
  "9230903": {
    "zipcode": "9230903",
    "prefectureCode": "17",
    "prefectureNumber": 17,
    "prefecture": "石川県",
    "city": "小松市",
    "town": "丸内町"
  },
  "9230904": {
    "zipcode": "9230904",
    "prefectureCode": "17",
    "prefectureNumber": 17,
    "prefecture": "石川県",
    "city": "小松市",
    "town": "小馬出町"
  },
  "9230905": {
    "zipcode": "9230905",
    "prefectureCode": "17",
    "prefectureNumber": 17,
    "prefecture": "石川県",
    "city": "小松市",
    "town": "鷹匠町"
  },
  "9230906": {
    "zipcode": "9230906",
    "prefectureCode": "17",
    "prefectureNumber": 17,
    "prefecture": "石川県",
    "city": "小松市",
    "town": "新大工町"
  },
  "9230907": {
    "zipcode": "9230907",
    "prefectureCode": "17",
    "prefectureNumber": 17,
    "prefecture": "石川県",
    "city": "小松市",
    "town": "浜田町"
  },
  "9230908": {
    "zipcode": "9230908",
    "prefectureCode": "17",
    "prefectureNumber": 17,
    "prefecture": "石川県",
    "city": "小松市",
    "town": "浮城町"
  },
  "9230911": {
    "zipcode": "9230911",
    "prefectureCode": "17",
    "prefectureNumber": 17,
    "prefecture": "石川県",
    "city": "小松市",
    "town": "大川町"
  },
  "9230912": {
    "zipcode": "9230912",
    "prefectureCode": "17",
    "prefectureNumber": 17,
    "prefecture": "石川県",
    "city": "小松市",
    "town": "新町"
  },
  "9230913": {
    "zipcode": "9230913",
    "prefectureCode": "17",
    "prefectureNumber": 17,
    "prefecture": "石川県",
    "city": "小松市",
    "town": "松任町"
  },
  "9230914": {
    "zipcode": "9230914",
    "prefectureCode": "17",
    "prefectureNumber": 17,
    "prefecture": "石川県",
    "city": "小松市",
    "town": "新鍛冶町"
  },
  "9230915": {
    "zipcode": "9230915",
    "prefectureCode": "17",
    "prefectureNumber": 17,
    "prefecture": "石川県",
    "city": "小松市",
    "town": "細工町"
  },
  "9230916": {
    "zipcode": "9230916",
    "prefectureCode": "17",
    "prefectureNumber": 17,
    "prefecture": "石川県",
    "city": "小松市",
    "town": "材木町"
  },
  "9230917": {
    "zipcode": "9230917",
    "prefectureCode": "17",
    "prefectureNumber": 17,
    "prefecture": "石川県",
    "city": "小松市",
    "town": "中町"
  },
  "9230918": {
    "zipcode": "9230918",
    "prefectureCode": "17",
    "prefectureNumber": 17,
    "prefecture": "石川県",
    "city": "小松市",
    "town": "京町"
  },
  "9230919": {
    "zipcode": "9230919",
    "prefectureCode": "17",
    "prefectureNumber": 17,
    "prefecture": "石川県",
    "city": "小松市",
    "town": "殿町"
  },
  "9230921": {
    "zipcode": "9230921",
    "prefectureCode": "17",
    "prefectureNumber": 17,
    "prefecture": "石川県",
    "city": "小松市",
    "town": "土居原町"
  },
  "9230922": {
    "zipcode": "9230922",
    "prefectureCode": "17",
    "prefectureNumber": 17,
    "prefecture": "石川県",
    "city": "小松市",
    "town": "飴屋町"
  },
  "9230923": {
    "zipcode": "9230923",
    "prefectureCode": "17",
    "prefectureNumber": 17,
    "prefecture": "石川県",
    "city": "小松市",
    "town": "東町"
  },
  "9230924": {
    "zipcode": "9230924",
    "prefectureCode": "17",
    "prefectureNumber": 17,
    "prefecture": "石川県",
    "city": "小松市",
    "town": "三日市町"
  },
  "9230925": {
    "zipcode": "9230925",
    "prefectureCode": "17",
    "prefectureNumber": 17,
    "prefecture": "石川県",
    "city": "小松市",
    "town": "八日市町"
  },
  "9230926": {
    "zipcode": "9230926",
    "prefectureCode": "17",
    "prefectureNumber": 17,
    "prefecture": "石川県",
    "city": "小松市",
    "town": "龍助町"
  },
  "9230927": {
    "zipcode": "9230927",
    "prefectureCode": "17",
    "prefectureNumber": 17,
    "prefecture": "石川県",
    "city": "小松市",
    "town": "西町"
  },
  "9230931": {
    "zipcode": "9230931",
    "prefectureCode": "17",
    "prefectureNumber": 17,
    "prefecture": "石川県",
    "city": "小松市",
    "town": "大文字町"
  },
  "9230932": {
    "zipcode": "9230932",
    "prefectureCode": "17",
    "prefectureNumber": 17,
    "prefecture": "石川県",
    "city": "小松市",
    "town": "寺町"
  },
  "9230933": {
    "zipcode": "9230933",
    "prefectureCode": "17",
    "prefectureNumber": 17,
    "prefecture": "石川県",
    "city": "小松市",
    "town": "本鍛冶町"
  },
  "9230934": {
    "zipcode": "9230934",
    "prefectureCode": "17",
    "prefectureNumber": 17,
    "prefecture": "石川県",
    "city": "小松市",
    "town": "栄町"
  },
  "9230935": {
    "zipcode": "9230935",
    "prefectureCode": "17",
    "prefectureNumber": 17,
    "prefecture": "石川県",
    "city": "小松市",
    "town": "上寺町"
  },
  "9230936": {
    "zipcode": "9230936",
    "prefectureCode": "17",
    "prefectureNumber": 17,
    "prefecture": "石川県",
    "city": "小松市",
    "town": "本大工町"
  },
  "9230937": {
    "zipcode": "9230937",
    "prefectureCode": "17",
    "prefectureNumber": 17,
    "prefecture": "石川県",
    "city": "小松市",
    "town": "本町"
  },
  "9230938": {
    "zipcode": "9230938",
    "prefectureCode": "17",
    "prefectureNumber": 17,
    "prefecture": "石川県",
    "city": "小松市",
    "town": "芦田町"
  },
  "9230941": {
    "zipcode": "9230941",
    "prefectureCode": "17",
    "prefectureNumber": 17,
    "prefecture": "石川県",
    "city": "小松市",
    "town": "城南町"
  },
  "9230942": {
    "zipcode": "9230942",
    "prefectureCode": "17",
    "prefectureNumber": 17,
    "prefecture": "石川県",
    "city": "小松市",
    "town": "桜木町"
  },
  "9230943": {
    "zipcode": "9230943",
    "prefectureCode": "17",
    "prefectureNumber": 17,
    "prefecture": "石川県",
    "city": "小松市",
    "town": "育成町"
  },
  "9230944": {
    "zipcode": "9230944",
    "prefectureCode": "17",
    "prefectureNumber": 17,
    "prefecture": "石川県",
    "city": "小松市",
    "town": "古河町"
  },
  "9230945": {
    "zipcode": "9230945",
    "prefectureCode": "17",
    "prefectureNumber": 17,
    "prefecture": "石川県",
    "city": "小松市",
    "town": "末広町"
  },
  "9230946": {
    "zipcode": "9230946",
    "prefectureCode": "17",
    "prefectureNumber": 17,
    "prefecture": "石川県",
    "city": "小松市",
    "town": "相生町"
  },
  "9230947": {
    "zipcode": "9230947",
    "prefectureCode": "17",
    "prefectureNumber": 17,
    "prefecture": "石川県",
    "city": "小松市",
    "town": "日吉町"
  },
  "9230948": {
    "zipcode": "9230948",
    "prefectureCode": "17",
    "prefectureNumber": 17,
    "prefecture": "石川県",
    "city": "小松市",
    "town": "錦町"
  },
  "9230951": {
    "zipcode": "9230951",
    "prefectureCode": "17",
    "prefectureNumber": 17,
    "prefecture": "石川県",
    "city": "小松市",
    "town": "白山町"
  },
  "9230952": {
    "zipcode": "9230952",
    "prefectureCode": "17",
    "prefectureNumber": 17,
    "prefecture": "石川県",
    "city": "小松市",
    "town": "大和町"
  },
  "9230953": {
    "zipcode": "9230953",
    "prefectureCode": "17",
    "prefectureNumber": 17,
    "prefecture": "石川県",
    "city": "小松市",
    "town": "旭町"
  },
  "9230954": {
    "zipcode": "9230954",
    "prefectureCode": "17",
    "prefectureNumber": 17,
    "prefecture": "石川県",
    "city": "小松市",
    "town": "八幡町"
  },
  "9230955": {
    "zipcode": "9230955",
    "prefectureCode": "17",
    "prefectureNumber": 17,
    "prefecture": "石川県",
    "city": "小松市",
    "town": "上本折町"
  },
  "9230956": {
    "zipcode": "9230956",
    "prefectureCode": "17",
    "prefectureNumber": 17,
    "prefecture": "石川県",
    "city": "小松市",
    "town": "西本折町"
  },
  "9230957": {
    "zipcode": "9230957",
    "prefectureCode": "17",
    "prefectureNumber": 17,
    "prefecture": "石川県",
    "city": "小松市",
    "town": "本折町"
  },
  "9230958": {
    "zipcode": "9230958",
    "prefectureCode": "17",
    "prefectureNumber": 17,
    "prefecture": "石川県",
    "city": "小松市",
    "town": "清水町"
  },
  "9230961": {
    "zipcode": "9230961",
    "prefectureCode": "17",
    "prefectureNumber": 17,
    "prefecture": "石川県",
    "city": "小松市",
    "town": "向本折町"
  },
  "9230962": {
    "zipcode": "9230962",
    "prefectureCode": "17",
    "prefectureNumber": 17,
    "prefecture": "石川県",
    "city": "小松市",
    "town": "大領中町"
  },
  "9230963": {
    "zipcode": "9230963",
    "prefectureCode": "17",
    "prefectureNumber": 17,
    "prefecture": "石川県",
    "city": "小松市",
    "town": "須天町"
  },
  "9230964": {
    "zipcode": "9230964",
    "prefectureCode": "17",
    "prefectureNumber": 17,
    "prefecture": "石川県",
    "city": "小松市",
    "town": "今江町"
  },
  "9230965": {
    "zipcode": "9230965",
    "prefectureCode": "17",
    "prefectureNumber": 17,
    "prefecture": "石川県",
    "city": "小松市",
    "town": "野立町"
  },
  "9230966": {
    "zipcode": "9230966",
    "prefectureCode": "17",
    "prefectureNumber": 17,
    "prefecture": "石川県",
    "city": "小松市",
    "town": "串茶屋町"
  },
  "9230967": {
    "zipcode": "9230967",
    "prefectureCode": "17",
    "prefectureNumber": 17,
    "prefecture": "石川県",
    "city": "小松市",
    "town": "青路町"
  },
  "9230968": {
    "zipcode": "9230968",
    "prefectureCode": "17",
    "prefectureNumber": 17,
    "prefecture": "石川県",
    "city": "小松市",
    "town": "村松町"
  },
  "9230971": {
    "zipcode": "9230971",
    "prefectureCode": "17",
    "prefectureNumber": 17,
    "prefecture": "石川県",
    "city": "小松市",
    "town": "四丁町"
  },
  "9230972": {
    "zipcode": "9230972",
    "prefectureCode": "17",
    "prefectureNumber": 17,
    "prefecture": "石川県",
    "city": "小松市",
    "town": "月津町"
  },
  "9230973": {
    "zipcode": "9230973",
    "prefectureCode": "17",
    "prefectureNumber": 17,
    "prefecture": "石川県",
    "city": "小松市",
    "town": "扇原町"
  },
  "9230974": {
    "zipcode": "9230974",
    "prefectureCode": "17",
    "prefectureNumber": 17,
    "prefecture": "石川県",
    "city": "小松市",
    "town": "月美丘"
  },
  "9230975": {
    "zipcode": "9230975",
    "prefectureCode": "17",
    "prefectureNumber": 17,
    "prefecture": "石川県",
    "city": "小松市",
    "town": "矢田町"
  },
  "9230976": {
    "zipcode": "9230976",
    "prefectureCode": "17",
    "prefectureNumber": 17,
    "prefecture": "石川県",
    "city": "小松市",
    "town": "矢田新町"
  },
  "9230977": {
    "zipcode": "9230977",
    "prefectureCode": "17",
    "prefectureNumber": 17,
    "prefecture": "石川県",
    "city": "小松市",
    "town": "額見町"
  },
  "9230981": {
    "zipcode": "9230981",
    "prefectureCode": "17",
    "prefectureNumber": 17,
    "prefecture": "石川県",
    "city": "小松市",
    "town": "拓栄町"
  },
  "9230982": {
    "zipcode": "9230982",
    "prefectureCode": "17",
    "prefectureNumber": 17,
    "prefecture": "石川県",
    "city": "小松市",
    "town": "松崎町"
  },
  "9230983": {
    "zipcode": "9230983",
    "prefectureCode": "17",
    "prefectureNumber": 17,
    "prefecture": "石川県",
    "city": "小松市",
    "town": "日末町"
  },
  "9230984": {
    "zipcode": "9230984",
    "prefectureCode": "17",
    "prefectureNumber": 17,
    "prefecture": "石川県",
    "city": "小松市",
    "town": "佐美町"
  },
  "9230985": {
    "zipcode": "9230985",
    "prefectureCode": "17",
    "prefectureNumber": 17,
    "prefecture": "石川県",
    "city": "小松市",
    "town": "浜佐美町"
  },
  "9230991": {
    "zipcode": "9230991",
    "prefectureCode": "17",
    "prefectureNumber": 17,
    "prefecture": "石川県",
    "city": "小松市",
    "town": "木曽町"
  },
  "9230992": {
    "zipcode": "9230992",
    "prefectureCode": "17",
    "prefectureNumber": 17,
    "prefecture": "石川県",
    "city": "小松市",
    "town": "鶴ケ島町"
  },
  "9230993": {
    "zipcode": "9230993",
    "prefectureCode": "17",
    "prefectureNumber": 17,
    "prefecture": "石川県",
    "city": "小松市",
    "town": "浮柳町"
  },
  "9230994": {
    "zipcode": "9230994",
    "prefectureCode": "17",
    "prefectureNumber": 17,
    "prefecture": "石川県",
    "city": "小松市",
    "town": "工業団地"
  },
  "9230995": {
    "zipcode": "9230995",
    "prefectureCode": "17",
    "prefectureNumber": 17,
    "prefecture": "石川県",
    "city": "小松市",
    "town": "安宅新町"
  },
  "9230996": {
    "zipcode": "9230996",
    "prefectureCode": "17",
    "prefectureNumber": 17,
    "prefecture": "石川県",
    "city": "小松市",
    "town": "草野町"
  },
  "9230997": {
    "zipcode": "9230997",
    "prefectureCode": "17",
    "prefectureNumber": 17,
    "prefecture": "石川県",
    "city": "小松市",
    "town": "浜佐美本町"
  },
  "9230998": {
    "zipcode": "9230998",
    "prefectureCode": "17",
    "prefectureNumber": 17,
    "prefecture": "石川県",
    "city": "小松市",
    "town": "義仲町"
  },
  "9231100": {
    "zipcode": "9231100",
    "prefectureCode": "17",
    "prefectureNumber": 17,
    "prefecture": "石川県",
    "city": "能美市",
    "town": "以下に掲載がない場合"
  },
  "9231101": {
    "zipcode": "9231101",
    "prefectureCode": "17",
    "prefectureNumber": 17,
    "prefecture": "石川県",
    "city": "能美市",
    "town": "粟生町"
  },
  "9231102": {
    "zipcode": "9231102",
    "prefectureCode": "17",
    "prefectureNumber": 17,
    "prefecture": "石川県",
    "city": "能美市",
    "town": "新保町"
  },
  "9231103": {
    "zipcode": "9231103",
    "prefectureCode": "17",
    "prefectureNumber": 17,
    "prefecture": "石川県",
    "city": "能美市",
    "town": "秋常町"
  },
  "9231104": {
    "zipcode": "9231104",
    "prefectureCode": "17",
    "prefectureNumber": 17,
    "prefecture": "石川県",
    "city": "能美市",
    "town": "湯谷町"
  },
  "9231105": {
    "zipcode": "9231105",
    "prefectureCode": "17",
    "prefectureNumber": 17,
    "prefecture": "石川県",
    "city": "能美市",
    "town": "石子町"
  },
  "9231106": {
    "zipcode": "9231106",
    "prefectureCode": "17",
    "prefectureNumber": 17,
    "prefecture": "石川県",
    "city": "能美市",
    "town": "和田町"
  },
  "9231107": {
    "zipcode": "9231107",
    "prefectureCode": "17",
    "prefectureNumber": 17,
    "prefecture": "石川県",
    "city": "能美市",
    "town": "末寺町"
  },
  "9231111": {
    "zipcode": "9231111",
    "prefectureCode": "17",
    "prefectureNumber": 17,
    "prefecture": "石川県",
    "city": "能美市",
    "town": "泉台町"
  },
  "9231112": {
    "zipcode": "9231112",
    "prefectureCode": "17",
    "prefectureNumber": 17,
    "prefecture": "石川県",
    "city": "能美市",
    "town": "佐野町"
  },
  "9231113": {
    "zipcode": "9231113",
    "prefectureCode": "17",
    "prefectureNumber": 17,
    "prefecture": "石川県",
    "city": "能美市",
    "town": "牛島町"
  },
  "9231114": {
    "zipcode": "9231114",
    "prefectureCode": "17",
    "prefectureNumber": 17,
    "prefecture": "石川県",
    "city": "能美市",
    "town": "小杉町"
  },
  "9231115": {
    "zipcode": "9231115",
    "prefectureCode": "17",
    "prefectureNumber": 17,
    "prefecture": "石川県",
    "city": "能美市",
    "town": "大長野町"
  },
  "9231116": {
    "zipcode": "9231116",
    "prefectureCode": "17",
    "prefectureNumber": 17,
    "prefecture": "石川県",
    "city": "能美市",
    "town": "小長野町"
  },
  "9231117": {
    "zipcode": "9231117",
    "prefectureCode": "17",
    "prefectureNumber": 17,
    "prefecture": "石川県",
    "city": "能美市",
    "town": "末信町"
  },
  "9231121": {
    "zipcode": "9231121",
    "prefectureCode": "17",
    "prefectureNumber": 17,
    "prefecture": "石川県",
    "city": "能美市",
    "town": "寺井町"
  },
  "9231122": {
    "zipcode": "9231122",
    "prefectureCode": "17",
    "prefectureNumber": 17,
    "prefecture": "石川県",
    "city": "能美市",
    "town": "東任田町"
  },
  "9231123": {
    "zipcode": "9231123",
    "prefectureCode": "17",
    "prefectureNumber": 17,
    "prefecture": "石川県",
    "city": "能美市",
    "town": "吉光町"
  },
  "9231124": {
    "zipcode": "9231124",
    "prefectureCode": "17",
    "prefectureNumber": 17,
    "prefecture": "石川県",
    "city": "能美市",
    "town": "三道山町"
  },
  "9231200": {
    "zipcode": "9231200",
    "prefectureCode": "17",
    "prefectureNumber": 17,
    "prefecture": "石川県",
    "city": "能美郡川北町",
    "town": "以下に掲載がない場合"
  },
  "9231201": {
    "zipcode": "9231201",
    "prefectureCode": "17",
    "prefectureNumber": 17,
    "prefecture": "石川県",
    "city": "能美市",
    "town": "岩内町"
  },
  "9231202": {
    "zipcode": "9231202",
    "prefectureCode": "17",
    "prefectureNumber": 17,
    "prefecture": "石川県",
    "city": "能美市",
    "town": "莇生町"
  },
  "9231203": {
    "zipcode": "9231203",
    "prefectureCode": "17",
    "prefectureNumber": 17,
    "prefecture": "石川県",
    "city": "能美市",
    "town": "三ツ口町"
  },
  "9231204": {
    "zipcode": "9231204",
    "prefectureCode": "17",
    "prefectureNumber": 17,
    "prefecture": "石川県",
    "city": "能美市",
    "town": "長滝町"
  },
  "9231205": {
    "zipcode": "9231205",
    "prefectureCode": "17",
    "prefectureNumber": 17,
    "prefecture": "石川県",
    "city": "能美市",
    "town": "宮竹町"
  },
  "9231206": {
    "zipcode": "9231206",
    "prefectureCode": "17",
    "prefectureNumber": 17,
    "prefecture": "石川県",
    "city": "能美市",
    "town": "灯台笹町"
  },
  "9231207": {
    "zipcode": "9231207",
    "prefectureCode": "17",
    "prefectureNumber": 17,
    "prefecture": "石川県",
    "city": "能美市",
    "town": "岩本町"
  },
  "9231208": {
    "zipcode": "9231208",
    "prefectureCode": "17",
    "prefectureNumber": 17,
    "prefecture": "石川県",
    "city": "能美市",
    "town": "和佐谷町"
  },
  "9231211": {
    "zipcode": "9231211",
    "prefectureCode": "17",
    "prefectureNumber": 17,
    "prefecture": "石川県",
    "city": "能美市",
    "town": "旭台"
  },
  "9231212": {
    "zipcode": "9231212",
    "prefectureCode": "17",
    "prefectureNumber": 17,
    "prefecture": "石川県",
    "city": "能美市",
    "town": "大口町"
  },
  "9231213": {
    "zipcode": "9231213",
    "prefectureCode": "17",
    "prefectureNumber": 17,
    "prefecture": "石川県",
    "city": "能美市",
    "town": "坪野町"
  },
  "9231214": {
    "zipcode": "9231214",
    "prefectureCode": "17",
    "prefectureNumber": 17,
    "prefecture": "石川県",
    "city": "能美市",
    "town": "金剛寺町"
  },
  "9231215": {
    "zipcode": "9231215",
    "prefectureCode": "17",
    "prefectureNumber": 17,
    "prefecture": "石川県",
    "city": "能美市",
    "town": "舘町"
  },
  "9231216": {
    "zipcode": "9231216",
    "prefectureCode": "17",
    "prefectureNumber": 17,
    "prefecture": "石川県",
    "city": "能美市",
    "town": "鍋谷町"
  },
  "9231217": {
    "zipcode": "9231217",
    "prefectureCode": "17",
    "prefectureNumber": 17,
    "prefecture": "石川県",
    "city": "能美市",
    "town": "仏大寺町"
  },
  "9231221": {
    "zipcode": "9231221",
    "prefectureCode": "17",
    "prefectureNumber": 17,
    "prefecture": "石川県",
    "city": "能美市",
    "town": "湯屋町"
  },
  "9231222": {
    "zipcode": "9231222",
    "prefectureCode": "17",
    "prefectureNumber": 17,
    "prefecture": "石川県",
    "city": "能美市",
    "town": "徳山町"
  },
  "9231223": {
    "zipcode": "9231223",
    "prefectureCode": "17",
    "prefectureNumber": 17,
    "prefecture": "石川県",
    "city": "能美市",
    "town": "寺畠町"
  },
  "9231224": {
    "zipcode": "9231224",
    "prefectureCode": "17",
    "prefectureNumber": 17,
    "prefecture": "石川県",
    "city": "能美市",
    "town": "和気町"
  },
  "9231225": {
    "zipcode": "9231225",
    "prefectureCode": "17",
    "prefectureNumber": 17,
    "prefecture": "石川県",
    "city": "能美市",
    "town": "松が岡"
  },
  "9231226": {
    "zipcode": "9231226",
    "prefectureCode": "17",
    "prefectureNumber": 17,
    "prefecture": "石川県",
    "city": "能美市",
    "town": "緑が丘"
  },
  "9231227": {
    "zipcode": "9231227",
    "prefectureCode": "17",
    "prefectureNumber": 17,
    "prefecture": "石川県",
    "city": "能美市",
    "town": "和光台"
  },
  "9231231": {
    "zipcode": "9231231",
    "prefectureCode": "17",
    "prefectureNumber": 17,
    "prefecture": "石川県",
    "city": "能美市",
    "town": "上開発町"
  },
  "9231232": {
    "zipcode": "9231232",
    "prefectureCode": "17",
    "prefectureNumber": 17,
    "prefecture": "石川県",
    "city": "能美市",
    "town": "下開発町"
  },
  "9231233": {
    "zipcode": "9231233",
    "prefectureCode": "17",
    "prefectureNumber": 17,
    "prefecture": "石川県",
    "city": "能美市",
    "town": "荒屋町"
  },
  "9231234": {
    "zipcode": "9231234",
    "prefectureCode": "17",
    "prefectureNumber": 17,
    "prefecture": "石川県",
    "city": "能美市",
    "town": "高座町"
  },
  "9231235": {
    "zipcode": "9231235",
    "prefectureCode": "17",
    "prefectureNumber": 17,
    "prefecture": "石川県",
    "city": "能美市",
    "town": "徳久町"
  },
  "9231236": {
    "zipcode": "9231236",
    "prefectureCode": "17",
    "prefectureNumber": 17,
    "prefecture": "石川県",
    "city": "能美市",
    "town": "北市町"
  },
  "9231237": {
    "zipcode": "9231237",
    "prefectureCode": "17",
    "prefectureNumber": 17,
    "prefecture": "石川県",
    "city": "能美市",
    "town": "上清水町"
  },
  "9231238": {
    "zipcode": "9231238",
    "prefectureCode": "17",
    "prefectureNumber": 17,
    "prefecture": "石川県",
    "city": "能美市",
    "town": "下清水町"
  },
  "9231241": {
    "zipcode": "9231241",
    "prefectureCode": "17",
    "prefectureNumber": 17,
    "prefecture": "石川県",
    "city": "能美市",
    "town": "山田町"
  },
  "9231242": {
    "zipcode": "9231242",
    "prefectureCode": "17",
    "prefectureNumber": 17,
    "prefecture": "石川県",
    "city": "能美市",
    "town": "火釜町"
  },
  "9231243": {
    "zipcode": "9231243",
    "prefectureCode": "17",
    "prefectureNumber": 17,
    "prefecture": "石川県",
    "city": "能美市",
    "town": "三ツ屋町"
  },
  "9231244": {
    "zipcode": "9231244",
    "prefectureCode": "17",
    "prefectureNumber": 17,
    "prefecture": "石川県",
    "city": "能美市",
    "town": "来丸町"
  },
  "9231245": {
    "zipcode": "9231245",
    "prefectureCode": "17",
    "prefectureNumber": 17,
    "prefecture": "石川県",
    "city": "能美市",
    "town": "辰口町"
  },
  "9231246": {
    "zipcode": "9231246",
    "prefectureCode": "17",
    "prefectureNumber": 17,
    "prefecture": "石川県",
    "city": "能美市",
    "town": "倉重町"
  },
  "9231247": {
    "zipcode": "9231247",
    "prefectureCode": "17",
    "prefectureNumber": 17,
    "prefecture": "石川県",
    "city": "能美市",
    "town": "出口町"
  },
  "9231251": {
    "zipcode": "9231251",
    "prefectureCode": "17",
    "prefectureNumber": 17,
    "prefecture": "石川県",
    "city": "能美郡川北町",
    "town": "藤蔵"
  },
  "9231252": {
    "zipcode": "9231252",
    "prefectureCode": "17",
    "prefectureNumber": 17,
    "prefecture": "石川県",
    "city": "能美郡川北町",
    "town": "中島"
  },
  "9231253": {
    "zipcode": "9231253",
    "prefectureCode": "17",
    "prefectureNumber": 17,
    "prefecture": "石川県",
    "city": "能美郡川北町",
    "town": "三反田"
  },
  "9231254": {
    "zipcode": "9231254",
    "prefectureCode": "17",
    "prefectureNumber": 17,
    "prefecture": "石川県",
    "city": "能美郡川北町",
    "town": "サンコーポラス"
  },
  "9231261": {
    "zipcode": "9231261",
    "prefectureCode": "17",
    "prefectureNumber": 17,
    "prefecture": "石川県",
    "city": "能美郡川北町",
    "town": "土室"
  },
  "9231262": {
    "zipcode": "9231262",
    "prefectureCode": "17",
    "prefectureNumber": 17,
    "prefecture": "石川県",
    "city": "能美郡川北町",
    "town": "草深"
  },
  "9231263": {
    "zipcode": "9231263",
    "prefectureCode": "17",
    "prefectureNumber": 17,
    "prefecture": "石川県",
    "city": "能美郡川北町",
    "town": "下土室"
  },
  "9231264": {
    "zipcode": "9231264",
    "prefectureCode": "17",
    "prefectureNumber": 17,
    "prefecture": "石川県",
    "city": "能美郡川北町",
    "town": "山田先出"
  },
  "9231265": {
    "zipcode": "9231265",
    "prefectureCode": "17",
    "prefectureNumber": 17,
    "prefecture": "石川県",
    "city": "能美郡川北町",
    "town": "上先出"
  },
  "9231266": {
    "zipcode": "9231266",
    "prefectureCode": "17",
    "prefectureNumber": 17,
    "prefecture": "石川県",
    "city": "能美郡川北町",
    "town": "下先出"
  },
  "9231267": {
    "zipcode": "9231267",
    "prefectureCode": "17",
    "prefectureNumber": 17,
    "prefecture": "石川県",
    "city": "能美郡川北町",
    "town": "壱ツ屋"
  },
  "9231268": {
    "zipcode": "9231268",
    "prefectureCode": "17",
    "prefectureNumber": 17,
    "prefecture": "石川県",
    "city": "能美郡川北町",
    "town": "与九郎島"
  },
  "9231269": {
    "zipcode": "9231269",
    "prefectureCode": "17",
    "prefectureNumber": 17,
    "prefecture": "石川県",
    "city": "能美郡川北町",
    "town": "上田子島"
  },
  "9231271": {
    "zipcode": "9231271",
    "prefectureCode": "17",
    "prefectureNumber": 17,
    "prefecture": "石川県",
    "city": "能美郡川北町",
    "town": "田子島"
  },
  "9231272": {
    "zipcode": "9231272",
    "prefectureCode": "17",
    "prefectureNumber": 17,
    "prefecture": "石川県",
    "city": "能美郡川北町",
    "town": "下田子島"
  },
  "9231273": {
    "zipcode": "9231273",
    "prefectureCode": "17",
    "prefectureNumber": 17,
    "prefecture": "石川県",
    "city": "能美郡川北町",
    "town": "舟場島"
  },
  "9231274": {
    "zipcode": "9231274",
    "prefectureCode": "17",
    "prefectureNumber": 17,
    "prefecture": "石川県",
    "city": "能美郡川北町",
    "town": "木呂場"
  },
  "9231275": {
    "zipcode": "9231275",
    "prefectureCode": "17",
    "prefectureNumber": 17,
    "prefecture": "石川県",
    "city": "能美郡川北町",
    "town": "木呂場新"
  },
  "9231276": {
    "zipcode": "9231276",
    "prefectureCode": "17",
    "prefectureNumber": 17,
    "prefecture": "石川県",
    "city": "能美郡川北町",
    "town": "橘"
  },
  "9231277": {
    "zipcode": "9231277",
    "prefectureCode": "17",
    "prefectureNumber": 17,
    "prefecture": "石川県",
    "city": "能美郡川北町",
    "town": "橘新"
  },
  "9231278": {
    "zipcode": "9231278",
    "prefectureCode": "17",
    "prefectureNumber": 17,
    "prefecture": "石川県",
    "city": "能美郡川北町",
    "town": "朝日"
  }
}
