{
  "9240000": {
    "zipcode": "9240000",
    "prefectureCode": "17",
    "prefectureNumber": 17,
    "prefecture": "石川県",
    "city": "白山市",
    "town": "以下に掲載がない場合"
  },
  "9240001": {
    "zipcode": "9240001",
    "prefectureCode": "17",
    "prefectureNumber": 17,
    "prefecture": "石川県",
    "city": "白山市",
    "town": "八田町"
  },
  "9240002": {
    "zipcode": "9240002",
    "prefectureCode": "17",
    "prefectureNumber": 17,
    "prefecture": "石川県",
    "city": "白山市",
    "town": "八田中町"
  },
  "9240003": {
    "zipcode": "9240003",
    "prefectureCode": "17",
    "prefectureNumber": 17,
    "prefecture": "石川県",
    "city": "白山市",
    "town": "中新保町"
  },
  "9240004": {
    "zipcode": "9240004",
    "prefectureCode": "17",
    "prefectureNumber": 17,
    "prefecture": "石川県",
    "city": "白山市",
    "town": "旭丘"
  },
  "9240005": {
    "zipcode": "9240005",
    "prefectureCode": "17",
    "prefectureNumber": 17,
    "prefecture": "石川県",
    "city": "白山市",
    "town": "一塚町"
  },
  "9240006": {
    "zipcode": "9240006",
    "prefectureCode": "17",
    "prefectureNumber": 17,
    "prefecture": "石川県",
    "city": "白山市",
    "town": "村井新町"
  },
  "9240007": {
    "zipcode": "9240007",
    "prefectureCode": "17",
    "prefectureNumber": 17,
    "prefecture": "石川県",
    "city": "白山市",
    "town": "倉部町"
  },
  "9240011": {
    "zipcode": "9240011",
    "prefectureCode": "17",
    "prefectureNumber": 17,
    "prefecture": "石川県",
    "city": "白山市",
    "town": "横江町"
  },
  "9240012": {
    "zipcode": "9240012",
    "prefectureCode": "17",
    "prefectureNumber": 17,
    "prefecture": "石川県",
    "city": "白山市",
    "town": "福増町"
  },
  "9240013": {
    "zipcode": "9240013",
    "prefectureCode": "17",
    "prefectureNumber": 17,
    "prefecture": "石川県",
    "city": "白山市",
    "town": "番匠町"
  },
  "9240014": {
    "zipcode": "9240014",
    "prefectureCode": "17",
    "prefectureNumber": 17,
    "prefecture": "石川県",
    "city": "白山市",
    "town": "五歩市町"
  },
  "9240015": {
    "zipcode": "9240015",
    "prefectureCode": "17",
    "prefectureNumber": 17,
    "prefecture": "石川県",
    "city": "白山市",
    "town": "新田町"
  },
  "9240016": {
    "zipcode": "9240016",
    "prefectureCode": "17",
    "prefectureNumber": 17,
    "prefecture": "石川県",
    "city": "白山市",
    "town": "宮永市町"
  },
  "9240017": {
    "zipcode": "9240017",
    "prefectureCode": "17",
    "prefectureNumber": 17,
    "prefecture": "石川県",
    "city": "白山市",
    "town": "宮永町"
  },
  "9240018": {
    "zipcode": "9240018",
    "prefectureCode": "17",
    "prefectureNumber": 17,
    "prefecture": "石川県",
    "city": "白山市",
    "town": "宮永新町"
  },
  "9240019": {
    "zipcode": "9240019",
    "prefectureCode": "17",
    "prefectureNumber": 17,
    "prefecture": "石川県",
    "city": "白山市",
    "town": "あさひ荘苑"
  },
  "9240020": {
    "zipcode": "9240020",
    "prefectureCode": "17",
    "prefectureNumber": 17,
    "prefecture": "石川県",
    "city": "白山市",
    "town": "新成"
  },
  "9240021": {
    "zipcode": "9240021",
    "prefectureCode": "17",
    "prefectureNumber": 17,
    "prefecture": "石川県",
    "city": "白山市",
    "town": "竹松町"
  },
  "9240022": {
    "zipcode": "9240022",
    "prefectureCode": "17",
    "prefectureNumber": 17,
    "prefecture": "石川県",
    "city": "白山市",
    "town": "相木町"
  },
  "9240023": {
    "zipcode": "9240023",
    "prefectureCode": "17",
    "prefectureNumber": 17,
    "prefecture": "石川県",
    "city": "白山市",
    "town": "成町"
  },
  "9240024": {
    "zipcode": "9240024",
    "prefectureCode": "17",
    "prefectureNumber": 17,
    "prefecture": "石川県",
    "city": "白山市",
    "town": "北安田町"
  },
  "9240025": {
    "zipcode": "9240025",
    "prefectureCode": "17",
    "prefectureNumber": 17,
    "prefecture": "石川県",
    "city": "白山市",
    "town": "蕪城"
  },
  "9240026": {
    "zipcode": "9240026",
    "prefectureCode": "17",
    "prefectureNumber": 17,
    "prefecture": "石川県",
    "city": "白山市",
    "town": "平木町"
  },
  "9240027": {
    "zipcode": "9240027",
    "prefectureCode": "17",
    "prefectureNumber": 17,
    "prefecture": "石川県",
    "city": "白山市",
    "town": "相川町"
  },
  "9240028": {
    "zipcode": "9240028",
    "prefectureCode": "17",
    "prefectureNumber": 17,
    "prefecture": "石川県",
    "city": "白山市",
    "town": "相川新町"
  },
  "9240029": {
    "zipcode": "9240029",
    "prefectureCode": "17",
    "prefectureNumber": 17,
    "prefecture": "石川県",
    "city": "白山市",
    "town": "中成"
  },
  "9240030": {
    "zipcode": "9240030",
    "prefectureCode": "17",
    "prefectureNumber": 17,
    "prefecture": "石川県",
    "city": "白山市",
    "town": "北成町"
  },
  "9240031": {
    "zipcode": "9240031",
    "prefectureCode": "17",
    "prefectureNumber": 17,
    "prefecture": "石川県",
    "city": "白山市",
    "town": "村井東"
  },
  "9240032": {
    "zipcode": "9240032",
    "prefectureCode": "17",
    "prefectureNumber": 17,
    "prefecture": "石川県",
    "city": "白山市",
    "town": "村井町"
  },
  "9240033": {
    "zipcode": "9240033",
    "prefectureCode": "17",
    "prefectureNumber": 17,
    "prefecture": "石川県",
    "city": "白山市",
    "town": "宮丸町"
  },
  "9240034": {
    "zipcode": "9240034",
    "prefectureCode": "17",
    "prefectureNumber": 17,
    "prefecture": "石川県",
    "city": "白山市",
    "town": "小上町"
  },
  "9240035": {
    "zipcode": "9240035",
    "prefectureCode": "17",
    "prefectureNumber": 17,
    "prefecture": "石川県",
    "city": "白山市",
    "town": "上柏野町"
  },
  "9240036": {
    "zipcode": "9240036",
    "prefectureCode": "17",
    "prefectureNumber": 17,
    "prefecture": "石川県",
    "city": "白山市",
    "town": "中柏野町"
  },
  "9240037": {
    "zipcode": "9240037",
    "prefectureCode": "17",
    "prefectureNumber": 17,
    "prefecture": "石川県",
    "city": "白山市",
    "town": "荒屋柏野町"
  },
  "9240038": {
    "zipcode": "9240038",
    "prefectureCode": "17",
    "prefectureNumber": 17,
    "prefecture": "石川県",
    "city": "白山市",
    "town": "下柏野町"
  },
  "9240039": {
    "zipcode": "9240039",
    "prefectureCode": "17",
    "prefectureNumber": 17,
    "prefecture": "石川県",
    "city": "白山市",
    "town": "北安田西"
  },
  "9240041": {
    "zipcode": "9240041",
    "prefectureCode": "17",
    "prefectureNumber": 17,
    "prefecture": "石川県",
    "city": "白山市",
    "town": "東美沢野町"
  },
  "9240042": {
    "zipcode": "9240042",
    "prefectureCode": "17",
    "prefectureNumber": 17,
    "prefecture": "石川県",
    "city": "白山市",
    "town": "東柏町"
  },
  "9240043": {
    "zipcode": "9240043",
    "prefectureCode": "17",
    "prefectureNumber": 17,
    "prefecture": "石川県",
    "city": "白山市",
    "town": "柏町"
  },
  "9240044": {
    "zipcode": "9240044",
    "prefectureCode": "17",
    "prefectureNumber": 17,
    "prefecture": "石川県",
    "city": "白山市",
    "town": "西柏町"
  },
  "9240045": {
    "zipcode": "9240045",
    "prefectureCode": "17",
    "prefectureNumber": 17,
    "prefecture": "石川県",
    "city": "白山市",
    "town": "西柏"
  },
  "9240046": {
    "zipcode": "9240046",
    "prefectureCode": "17",
    "prefectureNumber": 17,
    "prefecture": "石川県",
    "city": "白山市",
    "town": "西美沢野"
  },
  "9240047": {
    "zipcode": "9240047",
    "prefectureCode": "17",
    "prefectureNumber": 17,
    "prefecture": "石川県",
    "city": "白山市",
    "town": "西美沢野町"
  },
  "9240048": {
    "zipcode": "9240048",
    "prefectureCode": "17",
    "prefectureNumber": 17,
    "prefecture": "石川県",
    "city": "白山市",
    "town": "美沢野町"
  },
  "9240051": {
    "zipcode": "9240051",
    "prefectureCode": "17",
    "prefectureNumber": 17,
    "prefecture": "石川県",
    "city": "白山市",
    "town": "福留町"
  },
  "9240052": {
    "zipcode": "9240052",
    "prefectureCode": "17",
    "prefectureNumber": 17,
    "prefecture": "石川県",
    "city": "白山市",
    "town": "源兵島町"
  },
  "9240053": {
    "zipcode": "9240053",
    "prefectureCode": "17",
    "prefectureNumber": 17,
    "prefecture": "石川県",
    "city": "白山市",
    "town": "水澄町"
  },
  "9240054": {
    "zipcode": "9240054",
    "prefectureCode": "17",
    "prefectureNumber": 17,
    "prefecture": "石川県",
    "city": "白山市",
    "town": "米光町"
  },
  "9240055": {
    "zipcode": "9240055",
    "prefectureCode": "17",
    "prefectureNumber": 17,
    "prefecture": "石川県",
    "city": "白山市",
    "town": "北島町"
  },
  "9240056": {
    "zipcode": "9240056",
    "prefectureCode": "17",
    "prefectureNumber": 17,
    "prefecture": "石川県",
    "city": "白山市",
    "town": "阿弥陀島町"
  },
  "9240057": {
    "zipcode": "9240057",
    "prefectureCode": "17",
    "prefectureNumber": 17,
    "prefecture": "石川県",
    "city": "白山市",
    "town": "松本町"
  },
  "9240058": {
    "zipcode": "9240058",
    "prefectureCode": "17",
    "prefectureNumber": 17,
    "prefecture": "石川県",
    "city": "白山市",
    "town": "石立町"
  },
  "9240059": {
    "zipcode": "9240059",
    "prefectureCode": "17",
    "prefectureNumber": 17,
    "prefecture": "石川県",
    "city": "白山市",
    "town": "福留南"
  },
  "9240061": {
    "zipcode": "9240061",
    "prefectureCode": "17",
    "prefectureNumber": 17,
    "prefecture": "石川県",
    "city": "白山市",
    "town": "宮保町"
  },
  "9240062": {
    "zipcode": "9240062",
    "prefectureCode": "17",
    "prefectureNumber": 17,
    "prefecture": "石川県",
    "city": "白山市",
    "town": "笠間新"
  },
  "9240063": {
    "zipcode": "9240063",
    "prefectureCode": "17",
    "prefectureNumber": 17,
    "prefecture": "石川県",
    "city": "白山市",
    "town": "笠間町"
  },
  "9240064": {
    "zipcode": "9240064",
    "prefectureCode": "17",
    "prefectureNumber": 17,
    "prefecture": "石川県",
    "city": "白山市",
    "town": "黒瀬町"
  },
  "9240065": {
    "zipcode": "9240065",
    "prefectureCode": "17",
    "prefectureNumber": 17,
    "prefecture": "石川県",
    "city": "白山市",
    "town": "七郎町"
  },
  "9240066": {
    "zipcode": "9240066",
    "prefectureCode": "17",
    "prefectureNumber": 17,
    "prefecture": "石川県",
    "city": "白山市",
    "town": "上小川町"
  },
  "9240067": {
    "zipcode": "9240067",
    "prefectureCode": "17",
    "prefectureNumber": 17,
    "prefecture": "石川県",
    "city": "白山市",
    "town": "小川町"
  },
  "9240068": {
    "zipcode": "9240068",
    "prefectureCode": "17",
    "prefectureNumber": 17,
    "prefecture": "石川県",
    "city": "白山市",
    "town": "宮保新町"
  },
  "9240069": {
    "zipcode": "9240069",
    "prefectureCode": "17",
    "prefectureNumber": 17,
    "prefecture": "石川県",
    "city": "白山市",
    "town": "宮原町"
  },
  "9240071": {
    "zipcode": "9240071",
    "prefectureCode": "17",
    "prefectureNumber": 17,
    "prefecture": "石川県",
    "city": "白山市",
    "town": "徳光町"
  },
  "9240072": {
    "zipcode": "9240072",
    "prefectureCode": "17",
    "prefectureNumber": 17,
    "prefecture": "石川県",
    "city": "白山市",
    "town": "千代野西"
  },
  "9240073": {
    "zipcode": "9240073",
    "prefectureCode": "17",
    "prefectureNumber": 17,
    "prefecture": "石川県",
    "city": "白山市",
    "town": "千代野東"
  },
  "9240074": {
    "zipcode": "9240074",
    "prefectureCode": "17",
    "prefectureNumber": 17,
    "prefecture": "石川県",
    "city": "白山市",
    "town": "千代野南"
  },
  "9240075": {
    "zipcode": "9240075",
    "prefectureCode": "17",
    "prefectureNumber": 17,
    "prefecture": "石川県",
    "city": "白山市",
    "town": "米永町"
  },
  "9240076": {
    "zipcode": "9240076",
    "prefectureCode": "17",
    "prefectureNumber": 17,
    "prefecture": "石川県",
    "city": "白山市",
    "town": "法仏町"
  },
  "9240081": {
    "zipcode": "9240081",
    "prefectureCode": "17",
    "prefectureNumber": 17,
    "prefecture": "石川県",
    "city": "白山市",
    "town": "相木"
  },
  "9240801": {
    "zipcode": "9240801",
    "prefectureCode": "17",
    "prefectureNumber": 17,
    "prefecture": "石川県",
    "city": "白山市",
    "town": "田中町"
  },
  "9240802": {
    "zipcode": "9240802",
    "prefectureCode": "17",
    "prefectureNumber": 17,
    "prefecture": "石川県",
    "city": "白山市",
    "town": "専福寺町"
  },
  "9240803": {
    "zipcode": "9240803",
    "prefectureCode": "17",
    "prefectureNumber": 17,
    "prefecture": "石川県",
    "city": "白山市",
    "town": "乾町"
  },
  "9240804": {
    "zipcode": "9240804",
    "prefectureCode": "17",
    "prefectureNumber": 17,
    "prefecture": "石川県",
    "city": "白山市",
    "town": "徳丸町"
  },
  "9240805": {
    "zipcode": "9240805",
    "prefectureCode": "17",
    "prefectureNumber": 17,
    "prefecture": "石川県",
    "city": "白山市",
    "town": "若宮"
  },
  "9240806": {
    "zipcode": "9240806",
    "prefectureCode": "17",
    "prefectureNumber": 17,
    "prefecture": "石川県",
    "city": "白山市",
    "town": "石同新町"
  },
  "9240807": {
    "zipcode": "9240807",
    "prefectureCode": "17",
    "prefectureNumber": 17,
    "prefecture": "石川県",
    "city": "白山市",
    "town": "石同町"
  },
  "9240808": {
    "zipcode": "9240808",
    "prefectureCode": "17",
    "prefectureNumber": 17,
    "prefecture": "石川県",
    "city": "白山市",
    "town": "布市"
  },
  "9240810": {
    "zipcode": "9240810",
    "prefectureCode": "17",
    "prefectureNumber": 17,
    "prefecture": "石川県",
    "city": "白山市",
    "town": "菜の花"
  },
  "9240811": {
    "zipcode": "9240811",
    "prefectureCode": "17",
    "prefectureNumber": 17,
    "prefecture": "石川県",
    "city": "白山市",
    "town": "長竹町"
  },
  "9240812": {
    "zipcode": "9240812",
    "prefectureCode": "17",
    "prefectureNumber": 17,
    "prefecture": "石川県",
    "city": "白山市",
    "town": "橋爪町"
  },
  "9240813": {
    "zipcode": "9240813",
    "prefectureCode": "17",
    "prefectureNumber": 17,
    "prefecture": "石川県",
    "city": "白山市",
    "town": "福正寺町"
  },
  "9240814": {
    "zipcode": "9240814",
    "prefectureCode": "17",
    "prefectureNumber": 17,
    "prefecture": "石川県",
    "city": "白山市",
    "town": "橋爪新町"
  },
  "9240815": {
    "zipcode": "9240815",
    "prefectureCode": "17",
    "prefectureNumber": 17,
    "prefecture": "石川県",
    "city": "白山市",
    "town": "三浦町"
  },
  "9240816": {
    "zipcode": "9240816",
    "prefectureCode": "17",
    "prefectureNumber": 17,
    "prefecture": "石川県",
    "city": "白山市",
    "town": "三幸町"
  },
  "9240817": {
    "zipcode": "9240817",
    "prefectureCode": "17",
    "prefectureNumber": 17,
    "prefecture": "石川県",
    "city": "白山市",
    "town": "幸明町"
  },
  "9240818": {
    "zipcode": "9240818",
    "prefectureCode": "17",
    "prefectureNumber": 17,
    "prefecture": "石川県",
    "city": "白山市",
    "town": "中奥町"
  },
  "9240819": {
    "zipcode": "9240819",
    "prefectureCode": "17",
    "prefectureNumber": 17,
    "prefecture": "石川県",
    "city": "白山市",
    "town": "青葉台"
  },
  "9240820": {
    "zipcode": "9240820",
    "prefectureCode": "17",
    "prefectureNumber": 17,
    "prefecture": "石川県",
    "city": "白山市",
    "town": "美里町"
  },
  "9240821": {
    "zipcode": "9240821",
    "prefectureCode": "17",
    "prefectureNumber": 17,
    "prefecture": "石川県",
    "city": "白山市",
    "town": "木津町"
  },
  "9240822": {
    "zipcode": "9240822",
    "prefectureCode": "17",
    "prefectureNumber": 17,
    "prefecture": "石川県",
    "city": "白山市",
    "town": "みずほ"
  },
  "9240823": {
    "zipcode": "9240823",
    "prefectureCode": "17",
    "prefectureNumber": 17,
    "prefecture": "石川県",
    "city": "白山市",
    "town": "坊丸町"
  },
  "9240824": {
    "zipcode": "9240824",
    "prefectureCode": "17",
    "prefectureNumber": 17,
    "prefecture": "石川県",
    "city": "白山市",
    "town": "田地町"
  },
  "9240825": {
    "zipcode": "9240825",
    "prefectureCode": "17",
    "prefectureNumber": 17,
    "prefecture": "石川県",
    "city": "白山市",
    "town": "菅波町"
  },
  "9240826": {
    "zipcode": "9240826",
    "prefectureCode": "17",
    "prefectureNumber": 17,
    "prefecture": "石川県",
    "city": "白山市",
    "town": "乙丸町"
  },
  "9240827": {
    "zipcode": "9240827",
    "prefectureCode": "17",
    "prefectureNumber": 17,
    "prefecture": "石川県",
    "city": "白山市",
    "town": "今平町"
  },
  "9240828": {
    "zipcode": "9240828",
    "prefectureCode": "17",
    "prefectureNumber": 17,
    "prefecture": "石川県",
    "city": "白山市",
    "town": "上二口町"
  },
  "9240831": {
    "zipcode": "9240831",
    "prefectureCode": "17",
    "prefectureNumber": 17,
    "prefecture": "石川県",
    "city": "白山市",
    "town": "藤波"
  },
  "9240832": {
    "zipcode": "9240832",
    "prefectureCode": "17",
    "prefectureNumber": 17,
    "prefecture": "石川県",
    "city": "白山市",
    "town": "藤木町"
  },
  "9240833": {
    "zipcode": "9240833",
    "prefectureCode": "17",
    "prefectureNumber": 17,
    "prefecture": "石川県",
    "city": "白山市",
    "town": "向島町"
  },
  "9240834": {
    "zipcode": "9240834",
    "prefectureCode": "17",
    "prefectureNumber": 17,
    "prefecture": "石川県",
    "city": "白山市",
    "town": "矢頃島町"
  },
  "9240835": {
    "zipcode": "9240835",
    "prefectureCode": "17",
    "prefectureNumber": 17,
    "prefecture": "石川県",
    "city": "白山市",
    "town": "漆島町"
  },
  "9240836": {
    "zipcode": "9240836",
    "prefectureCode": "17",
    "prefectureNumber": 17,
    "prefecture": "石川県",
    "city": "白山市",
    "town": "山島台"
  },
  "9240837": {
    "zipcode": "9240837",
    "prefectureCode": "17",
    "prefectureNumber": 17,
    "prefecture": "石川県",
    "city": "白山市",
    "town": "吉田町"
  },
  "9240838": {
    "zipcode": "9240838",
    "prefectureCode": "17",
    "prefectureNumber": 17,
    "prefecture": "石川県",
    "city": "白山市",
    "town": "八束穂"
  },
  "9240841": {
    "zipcode": "9240841",
    "prefectureCode": "17",
    "prefectureNumber": 17,
    "prefecture": "石川県",
    "city": "白山市",
    "town": "平松町"
  },
  "9240842": {
    "zipcode": "9240842",
    "prefectureCode": "17",
    "prefectureNumber": 17,
    "prefecture": "石川県",
    "city": "白山市",
    "town": "剣崎町"
  },
  "9240843": {
    "zipcode": "9240843",
    "prefectureCode": "17",
    "prefectureNumber": 17,
    "prefecture": "石川県",
    "city": "白山市",
    "town": "安吉町"
  },
  "9240844": {
    "zipcode": "9240844",
    "prefectureCode": "17",
    "prefectureNumber": 17,
    "prefecture": "石川県",
    "city": "白山市",
    "town": "寄新保町"
  },
  "9240845": {
    "zipcode": "9240845",
    "prefectureCode": "17",
    "prefectureNumber": 17,
    "prefecture": "石川県",
    "city": "白山市",
    "town": "島田町"
  },
  "9240846": {
    "zipcode": "9240846",
    "prefectureCode": "17",
    "prefectureNumber": 17,
    "prefecture": "石川県",
    "city": "白山市",
    "town": "上島田町"
  },
  "9240847": {
    "zipcode": "9240847",
    "prefectureCode": "17",
    "prefectureNumber": 17,
    "prefecture": "石川県",
    "city": "白山市",
    "town": "内方新保町"
  },
  "9240848": {
    "zipcode": "9240848",
    "prefectureCode": "17",
    "prefectureNumber": 17,
    "prefecture": "石川県",
    "city": "白山市",
    "town": "長島町"
  },
  "9240851": {
    "zipcode": "9240851",
    "prefectureCode": "17",
    "prefectureNumber": 17,
    "prefecture": "石川県",
    "city": "白山市",
    "town": "御影堂町"
  },
  "9240852": {
    "zipcode": "9240852",
    "prefectureCode": "17",
    "prefectureNumber": 17,
    "prefecture": "石川県",
    "city": "白山市",
    "town": "四ツ屋町"
  },
  "9240853": {
    "zipcode": "9240853",
    "prefectureCode": "17",
    "prefectureNumber": 17,
    "prefecture": "石川県",
    "city": "白山市",
    "town": "上安田町"
  },
  "9240854": {
    "zipcode": "9240854",
    "prefectureCode": "17",
    "prefectureNumber": 17,
    "prefecture": "石川県",
    "city": "白山市",
    "town": "出合島町"
  },
  "9240855": {
    "zipcode": "9240855",
    "prefectureCode": "17",
    "prefectureNumber": 17,
    "prefecture": "石川県",
    "city": "白山市",
    "town": "水島町"
  },
  "9240856": {
    "zipcode": "9240856",
    "prefectureCode": "17",
    "prefectureNumber": 17,
    "prefecture": "石川県",
    "city": "白山市",
    "town": "番田町"
  },
  "9240857": {
    "zipcode": "9240857",
    "prefectureCode": "17",
    "prefectureNumber": 17,
    "prefecture": "石川県",
    "city": "白山市",
    "town": "福永町"
  },
  "9240858": {
    "zipcode": "9240858",
    "prefectureCode": "17",
    "prefectureNumber": 17,
    "prefecture": "石川県",
    "city": "白山市",
    "town": "福新町"
  },
  "9240861": {
    "zipcode": "9240861",
    "prefectureCode": "17",
    "prefectureNumber": 17,
    "prefecture": "石川県",
    "city": "白山市",
    "town": "横町"
  },
  "9240862": {
    "zipcode": "9240862",
    "prefectureCode": "17",
    "prefectureNumber": 17,
    "prefecture": "石川県",
    "city": "白山市",
    "town": "安田町"
  },
  "9240863": {
    "zipcode": "9240863",
    "prefectureCode": "17",
    "prefectureNumber": 17,
    "prefecture": "石川県",
    "city": "白山市",
    "town": "博労"
  },
  "9240864": {
    "zipcode": "9240864",
    "prefectureCode": "17",
    "prefectureNumber": 17,
    "prefecture": "石川県",
    "city": "白山市",
    "town": "馬場"
  },
  "9240865": {
    "zipcode": "9240865",
    "prefectureCode": "17",
    "prefectureNumber": 17,
    "prefecture": "石川県",
    "city": "白山市",
    "town": "倉光"
  },
  "9240866": {
    "zipcode": "9240866",
    "prefectureCode": "17",
    "prefectureNumber": 17,
    "prefecture": "石川県",
    "city": "白山市",
    "town": "倉光西"
  },
  "9240867": {
    "zipcode": "9240867",
    "prefectureCode": "17",
    "prefectureNumber": 17,
    "prefecture": "石川県",
    "city": "白山市",
    "town": "茶屋"
  },
  "9240871": {
    "zipcode": "9240871",
    "prefectureCode": "17",
    "prefectureNumber": 17,
    "prefecture": "石川県",
    "city": "白山市",
    "town": "西新町"
  },
  "9240872": {
    "zipcode": "9240872",
    "prefectureCode": "17",
    "prefectureNumber": 17,
    "prefecture": "石川県",
    "city": "白山市",
    "town": "古城町"
  },
  "9240873": {
    "zipcode": "9240873",
    "prefectureCode": "17",
    "prefectureNumber": 17,
    "prefecture": "石川県",
    "city": "白山市",
    "town": "八日市町"
  },
  "9240874": {
    "zipcode": "9240874",
    "prefectureCode": "17",
    "prefectureNumber": 17,
    "prefecture": "石川県",
    "city": "白山市",
    "town": "四日市町"
  },
  "9240875": {
    "zipcode": "9240875",
    "prefectureCode": "17",
    "prefectureNumber": 17,
    "prefecture": "石川県",
    "city": "白山市",
    "town": "辰巳町"
  },
  "9240876": {
    "zipcode": "9240876",
    "prefectureCode": "17",
    "prefectureNumber": 17,
    "prefecture": "石川県",
    "city": "白山市",
    "town": "鍛治町"
  },
  "9240877": {
    "zipcode": "9240877",
    "prefectureCode": "17",
    "prefectureNumber": 17,
    "prefecture": "石川県",
    "city": "白山市",
    "town": "中町"
  },
  "9240878": {
    "zipcode": "9240878",
    "prefectureCode": "17",
    "prefectureNumber": 17,
    "prefecture": "石川県",
    "city": "白山市",
    "town": "末広"
  },
  "9240881": {
    "zipcode": "9240881",
    "prefectureCode": "17",
    "prefectureNumber": 17,
    "prefecture": "石川県",
    "city": "白山市",
    "town": "八ツ矢新町"
  },
  "9240882": {
    "zipcode": "9240882",
    "prefectureCode": "17",
    "prefectureNumber": 17,
    "prefecture": "石川県",
    "city": "白山市",
    "town": "八ツ矢町"
  },
  "9240883": {
    "zipcode": "9240883",
    "prefectureCode": "17",
    "prefectureNumber": 17,
    "prefecture": "石川県",
    "city": "白山市",
    "town": "東一番町"
  },
  "9240884": {
    "zipcode": "9240884",
    "prefectureCode": "17",
    "prefectureNumber": 17,
    "prefecture": "石川県",
    "city": "白山市",
    "town": "東新町"
  },
  "9240885": {
    "zipcode": "9240885",
    "prefectureCode": "17",
    "prefectureNumber": 17,
    "prefecture": "石川県",
    "city": "白山市",
    "town": "殿町"
  },
  "9240886": {
    "zipcode": "9240886",
    "prefectureCode": "17",
    "prefectureNumber": 17,
    "prefecture": "石川県",
    "city": "白山市",
    "town": "東二番町"
  },
  "9240887": {
    "zipcode": "9240887",
    "prefectureCode": "17",
    "prefectureNumber": 17,
    "prefecture": "石川県",
    "city": "白山市",
    "town": "東三番町"
  },
  "9240888": {
    "zipcode": "9240888",
    "prefectureCode": "17",
    "prefectureNumber": 17,
    "prefecture": "石川県",
    "city": "白山市",
    "town": "旭町"
  }
}
