{
  "9250000": {
    "zipcode": "9250000",
    "prefectureCode": "17",
    "prefectureNumber": 17,
    "prefecture": "石川県",
    "city": "羽咋市",
    "town": "以下に掲載がない場合"
  },
  "9250001": {
    "zipcode": "9250001",
    "prefectureCode": "17",
    "prefectureNumber": 17,
    "prefecture": "石川県",
    "city": "羽咋市",
    "town": "柴垣町"
  },
  "9250002": {
    "zipcode": "9250002",
    "prefectureCode": "17",
    "prefectureNumber": 17,
    "prefecture": "石川県",
    "city": "羽咋市",
    "town": "滝谷町"
  },
  "9250003": {
    "zipcode": "9250003",
    "prefectureCode": "17",
    "prefectureNumber": 17,
    "prefecture": "石川県",
    "city": "羽咋市",
    "town": "寺家町"
  },
  "9250004": {
    "zipcode": "9250004",
    "prefectureCode": "17",
    "prefectureNumber": 17,
    "prefecture": "石川県",
    "city": "羽咋市",
    "town": "一ノ宮町"
  },
  "9250005": {
    "zipcode": "9250005",
    "prefectureCode": "17",
    "prefectureNumber": 17,
    "prefecture": "石川県",
    "city": "羽咋市",
    "town": "滝町"
  },
  "9250011": {
    "zipcode": "9250011",
    "prefectureCode": "17",
    "prefectureNumber": 17,
    "prefecture": "石川県",
    "city": "羽咋市",
    "town": "上中山町"
  },
  "9250012": {
    "zipcode": "9250012",
    "prefectureCode": "17",
    "prefectureNumber": 17,
    "prefecture": "石川県",
    "city": "羽咋市",
    "town": "千路町"
  },
  "9250013": {
    "zipcode": "9250013",
    "prefectureCode": "17",
    "prefectureNumber": 17,
    "prefecture": "石川県",
    "city": "羽咋市",
    "town": "東釜屋町"
  },
  "9250014": {
    "zipcode": "9250014",
    "prefectureCode": "17",
    "prefectureNumber": 17,
    "prefecture": "石川県",
    "city": "羽咋市",
    "town": "釜屋町"
  },
  "9250015": {
    "zipcode": "9250015",
    "prefectureCode": "17",
    "prefectureNumber": 17,
    "prefecture": "石川県",
    "city": "羽咋市",
    "town": "大川町"
  },
  "9250016": {
    "zipcode": "9250016",
    "prefectureCode": "17",
    "prefectureNumber": 17,
    "prefecture": "石川県",
    "city": "羽咋市",
    "town": "羽咋町"
  },
  "9250017": {
    "zipcode": "9250017",
    "prefectureCode": "17",
    "prefectureNumber": 17,
    "prefecture": "石川県",
    "city": "羽咋市",
    "town": "西釜屋町"
  },
  "9250018": {
    "zipcode": "9250018",
    "prefectureCode": "17",
    "prefectureNumber": 17,
    "prefecture": "石川県",
    "city": "羽咋市",
    "town": "柳田町"
  },
  "9250021": {
    "zipcode": "9250021",
    "prefectureCode": "17",
    "prefectureNumber": 17,
    "prefecture": "石川県",
    "city": "羽咋市",
    "town": "吉崎町"
  },
  "9250022": {
    "zipcode": "9250022",
    "prefectureCode": "17",
    "prefectureNumber": 17,
    "prefecture": "石川県",
    "city": "羽咋市",
    "town": "深江町"
  },
  "9250023": {
    "zipcode": "9250023",
    "prefectureCode": "17",
    "prefectureNumber": 17,
    "prefecture": "石川県",
    "city": "羽咋市",
    "town": "若草町"
  },
  "9250024": {
    "zipcode": "9250024",
    "prefectureCode": "17",
    "prefectureNumber": 17,
    "prefecture": "石川県",
    "city": "羽咋市",
    "town": "三ツ屋町"
  },
  "9250025": {
    "zipcode": "9250025",
    "prefectureCode": "17",
    "prefectureNumber": 17,
    "prefecture": "石川県",
    "city": "羽咋市",
    "town": "太田町"
  },
  "9250026": {
    "zipcode": "9250026",
    "prefectureCode": "17",
    "prefectureNumber": 17,
    "prefecture": "石川県",
    "city": "羽咋市",
    "town": "石野町"
  },
  "9250027": {
    "zipcode": "9250027",
    "prefectureCode": "17",
    "prefectureNumber": 17,
    "prefecture": "石川県",
    "city": "羽咋市",
    "town": "鶴多町"
  },
  "9250028": {
    "zipcode": "9250028",
    "prefectureCode": "17",
    "prefectureNumber": 17,
    "prefecture": "石川県",
    "city": "羽咋市",
    "town": "次場町"
  },
  "9250031": {
    "zipcode": "9250031",
    "prefectureCode": "17",
    "prefectureNumber": 17,
    "prefecture": "石川県",
    "city": "羽咋市",
    "town": "東的場町"
  },
  "9250032": {
    "zipcode": "9250032",
    "prefectureCode": "17",
    "prefectureNumber": 17,
    "prefecture": "石川県",
    "city": "羽咋市",
    "town": "東川原町"
  },
  "9250033": {
    "zipcode": "9250033",
    "prefectureCode": "17",
    "prefectureNumber": 17,
    "prefecture": "石川県",
    "city": "羽咋市",
    "town": "川原町"
  },
  "9250034": {
    "zipcode": "9250034",
    "prefectureCode": "17",
    "prefectureNumber": 17,
    "prefecture": "石川県",
    "city": "羽咋市",
    "town": "旭町"
  },
  "9250035": {
    "zipcode": "9250035",
    "prefectureCode": "17",
    "prefectureNumber": 17,
    "prefecture": "石川県",
    "city": "羽咋市",
    "town": "本町"
  },
  "9250036": {
    "zipcode": "9250036",
    "prefectureCode": "17",
    "prefectureNumber": 17,
    "prefecture": "石川県",
    "city": "羽咋市",
    "town": "的場町"
  },
  "9250041": {
    "zipcode": "9250041",
    "prefectureCode": "17",
    "prefectureNumber": 17,
    "prefecture": "石川県",
    "city": "羽咋市",
    "town": "立開町"
  },
  "9250042": {
    "zipcode": "9250042",
    "prefectureCode": "17",
    "prefectureNumber": 17,
    "prefecture": "石川県",
    "city": "羽咋市",
    "town": "土橋町"
  },
  "9250043": {
    "zipcode": "9250043",
    "prefectureCode": "17",
    "prefectureNumber": 17,
    "prefecture": "石川県",
    "city": "羽咋市",
    "town": "粟原町"
  },
  "9250044": {
    "zipcode": "9250044",
    "prefectureCode": "17",
    "prefectureNumber": 17,
    "prefecture": "石川県",
    "city": "羽咋市",
    "town": "新保町"
  },
  "9250045": {
    "zipcode": "9250045",
    "prefectureCode": "17",
    "prefectureNumber": 17,
    "prefecture": "石川県",
    "city": "羽咋市",
    "town": "粟生町"
  },
  "9250046": {
    "zipcode": "9250046",
    "prefectureCode": "17",
    "prefectureNumber": 17,
    "prefecture": "石川県",
    "city": "羽咋市",
    "town": "兵庫町"
  },
  "9250047": {
    "zipcode": "9250047",
    "prefectureCode": "17",
    "prefectureNumber": 17,
    "prefecture": "石川県",
    "city": "羽咋市",
    "town": "御坊山町"
  },
  "9250048": {
    "zipcode": "9250048",
    "prefectureCode": "17",
    "prefectureNumber": 17,
    "prefecture": "石川県",
    "city": "羽咋市",
    "town": "松ケ下町"
  },
  "9250049": {
    "zipcode": "9250049",
    "prefectureCode": "17",
    "prefectureNumber": 17,
    "prefecture": "石川県",
    "city": "羽咋市",
    "town": "柳橋町"
  },
  "9250051": {
    "zipcode": "9250051",
    "prefectureCode": "17",
    "prefectureNumber": 17,
    "prefecture": "石川県",
    "city": "羽咋市",
    "town": "島出町"
  },
  "9250052": {
    "zipcode": "9250052",
    "prefectureCode": "17",
    "prefectureNumber": 17,
    "prefecture": "石川県",
    "city": "羽咋市",
    "town": "中央町"
  },
  "9250053": {
    "zipcode": "9250053",
    "prefectureCode": "17",
    "prefectureNumber": 17,
    "prefecture": "石川県",
    "city": "羽咋市",
    "town": "南中央町"
  },
  "9250054": {
    "zipcode": "9250054",
    "prefectureCode": "17",
    "prefectureNumber": 17,
    "prefecture": "石川県",
    "city": "羽咋市",
    "town": "千里浜町"
  },
  "9250071": {
    "zipcode": "9250071",
    "prefectureCode": "17",
    "prefectureNumber": 17,
    "prefecture": "石川県",
    "city": "羽咋市",
    "town": "下曽祢町"
  },
  "9250072": {
    "zipcode": "9250072",
    "prefectureCode": "17",
    "prefectureNumber": 17,
    "prefecture": "石川県",
    "city": "羽咋市",
    "town": "大町"
  },
  "9250073": {
    "zipcode": "9250073",
    "prefectureCode": "17",
    "prefectureNumber": 17,
    "prefecture": "石川県",
    "city": "羽咋市",
    "town": "四柳町"
  },
  "9250074": {
    "zipcode": "9250074",
    "prefectureCode": "17",
    "prefectureNumber": 17,
    "prefecture": "石川県",
    "city": "羽咋市",
    "town": "酒井町"
  },
  "9250075": {
    "zipcode": "9250075",
    "prefectureCode": "17",
    "prefectureNumber": 17,
    "prefecture": "石川県",
    "city": "羽咋市",
    "town": "金丸出町"
  },
  "9250076": {
    "zipcode": "9250076",
    "prefectureCode": "17",
    "prefectureNumber": 17,
    "prefecture": "石川県",
    "city": "羽咋市",
    "town": "鹿島路町"
  },
  "9250077": {
    "zipcode": "9250077",
    "prefectureCode": "17",
    "prefectureNumber": 17,
    "prefecture": "石川県",
    "city": "羽咋市",
    "town": "東潟町"
  },
  "9250100": {
    "zipcode": "9250100",
    "prefectureCode": "17",
    "prefectureNumber": 17,
    "prefecture": "石川県",
    "city": "羽咋郡志賀町",
    "town": "以下に掲載がない場合"
  },
  "9250121": {
    "zipcode": "9250121",
    "prefectureCode": "17",
    "prefectureNumber": 17,
    "prefecture": "石川県",
    "city": "羽咋郡志賀町",
    "town": "安津見"
  },
  "9250122": {
    "zipcode": "9250122",
    "prefectureCode": "17",
    "prefectureNumber": 17,
    "prefecture": "石川県",
    "city": "羽咋郡志賀町",
    "town": "倉垣"
  },
  "9250123": {
    "zipcode": "9250123",
    "prefectureCode": "17",
    "prefectureNumber": 17,
    "prefecture": "石川県",
    "city": "羽咋郡志賀町",
    "town": "矢駄"
  },
  "9250124": {
    "zipcode": "9250124",
    "prefectureCode": "17",
    "prefectureNumber": 17,
    "prefecture": "石川県",
    "city": "羽咋郡志賀町",
    "town": "西山"
  },
  "9250125": {
    "zipcode": "9250125",
    "prefectureCode": "17",
    "prefectureNumber": 17,
    "prefecture": "石川県",
    "city": "羽咋郡志賀町",
    "town": "西山台"
  },
  "9250131": {
    "zipcode": "9250131",
    "prefectureCode": "17",
    "prefectureNumber": 17,
    "prefecture": "石川県",
    "city": "羽咋郡志賀町",
    "town": "米浜"
  },
  "9250132": {
    "zipcode": "9250132",
    "prefectureCode": "17",
    "prefectureNumber": 17,
    "prefecture": "石川県",
    "city": "羽咋郡志賀町",
    "town": "穴口"
  },
  "9250133": {
    "zipcode": "9250133",
    "prefectureCode": "17",
    "prefectureNumber": 17,
    "prefecture": "石川県",
    "city": "羽咋郡志賀町",
    "town": "大坂"
  },
  "9250134": {
    "zipcode": "9250134",
    "prefectureCode": "17",
    "prefectureNumber": 17,
    "prefecture": "石川県",
    "city": "羽咋郡志賀町",
    "town": "上棚"
  },
  "9250135": {
    "zipcode": "9250135",
    "prefectureCode": "17",
    "prefectureNumber": 17,
    "prefecture": "石川県",
    "city": "羽咋郡志賀町",
    "town": "二所宮"
  },
  "9250136": {
    "zipcode": "9250136",
    "prefectureCode": "17",
    "prefectureNumber": 17,
    "prefecture": "石川県",
    "city": "羽咋郡志賀町",
    "town": "舘"
  },
  "9250137": {
    "zipcode": "9250137",
    "prefectureCode": "17",
    "prefectureNumber": 17,
    "prefecture": "石川県",
    "city": "羽咋郡志賀町",
    "town": "福井"
  },
  "9250141": {
    "zipcode": "9250141",
    "prefectureCode": "17",
    "prefectureNumber": 17,
    "prefecture": "石川県",
    "city": "羽咋郡志賀町",
    "town": "高浜町"
  },
  "9250142": {
    "zipcode": "9250142",
    "prefectureCode": "17",
    "prefectureNumber": 17,
    "prefecture": "石川県",
    "city": "羽咋郡志賀町",
    "town": "福野"
  },
  "9250143": {
    "zipcode": "9250143",
    "prefectureCode": "17",
    "prefectureNumber": 17,
    "prefecture": "石川県",
    "city": "羽咋郡志賀町",
    "town": "宿女"
  },
  "9250144": {
    "zipcode": "9250144",
    "prefectureCode": "17",
    "prefectureNumber": 17,
    "prefecture": "石川県",
    "city": "羽咋郡志賀町",
    "town": "坪野"
  },
  "9250145": {
    "zipcode": "9250145",
    "prefectureCode": "17",
    "prefectureNumber": 17,
    "prefecture": "石川県",
    "city": "羽咋郡志賀町",
    "town": "岩田"
  },
  "9250146": {
    "zipcode": "9250146",
    "prefectureCode": "17",
    "prefectureNumber": 17,
    "prefecture": "石川県",
    "city": "羽咋郡志賀町",
    "town": "甘田"
  },
  "9250147": {
    "zipcode": "9250147",
    "prefectureCode": "17",
    "prefectureNumber": 17,
    "prefecture": "石川県",
    "city": "羽咋郡志賀町",
    "town": "大島"
  },
  "9250148": {
    "zipcode": "9250148",
    "prefectureCode": "17",
    "prefectureNumber": 17,
    "prefecture": "石川県",
    "city": "羽咋郡志賀町",
    "town": "長沢"
  },
  "9250151": {
    "zipcode": "9250151",
    "prefectureCode": "17",
    "prefectureNumber": 17,
    "prefecture": "石川県",
    "city": "羽咋郡志賀町",
    "town": "梨谷小山"
  },
  "9250152": {
    "zipcode": "9250152",
    "prefectureCode": "17",
    "prefectureNumber": 17,
    "prefecture": "石川県",
    "city": "羽咋郡志賀町",
    "town": "北吉田"
  },
  "9250153": {
    "zipcode": "9250153",
    "prefectureCode": "17",
    "prefectureNumber": 17,
    "prefecture": "石川県",
    "city": "羽咋郡志賀町",
    "town": "清水今江"
  },
  "9250154": {
    "zipcode": "9250154",
    "prefectureCode": "17",
    "prefectureNumber": 17,
    "prefecture": "石川県",
    "city": "羽咋郡志賀町",
    "town": "末吉"
  },
  "9250155": {
    "zipcode": "9250155",
    "prefectureCode": "17",
    "prefectureNumber": 17,
    "prefecture": "石川県",
    "city": "羽咋郡志賀町",
    "town": "神代"
  },
  "9250156": {
    "zipcode": "9250156",
    "prefectureCode": "17",
    "prefectureNumber": 17,
    "prefecture": "石川県",
    "city": "羽咋郡志賀町",
    "town": "矢蔵谷"
  },
  "9250157": {
    "zipcode": "9250157",
    "prefectureCode": "17",
    "prefectureNumber": 17,
    "prefecture": "石川県",
    "city": "羽咋郡志賀町",
    "town": "堀松"
  },
  "9250161": {
    "zipcode": "9250161",
    "prefectureCode": "17",
    "prefectureNumber": 17,
    "prefecture": "石川県",
    "city": "羽咋郡志賀町",
    "town": "赤住"
  },
  "9250162": {
    "zipcode": "9250162",
    "prefectureCode": "17",
    "prefectureNumber": 17,
    "prefecture": "石川県",
    "city": "羽咋郡志賀町",
    "town": "百浦"
  },
  "9250163": {
    "zipcode": "9250163",
    "prefectureCode": "17",
    "prefectureNumber": 17,
    "prefecture": "石川県",
    "city": "羽咋郡志賀町",
    "town": "小浦"
  },
  "9250164": {
    "zipcode": "9250164",
    "prefectureCode": "17",
    "prefectureNumber": 17,
    "prefecture": "石川県",
    "city": "羽咋郡志賀町",
    "town": "大津"
  },
  "9250165": {
    "zipcode": "9250165",
    "prefectureCode": "17",
    "prefectureNumber": 17,
    "prefecture": "石川県",
    "city": "羽咋郡志賀町",
    "town": "上野"
  },
  "9250166": {
    "zipcode": "9250166",
    "prefectureCode": "17",
    "prefectureNumber": 17,
    "prefecture": "石川県",
    "city": "羽咋郡志賀町",
    "town": "安部屋"
  },
  "9250167": {
    "zipcode": "9250167",
    "prefectureCode": "17",
    "prefectureNumber": 17,
    "prefecture": "石川県",
    "city": "羽咋郡志賀町",
    "town": "町"
  },
  "9250168": {
    "zipcode": "9250168",
    "prefectureCode": "17",
    "prefectureNumber": 17,
    "prefecture": "石川県",
    "city": "羽咋郡志賀町",
    "town": "川尻"
  },
  "9250201": {
    "zipcode": "9250201",
    "prefectureCode": "17",
    "prefectureNumber": 17,
    "prefecture": "石川県",
    "city": "羽咋郡志賀町",
    "town": "印内"
  },
  "9250202": {
    "zipcode": "9250202",
    "prefectureCode": "17",
    "prefectureNumber": 17,
    "prefecture": "石川県",
    "city": "羽咋郡志賀町",
    "town": "代田"
  },
  "9250203": {
    "zipcode": "9250203",
    "prefectureCode": "17",
    "prefectureNumber": 17,
    "prefecture": "石川県",
    "city": "羽咋郡志賀町",
    "town": "新林"
  },
  "9250204": {
    "zipcode": "9250204",
    "prefectureCode": "17",
    "prefectureNumber": 17,
    "prefecture": "石川県",
    "city": "羽咋郡志賀町",
    "town": "牧山"
  },
  "9250205": {
    "zipcode": "9250205",
    "prefectureCode": "17",
    "prefectureNumber": 17,
    "prefecture": "石川県",
    "city": "羽咋郡志賀町",
    "town": "仏木"
  },
  "9250206": {
    "zipcode": "9250206",
    "prefectureCode": "17",
    "prefectureNumber": 17,
    "prefecture": "石川県",
    "city": "羽咋郡志賀町",
    "town": "谷屋"
  },
  "9250207": {
    "zipcode": "9250207",
    "prefectureCode": "17",
    "prefectureNumber": 17,
    "prefecture": "石川県",
    "city": "羽咋郡志賀町",
    "town": "栗山"
  },
  "9250211": {
    "zipcode": "9250211",
    "prefectureCode": "17",
    "prefectureNumber": 17,
    "prefecture": "石川県",
    "city": "羽咋郡志賀町",
    "town": "矢田"
  },
  "9250212": {
    "zipcode": "9250212",
    "prefectureCode": "17",
    "prefectureNumber": 17,
    "prefecture": "石川県",
    "city": "羽咋郡志賀町",
    "town": "徳田"
  },
  "9250213": {
    "zipcode": "9250213",
    "prefectureCode": "17",
    "prefectureNumber": 17,
    "prefecture": "石川県",
    "city": "羽咋郡志賀町",
    "town": "舘開"
  },
  "9250214": {
    "zipcode": "9250214",
    "prefectureCode": "17",
    "prefectureNumber": 17,
    "prefecture": "石川県",
    "city": "羽咋郡志賀町",
    "town": "火打谷"
  },
  "9250215": {
    "zipcode": "9250215",
    "prefectureCode": "17",
    "prefectureNumber": 17,
    "prefecture": "石川県",
    "city": "羽咋郡志賀町",
    "town": "出雲"
  },
  "9250301": {
    "zipcode": "9250301",
    "prefectureCode": "17",
    "prefectureNumber": 17,
    "prefecture": "石川県",
    "city": "羽咋郡志賀町",
    "town": "日用"
  },
  "9250302": {
    "zipcode": "9250302",
    "prefectureCode": "17",
    "prefectureNumber": 17,
    "prefecture": "石川県",
    "city": "羽咋郡志賀町",
    "town": "町居"
  },
  "9250303": {
    "zipcode": "9250303",
    "prefectureCode": "17",
    "prefectureNumber": 17,
    "prefecture": "石川県",
    "city": "羽咋郡志賀町",
    "town": "日下田"
  },
  "9250304": {
    "zipcode": "9250304",
    "prefectureCode": "17",
    "prefectureNumber": 17,
    "prefecture": "石川県",
    "city": "羽咋郡志賀町",
    "town": "中山"
  },
  "9250305": {
    "zipcode": "9250305",
    "prefectureCode": "17",
    "prefectureNumber": 17,
    "prefecture": "石川県",
    "city": "羽咋郡志賀町",
    "town": "豊後名"
  },
  "9250306": {
    "zipcode": "9250306",
    "prefectureCode": "17",
    "prefectureNumber": 17,
    "prefecture": "石川県",
    "city": "羽咋郡志賀町",
    "town": "草木"
  },
  "9250307": {
    "zipcode": "9250307",
    "prefectureCode": "17",
    "prefectureNumber": 17,
    "prefecture": "石川県",
    "city": "羽咋郡志賀町",
    "town": "荒屋"
  },
  "9250311": {
    "zipcode": "9250311",
    "prefectureCode": "17",
    "prefectureNumber": 17,
    "prefecture": "石川県",
    "city": "羽咋郡志賀町",
    "town": "谷神"
  },
  "9250312": {
    "zipcode": "9250312",
    "prefectureCode": "17",
    "prefectureNumber": 17,
    "prefecture": "石川県",
    "city": "羽咋郡志賀町",
    "town": "六実"
  },
  "9250313": {
    "zipcode": "9250313",
    "prefectureCode": "17",
    "prefectureNumber": 17,
    "prefecture": "石川県",
    "city": "羽咋郡志賀町",
    "town": "三明"
  },
  "9250314": {
    "zipcode": "9250314",
    "prefectureCode": "17",
    "prefectureNumber": 17,
    "prefecture": "石川県",
    "city": "羽咋郡志賀町",
    "town": "中畠"
  },
  "9250315": {
    "zipcode": "9250315",
    "prefectureCode": "17",
    "prefectureNumber": 17,
    "prefecture": "石川県",
    "city": "羽咋郡志賀町",
    "town": "福浦港"
  },
  "9250345": {
    "zipcode": "9250345",
    "prefectureCode": "17",
    "prefectureNumber": 17,
    "prefecture": "石川県",
    "city": "羽咋郡志賀町",
    "town": "富来牛下（巌門）"
  },
  "9250371": {
    "zipcode": "9250371",
    "prefectureCode": "17",
    "prefectureNumber": 17,
    "prefecture": "石川県",
    "city": "羽咋郡志賀町",
    "town": "釈迦堂"
  },
  "9250372": {
    "zipcode": "9250372",
    "prefectureCode": "17",
    "prefectureNumber": 17,
    "prefecture": "石川県",
    "city": "羽咋郡志賀町",
    "town": "直海"
  },
  "9250373": {
    "zipcode": "9250373",
    "prefectureCode": "17",
    "prefectureNumber": 17,
    "prefecture": "石川県",
    "city": "羽咋郡志賀町",
    "town": "小室"
  },
  "9250374": {
    "zipcode": "9250374",
    "prefectureCode": "17",
    "prefectureNumber": 17,
    "prefecture": "石川県",
    "city": "羽咋郡志賀町",
    "town": "松木"
  },
  "9250375": {
    "zipcode": "9250375",
    "prefectureCode": "17",
    "prefectureNumber": 17,
    "prefecture": "石川県",
    "city": "羽咋郡志賀町",
    "town": "若葉台"
  },
  "9250376": {
    "zipcode": "9250376",
    "prefectureCode": "17",
    "prefectureNumber": 17,
    "prefecture": "石川県",
    "city": "羽咋郡志賀町",
    "town": "長田"
  },
  "9250381": {
    "zipcode": "9250381",
    "prefectureCode": "17",
    "prefectureNumber": 17,
    "prefecture": "石川県",
    "city": "羽咋郡志賀町",
    "town": "田原"
  },
  "9250382": {
    "zipcode": "9250382",
    "prefectureCode": "17",
    "prefectureNumber": 17,
    "prefecture": "石川県",
    "city": "羽咋郡志賀町",
    "town": "米町"
  },
  "9250383": {
    "zipcode": "9250383",
    "prefectureCode": "17",
    "prefectureNumber": 17,
    "prefecture": "石川県",
    "city": "羽咋郡志賀町",
    "town": "大笹"
  },
  "9250384": {
    "zipcode": "9250384",
    "prefectureCode": "17",
    "prefectureNumber": 17,
    "prefecture": "石川県",
    "city": "羽咋郡志賀町",
    "town": "五里峠"
  },
  "9250385": {
    "zipcode": "9250385",
    "prefectureCode": "17",
    "prefectureNumber": 17,
    "prefecture": "石川県",
    "city": "羽咋郡志賀町",
    "town": "牛ケ首"
  },
  "9250421": {
    "zipcode": "9250421",
    "prefectureCode": "17",
    "prefectureNumber": 17,
    "prefecture": "石川県",
    "city": "羽咋郡志賀町",
    "town": "切留"
  },
  "9250422": {
    "zipcode": "9250422",
    "prefectureCode": "17",
    "prefectureNumber": 17,
    "prefecture": "石川県",
    "city": "羽咋郡志賀町",
    "town": "地保"
  },
  "9250423": {
    "zipcode": "9250423",
    "prefectureCode": "17",
    "prefectureNumber": 17,
    "prefecture": "石川県",
    "city": "羽咋郡志賀町",
    "town": "鵜野屋"
  },
  "9250424": {
    "zipcode": "9250424",
    "prefectureCode": "17",
    "prefectureNumber": 17,
    "prefecture": "石川県",
    "city": "羽咋郡志賀町",
    "town": "入釜"
  },
  "9250425": {
    "zipcode": "9250425",
    "prefectureCode": "17",
    "prefectureNumber": 17,
    "prefecture": "石川県",
    "city": "羽咋郡志賀町",
    "town": "灯"
  },
  "9250426": {
    "zipcode": "9250426",
    "prefectureCode": "17",
    "prefectureNumber": 17,
    "prefecture": "石川県",
    "city": "羽咋郡志賀町",
    "town": "阿川"
  },
  "9250427": {
    "zipcode": "9250427",
    "prefectureCode": "17",
    "prefectureNumber": 17,
    "prefecture": "石川県",
    "city": "羽咋郡志賀町",
    "town": "楚和"
  },
  "9250431": {
    "zipcode": "9250431",
    "prefectureCode": "17",
    "prefectureNumber": 17,
    "prefecture": "石川県",
    "city": "羽咋郡志賀町",
    "town": "尊保"
  },
  "9250432": {
    "zipcode": "9250432",
    "prefectureCode": "17",
    "prefectureNumber": 17,
    "prefecture": "石川県",
    "city": "羽咋郡志賀町",
    "town": "今田"
  },
  "9250433": {
    "zipcode": "9250433",
    "prefectureCode": "17",
    "prefectureNumber": 17,
    "prefecture": "石川県",
    "city": "羽咋郡志賀町",
    "town": "和田"
  },
  "9250434": {
    "zipcode": "9250434",
    "prefectureCode": "17",
    "prefectureNumber": 17,
    "prefecture": "石川県",
    "city": "羽咋郡志賀町",
    "town": "大西"
  },
  "9250435": {
    "zipcode": "9250435",
    "prefectureCode": "17",
    "prefectureNumber": 17,
    "prefecture": "石川県",
    "city": "羽咋郡志賀町",
    "town": "江添"
  },
  "9250436": {
    "zipcode": "9250436",
    "prefectureCode": "17",
    "prefectureNumber": 17,
    "prefecture": "石川県",
    "city": "羽咋郡志賀町",
    "town": "貝田"
  },
  "9250437": {
    "zipcode": "9250437",
    "prefectureCode": "17",
    "prefectureNumber": 17,
    "prefecture": "石川県",
    "city": "羽咋郡志賀町",
    "town": "田中"
  },
  "9250438": {
    "zipcode": "9250438",
    "prefectureCode": "17",
    "prefectureNumber": 17,
    "prefecture": "石川県",
    "city": "羽咋郡志賀町",
    "town": "八千代"
  },
  "9250441": {
    "zipcode": "9250441",
    "prefectureCode": "17",
    "prefectureNumber": 17,
    "prefecture": "石川県",
    "city": "羽咋郡志賀町",
    "town": "広地"
  },
  "9250442": {
    "zipcode": "9250442",
    "prefectureCode": "17",
    "prefectureNumber": 17,
    "prefecture": "石川県",
    "city": "羽咋郡志賀町",
    "town": "東小室"
  },
  "9250443": {
    "zipcode": "9250443",
    "prefectureCode": "17",
    "prefectureNumber": 17,
    "prefecture": "石川県",
    "city": "羽咋郡志賀町",
    "town": "富来七海"
  },
  "9250444": {
    "zipcode": "9250444",
    "prefectureCode": "17",
    "prefectureNumber": 17,
    "prefecture": "石川県",
    "city": "羽咋郡志賀町",
    "town": "富来生神"
  },
  "9250445": {
    "zipcode": "9250445",
    "prefectureCode": "17",
    "prefectureNumber": 17,
    "prefecture": "石川県",
    "city": "羽咋郡志賀町",
    "town": "富来牛下（その他）"
  },
  "9250446": {
    "zipcode": "9250446",
    "prefectureCode": "17",
    "prefectureNumber": 17,
    "prefecture": "石川県",
    "city": "羽咋郡志賀町",
    "town": "富来地頭町"
  },
  "9250447": {
    "zipcode": "9250447",
    "prefectureCode": "17",
    "prefectureNumber": 17,
    "prefecture": "石川県",
    "city": "羽咋郡志賀町",
    "town": "富来領家町"
  },
  "9250448": {
    "zipcode": "9250448",
    "prefectureCode": "17",
    "prefectureNumber": 17,
    "prefecture": "石川県",
    "city": "羽咋郡志賀町",
    "town": "富来高田"
  },
  "9250451": {
    "zipcode": "9250451",
    "prefectureCode": "17",
    "prefectureNumber": 17,
    "prefecture": "石川県",
    "city": "羽咋郡志賀町",
    "town": "八幡"
  },
  "9250452": {
    "zipcode": "9250452",
    "prefectureCode": "17",
    "prefectureNumber": 17,
    "prefecture": "石川県",
    "city": "羽咋郡志賀町",
    "town": "八幡座主"
  },
  "9250453": {
    "zipcode": "9250453",
    "prefectureCode": "17",
    "prefectureNumber": 17,
    "prefecture": "石川県",
    "city": "羽咋郡志賀町",
    "town": "里本江"
  },
  "9250454": {
    "zipcode": "9250454",
    "prefectureCode": "17",
    "prefectureNumber": 17,
    "prefecture": "石川県",
    "city": "羽咋郡志賀町",
    "town": "相神"
  },
  "9250455": {
    "zipcode": "9250455",
    "prefectureCode": "17",
    "prefectureNumber": 17,
    "prefecture": "石川県",
    "city": "羽咋郡志賀町",
    "town": "中浜"
  },
  "9250456": {
    "zipcode": "9250456",
    "prefectureCode": "17",
    "prefectureNumber": 17,
    "prefecture": "石川県",
    "city": "羽咋郡志賀町",
    "town": "草江"
  },
  "9250457": {
    "zipcode": "9250457",
    "prefectureCode": "17",
    "prefectureNumber": 17,
    "prefecture": "石川県",
    "city": "羽咋郡志賀町",
    "town": "給分"
  },
  "9250561": {
    "zipcode": "9250561",
    "prefectureCode": "17",
    "prefectureNumber": 17,
    "prefecture": "石川県",
    "city": "羽咋郡志賀町",
    "town": "大福寺"
  },
  "9250562": {
    "zipcode": "9250562",
    "prefectureCode": "17",
    "prefectureNumber": 17,
    "prefecture": "石川県",
    "city": "羽咋郡志賀町",
    "town": "栢木"
  },
  "9250563": {
    "zipcode": "9250563",
    "prefectureCode": "17",
    "prefectureNumber": 17,
    "prefecture": "石川県",
    "city": "羽咋郡志賀町",
    "town": "稲敷"
  },
  "9250564": {
    "zipcode": "9250564",
    "prefectureCode": "17",
    "prefectureNumber": 17,
    "prefecture": "石川県",
    "city": "羽咋郡志賀町",
    "town": "酒見"
  },
  "9250565": {
    "zipcode": "9250565",
    "prefectureCode": "17",
    "prefectureNumber": 17,
    "prefecture": "石川県",
    "city": "羽咋郡志賀町",
    "town": "香能"
  },
  "9250566": {
    "zipcode": "9250566",
    "prefectureCode": "17",
    "prefectureNumber": 17,
    "prefecture": "石川県",
    "city": "羽咋郡志賀町",
    "town": "西海風戸"
  },
  "9250571": {
    "zipcode": "9250571",
    "prefectureCode": "17",
    "prefectureNumber": 17,
    "prefecture": "石川県",
    "city": "羽咋郡志賀町",
    "town": "西海風無"
  },
  "9250572": {
    "zipcode": "9250572",
    "prefectureCode": "17",
    "prefectureNumber": 17,
    "prefecture": "石川県",
    "city": "羽咋郡志賀町",
    "town": "西海千ノ浦"
  },
  "9250573": {
    "zipcode": "9250573",
    "prefectureCode": "17",
    "prefectureNumber": 17,
    "prefecture": "石川県",
    "city": "羽咋郡志賀町",
    "town": "西海久喜"
  },
  "9250574": {
    "zipcode": "9250574",
    "prefectureCode": "17",
    "prefectureNumber": 17,
    "prefecture": "石川県",
    "city": "羽咋郡志賀町",
    "town": "赤崎"
  },
  "9250575": {
    "zipcode": "9250575",
    "prefectureCode": "17",
    "prefectureNumber": 17,
    "prefecture": "石川県",
    "city": "羽咋郡志賀町",
    "town": "小窪"
  },
  "9250576": {
    "zipcode": "9250576",
    "prefectureCode": "17",
    "prefectureNumber": 17,
    "prefecture": "石川県",
    "city": "羽咋郡志賀町",
    "town": "鹿頭"
  },
  "9250577": {
    "zipcode": "9250577",
    "prefectureCode": "17",
    "prefectureNumber": 17,
    "prefecture": "石川県",
    "city": "羽咋郡志賀町",
    "town": "笹波"
  },
  "9250578": {
    "zipcode": "9250578",
    "prefectureCode": "17",
    "prefectureNumber": 17,
    "prefecture": "石川県",
    "city": "羽咋郡志賀町",
    "town": "前浜"
  },
  "9250601": {
    "zipcode": "9250601",
    "prefectureCode": "17",
    "prefectureNumber": 17,
    "prefecture": "石川県",
    "city": "羽咋市",
    "town": "菅池町"
  },
  "9250602": {
    "zipcode": "9250602",
    "prefectureCode": "17",
    "prefectureNumber": 17,
    "prefecture": "石川県",
    "city": "羽咋市",
    "town": "千石町"
  },
  "9250603": {
    "zipcode": "9250603",
    "prefectureCode": "17",
    "prefectureNumber": 17,
    "prefecture": "石川県",
    "city": "羽咋市",
    "town": "福水町"
  },
  "9250604": {
    "zipcode": "9250604",
    "prefectureCode": "17",
    "prefectureNumber": 17,
    "prefecture": "石川県",
    "city": "羽咋市",
    "town": "白石町"
  },
  "9250605": {
    "zipcode": "9250605",
    "prefectureCode": "17",
    "prefectureNumber": 17,
    "prefecture": "石川県",
    "city": "羽咋市",
    "town": "宇土野町"
  },
  "9250606": {
    "zipcode": "9250606",
    "prefectureCode": "17",
    "prefectureNumber": 17,
    "prefecture": "石川県",
    "city": "羽咋市",
    "town": "白瀬町"
  },
  "9250607": {
    "zipcode": "9250607",
    "prefectureCode": "17",
    "prefectureNumber": 17,
    "prefecture": "石川県",
    "city": "羽咋市",
    "town": "上白瀬町"
  },
  "9250608": {
    "zipcode": "9250608",
    "prefectureCode": "17",
    "prefectureNumber": 17,
    "prefecture": "石川県",
    "city": "羽咋市",
    "town": "神子原町"
  },
  "9250611": {
    "zipcode": "9250611",
    "prefectureCode": "17",
    "prefectureNumber": 17,
    "prefecture": "石川県",
    "city": "羽咋市",
    "town": "上江町"
  },
  "9250612": {
    "zipcode": "9250612",
    "prefectureCode": "17",
    "prefectureNumber": 17,
    "prefecture": "石川県",
    "city": "羽咋市",
    "town": "垣内田町"
  },
  "9250613": {
    "zipcode": "9250613",
    "prefectureCode": "17",
    "prefectureNumber": 17,
    "prefecture": "石川県",
    "city": "羽咋市",
    "town": "飯山町"
  },
  "9250614": {
    "zipcode": "9250614",
    "prefectureCode": "17",
    "prefectureNumber": 17,
    "prefecture": "石川県",
    "city": "羽咋市",
    "town": "中川町"
  },
  "9250615": {
    "zipcode": "9250615",
    "prefectureCode": "17",
    "prefectureNumber": 17,
    "prefecture": "石川県",
    "city": "羽咋市",
    "town": "千代町"
  },
  "9250616": {
    "zipcode": "9250616",
    "prefectureCode": "17",
    "prefectureNumber": 17,
    "prefecture": "石川県",
    "city": "羽咋市",
    "town": "四町"
  },
  "9250617": {
    "zipcode": "9250617",
    "prefectureCode": "17",
    "prefectureNumber": 17,
    "prefecture": "石川県",
    "city": "羽咋市",
    "town": "円井町"
  },
  "9250621": {
    "zipcode": "9250621",
    "prefectureCode": "17",
    "prefectureNumber": 17,
    "prefecture": "石川県",
    "city": "羽咋市",
    "town": "菱分町"
  },
  "9250622": {
    "zipcode": "9250622",
    "prefectureCode": "17",
    "prefectureNumber": 17,
    "prefecture": "石川県",
    "city": "羽咋市",
    "town": "堀替新町"
  },
  "9250623": {
    "zipcode": "9250623",
    "prefectureCode": "17",
    "prefectureNumber": 17,
    "prefecture": "石川県",
    "city": "羽咋市",
    "town": "本江町"
  },
  "9250624": {
    "zipcode": "9250624",
    "prefectureCode": "17",
    "prefectureNumber": 17,
    "prefecture": "石川県",
    "city": "羽咋市",
    "town": "志々見町"
  },
  "9250625": {
    "zipcode": "9250625",
    "prefectureCode": "17",
    "prefectureNumber": 17,
    "prefecture": "石川県",
    "city": "羽咋市",
    "town": "尾長町"
  },
  "9250626": {
    "zipcode": "9250626",
    "prefectureCode": "17",
    "prefectureNumber": 17,
    "prefecture": "石川県",
    "city": "羽咋市",
    "town": "千田町"
  }
}
