{
  "9260000": {
    "zipcode": "9260000",
    "prefectureCode": "17",
    "prefectureNumber": 17,
    "prefecture": "石川県",
    "city": "七尾市",
    "town": "以下に掲載がない場合"
  },
  "9260001": {
    "zipcode": "9260001",
    "prefectureCode": "17",
    "prefectureNumber": 17,
    "prefecture": "石川県",
    "city": "七尾市",
    "town": "鵜浦町"
  },
  "9260002": {
    "zipcode": "9260002",
    "prefectureCode": "17",
    "prefectureNumber": 17,
    "prefecture": "石川県",
    "city": "七尾市",
    "town": "湯川町"
  },
  "9260003": {
    "zipcode": "9260003",
    "prefectureCode": "17",
    "prefectureNumber": 17,
    "prefecture": "石川県",
    "city": "七尾市",
    "town": "沢野町"
  },
  "9260004": {
    "zipcode": "9260004",
    "prefectureCode": "17",
    "prefectureNumber": 17,
    "prefecture": "石川県",
    "city": "七尾市",
    "town": "殿町"
  },
  "9260005": {
    "zipcode": "9260005",
    "prefectureCode": "17",
    "prefectureNumber": 17,
    "prefecture": "石川県",
    "city": "七尾市",
    "town": "岡町"
  },
  "9260006": {
    "zipcode": "9260006",
    "prefectureCode": "17",
    "prefectureNumber": 17,
    "prefecture": "石川県",
    "city": "七尾市",
    "town": "大田町"
  },
  "9260007": {
    "zipcode": "9260007",
    "prefectureCode": "17",
    "prefectureNumber": 17,
    "prefecture": "石川県",
    "city": "七尾市",
    "town": "三室町"
  },
  "9260011": {
    "zipcode": "9260011",
    "prefectureCode": "17",
    "prefectureNumber": 17,
    "prefecture": "石川県",
    "city": "七尾市",
    "town": "佐味町"
  },
  "9260012": {
    "zipcode": "9260012",
    "prefectureCode": "17",
    "prefectureNumber": 17,
    "prefecture": "石川県",
    "city": "七尾市",
    "town": "万行町"
  },
  "9260013": {
    "zipcode": "9260013",
    "prefectureCode": "17",
    "prefectureNumber": 17,
    "prefecture": "石川県",
    "city": "七尾市",
    "town": "佐野町"
  },
  "9260014": {
    "zipcode": "9260014",
    "prefectureCode": "17",
    "prefectureNumber": 17,
    "prefecture": "石川県",
    "city": "七尾市",
    "town": "矢田町"
  },
  "9260015": {
    "zipcode": "9260015",
    "prefectureCode": "17",
    "prefectureNumber": 17,
    "prefecture": "石川県",
    "city": "七尾市",
    "town": "矢田新町"
  },
  "9260016": {
    "zipcode": "9260016",
    "prefectureCode": "17",
    "prefectureNumber": 17,
    "prefecture": "石川県",
    "city": "七尾市",
    "town": "大和町"
  },
  "9260017": {
    "zipcode": "9260017",
    "prefectureCode": "17",
    "prefectureNumber": 17,
    "prefecture": "石川県",
    "city": "七尾市",
    "town": "万行"
  },
  "9260021": {
    "zipcode": "9260021",
    "prefectureCode": "17",
    "prefectureNumber": 17,
    "prefecture": "石川県",
    "city": "七尾市",
    "town": "本府中町"
  },
  "9260022": {
    "zipcode": "9260022",
    "prefectureCode": "17",
    "prefectureNumber": 17,
    "prefecture": "石川県",
    "city": "七尾市",
    "town": "天神川原町"
  },
  "9260023": {
    "zipcode": "9260023",
    "prefectureCode": "17",
    "prefectureNumber": 17,
    "prefecture": "石川県",
    "city": "七尾市",
    "town": "竹町"
  },
  "9260024": {
    "zipcode": "9260024",
    "prefectureCode": "17",
    "prefectureNumber": 17,
    "prefecture": "石川県",
    "city": "七尾市",
    "town": "古屋敷町"
  },
  "9260025": {
    "zipcode": "9260025",
    "prefectureCode": "17",
    "prefectureNumber": 17,
    "prefecture": "石川県",
    "city": "七尾市",
    "town": "古城町"
  },
  "9260026": {
    "zipcode": "9260026",
    "prefectureCode": "17",
    "prefectureNumber": 17,
    "prefecture": "石川県",
    "city": "七尾市",
    "town": "小池川原町"
  },
  "9260027": {
    "zipcode": "9260027",
    "prefectureCode": "17",
    "prefectureNumber": 17,
    "prefecture": "石川県",
    "city": "七尾市",
    "town": "後畠町"
  },
  "9260028": {
    "zipcode": "9260028",
    "prefectureCode": "17",
    "prefectureNumber": 17,
    "prefecture": "石川県",
    "city": "七尾市",
    "town": "藤野町"
  },
  "9260031": {
    "zipcode": "9260031",
    "prefectureCode": "17",
    "prefectureNumber": 17,
    "prefecture": "石川県",
    "city": "七尾市",
    "town": "古府町"
  },
  "9260032": {
    "zipcode": "9260032",
    "prefectureCode": "17",
    "prefectureNumber": 17,
    "prefecture": "石川県",
    "city": "七尾市",
    "town": "南ケ丘町"
  },
  "9260033": {
    "zipcode": "9260033",
    "prefectureCode": "17",
    "prefectureNumber": 17,
    "prefecture": "石川県",
    "city": "七尾市",
    "town": "千野町"
  },
  "9260034": {
    "zipcode": "9260034",
    "prefectureCode": "17",
    "prefectureNumber": 17,
    "prefecture": "石川県",
    "city": "七尾市",
    "town": "多根町"
  },
  "9260035": {
    "zipcode": "9260035",
    "prefectureCode": "17",
    "prefectureNumber": 17,
    "prefecture": "石川県",
    "city": "七尾市",
    "town": "八田町"
  },
  "9260036": {
    "zipcode": "9260036",
    "prefectureCode": "17",
    "prefectureNumber": 17,
    "prefecture": "石川県",
    "city": "七尾市",
    "town": "中挾町"
  },
  "9260037": {
    "zipcode": "9260037",
    "prefectureCode": "17",
    "prefectureNumber": 17,
    "prefecture": "石川県",
    "city": "七尾市",
    "town": "国下町"
  },
  "9260038": {
    "zipcode": "9260038",
    "prefectureCode": "17",
    "prefectureNumber": 17,
    "prefecture": "石川県",
    "city": "七尾市",
    "town": "八幡町"
  },
  "9260041": {
    "zipcode": "9260041",
    "prefectureCode": "17",
    "prefectureNumber": 17,
    "prefecture": "石川県",
    "city": "七尾市",
    "town": "府中町"
  },
  "9260042": {
    "zipcode": "9260042",
    "prefectureCode": "17",
    "prefectureNumber": 17,
    "prefecture": "石川県",
    "city": "七尾市",
    "town": "作事町"
  },
  "9260043": {
    "zipcode": "9260043",
    "prefectureCode": "17",
    "prefectureNumber": 17,
    "prefecture": "石川県",
    "city": "七尾市",
    "town": "橘町"
  },
  "9260044": {
    "zipcode": "9260044",
    "prefectureCode": "17",
    "prefectureNumber": 17,
    "prefecture": "石川県",
    "city": "七尾市",
    "town": "相生町"
  },
  "9260045": {
    "zipcode": "9260045",
    "prefectureCode": "17",
    "prefectureNumber": 17,
    "prefecture": "石川県",
    "city": "七尾市",
    "town": "袖ケ江町"
  },
  "9260046": {
    "zipcode": "9260046",
    "prefectureCode": "17",
    "prefectureNumber": 17,
    "prefecture": "石川県",
    "city": "七尾市",
    "town": "神明町"
  },
  "9260047": {
    "zipcode": "9260047",
    "prefectureCode": "17",
    "prefectureNumber": 17,
    "prefecture": "石川県",
    "city": "七尾市",
    "town": "大手町"
  },
  "9260048": {
    "zipcode": "9260048",
    "prefectureCode": "17",
    "prefectureNumber": 17,
    "prefecture": "石川県",
    "city": "七尾市",
    "town": "桧物町"
  },
  "9260051": {
    "zipcode": "9260051",
    "prefectureCode": "17",
    "prefectureNumber": 17,
    "prefecture": "石川県",
    "city": "七尾市",
    "town": "郡町"
  },
  "9260052": {
    "zipcode": "9260052",
    "prefectureCode": "17",
    "prefectureNumber": 17,
    "prefecture": "石川県",
    "city": "七尾市",
    "town": "山王町"
  },
  "9260053": {
    "zipcode": "9260053",
    "prefectureCode": "17",
    "prefectureNumber": 17,
    "prefecture": "石川県",
    "city": "七尾市",
    "town": "上府中町"
  },
  "9260054": {
    "zipcode": "9260054",
    "prefectureCode": "17",
    "prefectureNumber": 17,
    "prefecture": "石川県",
    "city": "七尾市",
    "town": "川原町"
  },
  "9260055": {
    "zipcode": "9260055",
    "prefectureCode": "17",
    "prefectureNumber": 17,
    "prefecture": "石川県",
    "city": "七尾市",
    "town": "今町"
  },
  "9260056": {
    "zipcode": "9260056",
    "prefectureCode": "17",
    "prefectureNumber": 17,
    "prefecture": "石川県",
    "city": "七尾市",
    "town": "塗師町"
  },
  "9260057": {
    "zipcode": "9260057",
    "prefectureCode": "17",
    "prefectureNumber": 17,
    "prefecture": "石川県",
    "city": "七尾市",
    "town": "鍛冶町"
  },
  "9260058": {
    "zipcode": "9260058",
    "prefectureCode": "17",
    "prefectureNumber": 17,
    "prefecture": "石川県",
    "city": "七尾市",
    "town": "湊町"
  },
  "9260171": {
    "zipcode": "9260171",
    "prefectureCode": "17",
    "prefectureNumber": 17,
    "prefecture": "石川県",
    "city": "七尾市",
    "town": "石崎町"
  },
  "9260172": {
    "zipcode": "9260172",
    "prefectureCode": "17",
    "prefectureNumber": 17,
    "prefecture": "石川県",
    "city": "七尾市",
    "town": "石崎町（東）"
  },
  "9260173": {
    "zipcode": "9260173",
    "prefectureCode": "17",
    "prefectureNumber": 17,
    "prefecture": "石川県",
    "city": "七尾市",
    "town": "石崎町（西）"
  },
  "9260174": {
    "zipcode": "9260174",
    "prefectureCode": "17",
    "prefectureNumber": 17,
    "prefecture": "石川県",
    "city": "七尾市",
    "town": "奥原町"
  },
  "9260175": {
    "zipcode": "9260175",
    "prefectureCode": "17",
    "prefectureNumber": 17,
    "prefecture": "石川県",
    "city": "七尾市",
    "town": "和倉町"
  },
  "9260176": {
    "zipcode": "9260176",
    "prefectureCode": "17",
    "prefectureNumber": 17,
    "prefecture": "石川県",
    "city": "七尾市",
    "town": "和倉町ひばり"
  },
  "9260177": {
    "zipcode": "9260177",
    "prefectureCode": "17",
    "prefectureNumber": 17,
    "prefecture": "石川県",
    "city": "七尾市",
    "town": "光陽台"
  },
  "9260178": {
    "zipcode": "9260178",
    "prefectureCode": "17",
    "prefectureNumber": 17,
    "prefecture": "石川県",
    "city": "七尾市",
    "town": "石崎町（香島）"
  },
  "9260179": {
    "zipcode": "9260179",
    "prefectureCode": "17",
    "prefectureNumber": 17,
    "prefecture": "石川県",
    "city": "七尾市",
    "town": "泉南台"
  },
  "9260201": {
    "zipcode": "9260201",
    "prefectureCode": "17",
    "prefectureNumber": 17,
    "prefecture": "石川県",
    "city": "七尾市",
    "town": "能登島祖母ケ浦町"
  },
  "9260202": {
    "zipcode": "9260202",
    "prefectureCode": "17",
    "prefectureNumber": 17,
    "prefecture": "石川県",
    "city": "七尾市",
    "town": "能登島八ケ崎町"
  },
  "9260203": {
    "zipcode": "9260203",
    "prefectureCode": "17",
    "prefectureNumber": 17,
    "prefecture": "石川県",
    "city": "七尾市",
    "town": "能登島えの目町"
  },
  "9260204": {
    "zipcode": "9260204",
    "prefectureCode": "17",
    "prefectureNumber": 17,
    "prefecture": "石川県",
    "city": "七尾市",
    "town": "能登島長崎町"
  },
  "9260205": {
    "zipcode": "9260205",
    "prefectureCode": "17",
    "prefectureNumber": 17,
    "prefecture": "石川県",
    "city": "七尾市",
    "town": "能登島野崎町"
  },
  "9260206": {
    "zipcode": "9260206",
    "prefectureCode": "17",
    "prefectureNumber": 17,
    "prefecture": "石川県",
    "city": "七尾市",
    "town": "能登島日出ケ島町"
  },
  "9260207": {
    "zipcode": "9260207",
    "prefectureCode": "17",
    "prefectureNumber": 17,
    "prefecture": "石川県",
    "city": "七尾市",
    "town": "能登島二穴町"
  },
  "9260208": {
    "zipcode": "9260208",
    "prefectureCode": "17",
    "prefectureNumber": 17,
    "prefecture": "石川県",
    "city": "七尾市",
    "town": "能登島小浦町"
  },
  "9260211": {
    "zipcode": "9260211",
    "prefectureCode": "17",
    "prefectureNumber": 17,
    "prefecture": "石川県",
    "city": "七尾市",
    "town": "能登島向田町"
  },
  "9260212": {
    "zipcode": "9260212",
    "prefectureCode": "17",
    "prefectureNumber": 17,
    "prefecture": "石川県",
    "city": "七尾市",
    "town": "能登島佐波町"
  },
  "9260213": {
    "zipcode": "9260213",
    "prefectureCode": "17",
    "prefectureNumber": 17,
    "prefecture": "石川県",
    "city": "七尾市",
    "town": "能登島須曽町"
  },
  "9260214": {
    "zipcode": "9260214",
    "prefectureCode": "17",
    "prefectureNumber": 17,
    "prefecture": "石川県",
    "city": "七尾市",
    "town": "能登島別所町"
  },
  "9260215": {
    "zipcode": "9260215",
    "prefectureCode": "17",
    "prefectureNumber": 17,
    "prefecture": "石川県",
    "city": "七尾市",
    "town": "能登島南町"
  },
  "9260216": {
    "zipcode": "9260216",
    "prefectureCode": "17",
    "prefectureNumber": 17,
    "prefecture": "石川県",
    "city": "七尾市",
    "town": "能登島曲町"
  },
  "9260221": {
    "zipcode": "9260221",
    "prefectureCode": "17",
    "prefectureNumber": 17,
    "prefecture": "石川県",
    "city": "七尾市",
    "town": "能登島無関町"
  },
  "9260222": {
    "zipcode": "9260222",
    "prefectureCode": "17",
    "prefectureNumber": 17,
    "prefecture": "石川県",
    "city": "七尾市",
    "town": "能登島閨町"
  },
  "9260223": {
    "zipcode": "9260223",
    "prefectureCode": "17",
    "prefectureNumber": 17,
    "prefecture": "石川県",
    "city": "七尾市",
    "town": "能登島半浦町"
  },
  "9260224": {
    "zipcode": "9260224",
    "prefectureCode": "17",
    "prefectureNumber": 17,
    "prefecture": "石川県",
    "city": "七尾市",
    "town": "能登島百万石町"
  },
  "9260225": {
    "zipcode": "9260225",
    "prefectureCode": "17",
    "prefectureNumber": 17,
    "prefecture": "石川県",
    "city": "七尾市",
    "town": "能登島通町"
  },
  "9260226": {
    "zipcode": "9260226",
    "prefectureCode": "17",
    "prefectureNumber": 17,
    "prefecture": "石川県",
    "city": "七尾市",
    "town": "能登島田尻町"
  },
  "9260227": {
    "zipcode": "9260227",
    "prefectureCode": "17",
    "prefectureNumber": 17,
    "prefecture": "石川県",
    "city": "七尾市",
    "town": "能登島久木町"
  },
  "9260361": {
    "zipcode": "9260361",
    "prefectureCode": "17",
    "prefectureNumber": 17,
    "prefecture": "石川県",
    "city": "七尾市",
    "town": "江泊町（日室町）"
  },
  "9260362": {
    "zipcode": "9260362",
    "prefectureCode": "17",
    "prefectureNumber": 17,
    "prefecture": "石川県",
    "city": "七尾市",
    "town": "大野木町"
  },
  "9260363": {
    "zipcode": "9260363",
    "prefectureCode": "17",
    "prefectureNumber": 17,
    "prefecture": "石川県",
    "city": "七尾市",
    "town": "江泊町"
  },
  "9260364": {
    "zipcode": "9260364",
    "prefectureCode": "17",
    "prefectureNumber": 17,
    "prefecture": "石川県",
    "city": "七尾市",
    "town": "江泊町（白鳥町）"
  },
  "9260365": {
    "zipcode": "9260365",
    "prefectureCode": "17",
    "prefectureNumber": 17,
    "prefecture": "石川県",
    "city": "七尾市",
    "town": "庵町（百海町）"
  },
  "9260366": {
    "zipcode": "9260366",
    "prefectureCode": "17",
    "prefectureNumber": 17,
    "prefecture": "石川県",
    "city": "七尾市",
    "town": "庵町"
  },
  "9260367": {
    "zipcode": "9260367",
    "prefectureCode": "17",
    "prefectureNumber": 17,
    "prefecture": "石川県",
    "city": "七尾市",
    "town": "庵町（虫崎町）"
  },
  "9260371": {
    "zipcode": "9260371",
    "prefectureCode": "17",
    "prefectureNumber": 17,
    "prefecture": "石川県",
    "city": "七尾市",
    "town": "佐々波町"
  },
  "9260372": {
    "zipcode": "9260372",
    "prefectureCode": "17",
    "prefectureNumber": 17,
    "prefecture": "石川県",
    "city": "七尾市",
    "town": "麻生町"
  },
  "9260373": {
    "zipcode": "9260373",
    "prefectureCode": "17",
    "prefectureNumber": 17,
    "prefecture": "石川県",
    "city": "七尾市",
    "town": "小栗町"
  },
  "9260374": {
    "zipcode": "9260374",
    "prefectureCode": "17",
    "prefectureNumber": 17,
    "prefecture": "石川県",
    "city": "七尾市",
    "town": "清水平町"
  },
  "9260375": {
    "zipcode": "9260375",
    "prefectureCode": "17",
    "prefectureNumber": 17,
    "prefecture": "石川県",
    "city": "七尾市",
    "town": "柑子町"
  },
  "9260376": {
    "zipcode": "9260376",
    "prefectureCode": "17",
    "prefectureNumber": 17,
    "prefecture": "石川県",
    "city": "七尾市",
    "town": "外林町"
  },
  "9260381": {
    "zipcode": "9260381",
    "prefectureCode": "17",
    "prefectureNumber": 17,
    "prefecture": "石川県",
    "city": "七尾市",
    "town": "黒崎町"
  },
  "9260382": {
    "zipcode": "9260382",
    "prefectureCode": "17",
    "prefectureNumber": 17,
    "prefecture": "石川県",
    "city": "七尾市",
    "town": "花園町"
  },
  "9260383": {
    "zipcode": "9260383",
    "prefectureCode": "17",
    "prefectureNumber": 17,
    "prefecture": "石川県",
    "city": "七尾市",
    "town": "東浜町"
  },
  "9260384": {
    "zipcode": "9260384",
    "prefectureCode": "17",
    "prefectureNumber": 17,
    "prefecture": "石川県",
    "city": "七尾市",
    "town": "大泊町"
  },
  "9260385": {
    "zipcode": "9260385",
    "prefectureCode": "17",
    "prefectureNumber": 17,
    "prefecture": "石川県",
    "city": "七尾市",
    "town": "山崎町"
  },
  "9260386": {
    "zipcode": "9260386",
    "prefectureCode": "17",
    "prefectureNumber": 17,
    "prefecture": "石川県",
    "city": "七尾市",
    "town": "山崎町（小川内町）"
  },
  "9260387": {
    "zipcode": "9260387",
    "prefectureCode": "17",
    "prefectureNumber": 17,
    "prefecture": "石川県",
    "city": "七尾市",
    "town": "熊淵町"
  },
  "9260388": {
    "zipcode": "9260388",
    "prefectureCode": "17",
    "prefectureNumber": 17,
    "prefecture": "石川県",
    "city": "七尾市",
    "town": "熊淵町（水上町）"
  },
  "9260389": {
    "zipcode": "9260389",
    "prefectureCode": "17",
    "prefectureNumber": 17,
    "prefecture": "石川県",
    "city": "七尾市",
    "town": "熊淵町（滝の尻町）"
  },
  "9260801": {
    "zipcode": "9260801",
    "prefectureCode": "17",
    "prefectureNumber": 17,
    "prefecture": "石川県",
    "city": "七尾市",
    "town": "昭和町"
  },
  "9260802": {
    "zipcode": "9260802",
    "prefectureCode": "17",
    "prefectureNumber": 17,
    "prefecture": "石川県",
    "city": "七尾市",
    "town": "三島町"
  },
  "9260803": {
    "zipcode": "9260803",
    "prefectureCode": "17",
    "prefectureNumber": 17,
    "prefecture": "石川県",
    "city": "七尾市",
    "town": "米町"
  },
  "9260804": {
    "zipcode": "9260804",
    "prefectureCode": "17",
    "prefectureNumber": 17,
    "prefecture": "石川県",
    "city": "七尾市",
    "town": "生駒町"
  },
  "9260805": {
    "zipcode": "9260805",
    "prefectureCode": "17",
    "prefectureNumber": 17,
    "prefecture": "石川県",
    "city": "七尾市",
    "town": "亀山町"
  },
  "9260806": {
    "zipcode": "9260806",
    "prefectureCode": "17",
    "prefectureNumber": 17,
    "prefecture": "石川県",
    "city": "七尾市",
    "town": "一本杉町"
  },
  "9260807": {
    "zipcode": "9260807",
    "prefectureCode": "17",
    "prefectureNumber": 17,
    "prefecture": "石川県",
    "city": "七尾市",
    "town": "阿良町"
  },
  "9260808": {
    "zipcode": "9260808",
    "prefectureCode": "17",
    "prefectureNumber": 17,
    "prefecture": "石川県",
    "city": "七尾市",
    "town": "木町"
  },
  "9260811": {
    "zipcode": "9260811",
    "prefectureCode": "17",
    "prefectureNumber": 17,
    "prefecture": "石川県",
    "city": "七尾市",
    "town": "御祓町"
  },
  "9260812": {
    "zipcode": "9260812",
    "prefectureCode": "17",
    "prefectureNumber": 17,
    "prefecture": "石川県",
    "city": "七尾市",
    "town": "北藤橋町"
  },
  "9260813": {
    "zipcode": "9260813",
    "prefectureCode": "17",
    "prefectureNumber": 17,
    "prefecture": "石川県",
    "city": "七尾市",
    "town": "南藤橋町"
  },
  "9260814": {
    "zipcode": "9260814",
    "prefectureCode": "17",
    "prefectureNumber": 17,
    "prefecture": "石川県",
    "city": "七尾市",
    "town": "所口町"
  },
  "9260815": {
    "zipcode": "9260815",
    "prefectureCode": "17",
    "prefectureNumber": 17,
    "prefecture": "石川県",
    "city": "七尾市",
    "town": "栄町"
  },
  "9260816": {
    "zipcode": "9260816",
    "prefectureCode": "17",
    "prefectureNumber": 17,
    "prefecture": "石川県",
    "city": "七尾市",
    "town": "藤橋町"
  },
  "9260817": {
    "zipcode": "9260817",
    "prefectureCode": "17",
    "prefectureNumber": 17,
    "prefecture": "石川県",
    "city": "七尾市",
    "town": "西藤橋町"
  },
  "9260818": {
    "zipcode": "9260818",
    "prefectureCode": "17",
    "prefectureNumber": 17,
    "prefecture": "石川県",
    "city": "七尾市",
    "town": "馬出町"
  },
  "9260821": {
    "zipcode": "9260821",
    "prefectureCode": "17",
    "prefectureNumber": 17,
    "prefecture": "石川県",
    "city": "七尾市",
    "town": "国分町"
  },
  "9260822": {
    "zipcode": "9260822",
    "prefectureCode": "17",
    "prefectureNumber": 17,
    "prefecture": "石川県",
    "city": "七尾市",
    "town": "細口町"
  },
  "9260823": {
    "zipcode": "9260823",
    "prefectureCode": "17",
    "prefectureNumber": 17,
    "prefecture": "石川県",
    "city": "七尾市",
    "town": "青葉台町"
  },
  "9260824": {
    "zipcode": "9260824",
    "prefectureCode": "17",
    "prefectureNumber": 17,
    "prefecture": "石川県",
    "city": "七尾市",
    "town": "徳田町"
  },
  "9260825": {
    "zipcode": "9260825",
    "prefectureCode": "17",
    "prefectureNumber": 17,
    "prefecture": "石川県",
    "city": "七尾市",
    "town": "江曽町"
  },
  "9260826": {
    "zipcode": "9260826",
    "prefectureCode": "17",
    "prefectureNumber": 17,
    "prefecture": "石川県",
    "city": "七尾市",
    "town": "飯川町"
  },
  "9260827": {
    "zipcode": "9260827",
    "prefectureCode": "17",
    "prefectureNumber": 17,
    "prefecture": "石川県",
    "city": "七尾市",
    "town": "若林町"
  },
  "9260828": {
    "zipcode": "9260828",
    "prefectureCode": "17",
    "prefectureNumber": 17,
    "prefecture": "石川県",
    "city": "七尾市",
    "town": "白馬町"
  },
  "9260829": {
    "zipcode": "9260829",
    "prefectureCode": "17",
    "prefectureNumber": 17,
    "prefecture": "石川県",
    "city": "七尾市",
    "town": "徳田新町"
  },
  "9260831": {
    "zipcode": "9260831",
    "prefectureCode": "17",
    "prefectureNumber": 17,
    "prefecture": "石川県",
    "city": "七尾市",
    "town": "池崎町"
  },
  "9260832": {
    "zipcode": "9260832",
    "prefectureCode": "17",
    "prefectureNumber": 17,
    "prefecture": "石川県",
    "city": "七尾市",
    "town": "盤若野町"
  },
  "9260833": {
    "zipcode": "9260833",
    "prefectureCode": "17",
    "prefectureNumber": 17,
    "prefecture": "石川県",
    "city": "七尾市",
    "town": "旭町"
  },
  "9260834": {
    "zipcode": "9260834",
    "prefectureCode": "17",
    "prefectureNumber": 17,
    "prefecture": "石川県",
    "city": "七尾市",
    "town": "東三階町"
  },
  "9260835": {
    "zipcode": "9260835",
    "prefectureCode": "17",
    "prefectureNumber": 17,
    "prefecture": "石川県",
    "city": "七尾市",
    "town": "西三階町"
  },
  "9260836": {
    "zipcode": "9260836",
    "prefectureCode": "17",
    "prefectureNumber": 17,
    "prefecture": "石川県",
    "city": "七尾市",
    "town": "町屋町"
  },
  "9260837": {
    "zipcode": "9260837",
    "prefectureCode": "17",
    "prefectureNumber": 17,
    "prefecture": "石川県",
    "city": "七尾市",
    "town": "温井町"
  },
  "9260838": {
    "zipcode": "9260838",
    "prefectureCode": "17",
    "prefectureNumber": 17,
    "prefecture": "石川県",
    "city": "七尾市",
    "town": "満仁町"
  },
  "9260841": {
    "zipcode": "9260841",
    "prefectureCode": "17",
    "prefectureNumber": 17,
    "prefecture": "石川県",
    "city": "七尾市",
    "town": "松百町"
  },
  "9260842": {
    "zipcode": "9260842",
    "prefectureCode": "17",
    "prefectureNumber": 17,
    "prefecture": "石川県",
    "city": "七尾市",
    "town": "松百新町"
  },
  "9260843": {
    "zipcode": "9260843",
    "prefectureCode": "17",
    "prefectureNumber": 17,
    "prefecture": "石川県",
    "city": "七尾市",
    "town": "赤浦町"
  },
  "9260844": {
    "zipcode": "9260844",
    "prefectureCode": "17",
    "prefectureNumber": 17,
    "prefecture": "石川県",
    "city": "七尾市",
    "town": "直津町"
  },
  "9260845": {
    "zipcode": "9260845",
    "prefectureCode": "17",
    "prefectureNumber": 17,
    "prefecture": "石川県",
    "city": "七尾市",
    "town": "新保町"
  },
  "9260846": {
    "zipcode": "9260846",
    "prefectureCode": "17",
    "prefectureNumber": 17,
    "prefecture": "石川県",
    "city": "七尾市",
    "town": "祖浜町"
  },
  "9260851": {
    "zipcode": "9260851",
    "prefectureCode": "17",
    "prefectureNumber": 17,
    "prefecture": "石川県",
    "city": "七尾市",
    "town": "つつじが浜"
  },
  "9260852": {
    "zipcode": "9260852",
    "prefectureCode": "17",
    "prefectureNumber": 17,
    "prefecture": "石川県",
    "city": "七尾市",
    "town": "小島町"
  },
  "9260853": {
    "zipcode": "9260853",
    "prefectureCode": "17",
    "prefectureNumber": 17,
    "prefecture": "石川県",
    "city": "七尾市",
    "town": "津向町"
  },
  "9260854": {
    "zipcode": "9260854",
    "prefectureCode": "17",
    "prefectureNumber": 17,
    "prefecture": "石川県",
    "city": "七尾市",
    "town": "なぎの浦"
  },
  "9260855": {
    "zipcode": "9260855",
    "prefectureCode": "17",
    "prefectureNumber": 17,
    "prefecture": "石川県",
    "city": "七尾市",
    "town": "小丸山台"
  },
  "9260861": {
    "zipcode": "9260861",
    "prefectureCode": "17",
    "prefectureNumber": 17,
    "prefecture": "石川県",
    "city": "七尾市",
    "town": "寿町"
  },
  "9260862": {
    "zipcode": "9260862",
    "prefectureCode": "17",
    "prefectureNumber": 17,
    "prefecture": "石川県",
    "city": "七尾市",
    "town": "常盤町"
  },
  "9260863": {
    "zipcode": "9260863",
    "prefectureCode": "17",
    "prefectureNumber": 17,
    "prefecture": "石川県",
    "city": "七尾市",
    "town": "白銀町"
  },
  "9260864": {
    "zipcode": "9260864",
    "prefectureCode": "17",
    "prefectureNumber": 17,
    "prefecture": "石川県",
    "city": "七尾市",
    "town": "魚町"
  },
  "9260865": {
    "zipcode": "9260865",
    "prefectureCode": "17",
    "prefectureNumber": 17,
    "prefecture": "石川県",
    "city": "七尾市",
    "town": "松本町"
  },
  "9260866": {
    "zipcode": "9260866",
    "prefectureCode": "17",
    "prefectureNumber": 17,
    "prefecture": "石川県",
    "city": "七尾市",
    "town": "富岡町"
  },
  "9260867": {
    "zipcode": "9260867",
    "prefectureCode": "17",
    "prefectureNumber": 17,
    "prefecture": "石川県",
    "city": "七尾市",
    "town": "桜町"
  }
}
