{
  "9270000": {
    "zipcode": "9270000",
    "prefectureCode": "17",
    "prefectureNumber": 17,
    "prefecture": "石川県",
    "city": "鳳珠郡穴水町",
    "town": "以下に掲載がない場合"
  },
  "9270001": {
    "zipcode": "9270001",
    "prefectureCode": "17",
    "prefectureNumber": 17,
    "prefecture": "石川県",
    "city": "鳳珠郡穴水町",
    "town": "樟谷"
  },
  "9270002": {
    "zipcode": "9270002",
    "prefectureCode": "17",
    "prefectureNumber": 17,
    "prefecture": "石川県",
    "city": "鳳珠郡穴水町",
    "town": "菅谷"
  },
  "9270003": {
    "zipcode": "9270003",
    "prefectureCode": "17",
    "prefectureNumber": 17,
    "prefecture": "石川県",
    "city": "鳳珠郡穴水町",
    "town": "伊久留"
  },
  "9270004": {
    "zipcode": "9270004",
    "prefectureCode": "17",
    "prefectureNumber": 17,
    "prefecture": "石川県",
    "city": "鳳珠郡穴水町",
    "town": "曽山"
  },
  "9270005": {
    "zipcode": "9270005",
    "prefectureCode": "17",
    "prefectureNumber": 17,
    "prefecture": "石川県",
    "city": "鳳珠郡穴水町",
    "town": "東中谷"
  },
  "9270006": {
    "zipcode": "9270006",
    "prefectureCode": "17",
    "prefectureNumber": 17,
    "prefecture": "石川県",
    "city": "鳳珠郡穴水町",
    "town": "旭ケ丘"
  },
  "9270007": {
    "zipcode": "9270007",
    "prefectureCode": "17",
    "prefectureNumber": 17,
    "prefecture": "石川県",
    "city": "鳳珠郡穴水町",
    "town": "岩車"
  },
  "9270008": {
    "zipcode": "9270008",
    "prefectureCode": "17",
    "prefectureNumber": 17,
    "prefecture": "石川県",
    "city": "鳳珠郡穴水町",
    "town": "川尻"
  },
  "9270009": {
    "zipcode": "9270009",
    "prefectureCode": "17",
    "prefectureNumber": 17,
    "prefecture": "石川県",
    "city": "鳳珠郡穴水町",
    "town": "比良"
  },
  "9270011": {
    "zipcode": "9270011",
    "prefectureCode": "17",
    "prefectureNumber": 17,
    "prefecture": "石川県",
    "city": "鳳珠郡穴水町",
    "town": "木原"
  },
  "9270012": {
    "zipcode": "9270012",
    "prefectureCode": "17",
    "prefectureNumber": 17,
    "prefecture": "石川県",
    "city": "鳳珠郡穴水町",
    "town": "藤巻"
  },
  "9270013": {
    "zipcode": "9270013",
    "prefectureCode": "17",
    "prefectureNumber": 17,
    "prefecture": "石川県",
    "city": "鳳珠郡穴水町",
    "town": "瑞鳳"
  },
  "9270014": {
    "zipcode": "9270014",
    "prefectureCode": "17",
    "prefectureNumber": 17,
    "prefecture": "石川県",
    "city": "鳳珠郡穴水町",
    "town": "梶"
  },
  "9270015": {
    "zipcode": "9270015",
    "prefectureCode": "17",
    "prefectureNumber": 17,
    "prefecture": "石川県",
    "city": "鳳珠郡穴水町",
    "town": "中居"
  },
  "9270016": {
    "zipcode": "9270016",
    "prefectureCode": "17",
    "prefectureNumber": 17,
    "prefecture": "石川県",
    "city": "鳳珠郡穴水町",
    "town": "中居南"
  },
  "9270017": {
    "zipcode": "9270017",
    "prefectureCode": "17",
    "prefectureNumber": 17,
    "prefecture": "石川県",
    "city": "鳳珠郡穴水町",
    "town": "波志借"
  },
  "9270021": {
    "zipcode": "9270021",
    "prefectureCode": "17",
    "prefectureNumber": 17,
    "prefecture": "石川県",
    "city": "鳳珠郡穴水町",
    "town": "七海"
  },
  "9270022": {
    "zipcode": "9270022",
    "prefectureCode": "17",
    "prefectureNumber": 17,
    "prefecture": "石川県",
    "city": "鳳珠郡穴水町",
    "town": "北七海"
  },
  "9270023": {
    "zipcode": "9270023",
    "prefectureCode": "17",
    "prefectureNumber": 17,
    "prefecture": "石川県",
    "city": "鳳珠郡穴水町",
    "town": "麦ケ浦"
  },
  "9270024": {
    "zipcode": "9270024",
    "prefectureCode": "17",
    "prefectureNumber": 17,
    "prefecture": "石川県",
    "city": "鳳珠郡穴水町",
    "town": "由比ケ丘"
  },
  "9270025": {
    "zipcode": "9270025",
    "prefectureCode": "17",
    "prefectureNumber": 17,
    "prefecture": "石川県",
    "city": "鳳珠郡穴水町",
    "town": "内浦"
  },
  "9270026": {
    "zipcode": "9270026",
    "prefectureCode": "17",
    "prefectureNumber": 17,
    "prefecture": "石川県",
    "city": "鳳珠郡穴水町",
    "town": "大町"
  },
  "9270027": {
    "zipcode": "9270027",
    "prefectureCode": "17",
    "prefectureNumber": 17,
    "prefecture": "石川県",
    "city": "鳳珠郡穴水町",
    "town": "川島"
  },
  "9270031": {
    "zipcode": "9270031",
    "prefectureCode": "17",
    "prefectureNumber": 17,
    "prefecture": "石川県",
    "city": "鳳珠郡穴水町",
    "town": "鵜島"
  },
  "9270032": {
    "zipcode": "9270032",
    "prefectureCode": "17",
    "prefectureNumber": 17,
    "prefecture": "石川県",
    "city": "鳳珠郡穴水町",
    "town": "乙ケ崎"
  },
  "9270033": {
    "zipcode": "9270033",
    "prefectureCode": "17",
    "prefectureNumber": 17,
    "prefecture": "石川県",
    "city": "鳳珠郡穴水町",
    "town": "緑ケ丘"
  },
  "9270034": {
    "zipcode": "9270034",
    "prefectureCode": "17",
    "prefectureNumber": 17,
    "prefecture": "石川県",
    "city": "鳳珠郡穴水町",
    "town": "新崎"
  },
  "9270035": {
    "zipcode": "9270035",
    "prefectureCode": "17",
    "prefectureNumber": 17,
    "prefecture": "石川県",
    "city": "鳳珠郡穴水町",
    "town": "志ケ浦"
  },
  "9270036": {
    "zipcode": "9270036",
    "prefectureCode": "17",
    "prefectureNumber": 17,
    "prefecture": "石川県",
    "city": "鳳珠郡穴水町",
    "town": "望洋台"
  },
  "9270037": {
    "zipcode": "9270037",
    "prefectureCode": "17",
    "prefectureNumber": 17,
    "prefecture": "石川県",
    "city": "鳳珠郡穴水町",
    "town": "根木"
  },
  "9270038": {
    "zipcode": "9270038",
    "prefectureCode": "17",
    "prefectureNumber": 17,
    "prefecture": "石川県",
    "city": "鳳珠郡穴水町",
    "town": "鹿島"
  },
  "9270039": {
    "zipcode": "9270039",
    "prefectureCode": "17",
    "prefectureNumber": 17,
    "prefecture": "石川県",
    "city": "鳳珠郡穴水町",
    "town": "曽福"
  },
  "9270041": {
    "zipcode": "9270041",
    "prefectureCode": "17",
    "prefectureNumber": 17,
    "prefecture": "石川県",
    "city": "鳳珠郡穴水町",
    "town": "天神谷"
  },
  "9270042": {
    "zipcode": "9270042",
    "prefectureCode": "17",
    "prefectureNumber": 17,
    "prefecture": "石川県",
    "city": "鳳珠郡穴水町",
    "town": "宇留地"
  },
  "9270043": {
    "zipcode": "9270043",
    "prefectureCode": "17",
    "prefectureNumber": 17,
    "prefecture": "石川県",
    "city": "鳳珠郡穴水町",
    "town": "越の原"
  },
  "9270044": {
    "zipcode": "9270044",
    "prefectureCode": "17",
    "prefectureNumber": 17,
    "prefecture": "石川県",
    "city": "鳳珠郡穴水町",
    "town": "鹿路"
  },
  "9270045": {
    "zipcode": "9270045",
    "prefectureCode": "17",
    "prefectureNumber": 17,
    "prefecture": "石川県",
    "city": "鳳珠郡穴水町",
    "town": "河内"
  },
  "9270046": {
    "zipcode": "9270046",
    "prefectureCode": "17",
    "prefectureNumber": 17,
    "prefecture": "石川県",
    "city": "鳳珠郡穴水町",
    "town": "汁谷"
  },
  "9270047": {
    "zipcode": "9270047",
    "prefectureCode": "17",
    "prefectureNumber": 17,
    "prefecture": "石川県",
    "city": "鳳珠郡穴水町",
    "town": "上中"
  },
  "9270048": {
    "zipcode": "9270048",
    "prefectureCode": "17",
    "prefectureNumber": 17,
    "prefecture": "石川県",
    "city": "鳳珠郡穴水町",
    "town": "大角間"
  },
  "9270049": {
    "zipcode": "9270049",
    "prefectureCode": "17",
    "prefectureNumber": 17,
    "prefecture": "石川県",
    "city": "鳳珠郡穴水町",
    "town": "桂谷"
  },
  "9270051": {
    "zipcode": "9270051",
    "prefectureCode": "17",
    "prefectureNumber": 17,
    "prefecture": "石川県",
    "city": "鳳珠郡穴水町",
    "town": "小又"
  },
  "9270052": {
    "zipcode": "9270052",
    "prefectureCode": "17",
    "prefectureNumber": 17,
    "prefecture": "石川県",
    "city": "鳳珠郡穴水町",
    "town": "平野"
  },
  "9270053": {
    "zipcode": "9270053",
    "prefectureCode": "17",
    "prefectureNumber": 17,
    "prefecture": "石川県",
    "city": "鳳珠郡穴水町",
    "town": "此木"
  },
  "9270054": {
    "zipcode": "9270054",
    "prefectureCode": "17",
    "prefectureNumber": 17,
    "prefecture": "石川県",
    "city": "鳳珠郡穴水町",
    "town": "上野"
  },
  "9270055": {
    "zipcode": "9270055",
    "prefectureCode": "17",
    "prefectureNumber": 17,
    "prefecture": "石川県",
    "city": "鳳珠郡穴水町",
    "town": "地蔵坊"
  },
  "9270056": {
    "zipcode": "9270056",
    "prefectureCode": "17",
    "prefectureNumber": 17,
    "prefecture": "石川県",
    "city": "鳳珠郡穴水町",
    "town": "上唐川"
  },
  "9270057": {
    "zipcode": "9270057",
    "prefectureCode": "17",
    "prefectureNumber": 17,
    "prefecture": "石川県",
    "city": "鳳珠郡穴水町",
    "town": "下唐川"
  },
  "9270058": {
    "zipcode": "9270058",
    "prefectureCode": "17",
    "prefectureNumber": 17,
    "prefecture": "石川県",
    "city": "鳳珠郡穴水町",
    "town": "挾石"
  },
  "9270201": {
    "zipcode": "9270201",
    "prefectureCode": "17",
    "prefectureNumber": 17,
    "prefecture": "石川県",
    "city": "鳳珠郡穴水町",
    "town": "竹太"
  },
  "9270202": {
    "zipcode": "9270202",
    "prefectureCode": "17",
    "prefectureNumber": 17,
    "prefecture": "石川県",
    "city": "鳳珠郡穴水町",
    "town": "古君"
  },
  "9270203": {
    "zipcode": "9270203",
    "prefectureCode": "17",
    "prefectureNumber": 17,
    "prefecture": "石川県",
    "city": "鳳珠郡穴水町",
    "town": "花園"
  },
  "9270204": {
    "zipcode": "9270204",
    "prefectureCode": "17",
    "prefectureNumber": 17,
    "prefecture": "石川県",
    "city": "鳳珠郡穴水町",
    "town": "明千寺"
  },
  "9270205": {
    "zipcode": "9270205",
    "prefectureCode": "17",
    "prefectureNumber": 17,
    "prefecture": "石川県",
    "city": "鳳珠郡穴水町",
    "town": "宇加川"
  },
  "9270206": {
    "zipcode": "9270206",
    "prefectureCode": "17",
    "prefectureNumber": 17,
    "prefecture": "石川県",
    "city": "鳳珠郡穴水町",
    "town": "前波"
  },
  "9270207": {
    "zipcode": "9270207",
    "prefectureCode": "17",
    "prefectureNumber": 17,
    "prefecture": "石川県",
    "city": "鳳珠郡穴水町",
    "town": "沖波"
  },
  "9270211": {
    "zipcode": "9270211",
    "prefectureCode": "17",
    "prefectureNumber": 17,
    "prefecture": "石川県",
    "city": "鳳珠郡穴水町",
    "town": "甲"
  },
  "9270212": {
    "zipcode": "9270212",
    "prefectureCode": "17",
    "prefectureNumber": 17,
    "prefecture": "石川県",
    "city": "鳳珠郡穴水町",
    "town": "黒崎"
  },
  "9270213": {
    "zipcode": "9270213",
    "prefectureCode": "17",
    "prefectureNumber": 17,
    "prefecture": "石川県",
    "city": "鳳珠郡穴水町",
    "town": "至誠"
  },
  "9270214": {
    "zipcode": "9270214",
    "prefectureCode": "17",
    "prefectureNumber": 17,
    "prefecture": "石川県",
    "city": "鳳珠郡穴水町",
    "town": "小甲"
  },
  "9270215": {
    "zipcode": "9270215",
    "prefectureCode": "17",
    "prefectureNumber": 17,
    "prefecture": "石川県",
    "city": "鳳珠郡穴水町",
    "town": "大甲"
  },
  "9270221": {
    "zipcode": "9270221",
    "prefectureCode": "17",
    "prefectureNumber": 17,
    "prefecture": "石川県",
    "city": "鳳珠郡穴水町",
    "town": "曽良"
  },
  "9270222": {
    "zipcode": "9270222",
    "prefectureCode": "17",
    "prefectureNumber": 17,
    "prefecture": "石川県",
    "city": "鳳珠郡穴水町",
    "town": "大郷"
  },
  "9270223": {
    "zipcode": "9270223",
    "prefectureCode": "17",
    "prefectureNumber": 17,
    "prefecture": "石川県",
    "city": "鳳珠郡穴水町",
    "town": "鹿波"
  },
  "9270224": {
    "zipcode": "9270224",
    "prefectureCode": "17",
    "prefectureNumber": 17,
    "prefecture": "石川県",
    "city": "鳳珠郡穴水町",
    "town": "鹿上"
  },
  "9270225": {
    "zipcode": "9270225",
    "prefectureCode": "17",
    "prefectureNumber": 17,
    "prefecture": "石川県",
    "city": "鳳珠郡穴水町",
    "town": "野並"
  },
  "9270231": {
    "zipcode": "9270231",
    "prefectureCode": "17",
    "prefectureNumber": 17,
    "prefecture": "石川県",
    "city": "鳳珠郡穴水町",
    "town": "山中"
  },
  "9270232": {
    "zipcode": "9270232",
    "prefectureCode": "17",
    "prefectureNumber": 17,
    "prefecture": "石川県",
    "city": "鳳珠郡穴水町",
    "town": "東山"
  },
  "9270233": {
    "zipcode": "9270233",
    "prefectureCode": "17",
    "prefectureNumber": 17,
    "prefecture": "石川県",
    "city": "鳳珠郡穴水町",
    "town": "女良川"
  },
  "9270234": {
    "zipcode": "9270234",
    "prefectureCode": "17",
    "prefectureNumber": 17,
    "prefecture": "石川県",
    "city": "鳳珠郡穴水町",
    "town": "小又（山中）"
  },
  "9270235": {
    "zipcode": "9270235",
    "prefectureCode": "17",
    "prefectureNumber": 17,
    "prefecture": "石川県",
    "city": "鳳珠郡穴水町",
    "town": "市ノ坂"
  },
  "9270301": {
    "zipcode": "9270301",
    "prefectureCode": "17",
    "prefectureNumber": 17,
    "prefecture": "石川県",
    "city": "鳳珠郡能登町",
    "town": "七見"
  },
  "9270302": {
    "zipcode": "9270302",
    "prefectureCode": "17",
    "prefectureNumber": 17,
    "prefecture": "石川県",
    "city": "鳳珠郡能登町",
    "town": "鵜川"
  },
  "9270303": {
    "zipcode": "9270303",
    "prefectureCode": "17",
    "prefectureNumber": 17,
    "prefecture": "石川県",
    "city": "鳳珠郡能登町",
    "town": "小垣"
  },
  "9270304": {
    "zipcode": "9270304",
    "prefectureCode": "17",
    "prefectureNumber": 17,
    "prefecture": "石川県",
    "city": "鳳珠郡能登町",
    "town": "柿生"
  },
  "9270305": {
    "zipcode": "9270305",
    "prefectureCode": "17",
    "prefectureNumber": 17,
    "prefecture": "石川県",
    "city": "鳳珠郡能登町",
    "town": "武連"
  },
  "9270311": {
    "zipcode": "9270311",
    "prefectureCode": "17",
    "prefectureNumber": 17,
    "prefecture": "石川県",
    "city": "鳳珠郡能登町",
    "town": "瑞穂"
  },
  "9270312": {
    "zipcode": "9270312",
    "prefectureCode": "17",
    "prefectureNumber": 17,
    "prefecture": "石川県",
    "city": "鳳珠郡能登町",
    "town": "本木"
  },
  "9270313": {
    "zipcode": "9270313",
    "prefectureCode": "17",
    "prefectureNumber": 17,
    "prefecture": "石川県",
    "city": "鳳珠郡能登町",
    "town": "木住"
  },
  "9270314": {
    "zipcode": "9270314",
    "prefectureCode": "17",
    "prefectureNumber": 17,
    "prefecture": "石川県",
    "city": "鳳珠郡能登町",
    "town": "山田"
  },
  "9270315": {
    "zipcode": "9270315",
    "prefectureCode": "17",
    "prefectureNumber": 17,
    "prefecture": "石川県",
    "city": "鳳珠郡能登町",
    "town": "豊ケ丘"
  },
  "9270321": {
    "zipcode": "9270321",
    "prefectureCode": "17",
    "prefectureNumber": 17,
    "prefecture": "石川県",
    "city": "鳳珠郡能登町",
    "town": "爼倉"
  },
  "9270322": {
    "zipcode": "9270322",
    "prefectureCode": "17",
    "prefectureNumber": 17,
    "prefecture": "石川県",
    "city": "鳳珠郡能登町",
    "town": "宮地"
  },
  "9270323": {
    "zipcode": "9270323",
    "prefectureCode": "17",
    "prefectureNumber": 17,
    "prefecture": "石川県",
    "city": "鳳珠郡能登町",
    "town": "鮭尾"
  },
  "9270324": {
    "zipcode": "9270324",
    "prefectureCode": "17",
    "prefectureNumber": 17,
    "prefecture": "石川県",
    "city": "鳳珠郡能登町",
    "town": "柏木"
  },
  "9270325": {
    "zipcode": "9270325",
    "prefectureCode": "17",
    "prefectureNumber": 17,
    "prefecture": "石川県",
    "city": "鳳珠郡能登町",
    "town": "太田原"
  },
  "9270400": {
    "zipcode": "9270400",
    "prefectureCode": "17",
    "prefectureNumber": 17,
    "prefecture": "石川県",
    "city": "鳳珠郡能登町",
    "town": "以下に掲載がない場合"
  },
  "9270431": {
    "zipcode": "9270431",
    "prefectureCode": "17",
    "prefectureNumber": 17,
    "prefecture": "石川県",
    "city": "鳳珠郡能登町",
    "town": "宇出津山分"
  },
  "9270432": {
    "zipcode": "9270432",
    "prefectureCode": "17",
    "prefectureNumber": 17,
    "prefecture": "石川県",
    "city": "鳳珠郡能登町",
    "town": "宇出津新"
  },
  "9270433": {
    "zipcode": "9270433",
    "prefectureCode": "17",
    "prefectureNumber": 17,
    "prefecture": "石川県",
    "city": "鳳珠郡能登町",
    "town": "宇出津"
  },
  "9270434": {
    "zipcode": "9270434",
    "prefectureCode": "17",
    "prefectureNumber": 17,
    "prefecture": "石川県",
    "city": "鳳珠郡能登町",
    "town": "崎山"
  },
  "9270435": {
    "zipcode": "9270435",
    "prefectureCode": "17",
    "prefectureNumber": 17,
    "prefecture": "石川県",
    "city": "鳳珠郡能登町",
    "town": "宇出津新港"
  },
  "9270441": {
    "zipcode": "9270441",
    "prefectureCode": "17",
    "prefectureNumber": 17,
    "prefecture": "石川県",
    "city": "鳳珠郡能登町",
    "town": "藤波"
  },
  "9270442": {
    "zipcode": "9270442",
    "prefectureCode": "17",
    "prefectureNumber": 17,
    "prefecture": "石川県",
    "city": "鳳珠郡能登町",
    "town": "波並"
  },
  "9270443": {
    "zipcode": "9270443",
    "prefectureCode": "17",
    "prefectureNumber": 17,
    "prefecture": "石川県",
    "city": "鳳珠郡能登町",
    "town": "矢波"
  },
  "9270444": {
    "zipcode": "9270444",
    "prefectureCode": "17",
    "prefectureNumber": 17,
    "prefecture": "石川県",
    "city": "鳳珠郡能登町",
    "town": "猪平"
  },
  "9270451": {
    "zipcode": "9270451",
    "prefectureCode": "17",
    "prefectureNumber": 17,
    "prefecture": "石川県",
    "city": "鳳珠郡能登町",
    "town": "藤ノ瀬"
  },
  "9270452": {
    "zipcode": "9270452",
    "prefectureCode": "17",
    "prefectureNumber": 17,
    "prefecture": "石川県",
    "city": "鳳珠郡能登町",
    "town": "宇加塚"
  },
  "9270453": {
    "zipcode": "9270453",
    "prefectureCode": "17",
    "prefectureNumber": 17,
    "prefecture": "石川県",
    "city": "鳳珠郡能登町",
    "town": "鶴町"
  },
  "9270454": {
    "zipcode": "9270454",
    "prefectureCode": "17",
    "prefectureNumber": 17,
    "prefecture": "石川県",
    "city": "鳳珠郡能登町",
    "town": "曽又"
  },
  "9270551": {
    "zipcode": "9270551",
    "prefectureCode": "17",
    "prefectureNumber": 17,
    "prefecture": "石川県",
    "city": "鳳珠郡能登町",
    "town": "明野"
  },
  "9270552": {
    "zipcode": "9270552",
    "prefectureCode": "17",
    "prefectureNumber": 17,
    "prefecture": "石川県",
    "city": "鳳珠郡能登町",
    "town": "越坂"
  },
  "9270553": {
    "zipcode": "9270553",
    "prefectureCode": "17",
    "prefectureNumber": 17,
    "prefecture": "石川県",
    "city": "鳳珠郡能登町",
    "town": "小木"
  },
  "9270554": {
    "zipcode": "9270554",
    "prefectureCode": "17",
    "prefectureNumber": 17,
    "prefecture": "石川県",
    "city": "鳳珠郡能登町",
    "town": "市之瀬"
  },
  "9270555": {
    "zipcode": "9270555",
    "prefectureCode": "17",
    "prefectureNumber": 17,
    "prefecture": "石川県",
    "city": "鳳珠郡能登町",
    "town": "羽生（ろ）"
  },
  "9270561": {
    "zipcode": "9270561",
    "prefectureCode": "17",
    "prefectureNumber": 17,
    "prefecture": "石川県",
    "city": "鳳珠郡能登町",
    "town": "羽生（い）"
  },
  "9270562": {
    "zipcode": "9270562",
    "prefectureCode": "17",
    "prefectureNumber": 17,
    "prefecture": "石川県",
    "city": "鳳珠郡能登町",
    "town": "真脇"
  },
  "9270563": {
    "zipcode": "9270563",
    "prefectureCode": "17",
    "prefectureNumber": 17,
    "prefecture": "石川県",
    "city": "鳳珠郡能登町",
    "town": "姫"
  },
  "9270564": {
    "zipcode": "9270564",
    "prefectureCode": "17",
    "prefectureNumber": 17,
    "prefecture": "石川県",
    "city": "鳳珠郡能登町",
    "town": "小浦"
  },
  "9270565": {
    "zipcode": "9270565",
    "prefectureCode": "17",
    "prefectureNumber": 17,
    "prefecture": "石川県",
    "city": "鳳珠郡能登町",
    "town": "羽根"
  },
  "9270601": {
    "zipcode": "9270601",
    "prefectureCode": "17",
    "prefectureNumber": 17,
    "prefecture": "石川県",
    "city": "鳳珠郡能登町",
    "town": "恋路"
  },
  "9270602": {
    "zipcode": "9270602",
    "prefectureCode": "17",
    "prefectureNumber": 17,
    "prefecture": "石川県",
    "city": "鳳珠郡能登町",
    "town": "明生"
  },
  "9270603": {
    "zipcode": "9270603",
    "prefectureCode": "17",
    "prefectureNumber": 17,
    "prefecture": "石川県",
    "city": "鳳珠郡能登町",
    "town": "布浦"
  },
  "9270604": {
    "zipcode": "9270604",
    "prefectureCode": "17",
    "prefectureNumber": 17,
    "prefecture": "石川県",
    "city": "鳳珠郡能登町",
    "town": "九里川尻"
  },
  "9270605": {
    "zipcode": "9270605",
    "prefectureCode": "17",
    "prefectureNumber": 17,
    "prefecture": "石川県",
    "city": "鳳珠郡能登町",
    "town": "立壁"
  },
  "9270606": {
    "zipcode": "9270606",
    "prefectureCode": "17",
    "prefectureNumber": 17,
    "prefecture": "石川県",
    "city": "鳳珠郡能登町",
    "town": "四方山"
  },
  "9270607": {
    "zipcode": "9270607",
    "prefectureCode": "17",
    "prefectureNumber": 17,
    "prefecture": "石川県",
    "city": "鳳珠郡能登町",
    "town": "白丸"
  },
  "9270608": {
    "zipcode": "9270608",
    "prefectureCode": "17",
    "prefectureNumber": 17,
    "prefecture": "石川県",
    "city": "鳳珠郡能登町",
    "town": "内浦長尾"
  },
  "9270609": {
    "zipcode": "9270609",
    "prefectureCode": "17",
    "prefectureNumber": 17,
    "prefecture": "石川県",
    "city": "鳳珠郡能登町",
    "town": "新保"
  },
  "9270611": {
    "zipcode": "9270611",
    "prefectureCode": "17",
    "prefectureNumber": 17,
    "prefecture": "石川県",
    "city": "鳳珠郡能登町",
    "town": "清真"
  },
  "9270612": {
    "zipcode": "9270612",
    "prefectureCode": "17",
    "prefectureNumber": 17,
    "prefecture": "石川県",
    "city": "鳳珠郡能登町",
    "town": "秋吉"
  },
  "9270613": {
    "zipcode": "9270613",
    "prefectureCode": "17",
    "prefectureNumber": 17,
    "prefecture": "石川県",
    "city": "鳳珠郡能登町",
    "town": "河ケ谷"
  },
  "9270614": {
    "zipcode": "9270614",
    "prefectureCode": "17",
    "prefectureNumber": 17,
    "prefecture": "石川県",
    "city": "鳳珠郡能登町",
    "town": "山中"
  },
  "9270615": {
    "zipcode": "9270615",
    "prefectureCode": "17",
    "prefectureNumber": 17,
    "prefecture": "石川県",
    "city": "鳳珠郡能登町",
    "town": "宮犬"
  },
  "9270621": {
    "zipcode": "9270621",
    "prefectureCode": "17",
    "prefectureNumber": 17,
    "prefecture": "石川県",
    "city": "鳳珠郡能登町",
    "town": "上"
  },
  "9270622": {
    "zipcode": "9270622",
    "prefectureCode": "17",
    "prefectureNumber": 17,
    "prefecture": "石川県",
    "city": "鳳珠郡能登町",
    "town": "不動寺"
  },
  "9270623": {
    "zipcode": "9270623",
    "prefectureCode": "17",
    "prefectureNumber": 17,
    "prefecture": "石川県",
    "city": "鳳珠郡能登町",
    "town": "行延"
  },
  "9270624": {
    "zipcode": "9270624",
    "prefectureCode": "17",
    "prefectureNumber": 17,
    "prefecture": "石川県",
    "city": "鳳珠郡能登町",
    "town": "時長"
  },
  "9270625": {
    "zipcode": "9270625",
    "prefectureCode": "17",
    "prefectureNumber": 17,
    "prefecture": "石川県",
    "city": "鳳珠郡能登町",
    "town": "国重"
  },
  "9270626": {
    "zipcode": "9270626",
    "prefectureCode": "17",
    "prefectureNumber": 17,
    "prefecture": "石川県",
    "city": "鳳珠郡能登町",
    "town": "田代"
  },
  "9270627": {
    "zipcode": "9270627",
    "prefectureCode": "17",
    "prefectureNumber": 17,
    "prefecture": "石川県",
    "city": "鳳珠郡能登町",
    "town": "福光"
  },
  "9271200": {
    "zipcode": "9271200",
    "prefectureCode": "17",
    "prefectureNumber": 17,
    "prefecture": "石川県",
    "city": "珠洲市",
    "town": "以下に掲載がない場合"
  },
  "9271201": {
    "zipcode": "9271201",
    "prefectureCode": "17",
    "prefectureNumber": 17,
    "prefecture": "石川県",
    "city": "珠洲市",
    "town": "正院町岡田"
  },
  "9271202": {
    "zipcode": "9271202",
    "prefectureCode": "17",
    "prefectureNumber": 17,
    "prefecture": "石川県",
    "city": "珠洲市",
    "town": "正院町飯塚"
  },
  "9271203": {
    "zipcode": "9271203",
    "prefectureCode": "17",
    "prefectureNumber": 17,
    "prefecture": "石川県",
    "city": "珠洲市",
    "town": "正院町平床"
  },
  "9271204": {
    "zipcode": "9271204",
    "prefectureCode": "17",
    "prefectureNumber": 17,
    "prefecture": "石川県",
    "city": "珠洲市",
    "town": "蛸島町"
  },
  "9271205": {
    "zipcode": "9271205",
    "prefectureCode": "17",
    "prefectureNumber": 17,
    "prefecture": "石川県",
    "city": "珠洲市",
    "town": "正院町川尻"
  },
  "9271206": {
    "zipcode": "9271206",
    "prefectureCode": "17",
    "prefectureNumber": 17,
    "prefecture": "石川県",
    "city": "珠洲市",
    "town": "正院町正院"
  },
  "9271207": {
    "zipcode": "9271207",
    "prefectureCode": "17",
    "prefectureNumber": 17,
    "prefecture": "石川県",
    "city": "珠洲市",
    "town": "正院町小路"
  },
  "9271211": {
    "zipcode": "9271211",
    "prefectureCode": "17",
    "prefectureNumber": 17,
    "prefecture": "石川県",
    "city": "珠洲市",
    "town": "岩坂町"
  },
  "9271212": {
    "zipcode": "9271212",
    "prefectureCode": "17",
    "prefectureNumber": 17,
    "prefecture": "石川県",
    "city": "珠洲市",
    "town": "熊谷町"
  },
  "9271213": {
    "zipcode": "9271213",
    "prefectureCode": "17",
    "prefectureNumber": 17,
    "prefecture": "石川県",
    "city": "珠洲市",
    "town": "野々江町"
  },
  "9271214": {
    "zipcode": "9271214",
    "prefectureCode": "17",
    "prefectureNumber": 17,
    "prefecture": "石川県",
    "city": "珠洲市",
    "town": "飯田町"
  },
  "9271215": {
    "zipcode": "9271215",
    "prefectureCode": "17",
    "prefectureNumber": 17,
    "prefecture": "石川県",
    "city": "珠洲市",
    "town": "上戸町北方"
  },
  "9271216": {
    "zipcode": "9271216",
    "prefectureCode": "17",
    "prefectureNumber": 17,
    "prefecture": "石川県",
    "city": "珠洲市",
    "town": "上戸町寺社"
  },
  "9271217": {
    "zipcode": "9271217",
    "prefectureCode": "17",
    "prefectureNumber": 17,
    "prefecture": "石川県",
    "city": "珠洲市",
    "town": "上戸町南方"
  },
  "9271221": {
    "zipcode": "9271221",
    "prefectureCode": "17",
    "prefectureNumber": 17,
    "prefecture": "石川県",
    "city": "珠洲市",
    "town": "宝立町金峰寺"
  },
  "9271222": {
    "zipcode": "9271222",
    "prefectureCode": "17",
    "prefectureNumber": 17,
    "prefecture": "石川県",
    "city": "珠洲市",
    "town": "宝立町鵜飼"
  },
  "9271223": {
    "zipcode": "9271223",
    "prefectureCode": "17",
    "prefectureNumber": 17,
    "prefecture": "石川県",
    "city": "珠洲市",
    "town": "宝立町鵜島"
  },
  "9271224": {
    "zipcode": "9271224",
    "prefectureCode": "17",
    "prefectureNumber": 17,
    "prefecture": "石川県",
    "city": "珠洲市",
    "town": "宝立町南黒丸"
  },
  "9271225": {
    "zipcode": "9271225",
    "prefectureCode": "17",
    "prefectureNumber": 17,
    "prefecture": "石川県",
    "city": "珠洲市",
    "town": "宝立町宗玄"
  },
  "9271226": {
    "zipcode": "9271226",
    "prefectureCode": "17",
    "prefectureNumber": 17,
    "prefecture": "石川県",
    "city": "珠洲市",
    "town": "宝立町馬渡"
  },
  "9271227": {
    "zipcode": "9271227",
    "prefectureCode": "17",
    "prefectureNumber": 17,
    "prefecture": "石川県",
    "city": "珠洲市",
    "town": "宝立町二艘丹"
  },
  "9271228": {
    "zipcode": "9271228",
    "prefectureCode": "17",
    "prefectureNumber": 17,
    "prefecture": "石川県",
    "city": "珠洲市",
    "town": "宝立町黒峰"
  },
  "9271231": {
    "zipcode": "9271231",
    "prefectureCode": "17",
    "prefectureNumber": 17,
    "prefecture": "石川県",
    "city": "珠洲市",
    "town": "若山町鈴内"
  },
  "9271232": {
    "zipcode": "9271232",
    "prefectureCode": "17",
    "prefectureNumber": 17,
    "prefecture": "石川県",
    "city": "珠洲市",
    "town": "若山町広栗"
  },
  "9271233": {
    "zipcode": "9271233",
    "prefectureCode": "17",
    "prefectureNumber": 17,
    "prefecture": "石川県",
    "city": "珠洲市",
    "town": "若山町出田"
  },
  "9271234": {
    "zipcode": "9271234",
    "prefectureCode": "17",
    "prefectureNumber": 17,
    "prefecture": "石川県",
    "city": "珠洲市",
    "town": "若山町経念"
  },
  "9271235": {
    "zipcode": "9271235",
    "prefectureCode": "17",
    "prefectureNumber": 17,
    "prefecture": "石川県",
    "city": "珠洲市",
    "town": "若山町向"
  },
  "9271236": {
    "zipcode": "9271236",
    "prefectureCode": "17",
    "prefectureNumber": 17,
    "prefecture": "石川県",
    "city": "珠洲市",
    "town": "若山町中"
  },
  "9271237": {
    "zipcode": "9271237",
    "prefectureCode": "17",
    "prefectureNumber": 17,
    "prefecture": "石川県",
    "city": "珠洲市",
    "town": "若山町大坊"
  },
  "9271238": {
    "zipcode": "9271238",
    "prefectureCode": "17",
    "prefectureNumber": 17,
    "prefecture": "石川県",
    "city": "珠洲市",
    "town": "若山町火宮"
  },
  "9271239": {
    "zipcode": "9271239",
    "prefectureCode": "17",
    "prefectureNumber": 17,
    "prefecture": "石川県",
    "city": "珠洲市",
    "town": "若山町古蔵"
  },
  "9271301": {
    "zipcode": "9271301",
    "prefectureCode": "17",
    "prefectureNumber": 17,
    "prefecture": "石川県",
    "city": "珠洲市",
    "town": "高屋町"
  },
  "9271302": {
    "zipcode": "9271302",
    "prefectureCode": "17",
    "prefectureNumber": 17,
    "prefecture": "石川県",
    "city": "珠洲市",
    "town": "笹波町"
  },
  "9271303": {
    "zipcode": "9271303",
    "prefectureCode": "17",
    "prefectureNumber": 17,
    "prefecture": "石川県",
    "city": "珠洲市",
    "town": "石神町"
  },
  "9271304": {
    "zipcode": "9271304",
    "prefectureCode": "17",
    "prefectureNumber": 17,
    "prefecture": "石川県",
    "city": "珠洲市",
    "town": "馬緤町"
  },
  "9271311": {
    "zipcode": "9271311",
    "prefectureCode": "17",
    "prefectureNumber": 17,
    "prefecture": "石川県",
    "city": "珠洲市",
    "town": "若山町上正力"
  },
  "9271312": {
    "zipcode": "9271312",
    "prefectureCode": "17",
    "prefectureNumber": 17,
    "prefecture": "石川県",
    "city": "珠洲市",
    "town": "若山町二子"
  },
  "9271313": {
    "zipcode": "9271313",
    "prefectureCode": "17",
    "prefectureNumber": 17,
    "prefecture": "石川県",
    "city": "珠洲市",
    "town": "若山町宗末"
  },
  "9271314": {
    "zipcode": "9271314",
    "prefectureCode": "17",
    "prefectureNumber": 17,
    "prefecture": "石川県",
    "city": "珠洲市",
    "town": "若山町上黒丸"
  },
  "9271315": {
    "zipcode": "9271315",
    "prefectureCode": "17",
    "prefectureNumber": 17,
    "prefecture": "石川県",
    "city": "珠洲市",
    "town": "若山町南山"
  },
  "9271316": {
    "zipcode": "9271316",
    "prefectureCode": "17",
    "prefectureNumber": 17,
    "prefecture": "石川県",
    "city": "珠洲市",
    "town": "若山町洲巻"
  },
  "9271317": {
    "zipcode": "9271317",
    "prefectureCode": "17",
    "prefectureNumber": 17,
    "prefecture": "石川県",
    "city": "珠洲市",
    "town": "若山町上山"
  },
  "9271318": {
    "zipcode": "9271318",
    "prefectureCode": "17",
    "prefectureNumber": 17,
    "prefecture": "石川県",
    "city": "珠洲市",
    "town": "若山町北山"
  },
  "9271319": {
    "zipcode": "9271319",
    "prefectureCode": "17",
    "prefectureNumber": 17,
    "prefecture": "石川県",
    "city": "珠洲市",
    "town": "若山町吉ケ池"
  },
  "9271321": {
    "zipcode": "9271321",
    "prefectureCode": "17",
    "prefectureNumber": 17,
    "prefecture": "石川県",
    "city": "珠洲市",
    "town": "大谷町"
  },
  "9271322": {
    "zipcode": "9271322",
    "prefectureCode": "17",
    "prefectureNumber": 17,
    "prefecture": "石川県",
    "city": "珠洲市",
    "town": "長橋町"
  },
  "9271323": {
    "zipcode": "9271323",
    "prefectureCode": "17",
    "prefectureNumber": 17,
    "prefecture": "石川県",
    "city": "珠洲市",
    "town": "片岩町"
  },
  "9271324": {
    "zipcode": "9271324",
    "prefectureCode": "17",
    "prefectureNumber": 17,
    "prefecture": "石川県",
    "city": "珠洲市",
    "town": "清水町"
  },
  "9271325": {
    "zipcode": "9271325",
    "prefectureCode": "17",
    "prefectureNumber": 17,
    "prefecture": "石川県",
    "city": "珠洲市",
    "town": "仁江町"
  },
  "9271326": {
    "zipcode": "9271326",
    "prefectureCode": "17",
    "prefectureNumber": 17,
    "prefecture": "石川県",
    "city": "珠洲市",
    "town": "真浦町"
  },
  "9271441": {
    "zipcode": "9271441",
    "prefectureCode": "17",
    "prefectureNumber": 17,
    "prefecture": "石川県",
    "city": "珠洲市",
    "town": "狼煙町"
  },
  "9271442": {
    "zipcode": "9271442",
    "prefectureCode": "17",
    "prefectureNumber": 17,
    "prefecture": "石川県",
    "city": "珠洲市",
    "town": "狼煙新町"
  },
  "9271443": {
    "zipcode": "9271443",
    "prefectureCode": "17",
    "prefectureNumber": 17,
    "prefecture": "石川県",
    "city": "珠洲市",
    "town": "東山中町"
  },
  "9271444": {
    "zipcode": "9271444",
    "prefectureCode": "17",
    "prefectureNumber": 17,
    "prefecture": "石川県",
    "city": "珠洲市",
    "town": "唐笠町八ケ山"
  },
  "9271445": {
    "zipcode": "9271445",
    "prefectureCode": "17",
    "prefectureNumber": 17,
    "prefecture": "石川県",
    "city": "珠洲市",
    "town": "唐笠町"
  },
  "9271446": {
    "zipcode": "9271446",
    "prefectureCode": "17",
    "prefectureNumber": 17,
    "prefecture": "石川県",
    "city": "珠洲市",
    "town": "折戸町"
  },
  "9271447": {
    "zipcode": "9271447",
    "prefectureCode": "17",
    "prefectureNumber": 17,
    "prefecture": "石川県",
    "city": "珠洲市",
    "town": "川浦町"
  },
  "9271451": {
    "zipcode": "9271451",
    "prefectureCode": "17",
    "prefectureNumber": 17,
    "prefecture": "石川県",
    "city": "珠洲市",
    "town": "三崎町寺家"
  },
  "9271452": {
    "zipcode": "9271452",
    "prefectureCode": "17",
    "prefectureNumber": 17,
    "prefecture": "石川県",
    "city": "珠洲市",
    "town": "三崎町粟津"
  },
  "9271453": {
    "zipcode": "9271453",
    "prefectureCode": "17",
    "prefectureNumber": 17,
    "prefecture": "石川県",
    "city": "珠洲市",
    "town": "三崎町森腰"
  },
  "9271454": {
    "zipcode": "9271454",
    "prefectureCode": "17",
    "prefectureNumber": 17,
    "prefecture": "石川県",
    "city": "珠洲市",
    "town": "三崎町宇治"
  },
  "9271455": {
    "zipcode": "9271455",
    "prefectureCode": "17",
    "prefectureNumber": 17,
    "prefecture": "石川県",
    "city": "珠洲市",
    "town": "三崎町引砂"
  },
  "9271456": {
    "zipcode": "9271456",
    "prefectureCode": "17",
    "prefectureNumber": 17,
    "prefecture": "石川県",
    "city": "珠洲市",
    "town": "三崎町高波"
  },
  "9271457": {
    "zipcode": "9271457",
    "prefectureCode": "17",
    "prefectureNumber": 17,
    "prefecture": "石川県",
    "city": "珠洲市",
    "town": "三崎町大屋"
  },
  "9271461": {
    "zipcode": "9271461",
    "prefectureCode": "17",
    "prefectureNumber": 17,
    "prefecture": "石川県",
    "city": "珠洲市",
    "town": "三崎町伏見"
  },
  "9271462": {
    "zipcode": "9271462",
    "prefectureCode": "17",
    "prefectureNumber": 17,
    "prefecture": "石川県",
    "city": "珠洲市",
    "town": "三崎町小泊"
  },
  "9271463": {
    "zipcode": "9271463",
    "prefectureCode": "17",
    "prefectureNumber": 17,
    "prefecture": "石川県",
    "city": "珠洲市",
    "town": "三崎町雲津"
  },
  "9271464": {
    "zipcode": "9271464",
    "prefectureCode": "17",
    "prefectureNumber": 17,
    "prefecture": "石川県",
    "city": "珠洲市",
    "town": "三崎町細屋"
  },
  "9271465": {
    "zipcode": "9271465",
    "prefectureCode": "17",
    "prefectureNumber": 17,
    "prefecture": "石川県",
    "city": "珠洲市",
    "town": "三崎町二本松"
  },
  "9271466": {
    "zipcode": "9271466",
    "prefectureCode": "17",
    "prefectureNumber": 17,
    "prefecture": "石川県",
    "city": "珠洲市",
    "town": "三崎町杉山"
  },
  "9271467": {
    "zipcode": "9271467",
    "prefectureCode": "17",
    "prefectureNumber": 17,
    "prefecture": "石川県",
    "city": "珠洲市",
    "town": "三崎町本"
  },
  "9271468": {
    "zipcode": "9271468",
    "prefectureCode": "17",
    "prefectureNumber": 17,
    "prefecture": "石川県",
    "city": "珠洲市",
    "town": "三崎町内方"
  },
  "9272101": {
    "zipcode": "9272101",
    "prefectureCode": "17",
    "prefectureNumber": 17,
    "prefecture": "石川県",
    "city": "輪島市",
    "town": "門前町西円山"
  },
  "9272102": {
    "zipcode": "9272102",
    "prefectureCode": "17",
    "prefectureNumber": 17,
    "prefecture": "石川県",
    "city": "輪島市",
    "town": "門前町八幡"
  },
  "9272103": {
    "zipcode": "9272103",
    "prefectureCode": "17",
    "prefectureNumber": 17,
    "prefecture": "石川県",
    "city": "輪島市",
    "town": "門前町宮古場"
  },
  "9272104": {
    "zipcode": "9272104",
    "prefectureCode": "17",
    "prefectureNumber": 17,
    "prefecture": "石川県",
    "city": "輪島市",
    "town": "門前町山辺"
  },
  "9272105": {
    "zipcode": "9272105",
    "prefectureCode": "17",
    "prefectureNumber": 17,
    "prefecture": "石川県",
    "city": "輪島市",
    "town": "門前町田村"
  },
  "9272106": {
    "zipcode": "9272106",
    "prefectureCode": "17",
    "prefectureNumber": 17,
    "prefecture": "石川県",
    "city": "輪島市",
    "town": "門前町浅生田"
  },
  "9272107": {
    "zipcode": "9272107",
    "prefectureCode": "17",
    "prefectureNumber": 17,
    "prefecture": "石川県",
    "city": "輪島市",
    "town": "門前町安代原"
  },
  "9272108": {
    "zipcode": "9272108",
    "prefectureCode": "17",
    "prefectureNumber": 17,
    "prefecture": "石川県",
    "city": "輪島市",
    "town": "門前町中野屋"
  },
  "9272111": {
    "zipcode": "9272111",
    "prefectureCode": "17",
    "prefectureNumber": 17,
    "prefecture": "石川県",
    "city": "輪島市",
    "town": "門前町滝上"
  },
  "9272112": {
    "zipcode": "9272112",
    "prefectureCode": "17",
    "prefectureNumber": 17,
    "prefecture": "石川県",
    "city": "輪島市",
    "town": "門前町四位"
  },
  "9272113": {
    "zipcode": "9272113",
    "prefectureCode": "17",
    "prefectureNumber": 17,
    "prefecture": "石川県",
    "city": "輪島市",
    "town": "門前町嶺"
  },
  "9272114": {
    "zipcode": "9272114",
    "prefectureCode": "17",
    "prefectureNumber": 17,
    "prefecture": "石川県",
    "city": "輪島市",
    "town": "門前町谷口"
  },
  "9272115": {
    "zipcode": "9272115",
    "prefectureCode": "17",
    "prefectureNumber": 17,
    "prefecture": "石川県",
    "city": "輪島市",
    "town": "門前町本内"
  },
  "9272121": {
    "zipcode": "9272121",
    "prefectureCode": "17",
    "prefectureNumber": 17,
    "prefecture": "石川県",
    "city": "輪島市",
    "town": "門前町貝吹"
  },
  "9272122": {
    "zipcode": "9272122",
    "prefectureCode": "17",
    "prefectureNumber": 17,
    "prefecture": "石川県",
    "city": "輪島市",
    "town": "門前町原"
  },
  "9272123": {
    "zipcode": "9272123",
    "prefectureCode": "17",
    "prefectureNumber": 17,
    "prefecture": "石川県",
    "city": "輪島市",
    "town": "門前町荒屋"
  },
  "9272124": {
    "zipcode": "9272124",
    "prefectureCode": "17",
    "prefectureNumber": 17,
    "prefecture": "石川県",
    "city": "輪島市",
    "town": "門前町東大町"
  },
  "9272125": {
    "zipcode": "9272125",
    "prefectureCode": "17",
    "prefectureNumber": 17,
    "prefecture": "石川県",
    "city": "輪島市",
    "town": "門前町別所"
  },
  "9272126": {
    "zipcode": "9272126",
    "prefectureCode": "17",
    "prefectureNumber": 17,
    "prefecture": "石川県",
    "city": "輪島市",
    "town": "門前町能納屋"
  },
  "9272127": {
    "zipcode": "9272127",
    "prefectureCode": "17",
    "prefectureNumber": 17,
    "prefecture": "石川県",
    "city": "輪島市",
    "town": "門前町二又川"
  },
  "9272131": {
    "zipcode": "9272131",
    "prefectureCode": "17",
    "prefectureNumber": 17,
    "prefecture": "石川県",
    "city": "輪島市",
    "town": "門前町平"
  },
  "9272132": {
    "zipcode": "9272132",
    "prefectureCode": "17",
    "prefectureNumber": 17,
    "prefecture": "石川県",
    "city": "輪島市",
    "town": "門前町長井坂"
  },
  "9272133": {
    "zipcode": "9272133",
    "prefectureCode": "17",
    "prefectureNumber": 17,
    "prefecture": "石川県",
    "city": "輪島市",
    "town": "門前町定広"
  },
  "9272134": {
    "zipcode": "9272134",
    "prefectureCode": "17",
    "prefectureNumber": 17,
    "prefecture": "石川県",
    "city": "輪島市",
    "town": "門前町地原"
  },
  "9272135": {
    "zipcode": "9272135",
    "prefectureCode": "17",
    "prefectureNumber": 17,
    "prefecture": "石川県",
    "city": "輪島市",
    "town": "門前町百成"
  },
  "9272136": {
    "zipcode": "9272136",
    "prefectureCode": "17",
    "prefectureNumber": 17,
    "prefecture": "石川県",
    "city": "輪島市",
    "town": "門前町鑓川"
  },
  "9272137": {
    "zipcode": "9272137",
    "prefectureCode": "17",
    "prefectureNumber": 17,
    "prefecture": "石川県",
    "city": "輪島市",
    "town": "門前町内保"
  },
  "9272138": {
    "zipcode": "9272138",
    "prefectureCode": "17",
    "prefectureNumber": 17,
    "prefecture": "石川県",
    "city": "輪島市",
    "town": "門前町堀腰"
  },
  "9272141": {
    "zipcode": "9272141",
    "prefectureCode": "17",
    "prefectureNumber": 17,
    "prefecture": "石川県",
    "city": "輪島市",
    "town": "門前町小石"
  },
  "9272142": {
    "zipcode": "9272142",
    "prefectureCode": "17",
    "prefectureNumber": 17,
    "prefecture": "石川県",
    "city": "輪島市",
    "town": "門前町上河内"
  },
  "9272143": {
    "zipcode": "9272143",
    "prefectureCode": "17",
    "prefectureNumber": 17,
    "prefecture": "石川県",
    "city": "輪島市",
    "town": "門前町風原"
  },
  "9272144": {
    "zipcode": "9272144",
    "prefectureCode": "17",
    "prefectureNumber": 17,
    "prefecture": "石川県",
    "city": "輪島市",
    "town": "門前町猿橋"
  },
  "9272145": {
    "zipcode": "9272145",
    "prefectureCode": "17",
    "prefectureNumber": 17,
    "prefecture": "石川県",
    "city": "輪島市",
    "town": "門前町小滝"
  },
  "9272146": {
    "zipcode": "9272146",
    "prefectureCode": "17",
    "prefectureNumber": 17,
    "prefecture": "石川県",
    "city": "輪島市",
    "town": "門前町西中尾"
  },
  "9272147": {
    "zipcode": "9272147",
    "prefectureCode": "17",
    "prefectureNumber": 17,
    "prefecture": "石川県",
    "city": "輪島市",
    "town": "門前町鬼屋"
  },
  "9272151": {
    "zipcode": "9272151",
    "prefectureCode": "17",
    "prefectureNumber": 17,
    "prefecture": "石川県",
    "city": "輪島市",
    "town": "門前町走出"
  },
  "9272152": {
    "zipcode": "9272152",
    "prefectureCode": "17",
    "prefectureNumber": 17,
    "prefecture": "石川県",
    "city": "輪島市",
    "town": "門前町広瀬"
  },
  "9272153": {
    "zipcode": "9272153",
    "prefectureCode": "17",
    "prefectureNumber": 17,
    "prefecture": "石川県",
    "city": "輪島市",
    "town": "門前町深田"
  },
  "9272154": {
    "zipcode": "9272154",
    "prefectureCode": "17",
    "prefectureNumber": 17,
    "prefecture": "石川県",
    "city": "輪島市",
    "town": "門前町栃木"
  },
  "9272155": {
    "zipcode": "9272155",
    "prefectureCode": "17",
    "prefectureNumber": 17,
    "prefecture": "石川県",
    "city": "輪島市",
    "town": "門前町日野尾"
  },
  "9272156": {
    "zipcode": "9272156",
    "prefectureCode": "17",
    "prefectureNumber": 17,
    "prefecture": "石川県",
    "city": "輪島市",
    "town": "門前町門前"
  },
  "9272161": {
    "zipcode": "9272161",
    "prefectureCode": "17",
    "prefectureNumber": 17,
    "prefecture": "石川県",
    "city": "輪島市",
    "town": "門前町六郎木"
  },
  "9272162": {
    "zipcode": "9272162",
    "prefectureCode": "17",
    "prefectureNumber": 17,
    "prefecture": "石川県",
    "city": "輪島市",
    "town": "門前町勝田"
  },
  "9272163": {
    "zipcode": "9272163",
    "prefectureCode": "17",
    "prefectureNumber": 17,
    "prefecture": "石川県",
    "city": "輪島市",
    "town": "門前町大生"
  },
  "9272164": {
    "zipcode": "9272164",
    "prefectureCode": "17",
    "prefectureNumber": 17,
    "prefecture": "石川県",
    "city": "輪島市",
    "town": "門前町道下"
  },
  "9272165": {
    "zipcode": "9272165",
    "prefectureCode": "17",
    "prefectureNumber": 17,
    "prefecture": "石川県",
    "city": "輪島市",
    "town": "門前町黒島町"
  },
  "9272166": {
    "zipcode": "9272166",
    "prefectureCode": "17",
    "prefectureNumber": 17,
    "prefecture": "石川県",
    "city": "輪島市",
    "town": "門前町鹿磯"
  },
  "9272167": {
    "zipcode": "9272167",
    "prefectureCode": "17",
    "prefectureNumber": 17,
    "prefecture": "石川県",
    "city": "輪島市",
    "town": "門前町深見"
  },
  "9272171": {
    "zipcode": "9272171",
    "prefectureCode": "17",
    "prefectureNumber": 17,
    "prefecture": "石川県",
    "city": "輪島市",
    "town": "門前町本市"
  },
  "9272172": {
    "zipcode": "9272172",
    "prefectureCode": "17",
    "prefectureNumber": 17,
    "prefecture": "石川県",
    "city": "輪島市",
    "town": "門前町高根尾"
  },
  "9272173": {
    "zipcode": "9272173",
    "prefectureCode": "17",
    "prefectureNumber": 17,
    "prefecture": "石川県",
    "city": "輪島市",
    "town": "門前町舘"
  },
  "9272174": {
    "zipcode": "9272174",
    "prefectureCode": "17",
    "prefectureNumber": 17,
    "prefecture": "石川県",
    "city": "輪島市",
    "town": "門前町広岡"
  },
  "9272175": {
    "zipcode": "9272175",
    "prefectureCode": "17",
    "prefectureNumber": 17,
    "prefecture": "石川県",
    "city": "輪島市",
    "town": "門前町清水"
  },
  "9272176": {
    "zipcode": "9272176",
    "prefectureCode": "17",
    "prefectureNumber": 17,
    "prefecture": "石川県",
    "city": "輪島市",
    "town": "門前町和田"
  },
  "9272271": {
    "zipcode": "9272271",
    "prefectureCode": "17",
    "prefectureNumber": 17,
    "prefecture": "石川県",
    "city": "輪島市",
    "town": "門前町皆月"
  },
  "9272272": {
    "zipcode": "9272272",
    "prefectureCode": "17",
    "prefectureNumber": 17,
    "prefecture": "石川県",
    "city": "輪島市",
    "town": "門前町樽見"
  },
  "9272273": {
    "zipcode": "9272273",
    "prefectureCode": "17",
    "prefectureNumber": 17,
    "prefecture": "石川県",
    "city": "輪島市",
    "town": "門前町暮坂"
  },
  "9272274": {
    "zipcode": "9272274",
    "prefectureCode": "17",
    "prefectureNumber": 17,
    "prefecture": "石川県",
    "city": "輪島市",
    "town": "門前町井守上坂"
  },
  "9272275": {
    "zipcode": "9272275",
    "prefectureCode": "17",
    "prefectureNumber": 17,
    "prefecture": "石川県",
    "city": "輪島市",
    "town": "門前町薄野"
  },
  "9272276": {
    "zipcode": "9272276",
    "prefectureCode": "17",
    "prefectureNumber": 17,
    "prefecture": "石川県",
    "city": "輪島市",
    "town": "門前町百成大角間"
  },
  "9272277": {
    "zipcode": "9272277",
    "prefectureCode": "17",
    "prefectureNumber": 17,
    "prefecture": "石川県",
    "city": "輪島市",
    "town": "門前町餅田"
  },
  "9272281": {
    "zipcode": "9272281",
    "prefectureCode": "17",
    "prefectureNumber": 17,
    "prefecture": "石川県",
    "city": "輪島市",
    "town": "門前町鵜山"
  },
  "9272282": {
    "zipcode": "9272282",
    "prefectureCode": "17",
    "prefectureNumber": 17,
    "prefecture": "石川県",
    "city": "輪島市",
    "town": "門前町大滝"
  },
  "9272283": {
    "zipcode": "9272283",
    "prefectureCode": "17",
    "prefectureNumber": 17,
    "prefecture": "石川県",
    "city": "輪島市",
    "town": "門前町中谷内"
  },
  "9272284": {
    "zipcode": "9272284",
    "prefectureCode": "17",
    "prefectureNumber": 17,
    "prefecture": "石川県",
    "city": "輪島市",
    "town": "門前町矢徳"
  },
  "9272285": {
    "zipcode": "9272285",
    "prefectureCode": "17",
    "prefectureNumber": 17,
    "prefecture": "石川県",
    "city": "輪島市",
    "town": "門前町吉浦"
  },
  "9272286": {
    "zipcode": "9272286",
    "prefectureCode": "17",
    "prefectureNumber": 17,
    "prefecture": "石川県",
    "city": "輪島市",
    "town": "門前町五十洲"
  },
  "9272301": {
    "zipcode": "9272301",
    "prefectureCode": "17",
    "prefectureNumber": 17,
    "prefecture": "石川県",
    "city": "輪島市",
    "town": "門前町二又"
  },
  "9272302": {
    "zipcode": "9272302",
    "prefectureCode": "17",
    "prefectureNumber": 17,
    "prefecture": "石川県",
    "city": "輪島市",
    "town": "門前町山是清"
  },
  "9272303": {
    "zipcode": "9272303",
    "prefectureCode": "17",
    "prefectureNumber": 17,
    "prefecture": "石川県",
    "city": "輪島市",
    "town": "門前町江崎"
  },
  "9272304": {
    "zipcode": "9272304",
    "prefectureCode": "17",
    "prefectureNumber": 17,
    "prefecture": "石川県",
    "city": "輪島市",
    "town": "門前町白禿"
  },
  "9272305": {
    "zipcode": "9272305",
    "prefectureCode": "17",
    "prefectureNumber": 17,
    "prefecture": "石川県",
    "city": "輪島市",
    "town": "門前町大切"
  },
  "9272311": {
    "zipcode": "9272311",
    "prefectureCode": "17",
    "prefectureNumber": 17,
    "prefecture": "石川県",
    "city": "輪島市",
    "town": "門前町切狭"
  },
  "9272312": {
    "zipcode": "9272312",
    "prefectureCode": "17",
    "prefectureNumber": 17,
    "prefecture": "石川県",
    "city": "輪島市",
    "town": "門前町西中谷"
  },
  "9272313": {
    "zipcode": "9272313",
    "prefectureCode": "17",
    "prefectureNumber": 17,
    "prefecture": "石川県",
    "city": "輪島市",
    "town": "門前町清沢"
  },
  "9272314": {
    "zipcode": "9272314",
    "prefectureCode": "17",
    "prefectureNumber": 17,
    "prefecture": "石川県",
    "city": "輪島市",
    "town": "門前町飯川谷"
  },
  "9272321": {
    "zipcode": "9272321",
    "prefectureCode": "17",
    "prefectureNumber": 17,
    "prefecture": "石川県",
    "city": "輪島市",
    "town": "門前町久川"
  },
  "9272322": {
    "zipcode": "9272322",
    "prefectureCode": "17",
    "prefectureNumber": 17,
    "prefecture": "石川県",
    "city": "輪島市",
    "town": "門前町窕"
  },
  "9272323": {
    "zipcode": "9272323",
    "prefectureCode": "17",
    "prefectureNumber": 17,
    "prefecture": "石川県",
    "city": "輪島市",
    "town": "門前町神明原"
  },
  "9272324": {
    "zipcode": "9272324",
    "prefectureCode": "17",
    "prefectureNumber": 17,
    "prefecture": "石川県",
    "city": "輪島市",
    "town": "門前町馬渡"
  },
  "9272325": {
    "zipcode": "9272325",
    "prefectureCode": "17",
    "prefectureNumber": 17,
    "prefecture": "石川県",
    "city": "輪島市",
    "town": "門前町滝町"
  },
  "9272331": {
    "zipcode": "9272331",
    "prefectureCode": "17",
    "prefectureNumber": 17,
    "prefecture": "石川県",
    "city": "輪島市",
    "town": "門前町渡瀬"
  },
  "9272332": {
    "zipcode": "9272332",
    "prefectureCode": "17",
    "prefectureNumber": 17,
    "prefecture": "石川県",
    "city": "輪島市",
    "town": "門前町木原月"
  },
  "9272333": {
    "zipcode": "9272333",
    "prefectureCode": "17",
    "prefectureNumber": 17,
    "prefecture": "石川県",
    "city": "輪島市",
    "town": "門前町馬場"
  },
  "9272334": {
    "zipcode": "9272334",
    "prefectureCode": "17",
    "prefectureNumber": 17,
    "prefecture": "石川県",
    "city": "輪島市",
    "town": "門前町上代"
  },
  "9272335": {
    "zipcode": "9272335",
    "prefectureCode": "17",
    "prefectureNumber": 17,
    "prefecture": "石川県",
    "city": "輪島市",
    "town": "門前町黒岩"
  },
  "9272336": {
    "zipcode": "9272336",
    "prefectureCode": "17",
    "prefectureNumber": 17,
    "prefecture": "石川県",
    "city": "輪島市",
    "town": "門前町入山"
  },
  "9272341": {
    "zipcode": "9272341",
    "prefectureCode": "17",
    "prefectureNumber": 17,
    "prefecture": "石川県",
    "city": "輪島市",
    "town": "門前町大釜"
  },
  "9272342": {
    "zipcode": "9272342",
    "prefectureCode": "17",
    "prefectureNumber": 17,
    "prefecture": "石川県",
    "city": "輪島市",
    "town": "門前町剱地"
  },
  "9272343": {
    "zipcode": "9272343",
    "prefectureCode": "17",
    "prefectureNumber": 17,
    "prefecture": "石川県",
    "city": "輪島市",
    "town": "門前町大泊"
  },
  "9272344": {
    "zipcode": "9272344",
    "prefectureCode": "17",
    "prefectureNumber": 17,
    "prefecture": "石川県",
    "city": "輪島市",
    "town": "門前町腰細"
  },
  "9272345": {
    "zipcode": "9272345",
    "prefectureCode": "17",
    "prefectureNumber": 17,
    "prefecture": "石川県",
    "city": "輪島市",
    "town": "門前町赤神"
  },
  "9272351": {
    "zipcode": "9272351",
    "prefectureCode": "17",
    "prefectureNumber": 17,
    "prefecture": "石川県",
    "city": "輪島市",
    "town": "門前町千代"
  },
  "9272352": {
    "zipcode": "9272352",
    "prefectureCode": "17",
    "prefectureNumber": 17,
    "prefecture": "石川県",
    "city": "輪島市",
    "town": "門前町北川"
  },
  "9272353": {
    "zipcode": "9272353",
    "prefectureCode": "17",
    "prefectureNumber": 17,
    "prefecture": "石川県",
    "city": "輪島市",
    "town": "門前町是清"
  },
  "9272354": {
    "zipcode": "9272354",
    "prefectureCode": "17",
    "prefectureNumber": 17,
    "prefecture": "石川県",
    "city": "輪島市",
    "town": "門前町池田"
  },
  "9272355": {
    "zipcode": "9272355",
    "prefectureCode": "17",
    "prefectureNumber": 17,
    "prefecture": "石川県",
    "city": "輪島市",
    "town": "門前町藤浜"
  },
  "9272361": {
    "zipcode": "9272361",
    "prefectureCode": "17",
    "prefectureNumber": 17,
    "prefecture": "石川県",
    "city": "輪島市",
    "town": "門前町小山"
  },
  "9272362": {
    "zipcode": "9272362",
    "prefectureCode": "17",
    "prefectureNumber": 17,
    "prefecture": "石川県",
    "city": "輪島市",
    "town": "門前町椎木"
  },
  "9272363": {
    "zipcode": "9272363",
    "prefectureCode": "17",
    "prefectureNumber": 17,
    "prefecture": "石川県",
    "city": "輪島市",
    "town": "門前町新町分"
  },
  "9272364": {
    "zipcode": "9272364",
    "prefectureCode": "17",
    "prefectureNumber": 17,
    "prefecture": "石川県",
    "city": "輪島市",
    "town": "門前町鍛治屋"
  },
  "9272365": {
    "zipcode": "9272365",
    "prefectureCode": "17",
    "prefectureNumber": 17,
    "prefecture": "石川県",
    "city": "輪島市",
    "town": "門前町南"
  },
  "9272366": {
    "zipcode": "9272366",
    "prefectureCode": "17",
    "prefectureNumber": 17,
    "prefecture": "石川県",
    "city": "輪島市",
    "town": "門前町中田"
  }
}
