{
  "9290101": {
    "zipcode": "9290101",
    "prefectureCode": "17",
    "prefectureNumber": 17,
    "prefecture": "石川県",
    "city": "能美市",
    "town": "赤井町"
  },
  "9290102": {
    "zipcode": "9290102",
    "prefectureCode": "17",
    "prefectureNumber": 17,
    "prefecture": "石川県",
    "city": "能美市",
    "town": "西任田町"
  },
  "9290103": {
    "zipcode": "9290103",
    "prefectureCode": "17",
    "prefectureNumber": 17,
    "prefecture": "石川県",
    "city": "能美市",
    "town": "五間堂町"
  },
  "9290104": {
    "zipcode": "9290104",
    "prefectureCode": "17",
    "prefectureNumber": 17,
    "prefecture": "石川県",
    "city": "能美市",
    "town": "中庄町"
  },
  "9290105": {
    "zipcode": "9290105",
    "prefectureCode": "17",
    "prefectureNumber": 17,
    "prefecture": "石川県",
    "city": "能美市",
    "town": "中ノ江町"
  },
  "9290106": {
    "zipcode": "9290106",
    "prefectureCode": "17",
    "prefectureNumber": 17,
    "prefecture": "石川県",
    "city": "能美市",
    "town": "西二口町"
  },
  "9290107": {
    "zipcode": "9290107",
    "prefectureCode": "17",
    "prefectureNumber": 17,
    "prefecture": "石川県",
    "city": "能美市",
    "town": "福岡町"
  },
  "9290108": {
    "zipcode": "9290108",
    "prefectureCode": "17",
    "prefectureNumber": 17,
    "prefecture": "石川県",
    "city": "能美市",
    "town": "能美"
  },
  "9290111": {
    "zipcode": "9290111",
    "prefectureCode": "17",
    "prefectureNumber": 17,
    "prefecture": "石川県",
    "city": "能美市",
    "town": "吉原町"
  },
  "9290112": {
    "zipcode": "9290112",
    "prefectureCode": "17",
    "prefectureNumber": 17,
    "prefecture": "石川県",
    "city": "能美市",
    "town": "福島町"
  },
  "9290113": {
    "zipcode": "9290113",
    "prefectureCode": "17",
    "prefectureNumber": 17,
    "prefecture": "石川県",
    "city": "能美市",
    "town": "大成町"
  },
  "9290114": {
    "zipcode": "9290114",
    "prefectureCode": "17",
    "prefectureNumber": 17,
    "prefecture": "石川県",
    "city": "能美市",
    "town": "浜開発町"
  },
  "9290115": {
    "zipcode": "9290115",
    "prefectureCode": "17",
    "prefectureNumber": 17,
    "prefecture": "石川県",
    "city": "能美市",
    "town": "下ノ江町"
  },
  "9290116": {
    "zipcode": "9290116",
    "prefectureCode": "17",
    "prefectureNumber": 17,
    "prefecture": "石川県",
    "city": "能美市",
    "town": "根上町"
  },
  "9290121": {
    "zipcode": "9290121",
    "prefectureCode": "17",
    "prefectureNumber": 17,
    "prefecture": "石川県",
    "city": "能美市",
    "town": "吉原釜屋町"
  },
  "9290122": {
    "zipcode": "9290122",
    "prefectureCode": "17",
    "prefectureNumber": 17,
    "prefecture": "石川県",
    "city": "能美市",
    "town": "大浜町"
  },
  "9290123": {
    "zipcode": "9290123",
    "prefectureCode": "17",
    "prefectureNumber": 17,
    "prefecture": "石川県",
    "city": "能美市",
    "town": "中町"
  },
  "9290124": {
    "zipcode": "9290124",
    "prefectureCode": "17",
    "prefectureNumber": 17,
    "prefecture": "石川県",
    "city": "能美市",
    "town": "浜町"
  },
  "9290125": {
    "zipcode": "9290125",
    "prefectureCode": "17",
    "prefectureNumber": 17,
    "prefecture": "石川県",
    "city": "能美市",
    "town": "道林町"
  },
  "9290126": {
    "zipcode": "9290126",
    "prefectureCode": "17",
    "prefectureNumber": 17,
    "prefecture": "石川県",
    "city": "能美市",
    "town": "山口町"
  },
  "9290201": {
    "zipcode": "9290201",
    "prefectureCode": "17",
    "prefectureNumber": 17,
    "prefecture": "石川県",
    "city": "白山市",
    "town": "鹿島町"
  },
  "9290202": {
    "zipcode": "9290202",
    "prefectureCode": "17",
    "prefectureNumber": 17,
    "prefecture": "石川県",
    "city": "白山市",
    "town": "西米光町"
  },
  "9290203": {
    "zipcode": "9290203",
    "prefectureCode": "17",
    "prefectureNumber": 17,
    "prefecture": "石川県",
    "city": "白山市",
    "town": "若草町"
  },
  "9290204": {
    "zipcode": "9290204",
    "prefectureCode": "17",
    "prefectureNumber": 17,
    "prefecture": "石川県",
    "city": "白山市",
    "town": "平加町"
  },
  "9290205": {
    "zipcode": "9290205",
    "prefectureCode": "17",
    "prefectureNumber": 17,
    "prefecture": "石川県",
    "city": "白山市",
    "town": "蓮池町"
  },
  "9290206": {
    "zipcode": "9290206",
    "prefectureCode": "17",
    "prefectureNumber": 17,
    "prefecture": "石川県",
    "city": "白山市",
    "town": "鹿島平"
  },
  "9290211": {
    "zipcode": "9290211",
    "prefectureCode": "17",
    "prefectureNumber": 17,
    "prefecture": "石川県",
    "city": "白山市",
    "town": "井関町"
  },
  "9290212": {
    "zipcode": "9290212",
    "prefectureCode": "17",
    "prefectureNumber": 17,
    "prefecture": "石川県",
    "city": "白山市",
    "town": "手取町"
  },
  "9290213": {
    "zipcode": "9290213",
    "prefectureCode": "17",
    "prefectureNumber": 17,
    "prefecture": "石川県",
    "city": "白山市",
    "town": "末正町"
  },
  "9290214": {
    "zipcode": "9290214",
    "prefectureCode": "17",
    "prefectureNumber": 17,
    "prefecture": "石川県",
    "city": "白山市",
    "town": "長屋町"
  },
  "9290215": {
    "zipcode": "9290215",
    "prefectureCode": "17",
    "prefectureNumber": 17,
    "prefecture": "石川県",
    "city": "白山市",
    "town": "美川南町"
  },
  "9290216": {
    "zipcode": "9290216",
    "prefectureCode": "17",
    "prefectureNumber": 17,
    "prefecture": "石川県",
    "city": "白山市",
    "town": "美川本吉町"
  },
  "9290217": {
    "zipcode": "9290217",
    "prefectureCode": "17",
    "prefectureNumber": 17,
    "prefecture": "石川県",
    "city": "白山市",
    "town": "湊町"
  },
  "9290221": {
    "zipcode": "9290221",
    "prefectureCode": "17",
    "prefectureNumber": 17,
    "prefecture": "石川県",
    "city": "白山市",
    "town": "美川今町"
  },
  "9290222": {
    "zipcode": "9290222",
    "prefectureCode": "17",
    "prefectureNumber": 17,
    "prefecture": "石川県",
    "city": "白山市",
    "town": "美川新町"
  },
  "9290223": {
    "zipcode": "9290223",
    "prefectureCode": "17",
    "prefectureNumber": 17,
    "prefecture": "石川県",
    "city": "白山市",
    "town": "美川北町"
  },
  "9290224": {
    "zipcode": "9290224",
    "prefectureCode": "17",
    "prefectureNumber": 17,
    "prefecture": "石川県",
    "city": "白山市",
    "town": "美川中町"
  },
  "9290231": {
    "zipcode": "9290231",
    "prefectureCode": "17",
    "prefectureNumber": 17,
    "prefecture": "石川県",
    "city": "白山市",
    "town": "美川和波町"
  },
  "9290232": {
    "zipcode": "9290232",
    "prefectureCode": "17",
    "prefectureNumber": 17,
    "prefecture": "石川県",
    "city": "白山市",
    "town": "美川末広町"
  },
  "9290233": {
    "zipcode": "9290233",
    "prefectureCode": "17",
    "prefectureNumber": 17,
    "prefecture": "石川県",
    "city": "白山市",
    "town": "美川浜町"
  },
  "9290234": {
    "zipcode": "9290234",
    "prefectureCode": "17",
    "prefectureNumber": 17,
    "prefecture": "石川県",
    "city": "白山市",
    "town": "美川神幸町"
  },
  "9290235": {
    "zipcode": "9290235",
    "prefectureCode": "17",
    "prefectureNumber": 17,
    "prefecture": "石川県",
    "city": "白山市",
    "town": "美川永代町"
  },
  "9290300": {
    "zipcode": "9290300",
    "prefectureCode": "17",
    "prefectureNumber": 17,
    "prefecture": "石川県",
    "city": "河北郡津幡町",
    "town": "以下に掲載がない場合"
  },
  "9290301": {
    "zipcode": "9290301",
    "prefectureCode": "17",
    "prefectureNumber": 17,
    "prefecture": "石川県",
    "city": "河北郡津幡町",
    "town": "瓜生"
  },
  "9290302": {
    "zipcode": "9290302",
    "prefectureCode": "17",
    "prefectureNumber": 17,
    "prefecture": "石川県",
    "city": "河北郡津幡町",
    "town": "木ノ窪"
  },
  "9290303": {
    "zipcode": "9290303",
    "prefectureCode": "17",
    "prefectureNumber": 17,
    "prefecture": "石川県",
    "city": "河北郡津幡町",
    "town": "牛首"
  },
  "9290304": {
    "zipcode": "9290304",
    "prefectureCode": "17",
    "prefectureNumber": 17,
    "prefecture": "石川県",
    "city": "河北郡津幡町",
    "town": "上河合"
  },
  "9290305": {
    "zipcode": "9290305",
    "prefectureCode": "17",
    "prefectureNumber": 17,
    "prefecture": "石川県",
    "city": "河北郡津幡町",
    "town": "下河合"
  },
  "9290306": {
    "zipcode": "9290306",
    "prefectureCode": "17",
    "prefectureNumber": 17,
    "prefecture": "石川県",
    "city": "河北郡津幡町",
    "town": "興津"
  },
  "9290307": {
    "zipcode": "9290307",
    "prefectureCode": "17",
    "prefectureNumber": 17,
    "prefecture": "石川県",
    "city": "河北郡津幡町",
    "town": "平野"
  },
  "9290308": {
    "zipcode": "9290308",
    "prefectureCode": "17",
    "prefectureNumber": 17,
    "prefecture": "石川県",
    "city": "河北郡津幡町",
    "town": "菩提寺"
  },
  "9290309": {
    "zipcode": "9290309",
    "prefectureCode": "17",
    "prefectureNumber": 17,
    "prefecture": "石川県",
    "city": "河北郡津幡町",
    "town": "上大田"
  },
  "9290311": {
    "zipcode": "9290311",
    "prefectureCode": "17",
    "prefectureNumber": 17,
    "prefecture": "石川県",
    "city": "河北郡津幡町",
    "town": "池ケ原"
  },
  "9290312": {
    "zipcode": "9290312",
    "prefectureCode": "17",
    "prefectureNumber": 17,
    "prefecture": "石川県",
    "city": "河北郡津幡町",
    "town": "小熊"
  },
  "9290313": {
    "zipcode": "9290313",
    "prefectureCode": "17",
    "prefectureNumber": 17,
    "prefecture": "石川県",
    "city": "河北郡津幡町",
    "town": "中山"
  },
  "9290314": {
    "zipcode": "9290314",
    "prefectureCode": "17",
    "prefectureNumber": 17,
    "prefecture": "石川県",
    "city": "河北郡津幡町",
    "town": "上矢田"
  },
  "9290315": {
    "zipcode": "9290315",
    "prefectureCode": "17",
    "prefectureNumber": 17,
    "prefecture": "石川県",
    "city": "河北郡津幡町",
    "town": "下矢田"
  },
  "9290316": {
    "zipcode": "9290316",
    "prefectureCode": "17",
    "prefectureNumber": 17,
    "prefecture": "石川県",
    "city": "河北郡津幡町",
    "town": "御門"
  },
  "9290317": {
    "zipcode": "9290317",
    "prefectureCode": "17",
    "prefectureNumber": 17,
    "prefecture": "石川県",
    "city": "河北郡津幡町",
    "town": "谷内"
  },
  "9290318": {
    "zipcode": "9290318",
    "prefectureCode": "17",
    "prefectureNumber": 17,
    "prefecture": "石川県",
    "city": "河北郡津幡町",
    "town": "領家"
  },
  "9290319": {
    "zipcode": "9290319",
    "prefectureCode": "17",
    "prefectureNumber": 17,
    "prefecture": "石川県",
    "city": "河北郡津幡町",
    "town": "能瀬"
  },
  "9290321": {
    "zipcode": "9290321",
    "prefectureCode": "17",
    "prefectureNumber": 17,
    "prefecture": "石川県",
    "city": "河北郡津幡町",
    "town": "加茂"
  },
  "9290322": {
    "zipcode": "9290322",
    "prefectureCode": "17",
    "prefectureNumber": 17,
    "prefecture": "石川県",
    "city": "河北郡津幡町",
    "town": "緑が丘"
  },
  "9290323": {
    "zipcode": "9290323",
    "prefectureCode": "17",
    "prefectureNumber": 17,
    "prefecture": "石川県",
    "city": "河北郡津幡町",
    "town": "津幡"
  },
  "9290324": {
    "zipcode": "9290324",
    "prefectureCode": "17",
    "prefectureNumber": 17,
    "prefecture": "石川県",
    "city": "河北郡津幡町",
    "town": "浅田"
  },
  "9290325": {
    "zipcode": "9290325",
    "prefectureCode": "17",
    "prefectureNumber": 17,
    "prefecture": "石川県",
    "city": "河北郡津幡町",
    "town": "加賀爪"
  },
  "9290326": {
    "zipcode": "9290326",
    "prefectureCode": "17",
    "prefectureNumber": 17,
    "prefecture": "石川県",
    "city": "河北郡津幡町",
    "town": "清水"
  },
  "9290327": {
    "zipcode": "9290327",
    "prefectureCode": "17",
    "prefectureNumber": 17,
    "prefecture": "石川県",
    "city": "河北郡津幡町",
    "town": "庄"
  },
  "9290328": {
    "zipcode": "9290328",
    "prefectureCode": "17",
    "prefectureNumber": 17,
    "prefecture": "石川県",
    "city": "河北郡津幡町",
    "town": "舟橋"
  },
  "9290331": {
    "zipcode": "9290331",
    "prefectureCode": "17",
    "prefectureNumber": 17,
    "prefecture": "石川県",
    "city": "河北郡津幡町",
    "town": "中橋"
  },
  "9290332": {
    "zipcode": "9290332",
    "prefectureCode": "17",
    "prefectureNumber": 17,
    "prefecture": "石川県",
    "city": "河北郡津幡町",
    "town": "中須加"
  },
  "9290333": {
    "zipcode": "9290333",
    "prefectureCode": "17",
    "prefectureNumber": 17,
    "prefecture": "石川県",
    "city": "河北郡津幡町",
    "town": "五反田"
  },
  "9290334": {
    "zipcode": "9290334",
    "prefectureCode": "17",
    "prefectureNumber": 17,
    "prefecture": "石川県",
    "city": "河北郡津幡町",
    "town": "川尻"
  },
  "9290335": {
    "zipcode": "9290335",
    "prefectureCode": "17",
    "prefectureNumber": 17,
    "prefecture": "石川県",
    "city": "河北郡津幡町",
    "town": "井上の荘"
  },
  "9290341": {
    "zipcode": "9290341",
    "prefectureCode": "17",
    "prefectureNumber": 17,
    "prefecture": "石川県",
    "city": "河北郡津幡町",
    "town": "横浜"
  },
  "9290342": {
    "zipcode": "9290342",
    "prefectureCode": "17",
    "prefectureNumber": 17,
    "prefecture": "石川県",
    "city": "河北郡津幡町",
    "town": "北中条"
  },
  "9290343": {
    "zipcode": "9290343",
    "prefectureCode": "17",
    "prefectureNumber": 17,
    "prefecture": "石川県",
    "city": "河北郡津幡町",
    "town": "南中条"
  },
  "9290344": {
    "zipcode": "9290344",
    "prefectureCode": "17",
    "prefectureNumber": 17,
    "prefecture": "石川県",
    "city": "河北郡津幡町",
    "town": "浅谷"
  },
  "9290345": {
    "zipcode": "9290345",
    "prefectureCode": "17",
    "prefectureNumber": 17,
    "prefecture": "石川県",
    "city": "河北郡津幡町",
    "town": "太田"
  },
  "9290346": {
    "zipcode": "9290346",
    "prefectureCode": "17",
    "prefectureNumber": 17,
    "prefecture": "石川県",
    "city": "河北郡津幡町",
    "town": "潟端"
  },
  "9290401": {
    "zipcode": "9290401",
    "prefectureCode": "17",
    "prefectureNumber": 17,
    "prefecture": "石川県",
    "city": "河北郡津幡町",
    "town": "彦太郎畠"
  },
  "9290402": {
    "zipcode": "9290402",
    "prefectureCode": "17",
    "prefectureNumber": 17,
    "prefecture": "石川県",
    "city": "河北郡津幡町",
    "town": "笠池ケ原"
  },
  "9290403": {
    "zipcode": "9290403",
    "prefectureCode": "17",
    "prefectureNumber": 17,
    "prefecture": "石川県",
    "city": "河北郡津幡町",
    "town": "莇谷"
  },
  "9290404": {
    "zipcode": "9290404",
    "prefectureCode": "17",
    "prefectureNumber": 17,
    "prefecture": "石川県",
    "city": "河北郡津幡町",
    "town": "大畠"
  },
  "9290405": {
    "zipcode": "9290405",
    "prefectureCode": "17",
    "prefectureNumber": 17,
    "prefecture": "石川県",
    "city": "河北郡津幡町",
    "town": "上野"
  },
  "9290406": {
    "zipcode": "9290406",
    "prefectureCode": "17",
    "prefectureNumber": 17,
    "prefecture": "石川県",
    "city": "河北郡津幡町",
    "town": "籠月"
  },
  "9290407": {
    "zipcode": "9290407",
    "prefectureCode": "17",
    "prefectureNumber": 17,
    "prefecture": "石川県",
    "city": "河北郡津幡町",
    "town": "鳥屋尾"
  },
  "9290411": {
    "zipcode": "9290411",
    "prefectureCode": "17",
    "prefectureNumber": 17,
    "prefecture": "石川県",
    "city": "河北郡津幡町",
    "town": "河内"
  },
  "9290412": {
    "zipcode": "9290412",
    "prefectureCode": "17",
    "prefectureNumber": 17,
    "prefecture": "石川県",
    "city": "河北郡津幡町",
    "town": "九折"
  },
  "9290413": {
    "zipcode": "9290413",
    "prefectureCode": "17",
    "prefectureNumber": 17,
    "prefecture": "石川県",
    "city": "河北郡津幡町",
    "town": "倶利伽羅"
  },
  "9290414": {
    "zipcode": "9290414",
    "prefectureCode": "17",
    "prefectureNumber": 17,
    "prefecture": "石川県",
    "city": "河北郡津幡町",
    "town": "山森"
  },
  "9290415": {
    "zipcode": "9290415",
    "prefectureCode": "17",
    "prefectureNumber": 17,
    "prefecture": "石川県",
    "city": "河北郡津幡町",
    "town": "越中坂"
  },
  "9290416": {
    "zipcode": "9290416",
    "prefectureCode": "17",
    "prefectureNumber": 17,
    "prefecture": "石川県",
    "city": "河北郡津幡町",
    "town": "刈安"
  },
  "9290417": {
    "zipcode": "9290417",
    "prefectureCode": "17",
    "prefectureNumber": 17,
    "prefecture": "石川県",
    "city": "河北郡津幡町",
    "town": "坂戸"
  },
  "9290421": {
    "zipcode": "9290421",
    "prefectureCode": "17",
    "prefectureNumber": 17,
    "prefecture": "石川県",
    "city": "河北郡津幡町",
    "town": "原"
  },
  "9290422": {
    "zipcode": "9290422",
    "prefectureCode": "17",
    "prefectureNumber": 17,
    "prefecture": "石川県",
    "city": "河北郡津幡町",
    "town": "上藤又"
  },
  "9290423": {
    "zipcode": "9290423",
    "prefectureCode": "17",
    "prefectureNumber": 17,
    "prefecture": "石川県",
    "city": "河北郡津幡町",
    "town": "下中"
  },
  "9290424": {
    "zipcode": "9290424",
    "prefectureCode": "17",
    "prefectureNumber": 17,
    "prefecture": "石川県",
    "city": "河北郡津幡町",
    "town": "下藤又"
  },
  "9290425": {
    "zipcode": "9290425",
    "prefectureCode": "17",
    "prefectureNumber": 17,
    "prefecture": "石川県",
    "city": "河北郡津幡町",
    "town": "七野"
  },
  "9290426": {
    "zipcode": "9290426",
    "prefectureCode": "17",
    "prefectureNumber": 17,
    "prefecture": "石川県",
    "city": "河北郡津幡町",
    "town": "竹橋"
  },
  "9290427": {
    "zipcode": "9290427",
    "prefectureCode": "17",
    "prefectureNumber": 17,
    "prefecture": "石川県",
    "city": "河北郡津幡町",
    "town": "富田"
  },
  "9290431": {
    "zipcode": "9290431",
    "prefectureCode": "17",
    "prefectureNumber": 17,
    "prefecture": "石川県",
    "city": "河北郡津幡町",
    "town": "大窪"
  },
  "9290432": {
    "zipcode": "9290432",
    "prefectureCode": "17",
    "prefectureNumber": 17,
    "prefecture": "石川県",
    "city": "河北郡津幡町",
    "town": "北横根"
  },
  "9290433": {
    "zipcode": "9290433",
    "prefectureCode": "17",
    "prefectureNumber": 17,
    "prefecture": "石川県",
    "city": "河北郡津幡町",
    "town": "南横根"
  },
  "9290434": {
    "zipcode": "9290434",
    "prefectureCode": "17",
    "prefectureNumber": 17,
    "prefecture": "石川県",
    "city": "河北郡津幡町",
    "town": "舟尾"
  },
  "9290435": {
    "zipcode": "9290435",
    "prefectureCode": "17",
    "prefectureNumber": 17,
    "prefecture": "石川県",
    "city": "河北郡津幡町",
    "town": "材木"
  },
  "9290436": {
    "zipcode": "9290436",
    "prefectureCode": "17",
    "prefectureNumber": 17,
    "prefecture": "石川県",
    "city": "河北郡津幡町",
    "town": "朝日畑"
  },
  "9290437": {
    "zipcode": "9290437",
    "prefectureCode": "17",
    "prefectureNumber": 17,
    "prefecture": "石川県",
    "city": "河北郡津幡町",
    "town": "相窪"
  },
  "9290441": {
    "zipcode": "9290441",
    "prefectureCode": "17",
    "prefectureNumber": 17,
    "prefecture": "石川県",
    "city": "河北郡津幡町",
    "town": "東荒屋"
  },
  "9290442": {
    "zipcode": "9290442",
    "prefectureCode": "17",
    "prefectureNumber": 17,
    "prefecture": "石川県",
    "city": "河北郡津幡町",
    "town": "大坪"
  },
  "9290443": {
    "zipcode": "9290443",
    "prefectureCode": "17",
    "prefectureNumber": 17,
    "prefecture": "石川県",
    "city": "河北郡津幡町",
    "town": "別所"
  },
  "9290444": {
    "zipcode": "9290444",
    "prefectureCode": "17",
    "prefectureNumber": 17,
    "prefecture": "石川県",
    "city": "河北郡津幡町",
    "town": "仮生"
  },
  "9290445": {
    "zipcode": "9290445",
    "prefectureCode": "17",
    "prefectureNumber": 17,
    "prefecture": "石川県",
    "city": "河北郡津幡町",
    "town": "井野河内"
  },
  "9290446": {
    "zipcode": "9290446",
    "prefectureCode": "17",
    "prefectureNumber": 17,
    "prefecture": "石川県",
    "city": "河北郡津幡町",
    "town": "明神"
  },
  "9290447": {
    "zipcode": "9290447",
    "prefectureCode": "17",
    "prefectureNumber": 17,
    "prefecture": "石川県",
    "city": "河北郡津幡町",
    "town": "旭山"
  },
  "9290451": {
    "zipcode": "9290451",
    "prefectureCode": "17",
    "prefectureNumber": 17,
    "prefecture": "石川県",
    "city": "河北郡津幡町",
    "town": "宮田"
  },
  "9290452": {
    "zipcode": "9290452",
    "prefectureCode": "17",
    "prefectureNumber": 17,
    "prefecture": "石川県",
    "city": "河北郡津幡町",
    "town": "田屋"
  },
  "9290453": {
    "zipcode": "9290453",
    "prefectureCode": "17",
    "prefectureNumber": 17,
    "prefecture": "石川県",
    "city": "河北郡津幡町",
    "town": "岩崎"
  },
  "9290454": {
    "zipcode": "9290454",
    "prefectureCode": "17",
    "prefectureNumber": 17,
    "prefecture": "石川県",
    "city": "河北郡津幡町",
    "town": "杉瀬"
  },
  "9290455": {
    "zipcode": "9290455",
    "prefectureCode": "17",
    "prefectureNumber": 17,
    "prefecture": "石川県",
    "city": "河北郡津幡町",
    "town": "倉見"
  },
  "9290456": {
    "zipcode": "9290456",
    "prefectureCode": "17",
    "prefectureNumber": 17,
    "prefecture": "石川県",
    "city": "河北郡津幡町",
    "town": "七黒"
  },
  "9290461": {
    "zipcode": "9290461",
    "prefectureCode": "17",
    "prefectureNumber": 17,
    "prefecture": "石川県",
    "city": "河北郡津幡町",
    "town": "八ノ谷"
  },
  "9290462": {
    "zipcode": "9290462",
    "prefectureCode": "17",
    "prefectureNumber": 17,
    "prefecture": "石川県",
    "city": "河北郡津幡町",
    "town": "市谷"
  },
  "9290463": {
    "zipcode": "9290463",
    "prefectureCode": "17",
    "prefectureNumber": 17,
    "prefecture": "石川県",
    "city": "河北郡津幡町",
    "town": "蓮花寺"
  },
  "9290464": {
    "zipcode": "9290464",
    "prefectureCode": "17",
    "prefectureNumber": 17,
    "prefecture": "石川県",
    "city": "河北郡津幡町",
    "town": "山北"
  },
  "9290465": {
    "zipcode": "9290465",
    "prefectureCode": "17",
    "prefectureNumber": 17,
    "prefecture": "石川県",
    "city": "河北郡津幡町",
    "town": "鳥越"
  },
  "9290466": {
    "zipcode": "9290466",
    "prefectureCode": "17",
    "prefectureNumber": 17,
    "prefecture": "石川県",
    "city": "河北郡津幡町",
    "town": "吉倉"
  },
  "9290467": {
    "zipcode": "9290467",
    "prefectureCode": "17",
    "prefectureNumber": 17,
    "prefecture": "石川県",
    "city": "河北郡津幡町",
    "town": "大熊"
  },
  "9291100": {
    "zipcode": "9291100",
    "prefectureCode": "17",
    "prefectureNumber": 17,
    "prefecture": "石川県",
    "city": "かほく市",
    "town": "以下に掲載がない場合"
  },
  "9291101": {
    "zipcode": "9291101",
    "prefectureCode": "17",
    "prefectureNumber": 17,
    "prefecture": "石川県",
    "city": "かほく市",
    "town": "余地"
  },
  "9291102": {
    "zipcode": "9291102",
    "prefectureCode": "17",
    "prefectureNumber": 17,
    "prefecture": "石川県",
    "city": "かほく市",
    "town": "上田名"
  },
  "9291103": {
    "zipcode": "9291103",
    "prefectureCode": "17",
    "prefectureNumber": 17,
    "prefecture": "石川県",
    "city": "かほく市",
    "town": "谷"
  },
  "9291104": {
    "zipcode": "9291104",
    "prefectureCode": "17",
    "prefectureNumber": 17,
    "prefecture": "石川県",
    "city": "かほく市",
    "town": "笠島"
  },
  "9291105": {
    "zipcode": "9291105",
    "prefectureCode": "17",
    "prefectureNumber": 17,
    "prefecture": "石川県",
    "city": "かほく市",
    "town": "横山"
  },
  "9291111": {
    "zipcode": "9291111",
    "prefectureCode": "17",
    "prefectureNumber": 17,
    "prefecture": "石川県",
    "city": "かほく市",
    "town": "気屋"
  },
  "9291112": {
    "zipcode": "9291112",
    "prefectureCode": "17",
    "prefectureNumber": 17,
    "prefecture": "石川県",
    "city": "かほく市",
    "town": "多田"
  },
  "9291113": {
    "zipcode": "9291113",
    "prefectureCode": "17",
    "prefectureNumber": 17,
    "prefecture": "石川県",
    "city": "かほく市",
    "town": "指江"
  },
  "9291114": {
    "zipcode": "9291114",
    "prefectureCode": "17",
    "prefectureNumber": 17,
    "prefecture": "石川県",
    "city": "かほく市",
    "town": "狩鹿野"
  },
  "9291115": {
    "zipcode": "9291115",
    "prefectureCode": "17",
    "prefectureNumber": 17,
    "prefecture": "石川県",
    "city": "かほく市",
    "town": "上山田"
  },
  "9291116": {
    "zipcode": "9291116",
    "prefectureCode": "17",
    "prefectureNumber": 17,
    "prefecture": "石川県",
    "city": "かほく市",
    "town": "下山田"
  },
  "9291117": {
    "zipcode": "9291117",
    "prefectureCode": "17",
    "prefectureNumber": 17,
    "prefecture": "石川県",
    "city": "かほく市",
    "town": "鉢伏"
  },
  "9291121": {
    "zipcode": "9291121",
    "prefectureCode": "17",
    "prefectureNumber": 17,
    "prefecture": "石川県",
    "city": "かほく市",
    "town": "宇気"
  },
  "9291122": {
    "zipcode": "9291122",
    "prefectureCode": "17",
    "prefectureNumber": 17,
    "prefecture": "石川県",
    "city": "かほく市",
    "town": "七窪"
  },
  "9291123": {
    "zipcode": "9291123",
    "prefectureCode": "17",
    "prefectureNumber": 17,
    "prefecture": "石川県",
    "city": "かほく市",
    "town": "森"
  },
  "9291125": {
    "zipcode": "9291125",
    "prefectureCode": "17",
    "prefectureNumber": 17,
    "prefecture": "石川県",
    "city": "かほく市",
    "town": "宇野気"
  },
  "9291126": {
    "zipcode": "9291126",
    "prefectureCode": "17",
    "prefectureNumber": 17,
    "prefecture": "石川県",
    "city": "かほく市",
    "town": "内日角"
  },
  "9291127": {
    "zipcode": "9291127",
    "prefectureCode": "17",
    "prefectureNumber": 17,
    "prefecture": "石川県",
    "city": "かほく市",
    "town": "大崎"
  },
  "9291171": {
    "zipcode": "9291171",
    "prefectureCode": "17",
    "prefectureNumber": 17,
    "prefecture": "石川県",
    "city": "かほく市",
    "town": "木津"
  },
  "9291172": {
    "zipcode": "9291172",
    "prefectureCode": "17",
    "prefectureNumber": 17,
    "prefecture": "石川県",
    "city": "かほく市",
    "town": "松浜"
  },
  "9291173": {
    "zipcode": "9291173",
    "prefectureCode": "17",
    "prefectureNumber": 17,
    "prefecture": "石川県",
    "city": "かほく市",
    "town": "遠塚"
  },
  "9291174": {
    "zipcode": "9291174",
    "prefectureCode": "17",
    "prefectureNumber": 17,
    "prefecture": "石川県",
    "city": "かほく市",
    "town": "浜北"
  },
  "9291175": {
    "zipcode": "9291175",
    "prefectureCode": "17",
    "prefectureNumber": 17,
    "prefecture": "石川県",
    "city": "かほく市",
    "town": "秋浜"
  },
  "9291176": {
    "zipcode": "9291176",
    "prefectureCode": "17",
    "prefectureNumber": 17,
    "prefecture": "石川県",
    "city": "かほく市",
    "town": "外日角"
  },
  "9291177": {
    "zipcode": "9291177",
    "prefectureCode": "17",
    "prefectureNumber": 17,
    "prefecture": "石川県",
    "city": "かほく市",
    "town": "白尾"
  },
  "9291201": {
    "zipcode": "9291201",
    "prefectureCode": "17",
    "prefectureNumber": 17,
    "prefecture": "石川県",
    "city": "かほく市",
    "town": "野寺"
  },
  "9291202": {
    "zipcode": "9291202",
    "prefectureCode": "17",
    "prefectureNumber": 17,
    "prefecture": "石川県",
    "city": "かほく市",
    "town": "八野"
  },
  "9291203": {
    "zipcode": "9291203",
    "prefectureCode": "17",
    "prefectureNumber": 17,
    "prefecture": "石川県",
    "city": "かほく市",
    "town": "黒川"
  },
  "9291204": {
    "zipcode": "9291204",
    "prefectureCode": "17",
    "prefectureNumber": 17,
    "prefecture": "石川県",
    "city": "かほく市",
    "town": "箕打"
  },
  "9291205": {
    "zipcode": "9291205",
    "prefectureCode": "17",
    "prefectureNumber": 17,
    "prefecture": "石川県",
    "city": "かほく市",
    "town": "若緑"
  },
  "9291206": {
    "zipcode": "9291206",
    "prefectureCode": "17",
    "prefectureNumber": 17,
    "prefecture": "石川県",
    "city": "かほく市",
    "town": "元女"
  },
  "9291207": {
    "zipcode": "9291207",
    "prefectureCode": "17",
    "prefectureNumber": 17,
    "prefecture": "石川県",
    "city": "かほく市",
    "town": "夏栗"
  },
  "9291208": {
    "zipcode": "9291208",
    "prefectureCode": "17",
    "prefectureNumber": 17,
    "prefecture": "石川県",
    "city": "かほく市",
    "town": "瀬戸町"
  },
  "9291210": {
    "zipcode": "9291210",
    "prefectureCode": "17",
    "prefectureNumber": 17,
    "prefecture": "石川県",
    "city": "かほく市",
    "town": "学園台"
  },
  "9291211": {
    "zipcode": "9291211",
    "prefectureCode": "17",
    "prefectureNumber": 17,
    "prefecture": "石川県",
    "city": "かほく市",
    "town": "二ツ屋"
  },
  "9291212": {
    "zipcode": "9291212",
    "prefectureCode": "17",
    "prefectureNumber": 17,
    "prefecture": "石川県",
    "city": "かほく市",
    "town": "中沼"
  },
  "9291213": {
    "zipcode": "9291213",
    "prefectureCode": "17",
    "prefectureNumber": 17,
    "prefecture": "石川県",
    "city": "かほく市",
    "town": "長柄町"
  },
  "9291214": {
    "zipcode": "9291214",
    "prefectureCode": "17",
    "prefectureNumber": 17,
    "prefecture": "石川県",
    "city": "かほく市",
    "town": "内高松"
  },
  "9291215": {
    "zipcode": "9291215",
    "prefectureCode": "17",
    "prefectureNumber": 17,
    "prefecture": "石川県",
    "city": "かほく市",
    "town": "高松"
  },
  "9291300": {
    "zipcode": "9291300",
    "prefectureCode": "17",
    "prefectureNumber": 17,
    "prefecture": "石川県",
    "city": "羽咋郡宝達志水町",
    "town": "以下に掲載がない場合"
  },
  "9291301": {
    "zipcode": "9291301",
    "prefectureCode": "17",
    "prefectureNumber": 17,
    "prefecture": "石川県",
    "city": "羽咋郡宝達志水町",
    "town": "宝達"
  },
  "9291302": {
    "zipcode": "9291302",
    "prefectureCode": "17",
    "prefectureNumber": 17,
    "prefecture": "石川県",
    "city": "羽咋郡宝達志水町",
    "town": "山崎"
  },
  "9291303": {
    "zipcode": "9291303",
    "prefectureCode": "17",
    "prefectureNumber": 17,
    "prefecture": "石川県",
    "city": "羽咋郡宝達志水町",
    "town": "河原"
  },
  "9291304": {
    "zipcode": "9291304",
    "prefectureCode": "17",
    "prefectureNumber": 17,
    "prefecture": "石川県",
    "city": "羽咋郡宝達志水町",
    "town": "南吉田"
  },
  "9291305": {
    "zipcode": "9291305",
    "prefectureCode": "17",
    "prefectureNumber": 17,
    "prefecture": "石川県",
    "city": "羽咋郡宝達志水町",
    "town": "竹生野"
  },
  "9291311": {
    "zipcode": "9291311",
    "prefectureCode": "17",
    "prefectureNumber": 17,
    "prefecture": "石川県",
    "city": "羽咋郡宝達志水町",
    "town": "門前"
  },
  "9291312": {
    "zipcode": "9291312",
    "prefectureCode": "17",
    "prefectureNumber": 17,
    "prefecture": "石川県",
    "city": "羽咋郡宝達志水町",
    "town": "上田"
  },
  "9291313": {
    "zipcode": "9291313",
    "prefectureCode": "17",
    "prefectureNumber": 17,
    "prefecture": "石川県",
    "city": "羽咋郡宝達志水町",
    "town": "東間"
  },
  "9291314": {
    "zipcode": "9291314",
    "prefectureCode": "17",
    "prefectureNumber": 17,
    "prefecture": "石川県",
    "city": "羽咋郡宝達志水町",
    "town": "紺屋町"
  },
  "9291315": {
    "zipcode": "9291315",
    "prefectureCode": "17",
    "prefectureNumber": 17,
    "prefecture": "石川県",
    "city": "羽咋郡宝達志水町",
    "town": "東野"
  },
  "9291316": {
    "zipcode": "9291316",
    "prefectureCode": "17",
    "prefectureNumber": 17,
    "prefecture": "石川県",
    "city": "羽咋郡宝達志水町",
    "town": "中野"
  },
  "9291321": {
    "zipcode": "9291321",
    "prefectureCode": "17",
    "prefectureNumber": 17,
    "prefecture": "石川県",
    "city": "羽咋郡宝達志水町",
    "town": "上田出"
  },
  "9291322": {
    "zipcode": "9291322",
    "prefectureCode": "17",
    "prefectureNumber": 17,
    "prefecture": "石川県",
    "city": "羽咋郡宝達志水町",
    "town": "三日町"
  },
  "9291323": {
    "zipcode": "9291323",
    "prefectureCode": "17",
    "prefectureNumber": 17,
    "prefecture": "石川県",
    "city": "羽咋郡宝達志水町",
    "town": "御舘"
  },
  "9291324": {
    "zipcode": "9291324",
    "prefectureCode": "17",
    "prefectureNumber": 17,
    "prefecture": "石川県",
    "city": "羽咋郡宝達志水町",
    "town": "正友"
  },
  "9291325": {
    "zipcode": "9291325",
    "prefectureCode": "17",
    "prefectureNumber": 17,
    "prefecture": "石川県",
    "city": "羽咋郡宝達志水町",
    "town": "坪山"
  },
  "9291326": {
    "zipcode": "9291326",
    "prefectureCode": "17",
    "prefectureNumber": 17,
    "prefecture": "石川県",
    "city": "羽咋郡宝達志水町",
    "town": "冬野"
  },
  "9291327": {
    "zipcode": "9291327",
    "prefectureCode": "17",
    "prefectureNumber": 17,
    "prefecture": "石川県",
    "city": "羽咋郡宝達志水町",
    "town": "森本"
  },
  "9291331": {
    "zipcode": "9291331",
    "prefectureCode": "17",
    "prefectureNumber": 17,
    "prefecture": "石川県",
    "city": "羽咋郡宝達志水町",
    "town": "米出"
  },
  "9291332": {
    "zipcode": "9291332",
    "prefectureCode": "17",
    "prefectureNumber": 17,
    "prefecture": "石川県",
    "city": "羽咋郡宝達志水町",
    "town": "北川尻"
  },
  "9291333": {
    "zipcode": "9291333",
    "prefectureCode": "17",
    "prefectureNumber": 17,
    "prefecture": "石川県",
    "city": "羽咋郡宝達志水町",
    "town": "免田"
  },
  "9291341": {
    "zipcode": "9291341",
    "prefectureCode": "17",
    "prefectureNumber": 17,
    "prefecture": "石川県",
    "city": "羽咋郡宝達志水町",
    "town": "宿"
  },
  "9291342": {
    "zipcode": "9291342",
    "prefectureCode": "17",
    "prefectureNumber": 17,
    "prefecture": "石川県",
    "city": "羽咋郡宝達志水町",
    "town": "麦生"
  },
  "9291343": {
    "zipcode": "9291343",
    "prefectureCode": "17",
    "prefectureNumber": 17,
    "prefecture": "石川県",
    "city": "羽咋郡宝達志水町",
    "town": "小川"
  },
  "9291344": {
    "zipcode": "9291344",
    "prefectureCode": "17",
    "prefectureNumber": 17,
    "prefecture": "石川県",
    "city": "羽咋郡宝達志水町",
    "town": "今浜"
  },
  "9291345": {
    "zipcode": "9291345",
    "prefectureCode": "17",
    "prefectureNumber": 17,
    "prefecture": "石川県",
    "city": "羽咋郡宝達志水町",
    "town": "今浜新"
  },
  "9291401": {
    "zipcode": "9291401",
    "prefectureCode": "17",
    "prefectureNumber": 17,
    "prefecture": "石川県",
    "city": "羽咋郡宝達志水町",
    "town": "向瀬"
  },
  "9291402": {
    "zipcode": "9291402",
    "prefectureCode": "17",
    "prefectureNumber": 17,
    "prefecture": "石川県",
    "city": "羽咋郡宝達志水町",
    "town": "見砂"
  },
  "9291403": {
    "zipcode": "9291403",
    "prefectureCode": "17",
    "prefectureNumber": 17,
    "prefecture": "石川県",
    "city": "羽咋郡宝達志水町",
    "town": "所司原"
  },
  "9291404": {
    "zipcode": "9291404",
    "prefectureCode": "17",
    "prefectureNumber": 17,
    "prefecture": "石川県",
    "city": "羽咋郡宝達志水町",
    "town": "原"
  },
  "9291405": {
    "zipcode": "9291405",
    "prefectureCode": "17",
    "prefectureNumber": 17,
    "prefecture": "石川県",
    "city": "羽咋郡宝達志水町",
    "town": "平床"
  },
  "9291406": {
    "zipcode": "9291406",
    "prefectureCode": "17",
    "prefectureNumber": 17,
    "prefecture": "石川県",
    "city": "羽咋郡宝達志水町",
    "town": "散田"
  },
  "9291411": {
    "zipcode": "9291411",
    "prefectureCode": "17",
    "prefectureNumber": 17,
    "prefecture": "石川県",
    "city": "羽咋郡宝達志水町",
    "town": "柳瀬"
  },
  "9291412": {
    "zipcode": "9291412",
    "prefectureCode": "17",
    "prefectureNumber": 17,
    "prefecture": "石川県",
    "city": "羽咋郡宝達志水町",
    "town": "荻島"
  },
  "9291413": {
    "zipcode": "9291413",
    "prefectureCode": "17",
    "prefectureNumber": 17,
    "prefecture": "石川県",
    "city": "羽咋郡宝達志水町",
    "town": "荻谷"
  },
  "9291414": {
    "zipcode": "9291414",
    "prefectureCode": "17",
    "prefectureNumber": 17,
    "prefecture": "石川県",
    "city": "羽咋郡宝達志水町",
    "town": "敷波"
  },
  "9291415": {
    "zipcode": "9291415",
    "prefectureCode": "17",
    "prefectureNumber": 17,
    "prefecture": "石川県",
    "city": "羽咋郡宝達志水町",
    "town": "敷浪"
  },
  "9291416": {
    "zipcode": "9291416",
    "prefectureCode": "17",
    "prefectureNumber": 17,
    "prefecture": "石川県",
    "city": "羽咋郡宝達志水町",
    "town": "出浜"
  },
  "9291421": {
    "zipcode": "9291421",
    "prefectureCode": "17",
    "prefectureNumber": 17,
    "prefecture": "石川県",
    "city": "羽咋郡宝達志水町",
    "town": "二口"
  },
  "9291422": {
    "zipcode": "9291422",
    "prefectureCode": "17",
    "prefectureNumber": 17,
    "prefecture": "石川県",
    "city": "羽咋郡宝達志水町",
    "town": "杉野屋"
  },
  "9291423": {
    "zipcode": "9291423",
    "prefectureCode": "17",
    "prefectureNumber": 17,
    "prefecture": "石川県",
    "city": "羽咋郡宝達志水町",
    "town": "菅原"
  },
  "9291424": {
    "zipcode": "9291424",
    "prefectureCode": "17",
    "prefectureNumber": 17,
    "prefecture": "石川県",
    "city": "羽咋郡宝達志水町",
    "town": "吉野屋"
  },
  "9291425": {
    "zipcode": "9291425",
    "prefectureCode": "17",
    "prefectureNumber": 17,
    "prefecture": "石川県",
    "city": "羽咋郡宝達志水町",
    "town": "子浦"
  },
  "9291426": {
    "zipcode": "9291426",
    "prefectureCode": "17",
    "prefectureNumber": 17,
    "prefecture": "石川県",
    "city": "羽咋郡宝達志水町",
    "town": "荻市"
  },
  "9291601": {
    "zipcode": "9291601",
    "prefectureCode": "17",
    "prefectureNumber": 17,
    "prefecture": "石川県",
    "city": "鹿島郡中能登町",
    "town": "西馬場"
  },
  "9291602": {
    "zipcode": "9291602",
    "prefectureCode": "17",
    "prefectureNumber": 17,
    "prefecture": "石川県",
    "city": "鹿島郡中能登町",
    "town": "能登部上"
  },
  "9291603": {
    "zipcode": "9291603",
    "prefectureCode": "17",
    "prefectureNumber": 17,
    "prefecture": "石川県",
    "city": "鹿島郡中能登町",
    "town": "徳丸"
  },
  "9291604": {
    "zipcode": "9291604",
    "prefectureCode": "17",
    "prefectureNumber": 17,
    "prefecture": "石川県",
    "city": "鹿島郡中能登町",
    "town": "能登部下"
  },
  "9291605": {
    "zipcode": "9291605",
    "prefectureCode": "17",
    "prefectureNumber": 17,
    "prefecture": "石川県",
    "city": "鹿島郡中能登町",
    "town": "下後山"
  },
  "9291606": {
    "zipcode": "9291606",
    "prefectureCode": "17",
    "prefectureNumber": 17,
    "prefecture": "石川県",
    "city": "鹿島郡中能登町",
    "town": "上後山"
  },
  "9291621": {
    "zipcode": "9291621",
    "prefectureCode": "17",
    "prefectureNumber": 17,
    "prefecture": "石川県",
    "city": "鹿島郡中能登町",
    "town": "金丸"
  },
  "9291631": {
    "zipcode": "9291631",
    "prefectureCode": "17",
    "prefectureNumber": 17,
    "prefecture": "石川県",
    "city": "鹿島郡中能登町",
    "town": "久江"
  },
  "9291632": {
    "zipcode": "9291632",
    "prefectureCode": "17",
    "prefectureNumber": 17,
    "prefecture": "石川県",
    "city": "鹿島郡中能登町",
    "town": "小田中"
  },
  "9291633": {
    "zipcode": "9291633",
    "prefectureCode": "17",
    "prefectureNumber": 17,
    "prefecture": "石川県",
    "city": "鹿島郡中能登町",
    "town": "藤井"
  },
  "9291634": {
    "zipcode": "9291634",
    "prefectureCode": "17",
    "prefectureNumber": 17,
    "prefecture": "石川県",
    "city": "鹿島郡中能登町",
    "town": "福田"
  },
  "9291635": {
    "zipcode": "9291635",
    "prefectureCode": "17",
    "prefectureNumber": 17,
    "prefecture": "石川県",
    "city": "鹿島郡中能登町",
    "town": "高畠"
  },
  "9291636": {
    "zipcode": "9291636",
    "prefectureCode": "17",
    "prefectureNumber": 17,
    "prefecture": "石川県",
    "city": "鹿島郡中能登町",
    "town": "小金森"
  },
  "9291637": {
    "zipcode": "9291637",
    "prefectureCode": "17",
    "prefectureNumber": 17,
    "prefecture": "石川県",
    "city": "鹿島郡中能登町",
    "town": "曽祢"
  },
  "9291700": {
    "zipcode": "9291700",
    "prefectureCode": "17",
    "prefectureNumber": 17,
    "prefecture": "石川県",
    "city": "鹿島郡中能登町",
    "town": "以下に掲載がない場合"
  },
  "9291701": {
    "zipcode": "9291701",
    "prefectureCode": "17",
    "prefectureNumber": 17,
    "prefecture": "石川県",
    "city": "鹿島郡中能登町",
    "town": "川田"
  },
  "9291702": {
    "zipcode": "9291702",
    "prefectureCode": "17",
    "prefectureNumber": 17,
    "prefecture": "石川県",
    "city": "鹿島郡中能登町",
    "town": "大槻"
  },
  "9291703": {
    "zipcode": "9291703",
    "prefectureCode": "17",
    "prefectureNumber": 17,
    "prefecture": "石川県",
    "city": "鹿島郡中能登町",
    "town": "春木"
  },
  "9291704": {
    "zipcode": "9291704",
    "prefectureCode": "17",
    "prefectureNumber": 17,
    "prefecture": "石川県",
    "city": "鹿島郡中能登町",
    "town": "末坂"
  },
  "9291705": {
    "zipcode": "9291705",
    "prefectureCode": "17",
    "prefectureNumber": 17,
    "prefecture": "石川県",
    "city": "鹿島郡中能登町",
    "town": "花見月"
  },
  "9291706": {
    "zipcode": "9291706",
    "prefectureCode": "17",
    "prefectureNumber": 17,
    "prefecture": "石川県",
    "city": "鹿島郡中能登町",
    "town": "瀬戸"
  },
  "9291711": {
    "zipcode": "9291711",
    "prefectureCode": "17",
    "prefectureNumber": 17,
    "prefecture": "石川県",
    "city": "鹿島郡中能登町",
    "town": "廿九日"
  },
  "9291712": {
    "zipcode": "9291712",
    "prefectureCode": "17",
    "prefectureNumber": 17,
    "prefecture": "石川県",
    "city": "鹿島郡中能登町",
    "town": "新庄"
  },
  "9291713": {
    "zipcode": "9291713",
    "prefectureCode": "17",
    "prefectureNumber": 17,
    "prefecture": "石川県",
    "city": "鹿島郡中能登町",
    "town": "今羽坂"
  },
  "9291714": {
    "zipcode": "9291714",
    "prefectureCode": "17",
    "prefectureNumber": 17,
    "prefecture": "石川県",
    "city": "鹿島郡中能登町",
    "town": "羽坂"
  },
  "9291715": {
    "zipcode": "9291715",
    "prefectureCode": "17",
    "prefectureNumber": 17,
    "prefecture": "石川県",
    "city": "鹿島郡中能登町",
    "town": "一青"
  },
  "9291716": {
    "zipcode": "9291716",
    "prefectureCode": "17",
    "prefectureNumber": 17,
    "prefecture": "石川県",
    "city": "鹿島郡中能登町",
    "town": "黒氏"
  },
  "9291717": {
    "zipcode": "9291717",
    "prefectureCode": "17",
    "prefectureNumber": 17,
    "prefecture": "石川県",
    "city": "鹿島郡中能登町",
    "town": "良川"
  },
  "9291721": {
    "zipcode": "9291721",
    "prefectureCode": "17",
    "prefectureNumber": 17,
    "prefecture": "石川県",
    "city": "鹿島郡中能登町",
    "town": "井田"
  },
  "9291722": {
    "zipcode": "9291722",
    "prefectureCode": "17",
    "prefectureNumber": 17,
    "prefecture": "石川県",
    "city": "鹿島郡中能登町",
    "town": "小竹"
  },
  "9291723": {
    "zipcode": "9291723",
    "prefectureCode": "17",
    "prefectureNumber": 17,
    "prefecture": "石川県",
    "city": "鹿島郡中能登町",
    "town": "水白"
  },
  "9291724": {
    "zipcode": "9291724",
    "prefectureCode": "17",
    "prefectureNumber": 17,
    "prefecture": "石川県",
    "city": "鹿島郡中能登町",
    "town": "尾崎"
  },
  "9291725": {
    "zipcode": "9291725",
    "prefectureCode": "17",
    "prefectureNumber": 17,
    "prefecture": "石川県",
    "city": "鹿島郡中能登町",
    "town": "東馬場"
  },
  "9291726": {
    "zipcode": "9291726",
    "prefectureCode": "17",
    "prefectureNumber": 17,
    "prefecture": "石川県",
    "city": "鹿島郡中能登町",
    "town": "最勝講"
  },
  "9291801": {
    "zipcode": "9291801",
    "prefectureCode": "17",
    "prefectureNumber": 17,
    "prefecture": "石川県",
    "city": "鹿島郡中能登町",
    "town": "久乃木"
  },
  "9291802": {
    "zipcode": "9291802",
    "prefectureCode": "17",
    "prefectureNumber": 17,
    "prefecture": "石川県",
    "city": "鹿島郡中能登町",
    "town": "武部"
  },
  "9291803": {
    "zipcode": "9291803",
    "prefectureCode": "17",
    "prefectureNumber": 17,
    "prefecture": "石川県",
    "city": "鹿島郡中能登町",
    "town": "西"
  },
  "9291804": {
    "zipcode": "9291804",
    "prefectureCode": "17",
    "prefectureNumber": 17,
    "prefecture": "石川県",
    "city": "鹿島郡中能登町",
    "town": "在江"
  },
  "9291805": {
    "zipcode": "9291805",
    "prefectureCode": "17",
    "prefectureNumber": 17,
    "prefecture": "石川県",
    "city": "鹿島郡中能登町",
    "town": "坪川"
  },
  "9291811": {
    "zipcode": "9291811",
    "prefectureCode": "17",
    "prefectureNumber": 17,
    "prefecture": "石川県",
    "city": "鹿島郡中能登町",
    "town": "二宮"
  },
  "9291812": {
    "zipcode": "9291812",
    "prefectureCode": "17",
    "prefectureNumber": 17,
    "prefecture": "石川県",
    "city": "鹿島郡中能登町",
    "town": "石動山"
  },
  "9291813": {
    "zipcode": "9291813",
    "prefectureCode": "17",
    "prefectureNumber": 17,
    "prefecture": "石川県",
    "city": "鹿島郡中能登町",
    "town": "蟻ケ原"
  },
  "9291814": {
    "zipcode": "9291814",
    "prefectureCode": "17",
    "prefectureNumber": 17,
    "prefecture": "石川県",
    "city": "鹿島郡中能登町",
    "town": "原山"
  },
  "9291815": {
    "zipcode": "9291815",
    "prefectureCode": "17",
    "prefectureNumber": 17,
    "prefecture": "石川県",
    "city": "鹿島郡中能登町",
    "town": "芹川"
  },
  "9291816": {
    "zipcode": "9291816",
    "prefectureCode": "17",
    "prefectureNumber": 17,
    "prefecture": "石川県",
    "city": "鹿島郡中能登町",
    "town": "浅井"
  },
  "9291817": {
    "zipcode": "9291817",
    "prefectureCode": "17",
    "prefectureNumber": 17,
    "prefecture": "石川県",
    "city": "鹿島郡中能登町",
    "town": "徳前"
  },
  "9291818": {
    "zipcode": "9291818",
    "prefectureCode": "17",
    "prefectureNumber": 17,
    "prefecture": "石川県",
    "city": "鹿島郡中能登町",
    "town": "二宮あおば台"
  },
  "9292101": {
    "zipcode": "9292101",
    "prefectureCode": "17",
    "prefectureNumber": 17,
    "prefecture": "石川県",
    "city": "七尾市",
    "town": "川尻町"
  },
  "9292102": {
    "zipcode": "9292102",
    "prefectureCode": "17",
    "prefectureNumber": 17,
    "prefecture": "石川県",
    "city": "七尾市",
    "town": "舟尾町"
  },
  "9292103": {
    "zipcode": "9292103",
    "prefectureCode": "17",
    "prefectureNumber": 17,
    "prefecture": "石川県",
    "city": "七尾市",
    "town": "東山町"
  },
  "9292104": {
    "zipcode": "9292104",
    "prefectureCode": "17",
    "prefectureNumber": 17,
    "prefecture": "石川県",
    "city": "七尾市",
    "town": "垣吉町"
  },
  "9292105": {
    "zipcode": "9292105",
    "prefectureCode": "17",
    "prefectureNumber": 17,
    "prefecture": "石川県",
    "city": "七尾市",
    "town": "新屋町"
  },
  "9292111": {
    "zipcode": "9292111",
    "prefectureCode": "17",
    "prefectureNumber": 17,
    "prefecture": "石川県",
    "city": "七尾市",
    "town": "高田町"
  },
  "9292112": {
    "zipcode": "9292112",
    "prefectureCode": "17",
    "prefectureNumber": 17,
    "prefecture": "石川県",
    "city": "七尾市",
    "town": "杉森町"
  },
  "9292113": {
    "zipcode": "9292113",
    "prefectureCode": "17",
    "prefectureNumber": 17,
    "prefecture": "石川県",
    "city": "七尾市",
    "town": "西下町"
  },
  "9292114": {
    "zipcode": "9292114",
    "prefectureCode": "17",
    "prefectureNumber": 17,
    "prefecture": "石川県",
    "city": "七尾市",
    "town": "伊久留町"
  },
  "9292115": {
    "zipcode": "9292115",
    "prefectureCode": "17",
    "prefectureNumber": 17,
    "prefecture": "石川県",
    "city": "七尾市",
    "town": "七原町"
  },
  "9292116": {
    "zipcode": "9292116",
    "prefectureCode": "17",
    "prefectureNumber": 17,
    "prefecture": "石川県",
    "city": "七尾市",
    "town": "吉田町"
  },
  "9292121": {
    "zipcode": "9292121",
    "prefectureCode": "17",
    "prefectureNumber": 17,
    "prefecture": "石川県",
    "city": "七尾市",
    "town": "田鶴浜町"
  },
  "9292122": {
    "zipcode": "9292122",
    "prefectureCode": "17",
    "prefectureNumber": 17,
    "prefecture": "石川県",
    "city": "七尾市",
    "town": "上野ケ丘町"
  },
  "9292123": {
    "zipcode": "9292123",
    "prefectureCode": "17",
    "prefectureNumber": 17,
    "prefecture": "石川県",
    "city": "七尾市",
    "town": "三引町"
  },
  "9292124": {
    "zipcode": "9292124",
    "prefectureCode": "17",
    "prefectureNumber": 17,
    "prefecture": "石川県",
    "city": "七尾市",
    "town": "白浜町"
  },
  "9292125": {
    "zipcode": "9292125",
    "prefectureCode": "17",
    "prefectureNumber": 17,
    "prefecture": "石川県",
    "city": "七尾市",
    "town": "深見町"
  },
  "9292126": {
    "zipcode": "9292126",
    "prefectureCode": "17",
    "prefectureNumber": 17,
    "prefecture": "石川県",
    "city": "七尾市",
    "town": "大津町"
  },
  "9292201": {
    "zipcode": "9292201",
    "prefectureCode": "17",
    "prefectureNumber": 17,
    "prefecture": "石川県",
    "city": "七尾市",
    "town": "中島町河内"
  },
  "9292202": {
    "zipcode": "9292202",
    "prefectureCode": "17",
    "prefectureNumber": 17,
    "prefecture": "石川県",
    "city": "七尾市",
    "town": "中島町別所"
  },
  "9292203": {
    "zipcode": "9292203",
    "prefectureCode": "17",
    "prefectureNumber": 17,
    "prefecture": "石川県",
    "city": "七尾市",
    "town": "中島町北免田"
  },
  "9292204": {
    "zipcode": "9292204",
    "prefectureCode": "17",
    "prefectureNumber": 17,
    "prefecture": "石川県",
    "city": "七尾市",
    "town": "中島町上畠"
  },
  "9292205": {
    "zipcode": "9292205",
    "prefectureCode": "17",
    "prefectureNumber": 17,
    "prefecture": "石川県",
    "city": "七尾市",
    "town": "中島町町屋"
  },
  "9292206": {
    "zipcode": "9292206",
    "prefectureCode": "17",
    "prefectureNumber": 17,
    "prefecture": "石川県",
    "city": "七尾市",
    "town": "中島町鳥越"
  },
  "9292207": {
    "zipcode": "9292207",
    "prefectureCode": "17",
    "prefectureNumber": 17,
    "prefecture": "石川県",
    "city": "七尾市",
    "town": "中島町大平"
  },
  "9292208": {
    "zipcode": "9292208",
    "prefectureCode": "17",
    "prefectureNumber": 17,
    "prefecture": "石川県",
    "city": "七尾市",
    "town": "中島町古江"
  },
  "9292209": {
    "zipcode": "9292209",
    "prefectureCode": "17",
    "prefectureNumber": 17,
    "prefecture": "石川県",
    "city": "七尾市",
    "town": "中島町西谷内"
  },
  "9292211": {
    "zipcode": "9292211",
    "prefectureCode": "17",
    "prefectureNumber": 17,
    "prefecture": "石川県",
    "city": "七尾市",
    "town": "中島町横見"
  },
  "9292212": {
    "zipcode": "9292212",
    "prefectureCode": "17",
    "prefectureNumber": 17,
    "prefecture": "石川県",
    "city": "七尾市",
    "town": "中島町田岸"
  },
  "9292213": {
    "zipcode": "9292213",
    "prefectureCode": "17",
    "prefectureNumber": 17,
    "prefecture": "石川県",
    "city": "七尾市",
    "town": "中島町外"
  },
  "9292214": {
    "zipcode": "9292214",
    "prefectureCode": "17",
    "prefectureNumber": 17,
    "prefecture": "石川県",
    "city": "七尾市",
    "town": "中島町小牧"
  },
  "9292215": {
    "zipcode": "9292215",
    "prefectureCode": "17",
    "prefectureNumber": 17,
    "prefecture": "石川県",
    "city": "七尾市",
    "town": "中島町深浦"
  },
  "9292216": {
    "zipcode": "9292216",
    "prefectureCode": "17",
    "prefectureNumber": 17,
    "prefecture": "石川県",
    "city": "七尾市",
    "town": "中島町長浦"
  },
  "9292217": {
    "zipcode": "9292217",
    "prefectureCode": "17",
    "prefectureNumber": 17,
    "prefecture": "石川県",
    "city": "七尾市",
    "town": "中島町鹿島台"
  },
  "9292218": {
    "zipcode": "9292218",
    "prefectureCode": "17",
    "prefectureNumber": 17,
    "prefecture": "石川県",
    "city": "七尾市",
    "town": "中島町瀬嵐"
  },
  "9292221": {
    "zipcode": "9292221",
    "prefectureCode": "17",
    "prefectureNumber": 17,
    "prefecture": "石川県",
    "city": "七尾市",
    "town": "中島町谷内"
  },
  "9292222": {
    "zipcode": "9292222",
    "prefectureCode": "17",
    "prefectureNumber": 17,
    "prefecture": "石川県",
    "city": "七尾市",
    "town": "中島町中島"
  },
  "9292223": {
    "zipcode": "9292223",
    "prefectureCode": "17",
    "prefectureNumber": 17,
    "prefecture": "石川県",
    "city": "七尾市",
    "town": "中島町上町"
  },
  "9292224": {
    "zipcode": "9292224",
    "prefectureCode": "17",
    "prefectureNumber": 17,
    "prefecture": "石川県",
    "city": "七尾市",
    "town": "中島町山戸田"
  },
  "9292225": {
    "zipcode": "9292225",
    "prefectureCode": "17",
    "prefectureNumber": 17,
    "prefecture": "石川県",
    "city": "七尾市",
    "town": "中島町宮前"
  },
  "9292226": {
    "zipcode": "9292226",
    "prefectureCode": "17",
    "prefectureNumber": 17,
    "prefecture": "石川県",
    "city": "七尾市",
    "town": "中島町横田"
  },
  "9292227": {
    "zipcode": "9292227",
    "prefectureCode": "17",
    "prefectureNumber": 17,
    "prefecture": "石川県",
    "city": "七尾市",
    "town": "中島町藤瀬"
  },
  "9292231": {
    "zipcode": "9292231",
    "prefectureCode": "17",
    "prefectureNumber": 17,
    "prefecture": "石川県",
    "city": "七尾市",
    "town": "中島町奥吉田"
  },
  "9292232": {
    "zipcode": "9292232",
    "prefectureCode": "17",
    "prefectureNumber": 17,
    "prefecture": "石川県",
    "city": "七尾市",
    "town": "中島町筆染"
  },
  "9292233": {
    "zipcode": "9292233",
    "prefectureCode": "17",
    "prefectureNumber": 17,
    "prefecture": "石川県",
    "city": "七尾市",
    "town": "中島町笠師"
  },
  "9292234": {
    "zipcode": "9292234",
    "prefectureCode": "17",
    "prefectureNumber": 17,
    "prefecture": "石川県",
    "city": "七尾市",
    "town": "中島町塩津"
  },
  "9292241": {
    "zipcode": "9292241",
    "prefectureCode": "17",
    "prefectureNumber": 17,
    "prefecture": "石川県",
    "city": "七尾市",
    "town": "中島町浜田"
  },
  "9292242": {
    "zipcode": "9292242",
    "prefectureCode": "17",
    "prefectureNumber": 17,
    "prefecture": "石川県",
    "city": "七尾市",
    "town": "中島町崎山"
  },
  "9292243": {
    "zipcode": "9292243",
    "prefectureCode": "17",
    "prefectureNumber": 17,
    "prefecture": "石川県",
    "city": "七尾市",
    "town": "中島町河崎"
  },
  "9292244": {
    "zipcode": "9292244",
    "prefectureCode": "17",
    "prefectureNumber": 17,
    "prefecture": "石川県",
    "city": "七尾市",
    "town": "中島町豊田町"
  },
  "9292245": {
    "zipcode": "9292245",
    "prefectureCode": "17",
    "prefectureNumber": 17,
    "prefecture": "石川県",
    "city": "七尾市",
    "town": "中島町豊田"
  },
  "9292246": {
    "zipcode": "9292246",
    "prefectureCode": "17",
    "prefectureNumber": 17,
    "prefecture": "石川県",
    "city": "七尾市",
    "town": "中島町土川"
  },
  "9292247": {
    "zipcode": "9292247",
    "prefectureCode": "17",
    "prefectureNumber": 17,
    "prefecture": "石川県",
    "city": "七尾市",
    "town": "中島町外原"
  },
  "9292361": {
    "zipcode": "9292361",
    "prefectureCode": "17",
    "prefectureNumber": 17,
    "prefecture": "石川県",
    "city": "輪島市",
    "town": "三井町与呂見"
  },
  "9292362": {
    "zipcode": "9292362",
    "prefectureCode": "17",
    "prefectureNumber": 17,
    "prefecture": "石川県",
    "city": "輪島市",
    "town": "三井町中"
  },
  "9292363": {
    "zipcode": "9292363",
    "prefectureCode": "17",
    "prefectureNumber": 17,
    "prefecture": "石川県",
    "city": "輪島市",
    "town": "三井町興徳寺"
  },
  "9292364": {
    "zipcode": "9292364",
    "prefectureCode": "17",
    "prefectureNumber": 17,
    "prefecture": "石川県",
    "city": "輪島市",
    "town": "大和町"
  },
  "9292365": {
    "zipcode": "9292365",
    "prefectureCode": "17",
    "prefectureNumber": 17,
    "prefecture": "石川県",
    "city": "輪島市",
    "town": "三井町渡合"
  },
  "9292366": {
    "zipcode": "9292366",
    "prefectureCode": "17",
    "prefectureNumber": 17,
    "prefecture": "石川県",
    "city": "輪島市",
    "town": "三井町本江"
  },
  "9292367": {
    "zipcode": "9292367",
    "prefectureCode": "17",
    "prefectureNumber": 17,
    "prefecture": "石川県",
    "city": "輪島市",
    "town": "三井町仁行"
  },
  "9292371": {
    "zipcode": "9292371",
    "prefectureCode": "17",
    "prefectureNumber": 17,
    "prefecture": "石川県",
    "city": "輪島市",
    "town": "三井町三洲穂"
  },
  "9292372": {
    "zipcode": "9292372",
    "prefectureCode": "17",
    "prefectureNumber": 17,
    "prefecture": "石川県",
    "city": "輪島市",
    "town": "三井町洲衛"
  },
  "9292373": {
    "zipcode": "9292373",
    "prefectureCode": "17",
    "prefectureNumber": 17,
    "prefecture": "石川県",
    "city": "輪島市",
    "town": "三井町市ノ坂"
  },
  "9292374": {
    "zipcode": "9292374",
    "prefectureCode": "17",
    "prefectureNumber": 17,
    "prefecture": "石川県",
    "city": "輪島市",
    "town": "三井町内屋"
  },
  "9292375": {
    "zipcode": "9292375",
    "prefectureCode": "17",
    "prefectureNumber": 17,
    "prefecture": "石川県",
    "city": "輪島市",
    "town": "三井町細屋"
  },
  "9292376": {
    "zipcode": "9292376",
    "prefectureCode": "17",
    "prefectureNumber": 17,
    "prefecture": "石川県",
    "city": "輪島市",
    "town": "三井町新保"
  },
  "9292377": {
    "zipcode": "9292377",
    "prefectureCode": "17",
    "prefectureNumber": 17,
    "prefecture": "石川県",
    "city": "輪島市",
    "town": "三井町漆原"
  },
  "9292378": {
    "zipcode": "9292378",
    "prefectureCode": "17",
    "prefectureNumber": 17,
    "prefecture": "石川県",
    "city": "輪島市",
    "town": "三井町小泉"
  },
  "9292379": {
    "zipcode": "9292379",
    "prefectureCode": "17",
    "prefectureNumber": 17,
    "prefecture": "石川県",
    "city": "輪島市",
    "town": "三井町長沢"
  }
}
