{
  "9320000": {
    "zipcode": "9320000",
    "prefectureCode": "16",
    "prefectureNumber": 16,
    "prefecture": "富山県",
    "city": "小矢部市",
    "town": "以下に掲載がない場合"
  },
  "9320001": {
    "zipcode": "9320001",
    "prefectureCode": "16",
    "prefectureNumber": 16,
    "prefecture": "富山県",
    "city": "小矢部市",
    "town": "久利須"
  },
  "9320002": {
    "zipcode": "9320002",
    "prefectureCode": "16",
    "prefectureNumber": 16,
    "prefecture": "富山県",
    "city": "小矢部市",
    "town": "森屋"
  },
  "9320003": {
    "zipcode": "9320003",
    "prefectureCode": "16",
    "prefectureNumber": 16,
    "prefecture": "富山県",
    "city": "小矢部市",
    "town": "北屋敷"
  },
  "9320004": {
    "zipcode": "9320004",
    "prefectureCode": "16",
    "prefectureNumber": 16,
    "prefecture": "富山県",
    "city": "小矢部市",
    "town": "二ノ滝"
  },
  "9320005": {
    "zipcode": "9320005",
    "prefectureCode": "16",
    "prefectureNumber": 16,
    "prefecture": "富山県",
    "city": "小矢部市",
    "town": "下屋敷"
  },
  "9320006": {
    "zipcode": "9320006",
    "prefectureCode": "16",
    "prefectureNumber": 16,
    "prefecture": "富山県",
    "city": "小矢部市",
    "town": "高坂"
  },
  "9320007": {
    "zipcode": "9320007",
    "prefectureCode": "16",
    "prefectureNumber": 16,
    "prefecture": "富山県",
    "city": "小矢部市",
    "town": "名ケ滝"
  },
  "9320008": {
    "zipcode": "9320008",
    "prefectureCode": "16",
    "prefectureNumber": 16,
    "prefecture": "富山県",
    "city": "小矢部市",
    "town": "菅ケ原"
  },
  "9320011": {
    "zipcode": "9320011",
    "prefectureCode": "16",
    "prefectureNumber": 16,
    "prefecture": "富山県",
    "city": "小矢部市",
    "town": "原牧"
  },
  "9320012": {
    "zipcode": "9320012",
    "prefectureCode": "16",
    "prefectureNumber": 16,
    "prefecture": "富山県",
    "city": "小矢部市",
    "town": "嶺"
  },
  "9320013": {
    "zipcode": "9320013",
    "prefectureCode": "16",
    "prefectureNumber": 16,
    "prefecture": "富山県",
    "city": "小矢部市",
    "town": "清原"
  },
  "9320014": {
    "zipcode": "9320014",
    "prefectureCode": "16",
    "prefectureNumber": 16,
    "prefecture": "富山県",
    "city": "小矢部市",
    "town": "岩崎"
  },
  "9320015": {
    "zipcode": "9320015",
    "prefectureCode": "16",
    "prefectureNumber": 16,
    "prefecture": "富山県",
    "city": "小矢部市",
    "town": "矢波"
  },
  "9320016": {
    "zipcode": "9320016",
    "prefectureCode": "16",
    "prefectureNumber": 16,
    "prefecture": "富山県",
    "city": "小矢部市",
    "town": "糠子島"
  },
  "9320017": {
    "zipcode": "9320017",
    "prefectureCode": "16",
    "prefectureNumber": 16,
    "prefecture": "富山県",
    "city": "小矢部市",
    "town": "了輪"
  },
  "9320018": {
    "zipcode": "9320018",
    "prefectureCode": "16",
    "prefectureNumber": 16,
    "prefecture": "富山県",
    "city": "小矢部市",
    "town": "別所滝"
  },
  "9320021": {
    "zipcode": "9320021",
    "prefectureCode": "16",
    "prefectureNumber": 16,
    "prefecture": "富山県",
    "city": "小矢部市",
    "town": "田川"
  },
  "9320022": {
    "zipcode": "9320022",
    "prefectureCode": "16",
    "prefectureNumber": 16,
    "prefecture": "富山県",
    "city": "小矢部市",
    "town": "桜町"
  },
  "9320023": {
    "zipcode": "9320023",
    "prefectureCode": "16",
    "prefectureNumber": 16,
    "prefecture": "富山県",
    "city": "小矢部市",
    "town": "横谷"
  },
  "9320024": {
    "zipcode": "9320024",
    "prefectureCode": "16",
    "prefectureNumber": 16,
    "prefecture": "富山県",
    "city": "小矢部市",
    "town": "屋波牧"
  },
  "9320025": {
    "zipcode": "9320025",
    "prefectureCode": "16",
    "prefectureNumber": 16,
    "prefecture": "富山県",
    "city": "小矢部市",
    "town": "宮中"
  },
  "9320026": {
    "zipcode": "9320026",
    "prefectureCode": "16",
    "prefectureNumber": 16,
    "prefecture": "富山県",
    "city": "小矢部市",
    "town": "宮須"
  },
  "9320027": {
    "zipcode": "9320027",
    "prefectureCode": "16",
    "prefectureNumber": 16,
    "prefecture": "富山県",
    "city": "小矢部市",
    "town": "法楽寺"
  },
  "9320028": {
    "zipcode": "9320028",
    "prefectureCode": "16",
    "prefectureNumber": 16,
    "prefecture": "富山県",
    "city": "小矢部市",
    "town": "畠中"
  },
  "9320031": {
    "zipcode": "9320031",
    "prefectureCode": "16",
    "prefectureNumber": 16,
    "prefecture": "富山県",
    "city": "小矢部市",
    "town": "岡"
  },
  "9320032": {
    "zipcode": "9320032",
    "prefectureCode": "16",
    "prefectureNumber": 16,
    "prefecture": "富山県",
    "city": "小矢部市",
    "town": "地崎"
  },
  "9320033": {
    "zipcode": "9320033",
    "prefectureCode": "16",
    "prefectureNumber": 16,
    "prefecture": "富山県",
    "city": "小矢部市",
    "town": "芹川"
  },
  "9320034": {
    "zipcode": "9320034",
    "prefectureCode": "16",
    "prefectureNumber": 16,
    "prefecture": "富山県",
    "city": "小矢部市",
    "town": "坂又"
  },
  "9320035": {
    "zipcode": "9320035",
    "prefectureCode": "16",
    "prefectureNumber": 16,
    "prefecture": "富山県",
    "city": "小矢部市",
    "town": "西中野"
  },
  "9320036": {
    "zipcode": "9320036",
    "prefectureCode": "16",
    "prefectureNumber": 16,
    "prefecture": "富山県",
    "city": "小矢部市",
    "town": "宇治新"
  },
  "9320037": {
    "zipcode": "9320037",
    "prefectureCode": "16",
    "prefectureNumber": 16,
    "prefecture": "富山県",
    "city": "小矢部市",
    "town": "石王丸"
  },
  "9320041": {
    "zipcode": "9320041",
    "prefectureCode": "16",
    "prefectureNumber": 16,
    "prefecture": "富山県",
    "city": "小矢部市",
    "town": "東福町"
  },
  "9320042": {
    "zipcode": "9320042",
    "prefectureCode": "16",
    "prefectureNumber": 16,
    "prefecture": "富山県",
    "city": "小矢部市",
    "town": "西福町"
  },
  "9320043": {
    "zipcode": "9320043",
    "prefectureCode": "16",
    "prefectureNumber": 16,
    "prefecture": "富山県",
    "city": "小矢部市",
    "town": "畠中町"
  },
  "9320044": {
    "zipcode": "9320044",
    "prefectureCode": "16",
    "prefectureNumber": 16,
    "prefecture": "富山県",
    "city": "小矢部市",
    "town": "新富町"
  },
  "9320045": {
    "zipcode": "9320045",
    "prefectureCode": "16",
    "prefectureNumber": 16,
    "prefecture": "富山県",
    "city": "小矢部市",
    "town": "中央町"
  },
  "9320046": {
    "zipcode": "9320046",
    "prefectureCode": "16",
    "prefectureNumber": 16,
    "prefecture": "富山県",
    "city": "小矢部市",
    "town": "観音町"
  },
  "9320047": {
    "zipcode": "9320047",
    "prefectureCode": "16",
    "prefectureNumber": 16,
    "prefecture": "富山県",
    "city": "小矢部市",
    "town": "城山町"
  },
  "9320048": {
    "zipcode": "9320048",
    "prefectureCode": "16",
    "prefectureNumber": 16,
    "prefecture": "富山県",
    "city": "小矢部市",
    "town": "八和町"
  },
  "9320051": {
    "zipcode": "9320051",
    "prefectureCode": "16",
    "prefectureNumber": 16,
    "prefecture": "富山県",
    "city": "小矢部市",
    "town": "今石動町"
  },
  "9320052": {
    "zipcode": "9320052",
    "prefectureCode": "16",
    "prefectureNumber": 16,
    "prefecture": "富山県",
    "city": "小矢部市",
    "town": "泉町"
  },
  "9320053": {
    "zipcode": "9320053",
    "prefectureCode": "16",
    "prefectureNumber": 16,
    "prefecture": "富山県",
    "city": "小矢部市",
    "town": "石動町"
  },
  "9320054": {
    "zipcode": "9320054",
    "prefectureCode": "16",
    "prefectureNumber": 16,
    "prefecture": "富山県",
    "city": "小矢部市",
    "town": "上野本"
  },
  "9320055": {
    "zipcode": "9320055",
    "prefectureCode": "16",
    "prefectureNumber": 16,
    "prefecture": "富山県",
    "city": "小矢部市",
    "town": "西町"
  },
  "9320056": {
    "zipcode": "9320056",
    "prefectureCode": "16",
    "prefectureNumber": 16,
    "prefecture": "富山県",
    "city": "小矢部市",
    "town": "小矢部"
  },
  "9320057": {
    "zipcode": "9320057",
    "prefectureCode": "16",
    "prefectureNumber": 16,
    "prefecture": "富山県",
    "city": "小矢部市",
    "town": "本町"
  },
  "9320058": {
    "zipcode": "9320058",
    "prefectureCode": "16",
    "prefectureNumber": 16,
    "prefecture": "富山県",
    "city": "小矢部市",
    "town": "小矢部町"
  },
  "9320061": {
    "zipcode": "9320061",
    "prefectureCode": "16",
    "prefectureNumber": 16,
    "prefecture": "富山県",
    "city": "小矢部市",
    "town": "道坪野"
  },
  "9320062": {
    "zipcode": "9320062",
    "prefectureCode": "16",
    "prefectureNumber": 16,
    "prefecture": "富山県",
    "city": "小矢部市",
    "town": "安楽寺"
  },
  "9320063": {
    "zipcode": "9320063",
    "prefectureCode": "16",
    "prefectureNumber": 16,
    "prefecture": "富山県",
    "city": "小矢部市",
    "town": "峰坪野"
  },
  "9320064": {
    "zipcode": "9320064",
    "prefectureCode": "16",
    "prefectureNumber": 16,
    "prefecture": "富山県",
    "city": "小矢部市",
    "town": "谷坪野"
  },
  "9320065": {
    "zipcode": "9320065",
    "prefectureCode": "16",
    "prefectureNumber": 16,
    "prefecture": "富山県",
    "city": "小矢部市",
    "town": "論田"
  },
  "9320071": {
    "zipcode": "9320071",
    "prefectureCode": "16",
    "prefectureNumber": 16,
    "prefecture": "富山県",
    "city": "小矢部市",
    "town": "荒間"
  },
  "9320072": {
    "zipcode": "9320072",
    "prefectureCode": "16",
    "prefectureNumber": 16,
    "prefecture": "富山県",
    "city": "小矢部市",
    "town": "峠"
  },
  "9320073": {
    "zipcode": "9320073",
    "prefectureCode": "16",
    "prefectureNumber": 16,
    "prefecture": "富山県",
    "city": "小矢部市",
    "town": "岩尾滝"
  },
  "9320074": {
    "zipcode": "9320074",
    "prefectureCode": "16",
    "prefectureNumber": 16,
    "prefecture": "富山県",
    "city": "小矢部市",
    "town": "千石"
  },
  "9320075": {
    "zipcode": "9320075",
    "prefectureCode": "16",
    "prefectureNumber": 16,
    "prefecture": "富山県",
    "city": "小矢部市",
    "town": "嘉例谷"
  },
  "9320101": {
    "zipcode": "9320101",
    "prefectureCode": "16",
    "prefectureNumber": 16,
    "prefecture": "富山県",
    "city": "小矢部市",
    "town": "下後亟"
  },
  "9320102": {
    "zipcode": "9320102",
    "prefectureCode": "16",
    "prefectureNumber": 16,
    "prefecture": "富山県",
    "city": "小矢部市",
    "town": "水島"
  },
  "9320103": {
    "zipcode": "9320103",
    "prefectureCode": "16",
    "prefectureNumber": 16,
    "prefecture": "富山県",
    "city": "小矢部市",
    "town": "経田"
  },
  "9320104": {
    "zipcode": "9320104",
    "prefectureCode": "16",
    "prefectureNumber": 16,
    "prefecture": "富山県",
    "city": "小矢部市",
    "town": "西川原"
  },
  "9320105": {
    "zipcode": "9320105",
    "prefectureCode": "16",
    "prefectureNumber": 16,
    "prefecture": "富山県",
    "city": "小矢部市",
    "town": "胡麻島"
  },
  "9320106": {
    "zipcode": "9320106",
    "prefectureCode": "16",
    "prefectureNumber": 16,
    "prefecture": "富山県",
    "city": "小矢部市",
    "town": "内御堂"
  },
  "9320111": {
    "zipcode": "9320111",
    "prefectureCode": "16",
    "prefectureNumber": 16,
    "prefecture": "富山県",
    "city": "小矢部市",
    "town": "新西"
  },
  "9320112": {
    "zipcode": "9320112",
    "prefectureCode": "16",
    "prefectureNumber": 16,
    "prefecture": "富山県",
    "city": "小矢部市",
    "town": "清沢"
  },
  "9320113": {
    "zipcode": "9320113",
    "prefectureCode": "16",
    "prefectureNumber": 16,
    "prefecture": "富山県",
    "city": "小矢部市",
    "town": "岩武"
  },
  "9320114": {
    "zipcode": "9320114",
    "prefectureCode": "16",
    "prefectureNumber": 16,
    "prefecture": "富山県",
    "city": "小矢部市",
    "town": "清水"
  },
  "9320115": {
    "zipcode": "9320115",
    "prefectureCode": "16",
    "prefectureNumber": 16,
    "prefecture": "富山県",
    "city": "小矢部市",
    "town": "津沢"
  },
  "9320116": {
    "zipcode": "9320116",
    "prefectureCode": "16",
    "prefectureNumber": 16,
    "prefecture": "富山県",
    "city": "小矢部市",
    "town": "西島"
  },
  "9320121": {
    "zipcode": "9320121",
    "prefectureCode": "16",
    "prefectureNumber": 16,
    "prefecture": "富山県",
    "city": "小矢部市",
    "town": "矢水町"
  },
  "9320122": {
    "zipcode": "9320122",
    "prefectureCode": "16",
    "prefectureNumber": 16,
    "prefecture": "富山県",
    "city": "小矢部市",
    "town": "浅地"
  },
  "9320123": {
    "zipcode": "9320123",
    "prefectureCode": "16",
    "prefectureNumber": 16,
    "prefecture": "富山県",
    "city": "小矢部市",
    "town": "高木"
  },
  "9320124": {
    "zipcode": "9320124",
    "prefectureCode": "16",
    "prefectureNumber": 16,
    "prefecture": "富山県",
    "city": "小矢部市",
    "town": "蓑輪"
  },
  "9320125": {
    "zipcode": "9320125",
    "prefectureCode": "16",
    "prefectureNumber": 16,
    "prefecture": "富山県",
    "city": "小矢部市",
    "town": "鴨島"
  },
  "9320126": {
    "zipcode": "9320126",
    "prefectureCode": "16",
    "prefectureNumber": 16,
    "prefecture": "富山県",
    "city": "小矢部市",
    "town": "下川崎"
  },
  "9320127": {
    "zipcode": "9320127",
    "prefectureCode": "16",
    "prefectureNumber": 16,
    "prefecture": "富山県",
    "city": "小矢部市",
    "town": "興法寺"
  },
  "9320128": {
    "zipcode": "9320128",
    "prefectureCode": "16",
    "prefectureNumber": 16,
    "prefecture": "富山県",
    "city": "小矢部市",
    "town": "戸久"
  },
  "9320129": {
    "zipcode": "9320129",
    "prefectureCode": "16",
    "prefectureNumber": 16,
    "prefecture": "富山県",
    "city": "小矢部市",
    "town": "安養寺"
  },
  "9320131": {
    "zipcode": "9320131",
    "prefectureCode": "16",
    "prefectureNumber": 16,
    "prefecture": "富山県",
    "city": "小矢部市",
    "town": "名畑"
  },
  "9320132": {
    "zipcode": "9320132",
    "prefectureCode": "16",
    "prefectureNumber": 16,
    "prefecture": "富山県",
    "city": "小矢部市",
    "town": "杉谷内"
  },
  "9320133": {
    "zipcode": "9320133",
    "prefectureCode": "16",
    "prefectureNumber": 16,
    "prefecture": "富山県",
    "city": "小矢部市",
    "town": "小森谷"
  },
  "9320134": {
    "zipcode": "9320134",
    "prefectureCode": "16",
    "prefectureNumber": 16,
    "prefecture": "富山県",
    "city": "小矢部市",
    "town": "平桜"
  },
  "9320135": {
    "zipcode": "9320135",
    "prefectureCode": "16",
    "prefectureNumber": 16,
    "prefecture": "富山県",
    "city": "小矢部市",
    "town": "藤森"
  },
  "9320136": {
    "zipcode": "9320136",
    "prefectureCode": "16",
    "prefectureNumber": 16,
    "prefecture": "富山県",
    "city": "小矢部市",
    "town": "平田"
  },
  "9320137": {
    "zipcode": "9320137",
    "prefectureCode": "16",
    "prefectureNumber": 16,
    "prefecture": "富山県",
    "city": "小矢部市",
    "town": "渋江"
  },
  "9320201": {
    "zipcode": "9320201",
    "prefectureCode": "16",
    "prefectureNumber": 16,
    "prefecture": "富山県",
    "city": "南砺市",
    "town": "高屋"
  },
  "9320202": {
    "zipcode": "9320202",
    "prefectureCode": "16",
    "prefectureNumber": 16,
    "prefecture": "富山県",
    "city": "南砺市",
    "town": "清水明"
  },
  "9320203": {
    "zipcode": "9320203",
    "prefectureCode": "16",
    "prefectureNumber": 16,
    "prefecture": "富山県",
    "city": "南砺市",
    "town": "岩屋"
  },
  "9320204": {
    "zipcode": "9320204",
    "prefectureCode": "16",
    "prefectureNumber": 16,
    "prefecture": "富山県",
    "city": "南砺市",
    "town": "飛騨屋"
  },
  "9320205": {
    "zipcode": "9320205",
    "prefectureCode": "16",
    "prefectureNumber": 16,
    "prefecture": "富山県",
    "city": "南砺市",
    "town": "井波軸屋"
  },
  "9320206": {
    "zipcode": "9320206",
    "prefectureCode": "16",
    "prefectureNumber": 16,
    "prefecture": "富山県",
    "city": "南砺市",
    "town": "利屋"
  },
  "9320207": {
    "zipcode": "9320207",
    "prefectureCode": "16",
    "prefectureNumber": 16,
    "prefecture": "富山県",
    "city": "南砺市",
    "town": "専勝寺"
  },
  "9320211": {
    "zipcode": "9320211",
    "prefectureCode": "16",
    "prefectureNumber": 16,
    "prefecture": "富山県",
    "city": "南砺市",
    "town": "井波"
  },
  "9320212": {
    "zipcode": "9320212",
    "prefectureCode": "16",
    "prefectureNumber": 16,
    "prefecture": "富山県",
    "city": "南砺市",
    "town": "山斐"
  },
  "9320213": {
    "zipcode": "9320213",
    "prefectureCode": "16",
    "prefectureNumber": 16,
    "prefecture": "富山県",
    "city": "南砺市",
    "town": "井波栄町"
  },
  "9320214": {
    "zipcode": "9320214",
    "prefectureCode": "16",
    "prefectureNumber": 16,
    "prefecture": "富山県",
    "city": "南砺市",
    "town": "今町"
  },
  "9320215": {
    "zipcode": "9320215",
    "prefectureCode": "16",
    "prefectureNumber": 16,
    "prefecture": "富山県",
    "city": "南砺市",
    "town": "山下"
  },
  "9320216": {
    "zipcode": "9320216",
    "prefectureCode": "16",
    "prefectureNumber": 16,
    "prefecture": "富山県",
    "city": "南砺市",
    "town": "井波末広町"
  },
  "9320217": {
    "zipcode": "9320217",
    "prefectureCode": "16",
    "prefectureNumber": 16,
    "prefecture": "富山県",
    "city": "南砺市",
    "town": "本町"
  },
  "9320218": {
    "zipcode": "9320218",
    "prefectureCode": "16",
    "prefectureNumber": 16,
    "prefecture": "富山県",
    "city": "南砺市",
    "town": "坪野"
  },
  "9320221": {
    "zipcode": "9320221",
    "prefectureCode": "16",
    "prefectureNumber": 16,
    "prefecture": "富山県",
    "city": "南砺市",
    "town": "木崎野"
  },
  "9320222": {
    "zipcode": "9320222",
    "prefectureCode": "16",
    "prefectureNumber": 16,
    "prefecture": "富山県",
    "city": "南砺市",
    "town": "坂ノ下"
  },
  "9320223": {
    "zipcode": "9320223",
    "prefectureCode": "16",
    "prefectureNumber": 16,
    "prefecture": "富山県",
    "city": "南砺市",
    "town": "松島"
  },
  "9320224": {
    "zipcode": "9320224",
    "prefectureCode": "16",
    "prefectureNumber": 16,
    "prefecture": "富山県",
    "city": "南砺市",
    "town": "藤橋"
  },
  "9320225": {
    "zipcode": "9320225",
    "prefectureCode": "16",
    "prefectureNumber": 16,
    "prefecture": "富山県",
    "city": "南砺市",
    "town": "畑方"
  },
  "9320226": {
    "zipcode": "9320226",
    "prefectureCode": "16",
    "prefectureNumber": 16,
    "prefecture": "富山県",
    "city": "南砺市",
    "town": "北川"
  },
  "9320227": {
    "zipcode": "9320227",
    "prefectureCode": "16",
    "prefectureNumber": 16,
    "prefecture": "富山県",
    "city": "南砺市",
    "town": "北新町"
  },
  "9320228": {
    "zipcode": "9320228",
    "prefectureCode": "16",
    "prefectureNumber": 16,
    "prefecture": "富山県",
    "city": "南砺市",
    "town": "井波東町"
  },
  "9320231": {
    "zipcode": "9320231",
    "prefectureCode": "16",
    "prefectureNumber": 16,
    "prefecture": "富山県",
    "city": "南砺市",
    "town": "山見"
  },
  "9320232": {
    "zipcode": "9320232",
    "prefectureCode": "16",
    "prefectureNumber": 16,
    "prefecture": "富山県",
    "city": "南砺市",
    "town": "京願町"
  },
  "9320233": {
    "zipcode": "9320233",
    "prefectureCode": "16",
    "prefectureNumber": 16,
    "prefecture": "富山県",
    "city": "南砺市",
    "town": "堀道"
  },
  "9320234": {
    "zipcode": "9320234",
    "prefectureCode": "16",
    "prefectureNumber": 16,
    "prefecture": "富山県",
    "city": "南砺市",
    "town": "八日町"
  },
  "9320235": {
    "zipcode": "9320235",
    "prefectureCode": "16",
    "prefectureNumber": 16,
    "prefecture": "富山県",
    "city": "南砺市",
    "town": "六日町"
  },
  "9320236": {
    "zipcode": "9320236",
    "prefectureCode": "16",
    "prefectureNumber": 16,
    "prefecture": "富山県",
    "city": "南砺市",
    "town": "三日町"
  },
  "9320237": {
    "zipcode": "9320237",
    "prefectureCode": "16",
    "prefectureNumber": 16,
    "prefecture": "富山県",
    "city": "南砺市",
    "town": "山見町並"
  },
  "9320238": {
    "zipcode": "9320238",
    "prefectureCode": "16",
    "prefectureNumber": 16,
    "prefecture": "富山県",
    "city": "南砺市",
    "town": "下新町"
  },
  "9320241": {
    "zipcode": "9320241",
    "prefectureCode": "16",
    "prefectureNumber": 16,
    "prefecture": "富山県",
    "city": "南砺市",
    "town": "川原崎"
  },
  "9320242": {
    "zipcode": "9320242",
    "prefectureCode": "16",
    "prefectureNumber": 16,
    "prefecture": "富山県",
    "city": "南砺市",
    "town": "谷"
  },
  "9320243": {
    "zipcode": "9320243",
    "prefectureCode": "16",
    "prefectureNumber": 16,
    "prefecture": "富山県",
    "city": "南砺市",
    "town": "志観寺"
  },
  "9320244": {
    "zipcode": "9320244",
    "prefectureCode": "16",
    "prefectureNumber": 16,
    "prefecture": "富山県",
    "city": "南砺市",
    "town": "連代寺"
  },
  "9320245": {
    "zipcode": "9320245",
    "prefectureCode": "16",
    "prefectureNumber": 16,
    "prefecture": "富山県",
    "city": "南砺市",
    "town": "清玄寺"
  },
  "9320246": {
    "zipcode": "9320246",
    "prefectureCode": "16",
    "prefectureNumber": 16,
    "prefecture": "富山県",
    "city": "南砺市",
    "town": "東城寺"
  },
  "9320247": {
    "zipcode": "9320247",
    "prefectureCode": "16",
    "prefectureNumber": 16,
    "prefecture": "富山県",
    "city": "南砺市",
    "town": "院瀬見"
  },
  "9320248": {
    "zipcode": "9320248",
    "prefectureCode": "16",
    "prefectureNumber": 16,
    "prefecture": "富山県",
    "city": "南砺市",
    "town": "沖"
  },
  "9320251": {
    "zipcode": "9320251",
    "prefectureCode": "16",
    "prefectureNumber": 16,
    "prefecture": "富山県",
    "city": "南砺市",
    "town": "野能原"
  },
  "9320252": {
    "zipcode": "9320252",
    "prefectureCode": "16",
    "prefectureNumber": 16,
    "prefecture": "富山県",
    "city": "南砺市",
    "town": "高瀬"
  },
  "9320253": {
    "zipcode": "9320253",
    "prefectureCode": "16",
    "prefectureNumber": 16,
    "prefecture": "富山県",
    "city": "南砺市",
    "town": "戸板"
  },
  "9320254": {
    "zipcode": "9320254",
    "prefectureCode": "16",
    "prefectureNumber": 16,
    "prefecture": "富山県",
    "city": "南砺市",
    "town": "五領"
  },
  "9320255": {
    "zipcode": "9320255",
    "prefectureCode": "16",
    "prefectureNumber": 16,
    "prefecture": "富山県",
    "city": "南砺市",
    "town": "五領島"
  },
  "9320256": {
    "zipcode": "9320256",
    "prefectureCode": "16",
    "prefectureNumber": 16,
    "prefecture": "富山県",
    "city": "南砺市",
    "town": "今里"
  },
  "9320257": {
    "zipcode": "9320257",
    "prefectureCode": "16",
    "prefectureNumber": 16,
    "prefecture": "富山県",
    "city": "南砺市",
    "town": "北市"
  },
  "9320258": {
    "zipcode": "9320258",
    "prefectureCode": "16",
    "prefectureNumber": 16,
    "prefecture": "富山県",
    "city": "南砺市",
    "town": "三清東"
  },
  "9320301": {
    "zipcode": "9320301",
    "prefectureCode": "16",
    "prefectureNumber": 16,
    "prefecture": "富山県",
    "city": "砺波市",
    "town": "庄川町三谷"
  },
  "9320302": {
    "zipcode": "9320302",
    "prefectureCode": "16",
    "prefectureNumber": 16,
    "prefecture": "富山県",
    "city": "砺波市",
    "town": "庄川町庄"
  },
  "9320303": {
    "zipcode": "9320303",
    "prefectureCode": "16",
    "prefectureNumber": 16,
    "prefecture": "富山県",
    "city": "砺波市",
    "town": "庄川町横住"
  },
  "9320304": {
    "zipcode": "9320304",
    "prefectureCode": "16",
    "prefectureNumber": 16,
    "prefecture": "富山県",
    "city": "砺波市",
    "town": "庄川町前山"
  },
  "9320305": {
    "zipcode": "9320305",
    "prefectureCode": "16",
    "prefectureNumber": 16,
    "prefecture": "富山県",
    "city": "砺波市",
    "town": "庄川町金屋"
  },
  "9320311": {
    "zipcode": "9320311",
    "prefectureCode": "16",
    "prefectureNumber": 16,
    "prefecture": "富山県",
    "city": "砺波市",
    "town": "庄川町古上野"
  },
  "9320312": {
    "zipcode": "9320312",
    "prefectureCode": "16",
    "prefectureNumber": 16,
    "prefecture": "富山県",
    "city": "砺波市",
    "town": "庄川町高儀新"
  },
  "9320313": {
    "zipcode": "9320313",
    "prefectureCode": "16",
    "prefectureNumber": 16,
    "prefecture": "富山県",
    "city": "砺波市",
    "town": "庄川町五ケ"
  },
  "9320314": {
    "zipcode": "9320314",
    "prefectureCode": "16",
    "prefectureNumber": 16,
    "prefecture": "富山県",
    "city": "砺波市",
    "town": "庄川町青島"
  },
  "9320315": {
    "zipcode": "9320315",
    "prefectureCode": "16",
    "prefectureNumber": 16,
    "prefecture": "富山県",
    "city": "砺波市",
    "town": "庄川町示野"
  },
  "9320316": {
    "zipcode": "9320316",
    "prefectureCode": "16",
    "prefectureNumber": 16,
    "prefecture": "富山県",
    "city": "砺波市",
    "town": "庄川町天正"
  },
  "9320317": {
    "zipcode": "9320317",
    "prefectureCode": "16",
    "prefectureNumber": 16,
    "prefecture": "富山県",
    "city": "砺波市",
    "town": "庄川町筏"
  },
  "9320371": {
    "zipcode": "9320371",
    "prefectureCode": "16",
    "prefectureNumber": 16,
    "prefecture": "富山県",
    "city": "南砺市",
    "town": "利賀村長崎"
  },
  "9320801": {
    "zipcode": "9320801",
    "prefectureCode": "16",
    "prefectureNumber": 16,
    "prefecture": "富山県",
    "city": "小矢部市",
    "town": "五社"
  },
  "9320802": {
    "zipcode": "9320802",
    "prefectureCode": "16",
    "prefectureNumber": 16,
    "prefecture": "富山県",
    "city": "小矢部市",
    "town": "七社"
  },
  "9320803": {
    "zipcode": "9320803",
    "prefectureCode": "16",
    "prefectureNumber": 16,
    "prefecture": "富山県",
    "city": "小矢部市",
    "town": "道明"
  },
  "9320804": {
    "zipcode": "9320804",
    "prefectureCode": "16",
    "prefectureNumber": 16,
    "prefecture": "富山県",
    "city": "小矢部市",
    "town": "下中"
  },
  "9320805": {
    "zipcode": "9320805",
    "prefectureCode": "16",
    "prefectureNumber": 16,
    "prefecture": "富山県",
    "city": "小矢部市",
    "town": "西中"
  },
  "9320806": {
    "zipcode": "9320806",
    "prefectureCode": "16",
    "prefectureNumber": 16,
    "prefecture": "富山県",
    "city": "小矢部市",
    "town": "水落"
  },
  "9320807": {
    "zipcode": "9320807",
    "prefectureCode": "16",
    "prefectureNumber": 16,
    "prefecture": "富山県",
    "city": "小矢部市",
    "town": "柳原"
  },
  "9320808": {
    "zipcode": "9320808",
    "prefectureCode": "16",
    "prefectureNumber": 16,
    "prefecture": "富山県",
    "city": "小矢部市",
    "town": "石名田"
  },
  "9320811": {
    "zipcode": "9320811",
    "prefectureCode": "16",
    "prefectureNumber": 16,
    "prefecture": "富山県",
    "city": "小矢部市",
    "town": "水牧"
  },
  "9320812": {
    "zipcode": "9320812",
    "prefectureCode": "16",
    "prefectureNumber": 16,
    "prefecture": "富山県",
    "city": "小矢部市",
    "town": "金屋本江"
  },
  "9320813": {
    "zipcode": "9320813",
    "prefectureCode": "16",
    "prefectureNumber": 16,
    "prefecture": "富山県",
    "city": "小矢部市",
    "town": "野寺"
  },
  "9320814": {
    "zipcode": "9320814",
    "prefectureCode": "16",
    "prefectureNumber": 16,
    "prefecture": "富山県",
    "city": "小矢部市",
    "town": "赤倉"
  },
  "9320815": {
    "zipcode": "9320815",
    "prefectureCode": "16",
    "prefectureNumber": 16,
    "prefecture": "富山県",
    "city": "小矢部市",
    "town": "高木出"
  },
  "9320816": {
    "zipcode": "9320816",
    "prefectureCode": "16",
    "prefectureNumber": 16,
    "prefecture": "富山県",
    "city": "小矢部市",
    "town": "福久"
  },
  "9320817": {
    "zipcode": "9320817",
    "prefectureCode": "16",
    "prefectureNumber": 16,
    "prefecture": "富山県",
    "city": "小矢部市",
    "town": "小神"
  },
  "9320821": {
    "zipcode": "9320821",
    "prefectureCode": "16",
    "prefectureNumber": 16,
    "prefecture": "富山県",
    "city": "小矢部市",
    "town": "鷲島"
  },
  "9320822": {
    "zipcode": "9320822",
    "prefectureCode": "16",
    "prefectureNumber": 16,
    "prefecture": "富山県",
    "city": "小矢部市",
    "town": "和沢"
  },
  "9320823": {
    "zipcode": "9320823",
    "prefectureCode": "16",
    "prefectureNumber": 16,
    "prefecture": "富山県",
    "city": "小矢部市",
    "town": "福上"
  },
  "9320824": {
    "zipcode": "9320824",
    "prefectureCode": "16",
    "prefectureNumber": 16,
    "prefecture": "富山県",
    "city": "小矢部市",
    "town": "下島"
  },
  "9320825": {
    "zipcode": "9320825",
    "prefectureCode": "16",
    "prefectureNumber": 16,
    "prefecture": "富山県",
    "city": "小矢部市",
    "town": "島"
  },
  "9320826": {
    "zipcode": "9320826",
    "prefectureCode": "16",
    "prefectureNumber": 16,
    "prefecture": "富山県",
    "city": "小矢部市",
    "town": "茄子島"
  },
  "9320831": {
    "zipcode": "9320831",
    "prefectureCode": "16",
    "prefectureNumber": 16,
    "prefecture": "富山県",
    "city": "小矢部市",
    "town": "後谷"
  },
  "9320832": {
    "zipcode": "9320832",
    "prefectureCode": "16",
    "prefectureNumber": 16,
    "prefecture": "富山県",
    "city": "小矢部市",
    "town": "野端"
  },
  "9320833": {
    "zipcode": "9320833",
    "prefectureCode": "16",
    "prefectureNumber": 16,
    "prefecture": "富山県",
    "city": "小矢部市",
    "town": "綾子"
  },
  "9320834": {
    "zipcode": "9320834",
    "prefectureCode": "16",
    "prefectureNumber": 16,
    "prefecture": "富山県",
    "city": "小矢部市",
    "town": "蓮沼"
  },
  "9320835": {
    "zipcode": "9320835",
    "prefectureCode": "16",
    "prefectureNumber": 16,
    "prefecture": "富山県",
    "city": "小矢部市",
    "town": "石坂"
  },
  "9320836": {
    "zipcode": "9320836",
    "prefectureCode": "16",
    "prefectureNumber": 16,
    "prefecture": "富山県",
    "city": "小矢部市",
    "town": "埴生"
  },
  "9320837": {
    "zipcode": "9320837",
    "prefectureCode": "16",
    "prefectureNumber": 16,
    "prefecture": "富山県",
    "city": "小矢部市",
    "town": "吉和台"
  },
  "9320838": {
    "zipcode": "9320838",
    "prefectureCode": "16",
    "prefectureNumber": 16,
    "prefecture": "富山県",
    "city": "小矢部市",
    "town": "メルヘンランド"
  },
  "9320841": {
    "zipcode": "9320841",
    "prefectureCode": "16",
    "prefectureNumber": 16,
    "prefecture": "富山県",
    "city": "小矢部市",
    "town": "道林寺"
  },
  "9320842": {
    "zipcode": "9320842",
    "prefectureCode": "16",
    "prefectureNumber": 16,
    "prefecture": "富山県",
    "city": "小矢部市",
    "town": "長"
  },
  "9320843": {
    "zipcode": "9320843",
    "prefectureCode": "16",
    "prefectureNumber": 16,
    "prefecture": "富山県",
    "city": "小矢部市",
    "town": "棚田"
  },
  "9320844": {
    "zipcode": "9320844",
    "prefectureCode": "16",
    "prefectureNumber": 16,
    "prefecture": "富山県",
    "city": "小矢部市",
    "town": "北一"
  },
  "9320845": {
    "zipcode": "9320845",
    "prefectureCode": "16",
    "prefectureNumber": 16,
    "prefecture": "富山県",
    "city": "小矢部市",
    "town": "松尾"
  },
  "9320846": {
    "zipcode": "9320846",
    "prefectureCode": "16",
    "prefectureNumber": 16,
    "prefecture": "富山県",
    "city": "小矢部市",
    "town": "松永"
  },
  "9320851": {
    "zipcode": "9320851",
    "prefectureCode": "16",
    "prefectureNumber": 16,
    "prefecture": "富山県",
    "city": "小矢部市",
    "town": "末友"
  },
  "9320852": {
    "zipcode": "9320852",
    "prefectureCode": "16",
    "prefectureNumber": 16,
    "prefecture": "富山県",
    "city": "小矢部市",
    "town": "安養寺新"
  },
  "9320853": {
    "zipcode": "9320853",
    "prefectureCode": "16",
    "prefectureNumber": 16,
    "prefecture": "富山県",
    "city": "小矢部市",
    "town": "臼谷"
  },
  "9320854": {
    "zipcode": "9320854",
    "prefectureCode": "16",
    "prefectureNumber": 16,
    "prefecture": "富山県",
    "city": "小矢部市",
    "town": "末沢新"
  },
  "9320855": {
    "zipcode": "9320855",
    "prefectureCode": "16",
    "prefectureNumber": 16,
    "prefecture": "富山県",
    "city": "小矢部市",
    "town": "川開新"
  },
  "9320856": {
    "zipcode": "9320856",
    "prefectureCode": "16",
    "prefectureNumber": 16,
    "prefecture": "富山県",
    "city": "小矢部市",
    "town": "フロンティアパーク"
  },
  "9320861": {
    "zipcode": "9320861",
    "prefectureCode": "16",
    "prefectureNumber": 16,
    "prefecture": "富山県",
    "city": "小矢部市",
    "town": "八講田"
  },
  "9320862": {
    "zipcode": "9320862",
    "prefectureCode": "16",
    "prefectureNumber": 16,
    "prefecture": "富山県",
    "city": "小矢部市",
    "town": "五郎丸"
  },
  "9320863": {
    "zipcode": "9320863",
    "prefectureCode": "16",
    "prefectureNumber": 16,
    "prefecture": "富山県",
    "city": "小矢部市",
    "town": "内山"
  },
  "9320864": {
    "zipcode": "9320864",
    "prefectureCode": "16",
    "prefectureNumber": 16,
    "prefecture": "富山県",
    "city": "小矢部市",
    "town": "八伏"
  }
}
