{
  "9330000": {
    "zipcode": "9330000",
    "prefectureCode": "16",
    "prefectureNumber": 16,
    "prefecture": "富山県",
    "city": "高岡市",
    "town": "以下に掲載がない場合"
  },
  "9330001": {
    "zipcode": "9330001",
    "prefectureCode": "16",
    "prefectureNumber": 16,
    "prefecture": "富山県",
    "city": "高岡市",
    "town": "富岡町"
  },
  "9330002": {
    "zipcode": "9330002",
    "prefectureCode": "16",
    "prefectureNumber": 16,
    "prefecture": "富山県",
    "city": "高岡市",
    "town": "吉久"
  },
  "9330003": {
    "zipcode": "9330003",
    "prefectureCode": "16",
    "prefectureNumber": 16,
    "prefecture": "富山県",
    "city": "高岡市",
    "town": "能町"
  },
  "9330004": {
    "zipcode": "9330004",
    "prefectureCode": "16",
    "prefectureNumber": 16,
    "prefecture": "富山県",
    "city": "高岡市",
    "town": "能町東"
  },
  "9330005": {
    "zipcode": "9330005",
    "prefectureCode": "16",
    "prefectureNumber": 16,
    "prefecture": "富山県",
    "city": "高岡市",
    "town": "能町南"
  },
  "9330006": {
    "zipcode": "9330006",
    "prefectureCode": "16",
    "prefectureNumber": 16,
    "prefecture": "富山県",
    "city": "高岡市",
    "town": "角三島"
  },
  "9330007": {
    "zipcode": "9330007",
    "prefectureCode": "16",
    "prefectureNumber": 16,
    "prefecture": "富山県",
    "city": "高岡市",
    "town": "角"
  },
  "9330008": {
    "zipcode": "9330008",
    "prefectureCode": "16",
    "prefectureNumber": 16,
    "prefecture": "富山県",
    "city": "高岡市",
    "town": "材木町"
  },
  "9330011": {
    "zipcode": "9330011",
    "prefectureCode": "16",
    "prefectureNumber": 16,
    "prefecture": "富山県",
    "city": "高岡市",
    "town": "石瀬"
  },
  "9330012": {
    "zipcode": "9330012",
    "prefectureCode": "16",
    "prefectureNumber": 16,
    "prefecture": "富山県",
    "city": "高岡市",
    "town": "美原町"
  },
  "9330013": {
    "zipcode": "9330013",
    "prefectureCode": "16",
    "prefectureNumber": 16,
    "prefecture": "富山県",
    "city": "高岡市",
    "town": "三女子"
  },
  "9330014": {
    "zipcode": "9330014",
    "prefectureCode": "16",
    "prefectureNumber": 16,
    "prefecture": "富山県",
    "city": "高岡市",
    "town": "野村"
  },
  "9330015": {
    "zipcode": "9330015",
    "prefectureCode": "16",
    "prefectureNumber": 16,
    "prefecture": "富山県",
    "city": "高岡市",
    "town": "明園町"
  },
  "9330016": {
    "zipcode": "9330016",
    "prefectureCode": "16",
    "prefectureNumber": 16,
    "prefecture": "富山県",
    "city": "高岡市",
    "town": "大野"
  },
  "9330017": {
    "zipcode": "9330017",
    "prefectureCode": "16",
    "prefectureNumber": 16,
    "prefecture": "富山県",
    "city": "高岡市",
    "town": "前田町"
  },
  "9330018": {
    "zipcode": "9330018",
    "prefectureCode": "16",
    "prefectureNumber": 16,
    "prefecture": "富山県",
    "city": "高岡市",
    "town": "高陵町"
  },
  "9330021": {
    "zipcode": "9330021",
    "prefectureCode": "16",
    "prefectureNumber": 16,
    "prefecture": "富山県",
    "city": "高岡市",
    "town": "下関町"
  },
  "9330022": {
    "zipcode": "9330022",
    "prefectureCode": "16",
    "prefectureNumber": 16,
    "prefecture": "富山県",
    "city": "高岡市",
    "town": "白金町"
  },
  "9330023": {
    "zipcode": "9330023",
    "prefectureCode": "16",
    "prefectureNumber": 16,
    "prefecture": "富山県",
    "city": "高岡市",
    "town": "末広町"
  },
  "9330024": {
    "zipcode": "9330024",
    "prefectureCode": "16",
    "prefectureNumber": 16,
    "prefecture": "富山県",
    "city": "高岡市",
    "town": "宮脇町"
  },
  "9330025": {
    "zipcode": "9330025",
    "prefectureCode": "16",
    "prefectureNumber": 16,
    "prefecture": "富山県",
    "city": "高岡市",
    "town": "片原横町"
  },
  "9330026": {
    "zipcode": "9330026",
    "prefectureCode": "16",
    "prefectureNumber": 16,
    "prefecture": "富山県",
    "city": "高岡市",
    "town": "片原町"
  },
  "9330027": {
    "zipcode": "9330027",
    "prefectureCode": "16",
    "prefectureNumber": 16,
    "prefecture": "富山県",
    "city": "高岡市",
    "town": "片原中島町"
  },
  "9330028": {
    "zipcode": "9330028",
    "prefectureCode": "16",
    "prefectureNumber": 16,
    "prefecture": "富山県",
    "city": "高岡市",
    "town": "大福院"
  },
  "9330029": {
    "zipcode": "9330029",
    "prefectureCode": "16",
    "prefectureNumber": 16,
    "prefecture": "富山県",
    "city": "高岡市",
    "town": "御旅屋町"
  },
  "9330030": {
    "zipcode": "9330030",
    "prefectureCode": "16",
    "prefectureNumber": 16,
    "prefecture": "富山県",
    "city": "高岡市",
    "town": "中央町"
  },
  "9330031": {
    "zipcode": "9330031",
    "prefectureCode": "16",
    "prefectureNumber": 16,
    "prefecture": "富山県",
    "city": "高岡市",
    "town": "中川町"
  },
  "9330032": {
    "zipcode": "9330032",
    "prefectureCode": "16",
    "prefectureNumber": 16,
    "prefecture": "富山県",
    "city": "高岡市",
    "town": "定塚町"
  },
  "9330033": {
    "zipcode": "9330033",
    "prefectureCode": "16",
    "prefectureNumber": 16,
    "prefecture": "富山県",
    "city": "高岡市",
    "town": "東下関"
  },
  "9330034": {
    "zipcode": "9330034",
    "prefectureCode": "16",
    "prefectureNumber": 16,
    "prefecture": "富山県",
    "city": "高岡市",
    "town": "大仏町"
  },
  "9330035": {
    "zipcode": "9330035",
    "prefectureCode": "16",
    "prefectureNumber": 16,
    "prefecture": "富山県",
    "city": "高岡市",
    "town": "新横町"
  },
  "9330036": {
    "zipcode": "9330036",
    "prefectureCode": "16",
    "prefectureNumber": 16,
    "prefecture": "富山県",
    "city": "高岡市",
    "town": "桐木町"
  },
  "9330037": {
    "zipcode": "9330037",
    "prefectureCode": "16",
    "prefectureNumber": 16,
    "prefecture": "富山県",
    "city": "高岡市",
    "town": "定塚"
  },
  "9330038": {
    "zipcode": "9330038",
    "prefectureCode": "16",
    "prefectureNumber": 16,
    "prefecture": "富山県",
    "city": "高岡市",
    "town": "坂下町"
  },
  "9330039": {
    "zipcode": "9330039",
    "prefectureCode": "16",
    "prefectureNumber": 16,
    "prefecture": "富山県",
    "city": "高岡市",
    "town": "大手町"
  },
  "9330041": {
    "zipcode": "9330041",
    "prefectureCode": "16",
    "prefectureNumber": 16,
    "prefecture": "富山県",
    "city": "高岡市",
    "town": "城東"
  },
  "9330042": {
    "zipcode": "9330042",
    "prefectureCode": "16",
    "prefectureNumber": 16,
    "prefecture": "富山県",
    "city": "高岡市",
    "town": "中川栄町"
  },
  "9330043": {
    "zipcode": "9330043",
    "prefectureCode": "16",
    "prefectureNumber": 16,
    "prefecture": "富山県",
    "city": "高岡市",
    "town": "中川上町"
  },
  "9330044": {
    "zipcode": "9330044",
    "prefectureCode": "16",
    "prefectureNumber": 16,
    "prefecture": "富山県",
    "city": "高岡市",
    "town": "古城"
  },
  "9330045": {
    "zipcode": "9330045",
    "prefectureCode": "16",
    "prefectureNumber": 16,
    "prefecture": "富山県",
    "city": "高岡市",
    "town": "本丸町"
  },
  "9330046": {
    "zipcode": "9330046",
    "prefectureCode": "16",
    "prefectureNumber": 16,
    "prefecture": "富山県",
    "city": "高岡市",
    "town": "中川本町"
  },
  "9330047": {
    "zipcode": "9330047",
    "prefectureCode": "16",
    "prefectureNumber": 16,
    "prefecture": "富山県",
    "city": "高岡市",
    "town": "東中川町"
  },
  "9330051": {
    "zipcode": "9330051",
    "prefectureCode": "16",
    "prefectureNumber": 16,
    "prefecture": "富山県",
    "city": "高岡市",
    "town": "東野"
  },
  "9330052": {
    "zipcode": "9330052",
    "prefectureCode": "16",
    "prefectureNumber": 16,
    "prefecture": "富山県",
    "city": "高岡市",
    "town": "北定塚"
  },
  "9330053": {
    "zipcode": "9330053",
    "prefectureCode": "16",
    "prefectureNumber": 16,
    "prefecture": "富山県",
    "city": "高岡市",
    "town": "城北町"
  },
  "9330054": {
    "zipcode": "9330054",
    "prefectureCode": "16",
    "prefectureNumber": 16,
    "prefecture": "富山県",
    "city": "高岡市",
    "town": "古定塚"
  },
  "9330055": {
    "zipcode": "9330055",
    "prefectureCode": "16",
    "prefectureNumber": 16,
    "prefecture": "富山県",
    "city": "高岡市",
    "town": "中川園町"
  },
  "9330056": {
    "zipcode": "9330056",
    "prefectureCode": "16",
    "prefectureNumber": 16,
    "prefecture": "富山県",
    "city": "高岡市",
    "town": "中川"
  },
  "9330057": {
    "zipcode": "9330057",
    "prefectureCode": "16",
    "prefectureNumber": 16,
    "prefecture": "富山県",
    "city": "高岡市",
    "town": "広小路"
  },
  "9330058": {
    "zipcode": "9330058",
    "prefectureCode": "16",
    "prefectureNumber": 16,
    "prefecture": "富山県",
    "city": "射水市",
    "town": "川口宮袋"
  },
  "9330061": {
    "zipcode": "9330061",
    "prefectureCode": "16",
    "prefectureNumber": 16,
    "prefecture": "富山県",
    "city": "高岡市",
    "town": "青葉町"
  },
  "9330062": {
    "zipcode": "9330062",
    "prefectureCode": "16",
    "prefectureNumber": 16,
    "prefecture": "富山県",
    "city": "高岡市",
    "town": "江尻"
  },
  "9330063": {
    "zipcode": "9330063",
    "prefectureCode": "16",
    "prefectureNumber": 16,
    "prefecture": "富山県",
    "city": "高岡市",
    "town": "鶴寄町"
  },
  "9330064": {
    "zipcode": "9330064",
    "prefectureCode": "16",
    "prefectureNumber": 16,
    "prefecture": "富山県",
    "city": "高岡市",
    "town": "宝町"
  },
  "9330065": {
    "zipcode": "9330065",
    "prefectureCode": "16",
    "prefectureNumber": 16,
    "prefecture": "富山県",
    "city": "高岡市",
    "town": "江尻白山町"
  },
  "9330066": {
    "zipcode": "9330066",
    "prefectureCode": "16",
    "prefectureNumber": 16,
    "prefecture": "富山県",
    "city": "高岡市",
    "town": "春日丘"
  },
  "9330067": {
    "zipcode": "9330067",
    "prefectureCode": "16",
    "prefectureNumber": 16,
    "prefecture": "富山県",
    "city": "高岡市",
    "town": "高伏町"
  },
  "9330068": {
    "zipcode": "9330068",
    "prefectureCode": "16",
    "prefectureNumber": 16,
    "prefecture": "富山県",
    "city": "高岡市",
    "town": "志貴野しらとり台"
  },
  "9330071": {
    "zipcode": "9330071",
    "prefectureCode": "16",
    "prefectureNumber": 16,
    "prefecture": "富山県",
    "city": "高岡市",
    "town": "鷲北新"
  },
  "9330072": {
    "zipcode": "9330072",
    "prefectureCode": "16",
    "prefectureNumber": 16,
    "prefecture": "富山県",
    "city": "高岡市",
    "town": "旭ケ丘"
  },
  "9330073": {
    "zipcode": "9330073",
    "prefectureCode": "16",
    "prefectureNumber": 16,
    "prefecture": "富山県",
    "city": "高岡市",
    "town": "荻布"
  },
  "9330074": {
    "zipcode": "9330074",
    "prefectureCode": "16",
    "prefectureNumber": 16,
    "prefecture": "富山県",
    "city": "高岡市",
    "town": "荻布新町"
  },
  "9330075": {
    "zipcode": "9330075",
    "prefectureCode": "16",
    "prefectureNumber": 16,
    "prefecture": "富山県",
    "city": "高岡市",
    "town": "新能町"
  },
  "9330076": {
    "zipcode": "9330076",
    "prefectureCode": "16",
    "prefectureNumber": 16,
    "prefecture": "富山県",
    "city": "高岡市",
    "town": "米島"
  },
  "9330077": {
    "zipcode": "9330077",
    "prefectureCode": "16",
    "prefectureNumber": 16,
    "prefecture": "富山県",
    "city": "高岡市",
    "town": "能町駅南"
  },
  "9330078": {
    "zipcode": "9330078",
    "prefectureCode": "16",
    "prefectureNumber": 16,
    "prefecture": "富山県",
    "city": "高岡市",
    "town": "荻布四つ葉町"
  },
  "9330101": {
    "zipcode": "9330101",
    "prefectureCode": "16",
    "prefectureNumber": 16,
    "prefecture": "富山県",
    "city": "高岡市",
    "town": "伏木国分"
  },
  "9330102": {
    "zipcode": "9330102",
    "prefectureCode": "16",
    "prefectureNumber": 16,
    "prefecture": "富山県",
    "city": "高岡市",
    "town": "伏木磯町"
  },
  "9330103": {
    "zipcode": "9330103",
    "prefectureCode": "16",
    "prefectureNumber": 16,
    "prefecture": "富山県",
    "city": "高岡市",
    "town": "伏木中央町"
  },
  "9330104": {
    "zipcode": "9330104",
    "prefectureCode": "16",
    "prefectureNumber": 16,
    "prefecture": "富山県",
    "city": "高岡市",
    "town": "伏木湊町"
  },
  "9330105": {
    "zipcode": "9330105",
    "prefectureCode": "16",
    "prefectureNumber": 16,
    "prefecture": "富山県",
    "city": "高岡市",
    "town": "伏木錦町"
  },
  "9330106": {
    "zipcode": "9330106",
    "prefectureCode": "16",
    "prefectureNumber": 16,
    "prefecture": "富山県",
    "city": "高岡市",
    "town": "伏木本町"
  },
  "9330111": {
    "zipcode": "9330111",
    "prefectureCode": "16",
    "prefectureNumber": 16,
    "prefecture": "富山県",
    "city": "高岡市",
    "town": "伏木東一宮"
  },
  "9330112": {
    "zipcode": "9330112",
    "prefectureCode": "16",
    "prefectureNumber": 16,
    "prefecture": "富山県",
    "city": "高岡市",
    "town": "伏木古国府"
  },
  "9330113": {
    "zipcode": "9330113",
    "prefectureCode": "16",
    "prefectureNumber": 16,
    "prefecture": "富山県",
    "city": "高岡市",
    "town": "伏木"
  },
  "9330114": {
    "zipcode": "9330114",
    "prefectureCode": "16",
    "prefectureNumber": 16,
    "prefecture": "富山県",
    "city": "高岡市",
    "town": "伏木古府"
  },
  "9330115": {
    "zipcode": "9330115",
    "prefectureCode": "16",
    "prefectureNumber": 16,
    "prefecture": "富山県",
    "city": "高岡市",
    "town": "伏木古府元町"
  },
  "9330116": {
    "zipcode": "9330116",
    "prefectureCode": "16",
    "prefectureNumber": 16,
    "prefecture": "富山県",
    "city": "高岡市",
    "town": "伏木一宮"
  },
  "9330121": {
    "zipcode": "9330121",
    "prefectureCode": "16",
    "prefectureNumber": 16,
    "prefecture": "富山県",
    "city": "高岡市",
    "town": "伏木矢田新町"
  },
  "9330122": {
    "zipcode": "9330122",
    "prefectureCode": "16",
    "prefectureNumber": 16,
    "prefecture": "富山県",
    "city": "高岡市",
    "town": "伏木矢田上町"
  },
  "9330123": {
    "zipcode": "9330123",
    "prefectureCode": "16",
    "prefectureNumber": 16,
    "prefecture": "富山県",
    "city": "高岡市",
    "town": "伏木矢田"
  },
  "9330124": {
    "zipcode": "9330124",
    "prefectureCode": "16",
    "prefectureNumber": 16,
    "prefecture": "富山県",
    "city": "高岡市",
    "town": "高美町"
  },
  "9330125": {
    "zipcode": "9330125",
    "prefectureCode": "16",
    "prefectureNumber": 16,
    "prefecture": "富山県",
    "city": "高岡市",
    "town": "伏木矢田（万葉台）"
  },
  "9330126": {
    "zipcode": "9330126",
    "prefectureCode": "16",
    "prefectureNumber": 16,
    "prefecture": "富山県",
    "city": "高岡市",
    "town": "城光寺"
  },
  "9330131": {
    "zipcode": "9330131",
    "prefectureCode": "16",
    "prefectureNumber": 16,
    "prefecture": "富山県",
    "city": "高岡市",
    "town": "太田伊勢領"
  },
  "9330132": {
    "zipcode": "9330132",
    "prefectureCode": "16",
    "prefectureNumber": 16,
    "prefecture": "富山県",
    "city": "高岡市",
    "town": "太田（中村）"
  },
  "9330133": {
    "zipcode": "9330133",
    "prefectureCode": "16",
    "prefectureNumber": 16,
    "prefecture": "富山県",
    "city": "高岡市",
    "town": "太田"
  },
  "9330134": {
    "zipcode": "9330134",
    "prefectureCode": "16",
    "prefectureNumber": 16,
    "prefecture": "富山県",
    "city": "高岡市",
    "town": "太田（旦保）"
  },
  "9330135": {
    "zipcode": "9330135",
    "prefectureCode": "16",
    "prefectureNumber": 16,
    "prefecture": "富山県",
    "city": "高岡市",
    "town": "太田（雨晴）"
  },
  "9330136": {
    "zipcode": "9330136",
    "prefectureCode": "16",
    "prefectureNumber": 16,
    "prefecture": "富山県",
    "city": "高岡市",
    "town": "渋谷"
  },
  "9330137": {
    "zipcode": "9330137",
    "prefectureCode": "16",
    "prefectureNumber": 16,
    "prefecture": "富山県",
    "city": "高岡市",
    "town": "西田"
  },
  "9330138": {
    "zipcode": "9330138",
    "prefectureCode": "16",
    "prefectureNumber": 16,
    "prefecture": "富山県",
    "city": "高岡市",
    "town": "太田山岸"
  },
  "9330201": {
    "zipcode": "9330201",
    "prefectureCode": "16",
    "prefectureNumber": 16,
    "prefecture": "富山県",
    "city": "射水市",
    "town": "山屋"
  },
  "9330202": {
    "zipcode": "9330202",
    "prefectureCode": "16",
    "prefectureNumber": 16,
    "prefecture": "富山県",
    "city": "射水市",
    "town": "下村三箇"
  },
  "9330203": {
    "zipcode": "9330203",
    "prefectureCode": "16",
    "prefectureNumber": 16,
    "prefecture": "富山県",
    "city": "射水市",
    "town": "加茂東部"
  },
  "9330204": {
    "zipcode": "9330204",
    "prefectureCode": "16",
    "prefectureNumber": 16,
    "prefecture": "富山県",
    "city": "射水市",
    "town": "加茂中部"
  },
  "9330205": {
    "zipcode": "9330205",
    "prefectureCode": "16",
    "prefectureNumber": 16,
    "prefecture": "富山県",
    "city": "射水市",
    "town": "加茂西部"
  },
  "9330206": {
    "zipcode": "9330206",
    "prefectureCode": "16",
    "prefectureNumber": 16,
    "prefecture": "富山県",
    "city": "射水市",
    "town": "倉垣小杉"
  },
  "9330207": {
    "zipcode": "9330207",
    "prefectureCode": "16",
    "prefectureNumber": 16,
    "prefecture": "富山県",
    "city": "射水市",
    "town": "白石"
  },
  "9330208": {
    "zipcode": "9330208",
    "prefectureCode": "16",
    "prefectureNumber": 16,
    "prefecture": "富山県",
    "city": "射水市",
    "town": "八講"
  },
  "9330209": {
    "zipcode": "9330209",
    "prefectureCode": "16",
    "prefectureNumber": 16,
    "prefecture": "富山県",
    "city": "射水市",
    "town": "摺出寺"
  },
  "9330221": {
    "zipcode": "9330221",
    "prefectureCode": "16",
    "prefectureNumber": 16,
    "prefecture": "富山県",
    "city": "射水市",
    "town": "堀岡新明神（その他）"
  },
  "9330222": {
    "zipcode": "9330222",
    "prefectureCode": "16",
    "prefectureNumber": 16,
    "prefecture": "富山県",
    "city": "射水市",
    "town": "海竜町"
  },
  "9330223": {
    "zipcode": "9330223",
    "prefectureCode": "16",
    "prefectureNumber": 16,
    "prefecture": "富山県",
    "city": "射水市",
    "town": "堀岡"
  },
  "9330224": {
    "zipcode": "9330224",
    "prefectureCode": "16",
    "prefectureNumber": 16,
    "prefecture": "富山県",
    "city": "射水市",
    "town": "堀岡古明神"
  },
  "9330225": {
    "zipcode": "9330225",
    "prefectureCode": "16",
    "prefectureNumber": 16,
    "prefecture": "富山県",
    "city": "射水市",
    "town": "草岡町"
  },
  "9330226": {
    "zipcode": "9330226",
    "prefectureCode": "16",
    "prefectureNumber": 16,
    "prefecture": "富山県",
    "city": "射水市",
    "town": "堀江千石"
  },
  "9330227": {
    "zipcode": "9330227",
    "prefectureCode": "16",
    "prefectureNumber": 16,
    "prefecture": "富山県",
    "city": "射水市",
    "town": "射水町"
  },
  "9330228": {
    "zipcode": "9330228",
    "prefectureCode": "16",
    "prefectureNumber": 16,
    "prefecture": "富山県",
    "city": "射水市",
    "town": "堀岡明神新"
  },
  "9330231": {
    "zipcode": "9330231",
    "prefectureCode": "16",
    "prefectureNumber": 16,
    "prefecture": "富山県",
    "city": "射水市",
    "town": "海老江浜開"
  },
  "9330232": {
    "zipcode": "9330232",
    "prefectureCode": "16",
    "prefectureNumber": 16,
    "prefecture": "富山県",
    "city": "射水市",
    "town": "浜開新町"
  },
  "9330233": {
    "zipcode": "9330233",
    "prefectureCode": "16",
    "prefectureNumber": 16,
    "prefecture": "富山県",
    "city": "射水市",
    "town": "海老江"
  },
  "9330234": {
    "zipcode": "9330234",
    "prefectureCode": "16",
    "prefectureNumber": 16,
    "prefecture": "富山県",
    "city": "射水市",
    "town": "海老江七軒"
  },
  "9330235": {
    "zipcode": "9330235",
    "prefectureCode": "16",
    "prefectureNumber": 16,
    "prefecture": "富山県",
    "city": "射水市",
    "town": "海老江練合"
  },
  "9330236": {
    "zipcode": "9330236",
    "prefectureCode": "16",
    "prefectureNumber": 16,
    "prefecture": "富山県",
    "city": "射水市",
    "town": "東明七軒"
  },
  "9330237": {
    "zipcode": "9330237",
    "prefectureCode": "16",
    "prefectureNumber": 16,
    "prefecture": "富山県",
    "city": "射水市",
    "town": "東明東町"
  },
  "9330238": {
    "zipcode": "9330238",
    "prefectureCode": "16",
    "prefectureNumber": 16,
    "prefecture": "富山県",
    "city": "射水市",
    "town": "東明中町"
  },
  "9330239": {
    "zipcode": "9330239",
    "prefectureCode": "16",
    "prefectureNumber": 16,
    "prefecture": "富山県",
    "city": "射水市",
    "town": "東明西町"
  },
  "9330240": {
    "zipcode": "9330240",
    "prefectureCode": "16",
    "prefectureNumber": 16,
    "prefecture": "富山県",
    "city": "射水市",
    "town": "かもめ台"
  },
  "9330241": {
    "zipcode": "9330241",
    "prefectureCode": "16",
    "prefectureNumber": 16,
    "prefecture": "富山県",
    "city": "射水市",
    "town": "足洗新町"
  },
  "9330242": {
    "zipcode": "9330242",
    "prefectureCode": "16",
    "prefectureNumber": 16,
    "prefecture": "富山県",
    "city": "射水市",
    "town": "本江針山開"
  },
  "9330243": {
    "zipcode": "9330243",
    "prefectureCode": "16",
    "prefectureNumber": 16,
    "prefecture": "富山県",
    "city": "射水市",
    "town": "本江（足洗）"
  },
  "9330244": {
    "zipcode": "9330244",
    "prefectureCode": "16",
    "prefectureNumber": 16,
    "prefecture": "富山県",
    "city": "射水市",
    "town": "本江南"
  },
  "9330245": {
    "zipcode": "9330245",
    "prefectureCode": "16",
    "prefectureNumber": 16,
    "prefecture": "富山県",
    "city": "射水市",
    "town": "本江利波"
  },
  "9330246": {
    "zipcode": "9330246",
    "prefectureCode": "16",
    "prefectureNumber": 16,
    "prefecture": "富山県",
    "city": "射水市",
    "town": "本江（道番）"
  },
  "9330247": {
    "zipcode": "9330247",
    "prefectureCode": "16",
    "prefectureNumber": 16,
    "prefecture": "富山県",
    "city": "射水市",
    "town": "本江中新"
  },
  "9330248": {
    "zipcode": "9330248",
    "prefectureCode": "16",
    "prefectureNumber": 16,
    "prefecture": "富山県",
    "city": "射水市",
    "town": "本江針山"
  },
  "9330249": {
    "zipcode": "9330249",
    "prefectureCode": "16",
    "prefectureNumber": 16,
    "prefecture": "富山県",
    "city": "射水市",
    "town": "本江針山新"
  },
  "9330251": {
    "zipcode": "9330251",
    "prefectureCode": "16",
    "prefectureNumber": 16,
    "prefecture": "富山県",
    "city": "射水市",
    "town": "有磯"
  },
  "9330252": {
    "zipcode": "9330252",
    "prefectureCode": "16",
    "prefectureNumber": 16,
    "prefecture": "富山県",
    "city": "射水市",
    "town": "七美"
  },
  "9330253": {
    "zipcode": "9330253",
    "prefectureCode": "16",
    "prefectureNumber": 16,
    "prefecture": "富山県",
    "city": "射水市",
    "town": "七美中野"
  },
  "9330301": {
    "zipcode": "9330301",
    "prefectureCode": "16",
    "prefectureNumber": 16,
    "prefecture": "富山県",
    "city": "高岡市",
    "town": "勝木原"
  },
  "9330302": {
    "zipcode": "9330302",
    "prefectureCode": "16",
    "prefectureNumber": 16,
    "prefecture": "富山県",
    "city": "高岡市",
    "town": "西広谷"
  },
  "9330303": {
    "zipcode": "9330303",
    "prefectureCode": "16",
    "prefectureNumber": 16,
    "prefecture": "富山県",
    "city": "高岡市",
    "town": "山川"
  },
  "9330304": {
    "zipcode": "9330304",
    "prefectureCode": "16",
    "prefectureNumber": 16,
    "prefecture": "富山県",
    "city": "高岡市",
    "town": "境"
  },
  "9330305": {
    "zipcode": "9330305",
    "prefectureCode": "16",
    "prefectureNumber": 16,
    "prefecture": "富山県",
    "city": "高岡市",
    "town": "江道"
  },
  "9330306": {
    "zipcode": "9330306",
    "prefectureCode": "16",
    "prefectureNumber": 16,
    "prefecture": "富山県",
    "city": "高岡市",
    "town": "五十辺"
  },
  "9330307": {
    "zipcode": "9330307",
    "prefectureCode": "16",
    "prefectureNumber": 16,
    "prefecture": "富山県",
    "city": "高岡市",
    "town": "笹八口"
  },
  "9330308": {
    "zipcode": "9330308",
    "prefectureCode": "16",
    "prefectureNumber": 16,
    "prefecture": "富山県",
    "city": "高岡市",
    "town": "八口"
  },
  "9330311": {
    "zipcode": "9330311",
    "prefectureCode": "16",
    "prefectureNumber": 16,
    "prefecture": "富山県",
    "city": "高岡市",
    "town": "大源寺"
  },
  "9330312": {
    "zipcode": "9330312",
    "prefectureCode": "16",
    "prefectureNumber": 16,
    "prefecture": "富山県",
    "city": "高岡市",
    "town": "大源寺（大源寺新町）"
  },
  "9330313": {
    "zipcode": "9330313",
    "prefectureCode": "16",
    "prefectureNumber": 16,
    "prefecture": "富山県",
    "city": "高岡市",
    "town": "福田六家"
  },
  "9330314": {
    "zipcode": "9330314",
    "prefectureCode": "16",
    "prefectureNumber": 16,
    "prefecture": "富山県",
    "city": "高岡市",
    "town": "福栄町"
  },
  "9330315": {
    "zipcode": "9330315",
    "prefectureCode": "16",
    "prefectureNumber": 16,
    "prefecture": "富山県",
    "city": "高岡市",
    "town": "西園町"
  },
  "9330316": {
    "zipcode": "9330316",
    "prefectureCode": "16",
    "prefectureNumber": 16,
    "prefecture": "富山県",
    "city": "高岡市",
    "town": "新栄町"
  },
  "9330317": {
    "zipcode": "9330317",
    "prefectureCode": "16",
    "prefectureNumber": 16,
    "prefecture": "富山県",
    "city": "高岡市",
    "town": "蜂ケ島"
  },
  "9330318": {
    "zipcode": "9330318",
    "prefectureCode": "16",
    "prefectureNumber": 16,
    "prefecture": "富山県",
    "city": "高岡市",
    "town": "池田"
  },
  "9330319": {
    "zipcode": "9330319",
    "prefectureCode": "16",
    "prefectureNumber": 16,
    "prefecture": "富山県",
    "city": "高岡市",
    "town": "荒屋敷"
  },
  "9330321": {
    "zipcode": "9330321",
    "prefectureCode": "16",
    "prefectureNumber": 16,
    "prefecture": "富山県",
    "city": "高岡市",
    "town": "六家"
  },
  "9330322": {
    "zipcode": "9330322",
    "prefectureCode": "16",
    "prefectureNumber": 16,
    "prefecture": "富山県",
    "city": "高岡市",
    "town": "樋詰"
  },
  "9330323": {
    "zipcode": "9330323",
    "prefectureCode": "16",
    "prefectureNumber": 16,
    "prefecture": "富山県",
    "city": "高岡市",
    "town": "西高町"
  },
  "9330324": {
    "zipcode": "9330324",
    "prefectureCode": "16",
    "prefectureNumber": 16,
    "prefecture": "富山県",
    "city": "高岡市",
    "town": "立野（高池町）"
  },
  "9330325": {
    "zipcode": "9330325",
    "prefectureCode": "16",
    "prefectureNumber": 16,
    "prefecture": "富山県",
    "city": "高岡市",
    "town": "立野"
  },
  "9330326": {
    "zipcode": "9330326",
    "prefectureCode": "16",
    "prefectureNumber": 16,
    "prefecture": "富山県",
    "city": "高岡市",
    "town": "立野美鳥町"
  },
  "9330327": {
    "zipcode": "9330327",
    "prefectureCode": "16",
    "prefectureNumber": 16,
    "prefecture": "富山県",
    "city": "高岡市",
    "town": "柴野内島"
  },
  "9330328": {
    "zipcode": "9330328",
    "prefectureCode": "16",
    "prefectureNumber": 16,
    "prefecture": "富山県",
    "city": "高岡市",
    "town": "内島"
  },
  "9330329": {
    "zipcode": "9330329",
    "prefectureCode": "16",
    "prefectureNumber": 16,
    "prefecture": "富山県",
    "city": "高岡市",
    "town": "柴野内島（柴園町）"
  },
  "9330331": {
    "zipcode": "9330331",
    "prefectureCode": "16",
    "prefectureNumber": 16,
    "prefecture": "富山県",
    "city": "高岡市",
    "town": "若保町"
  },
  "9330332": {
    "zipcode": "9330332",
    "prefectureCode": "16",
    "prefectureNumber": 16,
    "prefecture": "富山県",
    "city": "高岡市",
    "town": "小竹"
  },
  "9330333": {
    "zipcode": "9330333",
    "prefectureCode": "16",
    "prefectureNumber": 16,
    "prefecture": "富山県",
    "city": "高岡市",
    "town": "本保"
  },
  "9330334": {
    "zipcode": "9330334",
    "prefectureCode": "16",
    "prefectureNumber": 16,
    "prefecture": "富山県",
    "city": "高岡市",
    "town": "三ケ"
  },
  "9330335": {
    "zipcode": "9330335",
    "prefectureCode": "16",
    "prefectureNumber": 16,
    "prefecture": "富山県",
    "city": "高岡市",
    "town": "今市"
  },
  "9330336": {
    "zipcode": "9330336",
    "prefectureCode": "16",
    "prefectureNumber": 16,
    "prefecture": "富山県",
    "city": "高岡市",
    "town": "上開発"
  },
  "9330337": {
    "zipcode": "9330337",
    "prefectureCode": "16",
    "prefectureNumber": 16,
    "prefecture": "富山県",
    "city": "高岡市",
    "town": "千鳥丘町"
  },
  "9330338": {
    "zipcode": "9330338",
    "prefectureCode": "16",
    "prefectureNumber": 16,
    "prefecture": "富山県",
    "city": "高岡市",
    "town": "駒方"
  },
  "9330341": {
    "zipcode": "9330341",
    "prefectureCode": "16",
    "prefectureNumber": 16,
    "prefecture": "富山県",
    "city": "高岡市",
    "town": "上渡"
  },
  "9330342": {
    "zipcode": "9330342",
    "prefectureCode": "16",
    "prefectureNumber": 16,
    "prefecture": "富山県",
    "city": "高岡市",
    "town": "東石堤"
  },
  "9330343": {
    "zipcode": "9330343",
    "prefectureCode": "16",
    "prefectureNumber": 16,
    "prefecture": "富山県",
    "city": "高岡市",
    "town": "宝来町"
  },
  "9330344": {
    "zipcode": "9330344",
    "prefectureCode": "16",
    "prefectureNumber": 16,
    "prefecture": "富山県",
    "city": "高岡市",
    "town": "笹川"
  },
  "9330345": {
    "zipcode": "9330345",
    "prefectureCode": "16",
    "prefectureNumber": 16,
    "prefecture": "富山県",
    "city": "高岡市",
    "town": "平成町"
  },
  "9330351": {
    "zipcode": "9330351",
    "prefectureCode": "16",
    "prefectureNumber": 16,
    "prefecture": "富山県",
    "city": "高岡市",
    "town": "四日市"
  },
  "9330352": {
    "zipcode": "9330352",
    "prefectureCode": "16",
    "prefectureNumber": 16,
    "prefecture": "富山県",
    "city": "高岡市",
    "town": "十日市"
  },
  "9330353": {
    "zipcode": "9330353",
    "prefectureCode": "16",
    "prefectureNumber": 16,
    "prefecture": "富山県",
    "city": "高岡市",
    "town": "麻生谷"
  },
  "9330354": {
    "zipcode": "9330354",
    "prefectureCode": "16",
    "prefectureNumber": 16,
    "prefecture": "富山県",
    "city": "高岡市",
    "town": "六日市"
  },
  "9330355": {
    "zipcode": "9330355",
    "prefectureCode": "16",
    "prefectureNumber": 16,
    "prefecture": "富山県",
    "city": "高岡市",
    "town": "石堤"
  },
  "9330356": {
    "zipcode": "9330356",
    "prefectureCode": "16",
    "prefectureNumber": 16,
    "prefecture": "富山県",
    "city": "高岡市",
    "town": "谷内"
  },
  "9330357": {
    "zipcode": "9330357",
    "prefectureCode": "16",
    "prefectureNumber": 16,
    "prefecture": "富山県",
    "city": "高岡市",
    "town": "柴野"
  },
  "9330801": {
    "zipcode": "9330801",
    "prefectureCode": "16",
    "prefectureNumber": 16,
    "prefecture": "富山県",
    "city": "高岡市",
    "town": "蓮花寺新町"
  },
  "9330802": {
    "zipcode": "9330802",
    "prefectureCode": "16",
    "prefectureNumber": 16,
    "prefecture": "富山県",
    "city": "高岡市",
    "town": "蓮花寺"
  },
  "9330803": {
    "zipcode": "9330803",
    "prefectureCode": "16",
    "prefectureNumber": 16,
    "prefecture": "富山県",
    "city": "高岡市",
    "town": "出来田"
  },
  "9330804": {
    "zipcode": "9330804",
    "prefectureCode": "16",
    "prefectureNumber": 16,
    "prefecture": "富山県",
    "city": "高岡市",
    "town": "問屋町"
  },
  "9330805": {
    "zipcode": "9330805",
    "prefectureCode": "16",
    "prefectureNumber": 16,
    "prefecture": "富山県",
    "city": "高岡市",
    "town": "赤江町"
  },
  "9330806": {
    "zipcode": "9330806",
    "prefectureCode": "16",
    "prefectureNumber": 16,
    "prefecture": "富山県",
    "city": "高岡市",
    "town": "赤祖父"
  },
  "9330807": {
    "zipcode": "9330807",
    "prefectureCode": "16",
    "prefectureNumber": 16,
    "prefecture": "富山県",
    "city": "高岡市",
    "town": "井口本江"
  },
  "9330808": {
    "zipcode": "9330808",
    "prefectureCode": "16",
    "prefectureNumber": 16,
    "prefecture": "富山県",
    "city": "高岡市",
    "town": "高園町"
  },
  "9330809": {
    "zipcode": "9330809",
    "prefectureCode": "16",
    "prefectureNumber": 16,
    "prefecture": "富山県",
    "city": "高岡市",
    "town": "出来田新町"
  },
  "9330811": {
    "zipcode": "9330811",
    "prefectureCode": "16",
    "prefectureNumber": 16,
    "prefecture": "富山県",
    "city": "高岡市",
    "town": "深沢"
  },
  "9330812": {
    "zipcode": "9330812",
    "prefectureCode": "16",
    "prefectureNumber": 16,
    "prefecture": "富山県",
    "city": "高岡市",
    "town": "明和町"
  },
  "9330813": {
    "zipcode": "9330813",
    "prefectureCode": "16",
    "prefectureNumber": 16,
    "prefecture": "富山県",
    "city": "高岡市",
    "town": "下伏間江"
  },
  "9330814": {
    "zipcode": "9330814",
    "prefectureCode": "16",
    "prefectureNumber": 16,
    "prefecture": "富山県",
    "city": "高岡市",
    "town": "上伏間江"
  },
  "9330815": {
    "zipcode": "9330815",
    "prefectureCode": "16",
    "prefectureNumber": 16,
    "prefecture": "富山県",
    "city": "高岡市",
    "town": "西広上"
  },
  "9330816": {
    "zipcode": "9330816",
    "prefectureCode": "16",
    "prefectureNumber": 16,
    "prefecture": "富山県",
    "city": "高岡市",
    "town": "二塚"
  },
  "9330817": {
    "zipcode": "9330817",
    "prefectureCode": "16",
    "prefectureNumber": 16,
    "prefecture": "富山県",
    "city": "高岡市",
    "town": "東藤平蔵"
  },
  "9330818": {
    "zipcode": "9330818",
    "prefectureCode": "16",
    "prefectureNumber": 16,
    "prefecture": "富山県",
    "city": "高岡市",
    "town": "林新"
  },
  "9330821": {
    "zipcode": "9330821",
    "prefectureCode": "16",
    "prefectureNumber": 16,
    "prefecture": "富山県",
    "city": "高岡市",
    "town": "下島町"
  },
  "9330822": {
    "zipcode": "9330822",
    "prefectureCode": "16",
    "prefectureNumber": 16,
    "prefecture": "富山県",
    "city": "高岡市",
    "town": "十二町島"
  },
  "9330823": {
    "zipcode": "9330823",
    "prefectureCode": "16",
    "prefectureNumber": 16,
    "prefecture": "富山県",
    "city": "高岡市",
    "town": "北蔵新"
  },
  "9330824": {
    "zipcode": "9330824",
    "prefectureCode": "16",
    "prefectureNumber": 16,
    "prefecture": "富山県",
    "city": "高岡市",
    "town": "西藤平蔵"
  },
  "9330825": {
    "zipcode": "9330825",
    "prefectureCode": "16",
    "prefectureNumber": 16,
    "prefecture": "富山県",
    "city": "高岡市",
    "town": "佐野緑町"
  },
  "9330826": {
    "zipcode": "9330826",
    "prefectureCode": "16",
    "prefectureNumber": 16,
    "prefecture": "富山県",
    "city": "高岡市",
    "town": "佐野"
  },
  "9330827": {
    "zipcode": "9330827",
    "prefectureCode": "16",
    "prefectureNumber": 16,
    "prefecture": "富山県",
    "city": "高岡市",
    "town": "泉が丘"
  },
  "9330828": {
    "zipcode": "9330828",
    "prefectureCode": "16",
    "prefectureNumber": 16,
    "prefecture": "富山県",
    "city": "高岡市",
    "town": "和田上町"
  },
  "9330829": {
    "zipcode": "9330829",
    "prefectureCode": "16",
    "prefectureNumber": 16,
    "prefecture": "富山県",
    "city": "高岡市",
    "town": "福田"
  },
  "9330831": {
    "zipcode": "9330831",
    "prefectureCode": "16",
    "prefectureNumber": 16,
    "prefecture": "富山県",
    "city": "高岡市",
    "town": "若富町"
  },
  "9330832": {
    "zipcode": "9330832",
    "prefectureCode": "16",
    "prefectureNumber": 16,
    "prefecture": "富山県",
    "city": "高岡市",
    "town": "和田"
  },
  "9330833": {
    "zipcode": "9330833",
    "prefectureCode": "16",
    "prefectureNumber": 16,
    "prefecture": "富山県",
    "city": "高岡市",
    "town": "荒見崎"
  },
  "9330834": {
    "zipcode": "9330834",
    "prefectureCode": "16",
    "prefectureNumber": 16,
    "prefecture": "富山県",
    "city": "高岡市",
    "town": "蔵野町"
  },
  "9330835": {
    "zipcode": "9330835",
    "prefectureCode": "16",
    "prefectureNumber": 16,
    "prefecture": "富山県",
    "city": "高岡市",
    "town": "辻"
  },
  "9330836": {
    "zipcode": "9330836",
    "prefectureCode": "16",
    "prefectureNumber": 16,
    "prefecture": "富山県",
    "city": "高岡市",
    "town": "石塚"
  },
  "9330837": {
    "zipcode": "9330837",
    "prefectureCode": "16",
    "prefectureNumber": 16,
    "prefecture": "富山県",
    "city": "高岡市",
    "town": "上北島"
  },
  "9330838": {
    "zipcode": "9330838",
    "prefectureCode": "16",
    "prefectureNumber": 16,
    "prefecture": "富山県",
    "city": "高岡市",
    "town": "北島"
  },
  "9330839": {
    "zipcode": "9330839",
    "prefectureCode": "16",
    "prefectureNumber": 16,
    "prefecture": "富山県",
    "city": "高岡市",
    "town": "和田西町"
  },
  "9330841": {
    "zipcode": "9330841",
    "prefectureCode": "16",
    "prefectureNumber": 16,
    "prefecture": "富山県",
    "city": "高岡市",
    "town": "金屋町"
  },
  "9330842": {
    "zipcode": "9330842",
    "prefectureCode": "16",
    "prefectureNumber": 16,
    "prefecture": "富山県",
    "city": "高岡市",
    "town": "横田町"
  },
  "9330843": {
    "zipcode": "9330843",
    "prefectureCode": "16",
    "prefectureNumber": 16,
    "prefecture": "富山県",
    "city": "高岡市",
    "town": "永楽町"
  },
  "9330844": {
    "zipcode": "9330844",
    "prefectureCode": "16",
    "prefectureNumber": 16,
    "prefecture": "富山県",
    "city": "高岡市",
    "town": "羽広"
  },
  "9330845": {
    "zipcode": "9330845",
    "prefectureCode": "16",
    "prefectureNumber": 16,
    "prefecture": "富山県",
    "city": "高岡市",
    "town": "松原町"
  },
  "9330846": {
    "zipcode": "9330846",
    "prefectureCode": "16",
    "prefectureNumber": 16,
    "prefecture": "富山県",
    "city": "高岡市",
    "town": "扇町"
  },
  "9330847": {
    "zipcode": "9330847",
    "prefectureCode": "16",
    "prefectureNumber": 16,
    "prefecture": "富山県",
    "city": "高岡市",
    "town": "千石町"
  },
  "9330848": {
    "zipcode": "9330848",
    "prefectureCode": "16",
    "prefectureNumber": 16,
    "prefecture": "富山県",
    "city": "高岡市",
    "town": "西町"
  },
  "9330849": {
    "zipcode": "9330849",
    "prefectureCode": "16",
    "prefectureNumber": 16,
    "prefecture": "富山県",
    "city": "高岡市",
    "town": "横田本町"
  },
  "9330851": {
    "zipcode": "9330851",
    "prefectureCode": "16",
    "prefectureNumber": 16,
    "prefecture": "富山県",
    "city": "高岡市",
    "town": "上関町"
  },
  "9330852": {
    "zipcode": "9330852",
    "prefectureCode": "16",
    "prefectureNumber": 16,
    "prefecture": "富山県",
    "city": "高岡市",
    "town": "下黒田"
  },
  "9330853": {
    "zipcode": "9330853",
    "prefectureCode": "16",
    "prefectureNumber": 16,
    "prefecture": "富山県",
    "city": "高岡市",
    "town": "上黒田新"
  },
  "9330854": {
    "zipcode": "9330854",
    "prefectureCode": "16",
    "prefectureNumber": 16,
    "prefecture": "富山県",
    "city": "高岡市",
    "town": "黒田新町"
  },
  "9330855": {
    "zipcode": "9330855",
    "prefectureCode": "16",
    "prefectureNumber": 16,
    "prefecture": "富山県",
    "city": "高岡市",
    "town": "市場通り"
  },
  "9330856": {
    "zipcode": "9330856",
    "prefectureCode": "16",
    "prefectureNumber": 16,
    "prefecture": "富山県",
    "city": "高岡市",
    "town": "鐘紡町"
  },
  "9330857": {
    "zipcode": "9330857",
    "prefectureCode": "16",
    "prefectureNumber": 16,
    "prefecture": "富山県",
    "city": "高岡市",
    "town": "木津"
  },
  "9330858": {
    "zipcode": "9330858",
    "prefectureCode": "16",
    "prefectureNumber": 16,
    "prefecture": "富山県",
    "city": "高岡市",
    "town": "泉町"
  },
  "9330860": {
    "zipcode": "9330860",
    "prefectureCode": "16",
    "prefectureNumber": 16,
    "prefecture": "富山県",
    "city": "高岡市",
    "town": "下関"
  },
  "9330861": {
    "zipcode": "9330861",
    "prefectureCode": "16",
    "prefectureNumber": 16,
    "prefecture": "富山県",
    "city": "高岡市",
    "town": "寺町"
  },
  "9330862": {
    "zipcode": "9330862",
    "prefectureCode": "16",
    "prefectureNumber": 16,
    "prefecture": "富山県",
    "city": "高岡市",
    "town": "新寺町"
  },
  "9330863": {
    "zipcode": "9330863",
    "prefectureCode": "16",
    "prefectureNumber": 16,
    "prefecture": "富山県",
    "city": "高岡市",
    "town": "関本町"
  },
  "9330864": {
    "zipcode": "9330864",
    "prefectureCode": "16",
    "prefectureNumber": 16,
    "prefecture": "富山県",
    "city": "高岡市",
    "town": "関町"
  },
  "9330865": {
    "zipcode": "9330865",
    "prefectureCode": "16",
    "prefectureNumber": 16,
    "prefecture": "富山県",
    "city": "高岡市",
    "town": "蓮美町"
  },
  "9330866": {
    "zipcode": "9330866",
    "prefectureCode": "16",
    "prefectureNumber": 16,
    "prefecture": "富山県",
    "city": "高岡市",
    "town": "清水町"
  },
  "9330867": {
    "zipcode": "9330867",
    "prefectureCode": "16",
    "prefectureNumber": 16,
    "prefecture": "富山県",
    "city": "高岡市",
    "town": "大鋸屋町"
  },
  "9330868": {
    "zipcode": "9330868",
    "prefectureCode": "16",
    "prefectureNumber": 16,
    "prefecture": "富山県",
    "city": "高岡市",
    "town": "大工中町"
  },
  "9330869": {
    "zipcode": "9330869",
    "prefectureCode": "16",
    "prefectureNumber": 16,
    "prefecture": "富山県",
    "city": "高岡市",
    "town": "関大町"
  },
  "9330871": {
    "zipcode": "9330871",
    "prefectureCode": "16",
    "prefectureNumber": 16,
    "prefecture": "富山県",
    "city": "高岡市",
    "town": "駅南"
  },
  "9330872": {
    "zipcode": "9330872",
    "prefectureCode": "16",
    "prefectureNumber": 16,
    "prefecture": "富山県",
    "city": "高岡市",
    "town": "芳野"
  },
  "9330873": {
    "zipcode": "9330873",
    "prefectureCode": "16",
    "prefectureNumber": 16,
    "prefecture": "富山県",
    "city": "高岡市",
    "town": "南田町"
  },
  "9330874": {
    "zipcode": "9330874",
    "prefectureCode": "16",
    "prefectureNumber": 16,
    "prefecture": "富山県",
    "city": "高岡市",
    "town": "京田"
  },
  "9330875": {
    "zipcode": "9330875",
    "prefectureCode": "16",
    "prefectureNumber": 16,
    "prefecture": "富山県",
    "city": "高岡市",
    "town": "神田新町"
  },
  "9330876": {
    "zipcode": "9330876",
    "prefectureCode": "16",
    "prefectureNumber": 16,
    "prefecture": "富山県",
    "city": "高岡市",
    "town": "神主町"
  },
  "9330877": {
    "zipcode": "9330877",
    "prefectureCode": "16",
    "prefectureNumber": 16,
    "prefecture": "富山県",
    "city": "高岡市",
    "town": "荒川町"
  },
  "9330878": {
    "zipcode": "9330878",
    "prefectureCode": "16",
    "prefectureNumber": 16,
    "prefecture": "富山県",
    "city": "高岡市",
    "town": "東上関"
  },
  "9330879": {
    "zipcode": "9330879",
    "prefectureCode": "16",
    "prefectureNumber": 16,
    "prefecture": "富山県",
    "city": "高岡市",
    "town": "八丁道"
  },
  "9330901": {
    "zipcode": "9330901",
    "prefectureCode": "16",
    "prefectureNumber": 16,
    "prefecture": "富山県",
    "city": "高岡市",
    "town": "向野本町"
  },
  "9330902": {
    "zipcode": "9330902",
    "prefectureCode": "16",
    "prefectureNumber": 16,
    "prefecture": "富山県",
    "city": "高岡市",
    "town": "向野町"
  },
  "9330903": {
    "zipcode": "9330903",
    "prefectureCode": "16",
    "prefectureNumber": 16,
    "prefecture": "富山県",
    "city": "高岡市",
    "town": "熊野町"
  },
  "9330904": {
    "zipcode": "9330904",
    "prefectureCode": "16",
    "prefectureNumber": 16,
    "prefecture": "富山県",
    "city": "高岡市",
    "town": "新成町"
  },
  "9330905": {
    "zipcode": "9330905",
    "prefectureCode": "16",
    "prefectureNumber": 16,
    "prefecture": "富山県",
    "city": "高岡市",
    "town": "明野町"
  },
  "9330906": {
    "zipcode": "9330906",
    "prefectureCode": "16",
    "prefectureNumber": 16,
    "prefecture": "富山県",
    "city": "高岡市",
    "town": "五福町"
  },
  "9330907": {
    "zipcode": "9330907",
    "prefectureCode": "16",
    "prefectureNumber": 16,
    "prefecture": "富山県",
    "city": "高岡市",
    "town": "地子木町"
  },
  "9330908": {
    "zipcode": "9330908",
    "prefectureCode": "16",
    "prefectureNumber": 16,
    "prefecture": "富山県",
    "city": "高岡市",
    "town": "木町"
  },
  "9330909": {
    "zipcode": "9330909",
    "prefectureCode": "16",
    "prefectureNumber": 16,
    "prefecture": "富山県",
    "city": "高岡市",
    "town": "開発本町"
  },
  "9330910": {
    "zipcode": "9330910",
    "prefectureCode": "16",
    "prefectureNumber": 16,
    "prefecture": "富山県",
    "city": "高岡市",
    "town": "袋町"
  },
  "9330911": {
    "zipcode": "9330911",
    "prefectureCode": "16",
    "prefectureNumber": 16,
    "prefecture": "富山県",
    "city": "高岡市",
    "town": "あわら町"
  },
  "9330912": {
    "zipcode": "9330912",
    "prefectureCode": "16",
    "prefectureNumber": 16,
    "prefecture": "富山県",
    "city": "高岡市",
    "town": "丸の内"
  },
  "9330913": {
    "zipcode": "9330913",
    "prefectureCode": "16",
    "prefectureNumber": 16,
    "prefecture": "富山県",
    "city": "高岡市",
    "town": "本町"
  },
  "9330914": {
    "zipcode": "9330914",
    "prefectureCode": "16",
    "prefectureNumber": 16,
    "prefecture": "富山県",
    "city": "高岡市",
    "town": "小馬出町"
  },
  "9330915": {
    "zipcode": "9330915",
    "prefectureCode": "16",
    "prefectureNumber": 16,
    "prefecture": "富山県",
    "city": "高岡市",
    "town": "千木屋町"
  },
  "9330916": {
    "zipcode": "9330916",
    "prefectureCode": "16",
    "prefectureNumber": 16,
    "prefecture": "富山県",
    "city": "高岡市",
    "town": "大町"
  },
  "9330917": {
    "zipcode": "9330917",
    "prefectureCode": "16",
    "prefectureNumber": 16,
    "prefecture": "富山県",
    "city": "高岡市",
    "town": "京町"
  },
  "9330918": {
    "zipcode": "9330918",
    "prefectureCode": "16",
    "prefectureNumber": 16,
    "prefecture": "富山県",
    "city": "高岡市",
    "town": "大坪町"
  },
  "9330919": {
    "zipcode": "9330919",
    "prefectureCode": "16",
    "prefectureNumber": 16,
    "prefecture": "富山県",
    "city": "高岡市",
    "town": "平米町"
  },
  "9330921": {
    "zipcode": "9330921",
    "prefectureCode": "16",
    "prefectureNumber": 16,
    "prefecture": "富山県",
    "city": "高岡市",
    "town": "源平町"
  },
  "9330922": {
    "zipcode": "9330922",
    "prefectureCode": "16",
    "prefectureNumber": 16,
    "prefecture": "富山県",
    "city": "高岡市",
    "town": "三番町"
  },
  "9330923": {
    "zipcode": "9330923",
    "prefectureCode": "16",
    "prefectureNumber": 16,
    "prefecture": "富山県",
    "city": "高岡市",
    "town": "一番町"
  },
  "9330924": {
    "zipcode": "9330924",
    "prefectureCode": "16",
    "prefectureNumber": 16,
    "prefecture": "富山県",
    "city": "高岡市",
    "town": "堀上町"
  },
  "9330925": {
    "zipcode": "9330925",
    "prefectureCode": "16",
    "prefectureNumber": 16,
    "prefecture": "富山県",
    "city": "高岡市",
    "town": "白銀町"
  },
  "9330926": {
    "zipcode": "9330926",
    "prefectureCode": "16",
    "prefectureNumber": 16,
    "prefecture": "富山県",
    "city": "高岡市",
    "town": "御馬出町"
  },
  "9330927": {
    "zipcode": "9330927",
    "prefectureCode": "16",
    "prefectureNumber": 16,
    "prefecture": "富山県",
    "city": "高岡市",
    "town": "利屋町"
  },
  "9330928": {
    "zipcode": "9330928",
    "prefectureCode": "16",
    "prefectureNumber": 16,
    "prefecture": "富山県",
    "city": "高岡市",
    "town": "守山町"
  },
  "9330929": {
    "zipcode": "9330929",
    "prefectureCode": "16",
    "prefectureNumber": 16,
    "prefecture": "富山県",
    "city": "高岡市",
    "town": "木舟町"
  },
  "9330931": {
    "zipcode": "9330931",
    "prefectureCode": "16",
    "prefectureNumber": 16,
    "prefecture": "富山県",
    "city": "高岡市",
    "town": "二番町"
  },
  "9330932": {
    "zipcode": "9330932",
    "prefectureCode": "16",
    "prefectureNumber": 16,
    "prefecture": "富山県",
    "city": "高岡市",
    "town": "鴨島町"
  },
  "9330933": {
    "zipcode": "9330933",
    "prefectureCode": "16",
    "prefectureNumber": 16,
    "prefecture": "富山県",
    "city": "高岡市",
    "town": "南幸町"
  },
  "9330934": {
    "zipcode": "9330934",
    "prefectureCode": "16",
    "prefectureNumber": 16,
    "prefecture": "富山県",
    "city": "高岡市",
    "town": "博労町"
  },
  "9330935": {
    "zipcode": "9330935",
    "prefectureCode": "16",
    "prefectureNumber": 16,
    "prefecture": "富山県",
    "city": "高岡市",
    "town": "博労本町"
  },
  "9330936": {
    "zipcode": "9330936",
    "prefectureCode": "16",
    "prefectureNumber": 16,
    "prefecture": "富山県",
    "city": "高岡市",
    "town": "旅篭町"
  },
  "9330937": {
    "zipcode": "9330937",
    "prefectureCode": "16",
    "prefectureNumber": 16,
    "prefecture": "富山県",
    "city": "高岡市",
    "town": "通町"
  },
  "9330938": {
    "zipcode": "9330938",
    "prefectureCode": "16",
    "prefectureNumber": 16,
    "prefecture": "富山県",
    "city": "高岡市",
    "town": "風呂屋町"
  },
  "9330941": {
    "zipcode": "9330941",
    "prefectureCode": "16",
    "prefectureNumber": 16,
    "prefecture": "富山県",
    "city": "高岡市",
    "town": "内免"
  },
  "9330942": {
    "zipcode": "9330942",
    "prefectureCode": "16",
    "prefectureNumber": 16,
    "prefecture": "富山県",
    "city": "高岡市",
    "town": "川原町"
  },
  "9330943": {
    "zipcode": "9330943",
    "prefectureCode": "16",
    "prefectureNumber": 16,
    "prefecture": "富山県",
    "city": "高岡市",
    "town": "川原本町"
  },
  "9330944": {
    "zipcode": "9330944",
    "prefectureCode": "16",
    "prefectureNumber": 16,
    "prefecture": "富山県",
    "city": "高岡市",
    "town": "中島町"
  },
  "9330945": {
    "zipcode": "9330945",
    "prefectureCode": "16",
    "prefectureNumber": 16,
    "prefecture": "富山県",
    "city": "高岡市",
    "town": "金屋本町"
  },
  "9330946": {
    "zipcode": "9330946",
    "prefectureCode": "16",
    "prefectureNumber": 16,
    "prefecture": "富山県",
    "city": "高岡市",
    "town": "昭和町"
  },
  "9330947": {
    "zipcode": "9330947",
    "prefectureCode": "16",
    "prefectureNumber": 16,
    "prefecture": "富山県",
    "city": "高岡市",
    "town": "本郷"
  },
  "9330948": {
    "zipcode": "9330948",
    "prefectureCode": "16",
    "prefectureNumber": 16,
    "prefecture": "富山県",
    "city": "高岡市",
    "town": "上四屋"
  },
  "9330949": {
    "zipcode": "9330949",
    "prefectureCode": "16",
    "prefectureNumber": 16,
    "prefecture": "富山県",
    "city": "高岡市",
    "town": "四屋"
  },
  "9330951": {
    "zipcode": "9330951",
    "prefectureCode": "16",
    "prefectureNumber": 16,
    "prefecture": "富山県",
    "city": "高岡市",
    "town": "長慶寺"
  },
  "9330952": {
    "zipcode": "9330952",
    "prefectureCode": "16",
    "prefectureNumber": 16,
    "prefecture": "富山県",
    "city": "高岡市",
    "town": "下窪"
  },
  "9330953": {
    "zipcode": "9330953",
    "prefectureCode": "16",
    "prefectureNumber": 16,
    "prefecture": "富山県",
    "city": "高岡市",
    "town": "横田"
  },
  "9330954": {
    "zipcode": "9330954",
    "prefectureCode": "16",
    "prefectureNumber": 16,
    "prefecture": "富山県",
    "city": "高岡市",
    "town": "美幸町"
  },
  "9330955": {
    "zipcode": "9330955",
    "prefectureCode": "16",
    "prefectureNumber": 16,
    "prefecture": "富山県",
    "city": "高岡市",
    "town": "瑞穂町"
  },
  "9330956": {
    "zipcode": "9330956",
    "prefectureCode": "16",
    "prefectureNumber": 16,
    "prefecture": "富山県",
    "city": "高岡市",
    "town": "宮田町"
  },
  "9330957": {
    "zipcode": "9330957",
    "prefectureCode": "16",
    "prefectureNumber": 16,
    "prefecture": "富山県",
    "city": "高岡市",
    "town": "早川"
  },
  "9330958": {
    "zipcode": "9330958",
    "prefectureCode": "16",
    "prefectureNumber": 16,
    "prefecture": "富山県",
    "city": "高岡市",
    "town": "波岡"
  },
  "9330959": {
    "zipcode": "9330959",
    "prefectureCode": "16",
    "prefectureNumber": 16,
    "prefecture": "富山県",
    "city": "高岡市",
    "town": "長江"
  },
  "9330961": {
    "zipcode": "9330961",
    "prefectureCode": "16",
    "prefectureNumber": 16,
    "prefecture": "富山県",
    "city": "高岡市",
    "town": "佐加野"
  },
  "9330962": {
    "zipcode": "9330962",
    "prefectureCode": "16",
    "prefectureNumber": 16,
    "prefecture": "富山県",
    "city": "高岡市",
    "town": "佐加野東"
  },
  "9330963": {
    "zipcode": "9330963",
    "prefectureCode": "16",
    "prefectureNumber": 16,
    "prefecture": "富山県",
    "city": "高岡市",
    "town": "上八ケ新"
  },
  "9330964": {
    "zipcode": "9330964",
    "prefectureCode": "16",
    "prefectureNumber": 16,
    "prefecture": "富山県",
    "city": "高岡市",
    "town": "答野島"
  },
  "9330965": {
    "zipcode": "9330965",
    "prefectureCode": "16",
    "prefectureNumber": 16,
    "prefecture": "富山県",
    "city": "高岡市",
    "town": "高辻"
  },
  "9330966": {
    "zipcode": "9330966",
    "prefectureCode": "16",
    "prefectureNumber": 16,
    "prefecture": "富山県",
    "city": "高岡市",
    "town": "月野谷"
  },
  "9330967": {
    "zipcode": "9330967",
    "prefectureCode": "16",
    "prefectureNumber": 16,
    "prefecture": "富山県",
    "city": "高岡市",
    "town": "手洗野"
  },
  "9330968": {
    "zipcode": "9330968",
    "prefectureCode": "16",
    "prefectureNumber": 16,
    "prefecture": "富山県",
    "city": "高岡市",
    "town": "国吉"
  },
  "9330971": {
    "zipcode": "9330971",
    "prefectureCode": "16",
    "prefectureNumber": 16,
    "prefecture": "富山県",
    "city": "高岡市",
    "town": "五十里西町"
  },
  "9330972": {
    "zipcode": "9330972",
    "prefectureCode": "16",
    "prefectureNumber": 16,
    "prefecture": "富山県",
    "city": "高岡市",
    "town": "五十里東町"
  },
  "9330973": {
    "zipcode": "9330973",
    "prefectureCode": "16",
    "prefectureNumber": 16,
    "prefecture": "富山県",
    "city": "高岡市",
    "town": "五十里"
  },
  "9330974": {
    "zipcode": "9330974",
    "prefectureCode": "16",
    "prefectureNumber": 16,
    "prefecture": "富山県",
    "city": "高岡市",
    "town": "岩坪"
  },
  "9330975": {
    "zipcode": "9330975",
    "prefectureCode": "16",
    "prefectureNumber": 16,
    "prefecture": "富山県",
    "city": "高岡市",
    "town": "答野出"
  },
  "9330976": {
    "zipcode": "9330976",
    "prefectureCode": "16",
    "prefectureNumber": 16,
    "prefecture": "富山県",
    "city": "高岡市",
    "town": "島崎"
  },
  "9330977": {
    "zipcode": "9330977",
    "prefectureCode": "16",
    "prefectureNumber": 16,
    "prefecture": "富山県",
    "city": "高岡市",
    "town": "細池"
  },
  "9330978": {
    "zipcode": "9330978",
    "prefectureCode": "16",
    "prefectureNumber": 16,
    "prefecture": "富山県",
    "city": "高岡市",
    "town": "頭川"
  },
  "9330981": {
    "zipcode": "9330981",
    "prefectureCode": "16",
    "prefectureNumber": 16,
    "prefecture": "富山県",
    "city": "高岡市",
    "town": "二上町"
  },
  "9330982": {
    "zipcode": "9330982",
    "prefectureCode": "16",
    "prefectureNumber": 16,
    "prefecture": "富山県",
    "city": "高岡市",
    "town": "八ケ"
  },
  "9330983": {
    "zipcode": "9330983",
    "prefectureCode": "16",
    "prefectureNumber": 16,
    "prefecture": "富山県",
    "city": "高岡市",
    "town": "守護町新"
  },
  "9330984": {
    "zipcode": "9330984",
    "prefectureCode": "16",
    "prefectureNumber": 16,
    "prefecture": "富山県",
    "city": "高岡市",
    "town": "守山"
  },
  "9330985": {
    "zipcode": "9330985",
    "prefectureCode": "16",
    "prefectureNumber": 16,
    "prefecture": "富山県",
    "city": "高岡市",
    "town": "須田"
  },
  "9330986": {
    "zipcode": "9330986",
    "prefectureCode": "16",
    "prefectureNumber": 16,
    "prefecture": "富山県",
    "city": "高岡市",
    "town": "西海老坂"
  },
  "9330987": {
    "zipcode": "9330987",
    "prefectureCode": "16",
    "prefectureNumber": 16,
    "prefecture": "富山県",
    "city": "高岡市",
    "town": "東海老坂"
  }
}
