{
  "9340001": {
    "zipcode": "9340001",
    "prefectureCode": "16",
    "prefectureNumber": 16,
    "prefecture": "富山県",
    "city": "射水市",
    "town": "庄西町"
  },
  "9340002": {
    "zipcode": "9340002",
    "prefectureCode": "16",
    "prefectureNumber": 16,
    "prefecture": "富山県",
    "city": "射水市",
    "town": "港町"
  },
  "9340003": {
    "zipcode": "9340003",
    "prefectureCode": "16",
    "prefectureNumber": 16,
    "prefecture": "富山県",
    "city": "射水市",
    "town": "庄川本町"
  },
  "9340004": {
    "zipcode": "9340004",
    "prefectureCode": "16",
    "prefectureNumber": 16,
    "prefecture": "富山県",
    "city": "射水市",
    "town": "西新湊"
  },
  "9340005": {
    "zipcode": "9340005",
    "prefectureCode": "16",
    "prefectureNumber": 16,
    "prefecture": "富山県",
    "city": "射水市",
    "town": "善光寺"
  },
  "9340011": {
    "zipcode": "9340011",
    "prefectureCode": "16",
    "prefectureNumber": 16,
    "prefecture": "富山県",
    "city": "射水市",
    "town": "本町"
  },
  "9340012": {
    "zipcode": "9340012",
    "prefectureCode": "16",
    "prefectureNumber": 16,
    "prefecture": "富山県",
    "city": "射水市",
    "town": "中央町"
  },
  "9340013": {
    "zipcode": "9340013",
    "prefectureCode": "16",
    "prefectureNumber": 16,
    "prefecture": "富山県",
    "city": "射水市",
    "town": "立町"
  },
  "9340014": {
    "zipcode": "9340014",
    "prefectureCode": "16",
    "prefectureNumber": 16,
    "prefecture": "富山県",
    "city": "射水市",
    "town": "緑町"
  },
  "9340015": {
    "zipcode": "9340015",
    "prefectureCode": "16",
    "prefectureNumber": 16,
    "prefecture": "富山県",
    "city": "射水市",
    "town": "桜町"
  },
  "9340016": {
    "zipcode": "9340016",
    "prefectureCode": "16",
    "prefectureNumber": 16,
    "prefecture": "富山県",
    "city": "射水市",
    "town": "三日曽根"
  },
  "9340021": {
    "zipcode": "9340021",
    "prefectureCode": "16",
    "prefectureNumber": 16,
    "prefecture": "富山県",
    "city": "射水市",
    "town": "堀岡新明神（西浜）"
  },
  "9340022": {
    "zipcode": "9340022",
    "prefectureCode": "16",
    "prefectureNumber": 16,
    "prefecture": "富山県",
    "city": "射水市",
    "town": "放生津町"
  },
  "9340023": {
    "zipcode": "9340023",
    "prefectureCode": "16",
    "prefectureNumber": 16,
    "prefecture": "富山県",
    "city": "射水市",
    "town": "海王町"
  },
  "9340024": {
    "zipcode": "9340024",
    "prefectureCode": "16",
    "prefectureNumber": 16,
    "prefecture": "富山県",
    "city": "射水市",
    "town": "越の潟町"
  },
  "9340025": {
    "zipcode": "9340025",
    "prefectureCode": "16",
    "prefectureNumber": 16,
    "prefecture": "富山県",
    "city": "射水市",
    "town": "八幡町"
  },
  "9340026": {
    "zipcode": "9340026",
    "prefectureCode": "16",
    "prefectureNumber": 16,
    "prefecture": "富山県",
    "city": "射水市",
    "town": "二の丸町"
  },
  "9340027": {
    "zipcode": "9340027",
    "prefectureCode": "16",
    "prefectureNumber": 16,
    "prefecture": "富山県",
    "city": "射水市",
    "town": "中新湊"
  },
  "9340031": {
    "zipcode": "9340031",
    "prefectureCode": "16",
    "prefectureNumber": 16,
    "prefecture": "富山県",
    "city": "射水市",
    "town": "奈呉の江"
  },
  "9340032": {
    "zipcode": "9340032",
    "prefectureCode": "16",
    "prefectureNumber": 16,
    "prefecture": "富山県",
    "city": "射水市",
    "town": "片口"
  },
  "9340033": {
    "zipcode": "9340033",
    "prefectureCode": "16",
    "prefectureNumber": 16,
    "prefecture": "富山県",
    "city": "射水市",
    "town": "新片町"
  },
  "9340034": {
    "zipcode": "9340034",
    "prefectureCode": "16",
    "prefectureNumber": 16,
    "prefecture": "富山県",
    "city": "射水市",
    "town": "高場新町"
  },
  "9340035": {
    "zipcode": "9340035",
    "prefectureCode": "16",
    "prefectureNumber": 16,
    "prefecture": "富山県",
    "city": "射水市",
    "town": "新堀"
  },
  "9340036": {
    "zipcode": "9340036",
    "prefectureCode": "16",
    "prefectureNumber": 16,
    "prefecture": "富山県",
    "city": "射水市",
    "town": "片口高場"
  },
  "9340037": {
    "zipcode": "9340037",
    "prefectureCode": "16",
    "prefectureNumber": 16,
    "prefecture": "富山県",
    "city": "射水市",
    "town": "片口久々江"
  },
  "9340038": {
    "zipcode": "9340038",
    "prefectureCode": "16",
    "prefectureNumber": 16,
    "prefecture": "富山県",
    "city": "射水市",
    "town": "津幡江"
  },
  "9340039": {
    "zipcode": "9340039",
    "prefectureCode": "16",
    "prefectureNumber": 16,
    "prefecture": "富山県",
    "city": "射水市",
    "town": "久々湊"
  },
  "9340040": {
    "zipcode": "9340040",
    "prefectureCode": "16",
    "prefectureNumber": 16,
    "prefecture": "富山県",
    "city": "射水市",
    "town": "鏡宮弥生"
  },
  "9340041": {
    "zipcode": "9340041",
    "prefectureCode": "16",
    "prefectureNumber": 16,
    "prefecture": "富山県",
    "city": "射水市",
    "town": "作道（新生町）"
  },
  "9340042": {
    "zipcode": "9340042",
    "prefectureCode": "16",
    "prefectureNumber": 16,
    "prefecture": "富山県",
    "city": "射水市",
    "town": "作道（その他）"
  },
  "9340043": {
    "zipcode": "9340043",
    "prefectureCode": "16",
    "prefectureNumber": 16,
    "prefecture": "富山県",
    "city": "射水市",
    "town": "野村"
  },
  "9340044": {
    "zipcode": "9340044",
    "prefectureCode": "16",
    "prefectureNumber": 16,
    "prefecture": "富山県",
    "city": "射水市",
    "town": "殿村"
  },
  "9340045": {
    "zipcode": "9340045",
    "prefectureCode": "16",
    "prefectureNumber": 16,
    "prefecture": "富山県",
    "city": "射水市",
    "town": "沖"
  },
  "9340046": {
    "zipcode": "9340046",
    "prefectureCode": "16",
    "prefectureNumber": 16,
    "prefecture": "富山県",
    "city": "射水市",
    "town": "今井"
  },
  "9340047": {
    "zipcode": "9340047",
    "prefectureCode": "16",
    "prefectureNumber": 16,
    "prefecture": "富山県",
    "city": "射水市",
    "town": "高木"
  },
  "9340048": {
    "zipcode": "9340048",
    "prefectureCode": "16",
    "prefectureNumber": 16,
    "prefecture": "富山県",
    "city": "射水市",
    "town": "布目"
  },
  "9340049": {
    "zipcode": "9340049",
    "prefectureCode": "16",
    "prefectureNumber": 16,
    "prefecture": "富山県",
    "city": "射水市",
    "town": "鏡宮"
  },
  "9340051": {
    "zipcode": "9340051",
    "prefectureCode": "16",
    "prefectureNumber": 16,
    "prefecture": "富山県",
    "city": "射水市",
    "town": "宮袋"
  },
  "9340052": {
    "zipcode": "9340052",
    "prefectureCode": "16",
    "prefectureNumber": 16,
    "prefecture": "富山県",
    "city": "射水市",
    "town": "松木"
  },
  "9340053": {
    "zipcode": "9340053",
    "prefectureCode": "16",
    "prefectureNumber": 16,
    "prefecture": "富山県",
    "city": "射水市",
    "town": "朴木"
  },
  "9340054": {
    "zipcode": "9340054",
    "prefectureCode": "16",
    "prefectureNumber": 16,
    "prefecture": "富山県",
    "city": "射水市",
    "town": "神楽町"
  },
  "9340055": {
    "zipcode": "9340055",
    "prefectureCode": "16",
    "prefectureNumber": 16,
    "prefecture": "富山県",
    "city": "射水市",
    "town": "沖塚原"
  },
  "9340056": {
    "zipcode": "9340056",
    "prefectureCode": "16",
    "prefectureNumber": 16,
    "prefecture": "富山県",
    "city": "射水市",
    "town": "寺塚原"
  },
  "9340057": {
    "zipcode": "9340057",
    "prefectureCode": "16",
    "prefectureNumber": 16,
    "prefecture": "富山県",
    "city": "射水市",
    "town": "坂東"
  },
  "9340058": {
    "zipcode": "9340058",
    "prefectureCode": "16",
    "prefectureNumber": 16,
    "prefecture": "富山県",
    "city": "射水市",
    "town": "川口"
  },
  "9340091": {
    "zipcode": "9340091",
    "prefectureCode": "16",
    "prefectureNumber": 16,
    "prefecture": "富山県",
    "city": "高岡市",
    "town": "下牧野"
  },
  "9340092": {
    "zipcode": "9340092",
    "prefectureCode": "16",
    "prefectureNumber": 16,
    "prefecture": "富山県",
    "city": "高岡市",
    "town": "中曽根"
  },
  "9340093": {
    "zipcode": "9340093",
    "prefectureCode": "16",
    "prefectureNumber": 16,
    "prefecture": "富山県",
    "city": "高岡市",
    "town": "放生津"
  },
  "9340094": {
    "zipcode": "9340094",
    "prefectureCode": "16",
    "prefectureNumber": 16,
    "prefecture": "富山県",
    "city": "高岡市",
    "town": "堀岡又新"
  },
  "9340095": {
    "zipcode": "9340095",
    "prefectureCode": "16",
    "prefectureNumber": 16,
    "prefecture": "富山県",
    "city": "高岡市",
    "town": "石丸"
  },
  "9340096": {
    "zipcode": "9340096",
    "prefectureCode": "16",
    "prefectureNumber": 16,
    "prefecture": "富山県",
    "city": "高岡市",
    "town": "金屋"
  },
  "9340097": {
    "zipcode": "9340097",
    "prefectureCode": "16",
    "prefectureNumber": 16,
    "prefecture": "富山県",
    "city": "高岡市",
    "town": "牧野金屋"
  },
  "9340098": {
    "zipcode": "9340098",
    "prefectureCode": "16",
    "prefectureNumber": 16,
    "prefecture": "富山県",
    "city": "高岡市",
    "town": "上牧野"
  },
  "9340099": {
    "zipcode": "9340099",
    "prefectureCode": "16",
    "prefectureNumber": 16,
    "prefecture": "富山県",
    "city": "高岡市",
    "town": "若葉町"
  }
}
