{
  "9360000": {
    "zipcode": "9360000",
    "prefectureCode": "16",
    "prefectureNumber": 16,
    "prefecture": "富山県",
    "city": "滑川市",
    "town": "以下に掲載がない場合"
  },
  "9360001": {
    "zipcode": "9360001",
    "prefectureCode": "16",
    "prefectureNumber": 16,
    "prefecture": "富山県",
    "city": "滑川市",
    "town": "三ケ"
  },
  "9360002": {
    "zipcode": "9360002",
    "prefectureCode": "16",
    "prefectureNumber": 16,
    "prefecture": "富山県",
    "city": "滑川市",
    "town": "中村"
  },
  "9360003": {
    "zipcode": "9360003",
    "prefectureCode": "16",
    "prefectureNumber": 16,
    "prefecture": "富山県",
    "city": "滑川市",
    "town": "吉浦"
  },
  "9360004": {
    "zipcode": "9360004",
    "prefectureCode": "16",
    "prefectureNumber": 16,
    "prefecture": "富山県",
    "city": "滑川市",
    "town": "笠木"
  },
  "9360005": {
    "zipcode": "9360005",
    "prefectureCode": "16",
    "prefectureNumber": 16,
    "prefecture": "富山県",
    "city": "滑川市",
    "town": "浜四ツ屋"
  },
  "9360006": {
    "zipcode": "9360006",
    "prefectureCode": "16",
    "prefectureNumber": 16,
    "prefecture": "富山県",
    "city": "滑川市",
    "town": "荒俣"
  },
  "9360007": {
    "zipcode": "9360007",
    "prefectureCode": "16",
    "prefectureNumber": 16,
    "prefecture": "富山県",
    "city": "滑川市",
    "town": "荒俣新町"
  },
  "9360011": {
    "zipcode": "9360011",
    "prefectureCode": "16",
    "prefectureNumber": 16,
    "prefecture": "富山県",
    "city": "滑川市",
    "town": "高塚"
  },
  "9360012": {
    "zipcode": "9360012",
    "prefectureCode": "16",
    "prefectureNumber": 16,
    "prefecture": "富山県",
    "city": "滑川市",
    "town": "高塚曙町"
  },
  "9360013": {
    "zipcode": "9360013",
    "prefectureCode": "16",
    "prefectureNumber": 16,
    "prefecture": "富山県",
    "city": "滑川市",
    "town": "高塚新市営住宅"
  },
  "9360014": {
    "zipcode": "9360014",
    "prefectureCode": "16",
    "prefectureNumber": 16,
    "prefecture": "富山県",
    "city": "滑川市",
    "town": "高塚新町"
  },
  "9360015": {
    "zipcode": "9360015",
    "prefectureCode": "16",
    "prefectureNumber": 16,
    "prefecture": "富山県",
    "city": "滑川市",
    "town": "高塚寿町"
  },
  "9360016": {
    "zipcode": "9360016",
    "prefectureCode": "16",
    "prefectureNumber": 16,
    "prefecture": "富山県",
    "city": "滑川市",
    "town": "曲渕"
  },
  "9360017": {
    "zipcode": "9360017",
    "prefectureCode": "16",
    "prefectureNumber": 16,
    "prefecture": "富山県",
    "city": "滑川市",
    "town": "二ツ破"
  },
  "9360018": {
    "zipcode": "9360018",
    "prefectureCode": "16",
    "prefectureNumber": 16,
    "prefecture": "富山県",
    "city": "滑川市",
    "town": "坪川"
  },
  "9360019": {
    "zipcode": "9360019",
    "prefectureCode": "16",
    "prefectureNumber": 16,
    "prefecture": "富山県",
    "city": "滑川市",
    "town": "坪川新"
  },
  "9360021": {
    "zipcode": "9360021",
    "prefectureCode": "16",
    "prefectureNumber": 16,
    "prefecture": "富山県",
    "city": "滑川市",
    "town": "中川原"
  },
  "9360022": {
    "zipcode": "9360022",
    "prefectureCode": "16",
    "prefectureNumber": 16,
    "prefecture": "富山県",
    "city": "滑川市",
    "town": "辰野新町"
  },
  "9360023": {
    "zipcode": "9360023",
    "prefectureCode": "16",
    "prefectureNumber": 16,
    "prefecture": "富山県",
    "city": "滑川市",
    "town": "柳原"
  },
  "9360024": {
    "zipcode": "9360024",
    "prefectureCode": "16",
    "prefectureNumber": 16,
    "prefecture": "富山県",
    "city": "滑川市",
    "town": "辰野"
  },
  "9360025": {
    "zipcode": "9360025",
    "prefectureCode": "16",
    "prefectureNumber": 16,
    "prefecture": "富山県",
    "city": "滑川市",
    "town": "柳原新町"
  },
  "9360026": {
    "zipcode": "9360026",
    "prefectureCode": "16",
    "prefectureNumber": 16,
    "prefecture": "富山県",
    "city": "滑川市",
    "town": "公園通り"
  },
  "9360027": {
    "zipcode": "9360027",
    "prefectureCode": "16",
    "prefectureNumber": 16,
    "prefecture": "富山県",
    "city": "滑川市",
    "town": "常盤町"
  },
  "9360031": {
    "zipcode": "9360031",
    "prefectureCode": "16",
    "prefectureNumber": 16,
    "prefecture": "富山県",
    "city": "滑川市",
    "town": "今町"
  },
  "9360032": {
    "zipcode": "9360032",
    "prefectureCode": "16",
    "prefectureNumber": 16,
    "prefecture": "富山県",
    "city": "滑川市",
    "town": "神明町"
  },
  "9360033": {
    "zipcode": "9360033",
    "prefectureCode": "16",
    "prefectureNumber": 16,
    "prefecture": "富山県",
    "city": "滑川市",
    "town": "吾妻町"
  },
  "9360034": {
    "zipcode": "9360034",
    "prefectureCode": "16",
    "prefectureNumber": 16,
    "prefecture": "富山県",
    "city": "滑川市",
    "town": "吾妻町（雇用促進住宅）"
  },
  "9360035": {
    "zipcode": "9360035",
    "prefectureCode": "16",
    "prefectureNumber": 16,
    "prefecture": "富山県",
    "city": "滑川市",
    "town": "四間町"
  },
  "9360036": {
    "zipcode": "9360036",
    "prefectureCode": "16",
    "prefectureNumber": 16,
    "prefecture": "富山県",
    "city": "滑川市",
    "town": "中町"
  },
  "9360037": {
    "zipcode": "9360037",
    "prefectureCode": "16",
    "prefectureNumber": 16,
    "prefecture": "富山県",
    "city": "滑川市",
    "town": "武平太町"
  },
  "9360038": {
    "zipcode": "9360038",
    "prefectureCode": "16",
    "prefectureNumber": 16,
    "prefecture": "富山県",
    "city": "滑川市",
    "town": "北町"
  },
  "9360039": {
    "zipcode": "9360039",
    "prefectureCode": "16",
    "prefectureNumber": 16,
    "prefecture": "富山県",
    "city": "滑川市",
    "town": "夷子町"
  },
  "9360041": {
    "zipcode": "9360041",
    "prefectureCode": "16",
    "prefectureNumber": 16,
    "prefecture": "富山県",
    "city": "滑川市",
    "town": "松原町"
  },
  "9360042": {
    "zipcode": "9360042",
    "prefectureCode": "16",
    "prefectureNumber": 16,
    "prefecture": "富山県",
    "city": "滑川市",
    "town": "荒町"
  },
  "9360043": {
    "zipcode": "9360043",
    "prefectureCode": "16",
    "prefectureNumber": 16,
    "prefecture": "富山県",
    "city": "滑川市",
    "town": "瓢町"
  },
  "9360044": {
    "zipcode": "9360044",
    "prefectureCode": "16",
    "prefectureNumber": 16,
    "prefecture": "富山県",
    "city": "滑川市",
    "town": "馬町"
  },
  "9360045": {
    "zipcode": "9360045",
    "prefectureCode": "16",
    "prefectureNumber": 16,
    "prefecture": "富山県",
    "city": "滑川市",
    "town": "七間町"
  },
  "9360046": {
    "zipcode": "9360046",
    "prefectureCode": "16",
    "prefectureNumber": 16,
    "prefecture": "富山県",
    "city": "滑川市",
    "town": "河浦町"
  },
  "9360047": {
    "zipcode": "9360047",
    "prefectureCode": "16",
    "prefectureNumber": 16,
    "prefecture": "富山県",
    "city": "滑川市",
    "town": "大町"
  },
  "9360048": {
    "zipcode": "9360048",
    "prefectureCode": "16",
    "prefectureNumber": 16,
    "prefecture": "富山県",
    "city": "滑川市",
    "town": "三穂町"
  },
  "9360051": {
    "zipcode": "9360051",
    "prefectureCode": "16",
    "prefectureNumber": 16,
    "prefecture": "富山県",
    "city": "滑川市",
    "town": "寺家町"
  },
  "9360052": {
    "zipcode": "9360052",
    "prefectureCode": "16",
    "prefectureNumber": 16,
    "prefecture": "富山県",
    "city": "滑川市",
    "town": "清水町"
  },
  "9360053": {
    "zipcode": "9360053",
    "prefectureCode": "16",
    "prefectureNumber": 16,
    "prefecture": "富山県",
    "city": "滑川市",
    "town": "上小泉"
  },
  "9360054": {
    "zipcode": "9360054",
    "prefectureCode": "16",
    "prefectureNumber": 16,
    "prefecture": "富山県",
    "city": "滑川市",
    "town": "上小泉（雇用促進住宅）"
  },
  "9360055": {
    "zipcode": "9360055",
    "prefectureCode": "16",
    "prefectureNumber": 16,
    "prefecture": "富山県",
    "city": "滑川市",
    "town": "泉ケ丘"
  },
  "9360056": {
    "zipcode": "9360056",
    "prefectureCode": "16",
    "prefectureNumber": 16,
    "prefecture": "富山県",
    "city": "滑川市",
    "town": "田中新町"
  },
  "9360057": {
    "zipcode": "9360057",
    "prefectureCode": "16",
    "prefectureNumber": 16,
    "prefecture": "富山県",
    "city": "滑川市",
    "town": "田中町"
  },
  "9360058": {
    "zipcode": "9360058",
    "prefectureCode": "16",
    "prefectureNumber": 16,
    "prefecture": "富山県",
    "city": "滑川市",
    "town": "下小泉町"
  },
  "9360059": {
    "zipcode": "9360059",
    "prefectureCode": "16",
    "prefectureNumber": 16,
    "prefecture": "富山県",
    "city": "滑川市",
    "town": "晒屋"
  },
  "9360060": {
    "zipcode": "9360060",
    "prefectureCode": "16",
    "prefectureNumber": 16,
    "prefecture": "富山県",
    "city": "滑川市",
    "town": "神家町"
  },
  "9360061": {
    "zipcode": "9360061",
    "prefectureCode": "16",
    "prefectureNumber": 16,
    "prefecture": "富山県",
    "city": "滑川市",
    "town": "浜町"
  },
  "9360062": {
    "zipcode": "9360062",
    "prefectureCode": "16",
    "prefectureNumber": 16,
    "prefecture": "富山県",
    "city": "滑川市",
    "town": "橋場町"
  },
  "9360063": {
    "zipcode": "9360063",
    "prefectureCode": "16",
    "prefectureNumber": 16,
    "prefecture": "富山県",
    "city": "滑川市",
    "town": "瀬羽町"
  },
  "9360064": {
    "zipcode": "9360064",
    "prefectureCode": "16",
    "prefectureNumber": 16,
    "prefecture": "富山県",
    "city": "滑川市",
    "town": "河端町"
  },
  "9360065": {
    "zipcode": "9360065",
    "prefectureCode": "16",
    "prefectureNumber": 16,
    "prefecture": "富山県",
    "city": "滑川市",
    "town": "下島"
  },
  "9360066": {
    "zipcode": "9360066",
    "prefectureCode": "16",
    "prefectureNumber": 16,
    "prefecture": "富山県",
    "city": "滑川市",
    "town": "菰原"
  },
  "9360067": {
    "zipcode": "9360067",
    "prefectureCode": "16",
    "prefectureNumber": 16,
    "prefecture": "富山県",
    "city": "滑川市",
    "town": "菰原台"
  },
  "9360068": {
    "zipcode": "9360068",
    "prefectureCode": "16",
    "prefectureNumber": 16,
    "prefecture": "富山県",
    "city": "滑川市",
    "town": "加島町"
  },
  "9360069": {
    "zipcode": "9360069",
    "prefectureCode": "16",
    "prefectureNumber": 16,
    "prefecture": "富山県",
    "city": "滑川市",
    "town": "山王町"
  },
  "9360070": {
    "zipcode": "9360070",
    "prefectureCode": "16",
    "prefectureNumber": 16,
    "prefecture": "富山県",
    "city": "滑川市",
    "town": "横町"
  },
  "9360071": {
    "zipcode": "9360071",
    "prefectureCode": "16",
    "prefectureNumber": 16,
    "prefecture": "富山県",
    "city": "滑川市",
    "town": "領家町"
  },
  "9360072": {
    "zipcode": "9360072",
    "prefectureCode": "16",
    "prefectureNumber": 16,
    "prefecture": "富山県",
    "city": "滑川市",
    "town": "緑町"
  },
  "9360073": {
    "zipcode": "9360073",
    "prefectureCode": "16",
    "prefectureNumber": 16,
    "prefecture": "富山県",
    "city": "滑川市",
    "town": "幸町"
  },
  "9360074": {
    "zipcode": "9360074",
    "prefectureCode": "16",
    "prefectureNumber": 16,
    "prefecture": "富山県",
    "city": "滑川市",
    "town": "新富町"
  },
  "9360075": {
    "zipcode": "9360075",
    "prefectureCode": "16",
    "prefectureNumber": 16,
    "prefecture": "富山県",
    "city": "滑川市",
    "town": "江尻"
  },
  "9360076": {
    "zipcode": "9360076",
    "prefectureCode": "16",
    "prefectureNumber": 16,
    "prefecture": "富山県",
    "city": "滑川市",
    "town": "高月南台"
  },
  "9360077": {
    "zipcode": "9360077",
    "prefectureCode": "16",
    "prefectureNumber": 16,
    "prefecture": "富山県",
    "city": "滑川市",
    "town": "魚躬"
  },
  "9360078": {
    "zipcode": "9360078",
    "prefectureCode": "16",
    "prefectureNumber": 16,
    "prefecture": "富山県",
    "city": "滑川市",
    "town": "高月町"
  },
  "9360801": {
    "zipcode": "9360801",
    "prefectureCode": "16",
    "prefectureNumber": 16,
    "prefecture": "富山県",
    "city": "滑川市",
    "town": "大島"
  },
  "9360802": {
    "zipcode": "9360802",
    "prefectureCode": "16",
    "prefectureNumber": 16,
    "prefecture": "富山県",
    "city": "滑川市",
    "town": "大掛"
  },
  "9360803": {
    "zipcode": "9360803",
    "prefectureCode": "16",
    "prefectureNumber": 16,
    "prefecture": "富山県",
    "city": "滑川市",
    "town": "栗山"
  },
  "9360804": {
    "zipcode": "9360804",
    "prefectureCode": "16",
    "prefectureNumber": 16,
    "prefecture": "富山県",
    "city": "滑川市",
    "town": "杉本"
  },
  "9360805": {
    "zipcode": "9360805",
    "prefectureCode": "16",
    "prefectureNumber": 16,
    "prefecture": "富山県",
    "city": "滑川市",
    "town": "大窪"
  },
  "9360806": {
    "zipcode": "9360806",
    "prefectureCode": "16",
    "prefectureNumber": 16,
    "prefecture": "富山県",
    "city": "滑川市",
    "town": "北野"
  },
  "9360807": {
    "zipcode": "9360807",
    "prefectureCode": "16",
    "prefectureNumber": 16,
    "prefecture": "富山県",
    "city": "滑川市",
    "town": "四ツ屋"
  },
  "9360808": {
    "zipcode": "9360808",
    "prefectureCode": "16",
    "prefectureNumber": 16,
    "prefecture": "富山県",
    "city": "滑川市",
    "town": "追分"
  },
  "9360811": {
    "zipcode": "9360811",
    "prefectureCode": "16",
    "prefectureNumber": 16,
    "prefecture": "富山県",
    "city": "滑川市",
    "town": "下大浦"
  },
  "9360812": {
    "zipcode": "9360812",
    "prefectureCode": "16",
    "prefectureNumber": 16,
    "prefecture": "富山県",
    "city": "滑川市",
    "town": "堀内"
  },
  "9360813": {
    "zipcode": "9360813",
    "prefectureCode": "16",
    "prefectureNumber": 16,
    "prefecture": "富山県",
    "city": "滑川市",
    "town": "大日"
  },
  "9360814": {
    "zipcode": "9360814",
    "prefectureCode": "16",
    "prefectureNumber": 16,
    "prefecture": "富山県",
    "city": "滑川市",
    "town": "千鳥"
  },
  "9360815": {
    "zipcode": "9360815",
    "prefectureCode": "16",
    "prefectureNumber": 16,
    "prefecture": "富山県",
    "city": "滑川市",
    "town": "室山"
  },
  "9360816": {
    "zipcode": "9360816",
    "prefectureCode": "16",
    "prefectureNumber": 16,
    "prefecture": "富山県",
    "city": "滑川市",
    "town": "中野"
  },
  "9360817": {
    "zipcode": "9360817",
    "prefectureCode": "16",
    "prefectureNumber": 16,
    "prefecture": "富山県",
    "city": "滑川市",
    "town": "下野"
  },
  "9360818": {
    "zipcode": "9360818",
    "prefectureCode": "16",
    "prefectureNumber": 16,
    "prefecture": "富山県",
    "city": "滑川市",
    "town": "大林"
  },
  "9360821": {
    "zipcode": "9360821",
    "prefectureCode": "16",
    "prefectureNumber": 16,
    "prefecture": "富山県",
    "city": "滑川市",
    "town": "蓑輪"
  },
  "9360822": {
    "zipcode": "9360822",
    "prefectureCode": "16",
    "prefectureNumber": 16,
    "prefecture": "富山県",
    "city": "滑川市",
    "town": "小森"
  },
  "9360823": {
    "zipcode": "9360823",
    "prefectureCode": "16",
    "prefectureNumber": 16,
    "prefecture": "富山県",
    "city": "滑川市",
    "town": "東福寺野"
  },
  "9360824": {
    "zipcode": "9360824",
    "prefectureCode": "16",
    "prefectureNumber": 16,
    "prefecture": "富山県",
    "city": "滑川市",
    "town": "本江"
  },
  "9360825": {
    "zipcode": "9360825",
    "prefectureCode": "16",
    "prefectureNumber": 16,
    "prefecture": "富山県",
    "city": "滑川市",
    "town": "安田"
  },
  "9360826": {
    "zipcode": "9360826",
    "prefectureCode": "16",
    "prefectureNumber": 16,
    "prefecture": "富山県",
    "city": "滑川市",
    "town": "田林"
  },
  "9360827": {
    "zipcode": "9360827",
    "prefectureCode": "16",
    "prefectureNumber": 16,
    "prefecture": "富山県",
    "city": "滑川市",
    "town": "東福寺"
  },
  "9360831": {
    "zipcode": "9360831",
    "prefectureCode": "16",
    "prefectureNumber": 16,
    "prefecture": "富山県",
    "city": "滑川市",
    "town": "野尻"
  },
  "9360832": {
    "zipcode": "9360832",
    "prefectureCode": "16",
    "prefectureNumber": 16,
    "prefecture": "富山県",
    "city": "滑川市",
    "town": "森野新"
  },
  "9360833": {
    "zipcode": "9360833",
    "prefectureCode": "16",
    "prefectureNumber": 16,
    "prefecture": "富山県",
    "city": "滑川市",
    "town": "大崎野"
  },
  "9360834": {
    "zipcode": "9360834",
    "prefectureCode": "16",
    "prefectureNumber": 16,
    "prefecture": "富山県",
    "city": "滑川市",
    "town": "東福寺開"
  },
  "9360835": {
    "zipcode": "9360835",
    "prefectureCode": "16",
    "prefectureNumber": 16,
    "prefecture": "富山県",
    "city": "滑川市",
    "town": "開"
  },
  "9360836": {
    "zipcode": "9360836",
    "prefectureCode": "16",
    "prefectureNumber": 16,
    "prefecture": "富山県",
    "city": "滑川市",
    "town": "改養寺"
  },
  "9360837": {
    "zipcode": "9360837",
    "prefectureCode": "16",
    "prefectureNumber": 16,
    "prefecture": "富山県",
    "city": "滑川市",
    "town": "東金屋"
  },
  "9360838": {
    "zipcode": "9360838",
    "prefectureCode": "16",
    "prefectureNumber": 16,
    "prefecture": "富山県",
    "city": "滑川市",
    "town": "道寺"
  },
  "9360841": {
    "zipcode": "9360841",
    "prefectureCode": "16",
    "prefectureNumber": 16,
    "prefecture": "富山県",
    "city": "滑川市",
    "town": "柴"
  },
  "9360842": {
    "zipcode": "9360842",
    "prefectureCode": "16",
    "prefectureNumber": 16,
    "prefecture": "富山県",
    "city": "滑川市",
    "town": "赤浜栄町"
  },
  "9360843": {
    "zipcode": "9360843",
    "prefectureCode": "16",
    "prefectureNumber": 16,
    "prefecture": "富山県",
    "city": "滑川市",
    "town": "赤浜"
  },
  "9360844": {
    "zipcode": "9360844",
    "prefectureCode": "16",
    "prefectureNumber": 16,
    "prefecture": "富山県",
    "city": "滑川市",
    "town": "寺町"
  },
  "9360845": {
    "zipcode": "9360845",
    "prefectureCode": "16",
    "prefectureNumber": 16,
    "prefecture": "富山県",
    "city": "滑川市",
    "town": "森尻新"
  },
  "9360846": {
    "zipcode": "9360846",
    "prefectureCode": "16",
    "prefectureNumber": 16,
    "prefecture": "富山県",
    "city": "滑川市",
    "town": "堀江"
  },
  "9360847": {
    "zipcode": "9360847",
    "prefectureCode": "16",
    "prefectureNumber": 16,
    "prefecture": "富山県",
    "city": "滑川市",
    "town": "天望町"
  },
  "9360848": {
    "zipcode": "9360848",
    "prefectureCode": "16",
    "prefectureNumber": 16,
    "prefecture": "富山県",
    "city": "滑川市",
    "town": "常光寺"
  },
  "9360849": {
    "zipcode": "9360849",
    "prefectureCode": "16",
    "prefectureNumber": 16,
    "prefecture": "富山県",
    "city": "滑川市",
    "town": "高柳"
  },
  "9360851": {
    "zipcode": "9360851",
    "prefectureCode": "16",
    "prefectureNumber": 16,
    "prefecture": "富山県",
    "city": "滑川市",
    "town": "沖田新"
  },
  "9360852": {
    "zipcode": "9360852",
    "prefectureCode": "16",
    "prefectureNumber": 16,
    "prefecture": "富山県",
    "city": "滑川市",
    "town": "上島"
  },
  "9360853": {
    "zipcode": "9360853",
    "prefectureCode": "16",
    "prefectureNumber": 16,
    "prefecture": "富山県",
    "city": "滑川市",
    "town": "上梅沢"
  },
  "9360854": {
    "zipcode": "9360854",
    "prefectureCode": "16",
    "prefectureNumber": 16,
    "prefecture": "富山県",
    "city": "滑川市",
    "town": "小林"
  },
  "9360855": {
    "zipcode": "9360855",
    "prefectureCode": "16",
    "prefectureNumber": 16,
    "prefecture": "富山県",
    "city": "滑川市",
    "town": "有金"
  },
  "9360856": {
    "zipcode": "9360856",
    "prefectureCode": "16",
    "prefectureNumber": 16,
    "prefecture": "富山県",
    "city": "滑川市",
    "town": "大門"
  },
  "9360857": {
    "zipcode": "9360857",
    "prefectureCode": "16",
    "prefectureNumber": 16,
    "prefecture": "富山県",
    "city": "滑川市",
    "town": "下梅沢"
  },
  "9360861": {
    "zipcode": "9360861",
    "prefectureCode": "16",
    "prefectureNumber": 16,
    "prefecture": "富山県",
    "city": "滑川市",
    "town": "中新"
  },
  "9360862": {
    "zipcode": "9360862",
    "prefectureCode": "16",
    "prefectureNumber": 16,
    "prefecture": "富山県",
    "city": "滑川市",
    "town": "四屋新"
  },
  "9360863": {
    "zipcode": "9360863",
    "prefectureCode": "16",
    "prefectureNumber": 16,
    "prefecture": "富山県",
    "city": "滑川市",
    "town": "栃山"
  },
  "9360864": {
    "zipcode": "9360864",
    "prefectureCode": "16",
    "prefectureNumber": 16,
    "prefecture": "富山県",
    "city": "滑川市",
    "town": "金屋"
  },
  "9360865": {
    "zipcode": "9360865",
    "prefectureCode": "16",
    "prefectureNumber": 16,
    "prefecture": "富山県",
    "city": "滑川市",
    "town": "七口"
  },
  "9360866": {
    "zipcode": "9360866",
    "prefectureCode": "16",
    "prefectureNumber": 16,
    "prefecture": "富山県",
    "city": "滑川市",
    "town": "宮窪新"
  },
  "9360867": {
    "zipcode": "9360867",
    "prefectureCode": "16",
    "prefectureNumber": 16,
    "prefecture": "富山県",
    "city": "滑川市",
    "town": "宮窪台"
  },
  "9360868": {
    "zipcode": "9360868",
    "prefectureCode": "16",
    "prefectureNumber": 16,
    "prefecture": "富山県",
    "city": "滑川市",
    "town": "宮窪"
  },
  "9360871": {
    "zipcode": "9360871",
    "prefectureCode": "16",
    "prefectureNumber": 16,
    "prefecture": "富山県",
    "city": "滑川市",
    "town": "大島新"
  },
  "9360872": {
    "zipcode": "9360872",
    "prefectureCode": "16",
    "prefectureNumber": 16,
    "prefecture": "富山県",
    "city": "滑川市",
    "town": "二塚"
  },
  "9360873": {
    "zipcode": "9360873",
    "prefectureCode": "16",
    "prefectureNumber": 16,
    "prefecture": "富山県",
    "city": "滑川市",
    "town": "横道"
  },
  "9360874": {
    "zipcode": "9360874",
    "prefectureCode": "16",
    "prefectureNumber": 16,
    "prefecture": "富山県",
    "city": "滑川市",
    "town": "大榎"
  },
  "9360875": {
    "zipcode": "9360875",
    "prefectureCode": "16",
    "prefectureNumber": 16,
    "prefecture": "富山県",
    "city": "滑川市",
    "town": "中塚"
  },
  "9360876": {
    "zipcode": "9360876",
    "prefectureCode": "16",
    "prefectureNumber": 16,
    "prefecture": "富山県",
    "city": "滑川市",
    "town": "稲泉新"
  },
  "9360877": {
    "zipcode": "9360877",
    "prefectureCode": "16",
    "prefectureNumber": 16,
    "prefecture": "富山県",
    "city": "滑川市",
    "town": "稲泉"
  },
  "9360881": {
    "zipcode": "9360881",
    "prefectureCode": "16",
    "prefectureNumber": 16,
    "prefecture": "富山県",
    "city": "滑川市",
    "town": "藤栄"
  },
  "9360882": {
    "zipcode": "9360882",
    "prefectureCode": "16",
    "prefectureNumber": 16,
    "prefecture": "富山県",
    "city": "滑川市",
    "town": "中野島"
  },
  "9360883": {
    "zipcode": "9360883",
    "prefectureCode": "16",
    "prefectureNumber": 16,
    "prefecture": "富山県",
    "city": "滑川市",
    "town": "野町"
  },
  "9360884": {
    "zipcode": "9360884",
    "prefectureCode": "16",
    "prefectureNumber": 16,
    "prefecture": "富山県",
    "city": "滑川市",
    "town": "米島"
  },
  "9360885": {
    "zipcode": "9360885",
    "prefectureCode": "16",
    "prefectureNumber": 16,
    "prefecture": "富山県",
    "city": "滑川市",
    "town": "法花寺"
  },
  "9360891": {
    "zipcode": "9360891",
    "prefectureCode": "16",
    "prefectureNumber": 16,
    "prefecture": "富山県",
    "city": "中新川郡上市町",
    "town": "護摩堂"
  }
}
