{
  "9380000": {
    "zipcode": "9380000",
    "prefectureCode": "16",
    "prefectureNumber": 16,
    "prefecture": "富山県",
    "city": "黒部市",
    "town": "以下に掲載がない場合"
  },
  "9380001": {
    "zipcode": "9380001",
    "prefectureCode": "16",
    "prefectureNumber": 16,
    "prefecture": "富山県",
    "city": "黒部市",
    "town": "荒俣"
  },
  "9380002": {
    "zipcode": "9380002",
    "prefectureCode": "16",
    "prefectureNumber": 16,
    "prefecture": "富山県",
    "city": "黒部市",
    "town": "飛騨"
  },
  "9380003": {
    "zipcode": "9380003",
    "prefectureCode": "16",
    "prefectureNumber": 16,
    "prefecture": "富山県",
    "city": "黒部市",
    "town": "六天"
  },
  "9380004": {
    "zipcode": "9380004",
    "prefectureCode": "16",
    "prefectureNumber": 16,
    "prefecture": "富山県",
    "city": "黒部市",
    "town": "飯沢"
  },
  "9380005": {
    "zipcode": "9380005",
    "prefectureCode": "16",
    "prefectureNumber": 16,
    "prefecture": "富山県",
    "city": "黒部市",
    "town": "吉田"
  },
  "9380006": {
    "zipcode": "9380006",
    "prefectureCode": "16",
    "prefectureNumber": 16,
    "prefecture": "富山県",
    "city": "黒部市",
    "town": "大開"
  },
  "9380011": {
    "zipcode": "9380011",
    "prefectureCode": "16",
    "prefectureNumber": 16,
    "prefecture": "富山県",
    "city": "黒部市",
    "town": "黒部新"
  },
  "9380012": {
    "zipcode": "9380012",
    "prefectureCode": "16",
    "prefectureNumber": 16,
    "prefecture": "富山県",
    "city": "黒部市",
    "town": "出島"
  },
  "9380013": {
    "zipcode": "9380013",
    "prefectureCode": "16",
    "prefectureNumber": 16,
    "prefecture": "富山県",
    "city": "黒部市",
    "town": "沓掛"
  },
  "9380014": {
    "zipcode": "9380014",
    "prefectureCode": "16",
    "prefectureNumber": 16,
    "prefecture": "富山県",
    "city": "黒部市",
    "town": "植木"
  },
  "9380015": {
    "zipcode": "9380015",
    "prefectureCode": "16",
    "prefectureNumber": 16,
    "prefecture": "富山県",
    "city": "黒部市",
    "town": "北野"
  },
  "9380021": {
    "zipcode": "9380021",
    "prefectureCode": "16",
    "prefectureNumber": 16,
    "prefecture": "富山県",
    "city": "黒部市",
    "town": "古御堂"
  },
  "9380022": {
    "zipcode": "9380022",
    "prefectureCode": "16",
    "prefectureNumber": 16,
    "prefecture": "富山県",
    "city": "黒部市",
    "town": "金屋"
  },
  "9380023": {
    "zipcode": "9380023",
    "prefectureCode": "16",
    "prefectureNumber": 16,
    "prefecture": "富山県",
    "city": "黒部市",
    "town": "堀高"
  },
  "9380024": {
    "zipcode": "9380024",
    "prefectureCode": "16",
    "prefectureNumber": 16,
    "prefecture": "富山県",
    "city": "黒部市",
    "town": "高橋"
  },
  "9380025": {
    "zipcode": "9380025",
    "prefectureCode": "16",
    "prefectureNumber": 16,
    "prefecture": "富山県",
    "city": "黒部市",
    "town": "堀切新"
  },
  "9380026": {
    "zipcode": "9380026",
    "prefectureCode": "16",
    "prefectureNumber": 16,
    "prefecture": "富山県",
    "city": "黒部市",
    "town": "田家角内"
  },
  "9380027": {
    "zipcode": "9380027",
    "prefectureCode": "16",
    "prefectureNumber": 16,
    "prefecture": "富山県",
    "city": "黒部市",
    "town": "中新"
  },
  "9380028": {
    "zipcode": "9380028",
    "prefectureCode": "16",
    "prefectureNumber": 16,
    "prefecture": "富山県",
    "city": "黒部市",
    "town": "栃沢"
  },
  "9380031": {
    "zipcode": "9380031",
    "prefectureCode": "16",
    "prefectureNumber": 16,
    "prefecture": "富山県",
    "city": "黒部市",
    "town": "三日市"
  },
  "9380032": {
    "zipcode": "9380032",
    "prefectureCode": "16",
    "prefectureNumber": 16,
    "prefecture": "富山県",
    "city": "黒部市",
    "town": "天池"
  },
  "9380033": {
    "zipcode": "9380033",
    "prefectureCode": "16",
    "prefectureNumber": 16,
    "prefecture": "富山県",
    "city": "黒部市",
    "town": "中野道"
  },
  "9380034": {
    "zipcode": "9380034",
    "prefectureCode": "16",
    "prefectureNumber": 16,
    "prefecture": "富山県",
    "city": "黒部市",
    "town": "中野"
  },
  "9380035": {
    "zipcode": "9380035",
    "prefectureCode": "16",
    "prefectureNumber": 16,
    "prefecture": "富山県",
    "city": "黒部市",
    "town": "牧野"
  },
  "9380036": {
    "zipcode": "9380036",
    "prefectureCode": "16",
    "prefectureNumber": 16,
    "prefecture": "富山県",
    "city": "黒部市",
    "town": "北新"
  },
  "9380037": {
    "zipcode": "9380037",
    "prefectureCode": "16",
    "prefectureNumber": 16,
    "prefecture": "富山県",
    "city": "黒部市",
    "town": "新牧野"
  },
  "9380038": {
    "zipcode": "9380038",
    "prefectureCode": "16",
    "prefectureNumber": 16,
    "prefecture": "富山県",
    "city": "黒部市",
    "town": "新天"
  },
  "9380039": {
    "zipcode": "9380039",
    "prefectureCode": "16",
    "prefectureNumber": 16,
    "prefecture": "富山県",
    "city": "黒部市",
    "town": "堂田"
  },
  "9380041": {
    "zipcode": "9380041",
    "prefectureCode": "16",
    "prefectureNumber": 16,
    "prefecture": "富山県",
    "city": "黒部市",
    "town": "堀切"
  },
  "9380042": {
    "zipcode": "9380042",
    "prefectureCode": "16",
    "prefectureNumber": 16,
    "prefecture": "富山県",
    "city": "黒部市",
    "town": "天神新"
  },
  "9380043": {
    "zipcode": "9380043",
    "prefectureCode": "16",
    "prefectureNumber": 16,
    "prefecture": "富山県",
    "city": "黒部市",
    "town": "犬山"
  },
  "9380044": {
    "zipcode": "9380044",
    "prefectureCode": "16",
    "prefectureNumber": 16,
    "prefecture": "富山県",
    "city": "黒部市",
    "town": "荒町"
  },
  "9380045": {
    "zipcode": "9380045",
    "prefectureCode": "16",
    "prefectureNumber": 16,
    "prefecture": "富山県",
    "city": "黒部市",
    "town": "田家新"
  },
  "9380046": {
    "zipcode": "9380046",
    "prefectureCode": "16",
    "prefectureNumber": 16,
    "prefecture": "富山県",
    "city": "黒部市",
    "town": "神谷"
  },
  "9380047": {
    "zipcode": "9380047",
    "prefectureCode": "16",
    "prefectureNumber": 16,
    "prefecture": "富山県",
    "city": "黒部市",
    "town": "窪野"
  },
  "9380048": {
    "zipcode": "9380048",
    "prefectureCode": "16",
    "prefectureNumber": 16,
    "prefecture": "富山県",
    "city": "黒部市",
    "town": "阿古屋野"
  },
  "9380049": {
    "zipcode": "9380049",
    "prefectureCode": "16",
    "prefectureNumber": 16,
    "prefecture": "富山県",
    "city": "黒部市",
    "town": "山田"
  },
  "9380051": {
    "zipcode": "9380051",
    "prefectureCode": "16",
    "prefectureNumber": 16,
    "prefecture": "富山県",
    "city": "黒部市",
    "town": "立野"
  },
  "9380052": {
    "zipcode": "9380052",
    "prefectureCode": "16",
    "prefectureNumber": 16,
    "prefecture": "富山県",
    "city": "黒部市",
    "town": "経立野"
  },
  "9380053": {
    "zipcode": "9380053",
    "prefectureCode": "16",
    "prefectureNumber": 16,
    "prefecture": "富山県",
    "city": "黒部市",
    "town": "山立野"
  },
  "9380054": {
    "zipcode": "9380054",
    "prefectureCode": "16",
    "prefectureNumber": 16,
    "prefecture": "富山県",
    "city": "黒部市",
    "town": "岡"
  },
  "9380055": {
    "zipcode": "9380055",
    "prefectureCode": "16",
    "prefectureNumber": 16,
    "prefecture": "富山県",
    "city": "黒部市",
    "town": "浜石田"
  },
  "9380056": {
    "zipcode": "9380056",
    "prefectureCode": "16",
    "prefectureNumber": 16,
    "prefecture": "富山県",
    "city": "黒部市",
    "town": "新町"
  },
  "9380057": {
    "zipcode": "9380057",
    "prefectureCode": "16",
    "prefectureNumber": 16,
    "prefecture": "富山県",
    "city": "黒部市",
    "town": "石田新"
  },
  "9380058": {
    "zipcode": "9380058",
    "prefectureCode": "16",
    "prefectureNumber": 16,
    "prefecture": "富山県",
    "city": "黒部市",
    "town": "正光寺新"
  },
  "9380059": {
    "zipcode": "9380059",
    "prefectureCode": "16",
    "prefectureNumber": 16,
    "prefecture": "富山県",
    "city": "黒部市",
    "town": "石田"
  },
  "9380061": {
    "zipcode": "9380061",
    "prefectureCode": "16",
    "prefectureNumber": 16,
    "prefecture": "富山県",
    "city": "黒部市",
    "town": "生地神区"
  },
  "9380062": {
    "zipcode": "9380062",
    "prefectureCode": "16",
    "prefectureNumber": 16,
    "prefecture": "富山県",
    "city": "黒部市",
    "town": "生地（轟下）"
  },
  "9380063": {
    "zipcode": "9380063",
    "prefectureCode": "16",
    "prefectureNumber": 16,
    "prefecture": "富山県",
    "city": "黒部市",
    "town": "生地四ツ屋新"
  },
  "9380064": {
    "zipcode": "9380064",
    "prefectureCode": "16",
    "prefectureNumber": 16,
    "prefecture": "富山県",
    "city": "黒部市",
    "town": "生地（緑町）"
  },
  "9380065": {
    "zipcode": "9380065",
    "prefectureCode": "16",
    "prefectureNumber": 16,
    "prefecture": "富山県",
    "city": "黒部市",
    "town": "生地（神明町）"
  },
  "9380066": {
    "zipcode": "9380066",
    "prefectureCode": "16",
    "prefectureNumber": 16,
    "prefecture": "富山県",
    "city": "黒部市",
    "town": "生地"
  },
  "9380071": {
    "zipcode": "9380071",
    "prefectureCode": "16",
    "prefectureNumber": 16,
    "prefecture": "富山県",
    "city": "黒部市",
    "town": "生地山新"
  },
  "9380072": {
    "zipcode": "9380072",
    "prefectureCode": "16",
    "prefectureNumber": 16,
    "prefecture": "富山県",
    "city": "黒部市",
    "town": "生地中区"
  },
  "9380073": {
    "zipcode": "9380073",
    "prefectureCode": "16",
    "prefectureNumber": 16,
    "prefecture": "富山県",
    "city": "黒部市",
    "town": "生地（上町）"
  },
  "9380074": {
    "zipcode": "9380074",
    "prefectureCode": "16",
    "prefectureNumber": 16,
    "prefecture": "富山県",
    "city": "黒部市",
    "town": "生地（四十物町）"
  },
  "9380075": {
    "zipcode": "9380075",
    "prefectureCode": "16",
    "prefectureNumber": 16,
    "prefecture": "富山県",
    "city": "黒部市",
    "town": "生地（大町）"
  },
  "9380076": {
    "zipcode": "9380076",
    "prefectureCode": "16",
    "prefectureNumber": 16,
    "prefecture": "富山県",
    "city": "黒部市",
    "town": "生地（宮川町）"
  },
  "9380081": {
    "zipcode": "9380081",
    "prefectureCode": "16",
    "prefectureNumber": 16,
    "prefecture": "富山県",
    "city": "黒部市",
    "town": "生地経新"
  },
  "9380082": {
    "zipcode": "9380082",
    "prefectureCode": "16",
    "prefectureNumber": 16,
    "prefecture": "富山県",
    "city": "黒部市",
    "town": "生地芦区"
  },
  "9380083": {
    "zipcode": "9380083",
    "prefectureCode": "16",
    "prefectureNumber": 16,
    "prefecture": "富山県",
    "city": "黒部市",
    "town": "生地（阿弥陀堂）"
  },
  "9380084": {
    "zipcode": "9380084",
    "prefectureCode": "16",
    "prefectureNumber": 16,
    "prefecture": "富山県",
    "city": "黒部市",
    "town": "生地芦崎"
  },
  "9380085": {
    "zipcode": "9380085",
    "prefectureCode": "16",
    "prefectureNumber": 16,
    "prefecture": "富山県",
    "city": "黒部市",
    "town": "生地吉田"
  },
  "9380086": {
    "zipcode": "9380086",
    "prefectureCode": "16",
    "prefectureNumber": 16,
    "prefecture": "富山県",
    "city": "黒部市",
    "town": "生地吉田新"
  },
  "9380101": {
    "zipcode": "9380101",
    "prefectureCode": "16",
    "prefectureNumber": 16,
    "prefecture": "富山県",
    "city": "下新川郡入善町",
    "town": "今江"
  },
  "9380102": {
    "zipcode": "9380102",
    "prefectureCode": "16",
    "prefectureNumber": 16,
    "prefecture": "富山県",
    "city": "下新川郡入善町",
    "town": "古林"
  },
  "9380103": {
    "zipcode": "9380103",
    "prefectureCode": "16",
    "prefectureNumber": 16,
    "prefecture": "富山県",
    "city": "下新川郡入善町",
    "town": "舟見"
  },
  "9380104": {
    "zipcode": "9380104",
    "prefectureCode": "16",
    "prefectureNumber": 16,
    "prefecture": "富山県",
    "city": "下新川郡入善町",
    "town": "西中"
  },
  "9380105": {
    "zipcode": "9380105",
    "prefectureCode": "16",
    "prefectureNumber": 16,
    "prefecture": "富山県",
    "city": "下新川郡入善町",
    "town": "中沢"
  },
  "9380106": {
    "zipcode": "9380106",
    "prefectureCode": "16",
    "prefectureNumber": 16,
    "prefecture": "富山県",
    "city": "下新川郡入善町",
    "town": "野中"
  },
  "9380161": {
    "zipcode": "9380161",
    "prefectureCode": "16",
    "prefectureNumber": 16,
    "prefecture": "富山県",
    "city": "下新川郡朝日町",
    "town": "殿町"
  },
  "9380162": {
    "zipcode": "9380162",
    "prefectureCode": "16",
    "prefectureNumber": 16,
    "prefecture": "富山県",
    "city": "下新川郡朝日町",
    "town": "山崎（坊）"
  },
  "9380163": {
    "zipcode": "9380163",
    "prefectureCode": "16",
    "prefectureNumber": 16,
    "prefecture": "富山県",
    "city": "下新川郡朝日町",
    "town": "湯ノ瀬"
  },
  "9380164": {
    "zipcode": "9380164",
    "prefectureCode": "16",
    "prefectureNumber": 16,
    "prefecture": "富山県",
    "city": "下新川郡朝日町",
    "town": "棚山"
  },
  "9380165": {
    "zipcode": "9380165",
    "prefectureCode": "16",
    "prefectureNumber": 16,
    "prefecture": "富山県",
    "city": "下新川郡朝日町",
    "town": "山崎新"
  },
  "9380166": {
    "zipcode": "9380166",
    "prefectureCode": "16",
    "prefectureNumber": 16,
    "prefecture": "富山県",
    "city": "下新川郡朝日町",
    "town": "細野"
  },
  "9380167": {
    "zipcode": "9380167",
    "prefectureCode": "16",
    "prefectureNumber": 16,
    "prefecture": "富山県",
    "city": "下新川郡朝日町",
    "town": "山王"
  },
  "9380168": {
    "zipcode": "9380168",
    "prefectureCode": "16",
    "prefectureNumber": 16,
    "prefecture": "富山県",
    "city": "下新川郡朝日町",
    "town": "藤塚（横道）"
  },
  "9380169": {
    "zipcode": "9380169",
    "prefectureCode": "16",
    "prefectureNumber": 16,
    "prefecture": "富山県",
    "city": "下新川郡朝日町",
    "town": "下野"
  },
  "9380171": {
    "zipcode": "9380171",
    "prefectureCode": "16",
    "prefectureNumber": 16,
    "prefecture": "富山県",
    "city": "黒部市",
    "town": "宇奈月町明日"
  },
  "9380172": {
    "zipcode": "9380172",
    "prefectureCode": "16",
    "prefectureNumber": 16,
    "prefecture": "富山県",
    "city": "黒部市",
    "town": "宇奈月町土山"
  },
  "9380173": {
    "zipcode": "9380173",
    "prefectureCode": "16",
    "prefectureNumber": 16,
    "prefecture": "富山県",
    "city": "黒部市",
    "town": "宇奈月町中谷"
  },
  "9380174": {
    "zipcode": "9380174",
    "prefectureCode": "16",
    "prefectureNumber": 16,
    "prefecture": "富山県",
    "city": "黒部市",
    "town": "宇奈月町音澤（１〜９９９）"
  },
  "9380175": {
    "zipcode": "9380175",
    "prefectureCode": "16",
    "prefectureNumber": 16,
    "prefecture": "富山県",
    "city": "黒部市",
    "town": "宇奈月町愛本橋爪東官林地内"
  },
  "9380176": {
    "zipcode": "9380176",
    "prefectureCode": "16",
    "prefectureNumber": 16,
    "prefecture": "富山県",
    "city": "黒部市",
    "town": "宇奈月町中ノ口"
  },
  "9380177": {
    "zipcode": "9380177",
    "prefectureCode": "16",
    "prefectureNumber": 16,
    "prefecture": "富山県",
    "city": "黒部市",
    "town": "宇奈月町愛本新"
  },
  "9380178": {
    "zipcode": "9380178",
    "prefectureCode": "16",
    "prefectureNumber": 16,
    "prefecture": "富山県",
    "city": "黒部市",
    "town": "宇奈月町栗虫"
  },
  "9380179": {
    "zipcode": "9380179",
    "prefectureCode": "16",
    "prefectureNumber": 16,
    "prefecture": "富山県",
    "city": "黒部市",
    "town": "宇奈月町舟見"
  },
  "9380274": {
    "zipcode": "9380274",
    "prefectureCode": "16",
    "prefectureNumber": 16,
    "prefecture": "富山県",
    "city": "黒部市",
    "town": "宇奈月町音澤（１０００〜）"
  },
  "9380281": {
    "zipcode": "9380281",
    "prefectureCode": "16",
    "prefectureNumber": 16,
    "prefecture": "富山県",
    "city": "黒部市",
    "town": "宇奈月町内山"
  },
  "9380282": {
    "zipcode": "9380282",
    "prefectureCode": "16",
    "prefectureNumber": 16,
    "prefecture": "富山県",
    "city": "黒部市",
    "town": "宇奈月温泉"
  },
  "9380283": {
    "zipcode": "9380283",
    "prefectureCode": "16",
    "prefectureNumber": 16,
    "prefecture": "富山県",
    "city": "黒部市",
    "town": "黒部峡谷口"
  },
  "9380801": {
    "zipcode": "9380801",
    "prefectureCode": "16",
    "prefectureNumber": 16,
    "prefecture": "富山県",
    "city": "黒部市",
    "town": "荻生"
  },
  "9380802": {
    "zipcode": "9380802",
    "prefectureCode": "16",
    "prefectureNumber": 16,
    "prefecture": "富山県",
    "city": "黒部市",
    "town": "若栗"
  },
  "9380803": {
    "zipcode": "9380803",
    "prefectureCode": "16",
    "prefectureNumber": 16,
    "prefecture": "富山県",
    "city": "黒部市",
    "town": "栗寺"
  },
  "9380804": {
    "zipcode": "9380804",
    "prefectureCode": "16",
    "prefectureNumber": 16,
    "prefecture": "富山県",
    "city": "黒部市",
    "town": "宮野"
  },
  "9380805": {
    "zipcode": "9380805",
    "prefectureCode": "16",
    "prefectureNumber": 16,
    "prefecture": "富山県",
    "city": "黒部市",
    "town": "吉城寺"
  },
  "9380806": {
    "zipcode": "9380806",
    "prefectureCode": "16",
    "prefectureNumber": 16,
    "prefecture": "富山県",
    "city": "黒部市",
    "town": "前沢"
  },
  "9380807": {
    "zipcode": "9380807",
    "prefectureCode": "16",
    "prefectureNumber": 16,
    "prefecture": "富山県",
    "city": "黒部市",
    "town": "山田新"
  },
  "9380808": {
    "zipcode": "9380808",
    "prefectureCode": "16",
    "prefectureNumber": 16,
    "prefecture": "富山県",
    "city": "黒部市",
    "town": "新堂"
  },
  "9380811": {
    "zipcode": "9380811",
    "prefectureCode": "16",
    "prefectureNumber": 16,
    "prefecture": "富山県",
    "city": "黒部市",
    "town": "内生谷"
  },
  "9380812": {
    "zipcode": "9380812",
    "prefectureCode": "16",
    "prefectureNumber": 16,
    "prefecture": "富山県",
    "city": "黒部市",
    "town": "笠破"
  },
  "9380813": {
    "zipcode": "9380813",
    "prefectureCode": "16",
    "prefectureNumber": 16,
    "prefecture": "富山県",
    "city": "黒部市",
    "town": "田籾"
  },
  "9380814": {
    "zipcode": "9380814",
    "prefectureCode": "16",
    "prefectureNumber": 16,
    "prefecture": "富山県",
    "city": "黒部市",
    "town": "嘉例沢"
  },
  "9380815": {
    "zipcode": "9380815",
    "prefectureCode": "16",
    "prefectureNumber": 16,
    "prefecture": "富山県",
    "city": "黒部市",
    "town": "福平"
  },
  "9380816": {
    "zipcode": "9380816",
    "prefectureCode": "16",
    "prefectureNumber": 16,
    "prefecture": "富山県",
    "city": "黒部市",
    "town": "池尻"
  },
  "9380821": {
    "zipcode": "9380821",
    "prefectureCode": "16",
    "prefectureNumber": 16,
    "prefecture": "富山県",
    "city": "黒部市",
    "town": "柳沢"
  },
  "9380822": {
    "zipcode": "9380822",
    "prefectureCode": "16",
    "prefectureNumber": 16,
    "prefecture": "富山県",
    "city": "黒部市",
    "town": "別所"
  },
  "9380823": {
    "zipcode": "9380823",
    "prefectureCode": "16",
    "prefectureNumber": 16,
    "prefecture": "富山県",
    "city": "黒部市",
    "town": "釈迦堂"
  },
  "9380824": {
    "zipcode": "9380824",
    "prefectureCode": "16",
    "prefectureNumber": 16,
    "prefecture": "富山県",
    "city": "黒部市",
    "town": "阿弥陀堂"
  },
  "9380825": {
    "zipcode": "9380825",
    "prefectureCode": "16",
    "prefectureNumber": 16,
    "prefecture": "富山県",
    "city": "黒部市",
    "town": "尾山"
  },
  "9380826": {
    "zipcode": "9380826",
    "prefectureCode": "16",
    "prefectureNumber": 16,
    "prefecture": "富山県",
    "city": "黒部市",
    "town": "朴谷"
  },
  "9380827": {
    "zipcode": "9380827",
    "prefectureCode": "16",
    "prefectureNumber": 16,
    "prefecture": "富山県",
    "city": "黒部市",
    "town": "中陣"
  },
  "9380831": {
    "zipcode": "9380831",
    "prefectureCode": "16",
    "prefectureNumber": 16,
    "prefecture": "富山県",
    "city": "黒部市",
    "town": "宮沢"
  },
  "9380832": {
    "zipcode": "9380832",
    "prefectureCode": "16",
    "prefectureNumber": 16,
    "prefecture": "富山県",
    "city": "黒部市",
    "town": "枕野"
  },
  "9380833": {
    "zipcode": "9380833",
    "prefectureCode": "16",
    "prefectureNumber": 16,
    "prefecture": "富山県",
    "city": "黒部市",
    "town": "本野"
  },
  "9380834": {
    "zipcode": "9380834",
    "prefectureCode": "16",
    "prefectureNumber": 16,
    "prefecture": "富山県",
    "city": "黒部市",
    "town": "中山"
  },
  "9380835": {
    "zipcode": "9380835",
    "prefectureCode": "16",
    "prefectureNumber": 16,
    "prefecture": "富山県",
    "city": "黒部市",
    "town": "石田野"
  },
  "9380836": {
    "zipcode": "9380836",
    "prefectureCode": "16",
    "prefectureNumber": 16,
    "prefecture": "富山県",
    "city": "黒部市",
    "town": "鏡野"
  },
  "9380837": {
    "zipcode": "9380837",
    "prefectureCode": "16",
    "prefectureNumber": 16,
    "prefecture": "富山県",
    "city": "黒部市",
    "town": "田家野"
  },
  "9380861": {
    "zipcode": "9380861",
    "prefectureCode": "16",
    "prefectureNumber": 16,
    "prefecture": "富山県",
    "city": "黒部市",
    "town": "宇奈月町下立"
  },
  "9380862": {
    "zipcode": "9380862",
    "prefectureCode": "16",
    "prefectureNumber": 16,
    "prefecture": "富山県",
    "city": "黒部市",
    "town": "宇奈月町浦山"
  },
  "9380863": {
    "zipcode": "9380863",
    "prefectureCode": "16",
    "prefectureNumber": 16,
    "prefecture": "富山県",
    "city": "黒部市",
    "town": "宇奈月町熊野"
  },
  "9380864": {
    "zipcode": "9380864",
    "prefectureCode": "16",
    "prefectureNumber": 16,
    "prefecture": "富山県",
    "city": "黒部市",
    "town": "宇奈月町栃屋"
  }
}
