{
  "9390000": {
    "zipcode": "9390000",
    "prefectureCode": "16",
    "prefectureNumber": 16,
    "prefecture": "富山県",
    "city": "富山市",
    "town": "以下に掲載がない場合"
  },
  "9390101": {
    "zipcode": "9390101",
    "prefectureCode": "16",
    "prefectureNumber": 16,
    "prefecture": "富山県",
    "city": "高岡市",
    "town": "福岡町赤丸"
  },
  "9390102": {
    "zipcode": "9390102",
    "prefectureCode": "16",
    "prefectureNumber": 16,
    "prefecture": "富山県",
    "city": "高岡市",
    "town": "福岡町三日市"
  },
  "9390103": {
    "zipcode": "9390103",
    "prefectureCode": "16",
    "prefectureNumber": 16,
    "prefecture": "富山県",
    "city": "高岡市",
    "town": "福岡町西"
  },
  "9390104": {
    "zipcode": "9390104",
    "prefectureCode": "16",
    "prefectureNumber": 16,
    "prefecture": "富山県",
    "city": "高岡市",
    "town": "福岡町加茂"
  },
  "9390105": {
    "zipcode": "9390105",
    "prefectureCode": "16",
    "prefectureNumber": 16,
    "prefecture": "富山県",
    "city": "高岡市",
    "town": "福岡町馬場"
  },
  "9390106": {
    "zipcode": "9390106",
    "prefectureCode": "16",
    "prefectureNumber": 16,
    "prefecture": "富山県",
    "city": "高岡市",
    "town": "福岡町舞谷"
  },
  "9390111": {
    "zipcode": "9390111",
    "prefectureCode": "16",
    "prefectureNumber": 16,
    "prefecture": "富山県",
    "city": "高岡市",
    "town": "福岡町福岡新（清水町）"
  },
  "9390112": {
    "zipcode": "9390112",
    "prefectureCode": "16",
    "prefectureNumber": 16,
    "prefecture": "富山県",
    "city": "高岡市",
    "town": "福岡町福岡新（中央通り）"
  },
  "9390113": {
    "zipcode": "9390113",
    "prefectureCode": "16",
    "prefectureNumber": 16,
    "prefecture": "富山県",
    "city": "高岡市",
    "town": "福岡町福岡（中島町）"
  },
  "9390115": {
    "zipcode": "9390115",
    "prefectureCode": "16",
    "prefectureNumber": 16,
    "prefecture": "富山県",
    "city": "高岡市",
    "town": "福岡町福岡新（新栄町）"
  },
  "9390116": {
    "zipcode": "9390116",
    "prefectureCode": "16",
    "prefectureNumber": 16,
    "prefecture": "富山県",
    "city": "高岡市",
    "town": "福岡町下蓑"
  },
  "9390117": {
    "zipcode": "9390117",
    "prefectureCode": "16",
    "prefectureNumber": 16,
    "prefecture": "富山県",
    "city": "高岡市",
    "town": "福岡町福岡新（早稲田町）"
  },
  "9390118": {
    "zipcode": "9390118",
    "prefectureCode": "16",
    "prefectureNumber": 16,
    "prefecture": "富山県",
    "city": "高岡市",
    "town": "福岡町大野"
  },
  "9390119": {
    "zipcode": "9390119",
    "prefectureCode": "16",
    "prefectureNumber": 16,
    "prefecture": "富山県",
    "city": "高岡市",
    "town": "福岡町福岡新（堀川町）"
  },
  "9390121": {
    "zipcode": "9390121",
    "prefectureCode": "16",
    "prefectureNumber": 16,
    "prefecture": "富山県",
    "city": "高岡市",
    "town": "福岡町下老子"
  },
  "9390122": {
    "zipcode": "9390122",
    "prefectureCode": "16",
    "prefectureNumber": 16,
    "prefecture": "富山県",
    "city": "高岡市",
    "town": "福岡町一歩二歩"
  },
  "9390123": {
    "zipcode": "9390123",
    "prefectureCode": "16",
    "prefectureNumber": 16,
    "prefecture": "富山県",
    "city": "高岡市",
    "town": "福岡町西川原島"
  },
  "9390124": {
    "zipcode": "9390124",
    "prefectureCode": "16",
    "prefectureNumber": 16,
    "prefecture": "富山県",
    "city": "高岡市",
    "town": "福岡町小伊勢領"
  },
  "9390125": {
    "zipcode": "9390125",
    "prefectureCode": "16",
    "prefectureNumber": 16,
    "prefecture": "富山県",
    "city": "高岡市",
    "town": "福岡町矢部"
  },
  "9390126": {
    "zipcode": "9390126",
    "prefectureCode": "16",
    "prefectureNumber": 16,
    "prefecture": "富山県",
    "city": "高岡市",
    "town": "福岡町蓑島"
  },
  "9390127": {
    "zipcode": "9390127",
    "prefectureCode": "16",
    "prefectureNumber": 16,
    "prefecture": "富山県",
    "city": "高岡市",
    "town": "福岡町上蓑"
  },
  "9390128": {
    "zipcode": "9390128",
    "prefectureCode": "16",
    "prefectureNumber": 16,
    "prefecture": "富山県",
    "city": "高岡市",
    "town": "福岡町江尻"
  },
  "9390131": {
    "zipcode": "9390131",
    "prefectureCode": "16",
    "prefectureNumber": 16,
    "prefecture": "富山県",
    "city": "高岡市",
    "town": "福岡町荒屋敷"
  },
  "9390132": {
    "zipcode": "9390132",
    "prefectureCode": "16",
    "prefectureNumber": 16,
    "prefecture": "富山県",
    "city": "高岡市",
    "town": "福岡町大滝（木舟新）"
  },
  "9390133": {
    "zipcode": "9390133",
    "prefectureCode": "16",
    "prefectureNumber": 16,
    "prefecture": "富山県",
    "city": "高岡市",
    "town": "福岡町開ほつ"
  },
  "9390134": {
    "zipcode": "9390134",
    "prefectureCode": "16",
    "prefectureNumber": 16,
    "prefecture": "富山県",
    "city": "高岡市",
    "town": "福岡町木舟"
  },
  "9390135": {
    "zipcode": "9390135",
    "prefectureCode": "16",
    "prefectureNumber": 16,
    "prefecture": "富山県",
    "city": "高岡市",
    "town": "福岡町本領"
  },
  "9390141": {
    "zipcode": "9390141",
    "prefectureCode": "16",
    "prefectureNumber": 16,
    "prefecture": "富山県",
    "city": "高岡市",
    "town": "福岡町鳥倉"
  },
  "9390142": {
    "zipcode": "9390142",
    "prefectureCode": "16",
    "prefectureNumber": 16,
    "prefecture": "富山県",
    "city": "高岡市",
    "town": "福岡町土屋"
  },
  "9390143": {
    "zipcode": "9390143",
    "prefectureCode": "16",
    "prefectureNumber": 16,
    "prefecture": "富山県",
    "city": "高岡市",
    "town": "福岡町下向田"
  },
  "9390144": {
    "zipcode": "9390144",
    "prefectureCode": "16",
    "prefectureNumber": 16,
    "prefecture": "富山県",
    "city": "高岡市",
    "town": "福岡町上向田"
  },
  "9390145": {
    "zipcode": "9390145",
    "prefectureCode": "16",
    "prefectureNumber": 16,
    "prefecture": "富山県",
    "city": "高岡市",
    "town": "福岡町上野"
  },
  "9390151": {
    "zipcode": "9390151",
    "prefectureCode": "16",
    "prefectureNumber": 16,
    "prefecture": "富山県",
    "city": "高岡市",
    "town": "福岡町沢川"
  },
  "9390152": {
    "zipcode": "9390152",
    "prefectureCode": "16",
    "prefectureNumber": 16,
    "prefecture": "富山県",
    "city": "高岡市",
    "town": "福岡町五位"
  },
  "9390153": {
    "zipcode": "9390153",
    "prefectureCode": "16",
    "prefectureNumber": 16,
    "prefecture": "富山県",
    "city": "高岡市",
    "town": "福岡町花尾"
  },
  "9390154": {
    "zipcode": "9390154",
    "prefectureCode": "16",
    "prefectureNumber": 16,
    "prefecture": "富山県",
    "city": "高岡市",
    "town": "福岡町栃丘"
  },
  "9390155": {
    "zipcode": "9390155",
    "prefectureCode": "16",
    "prefectureNumber": 16,
    "prefecture": "富山県",
    "city": "高岡市",
    "town": "福岡町西明寺"
  },
  "9390156": {
    "zipcode": "9390156",
    "prefectureCode": "16",
    "prefectureNumber": 16,
    "prefecture": "富山県",
    "city": "高岡市",
    "town": "福岡町小野"
  },
  "9390171": {
    "zipcode": "9390171",
    "prefectureCode": "17",
    "prefectureNumber": 17,
    "prefecture": "石川県",
    "city": "羽咋郡宝達志水町",
    "town": "沢川"
  },
  "9390231": {
    "zipcode": "9390231",
    "prefectureCode": "16",
    "prefectureNumber": 16,
    "prefecture": "富山県",
    "city": "射水市",
    "town": "犬内"
  },
  "9390232": {
    "zipcode": "9390232",
    "prefectureCode": "16",
    "prefectureNumber": 16,
    "prefecture": "富山県",
    "city": "射水市",
    "town": "大門"
  },
  "9390233": {
    "zipcode": "9390233",
    "prefectureCode": "16",
    "prefectureNumber": 16,
    "prefecture": "富山県",
    "city": "射水市",
    "town": "大門新"
  },
  "9390234": {
    "zipcode": "9390234",
    "prefectureCode": "16",
    "prefectureNumber": 16,
    "prefecture": "富山県",
    "city": "射水市",
    "town": "二口"
  },
  "9390235": {
    "zipcode": "9390235",
    "prefectureCode": "16",
    "prefectureNumber": 16,
    "prefecture": "富山県",
    "city": "射水市",
    "town": "枇杷首"
  },
  "9390241": {
    "zipcode": "9390241",
    "prefectureCode": "16",
    "prefectureNumber": 16,
    "prefecture": "富山県",
    "city": "射水市",
    "town": "中村"
  },
  "9390242": {
    "zipcode": "9390242",
    "prefectureCode": "16",
    "prefectureNumber": 16,
    "prefecture": "富山県",
    "city": "射水市",
    "town": "安吉"
  },
  "9390243": {
    "zipcode": "9390243",
    "prefectureCode": "16",
    "prefectureNumber": 16,
    "prefecture": "富山県",
    "city": "射水市",
    "town": "下若"
  },
  "9390244": {
    "zipcode": "9390244",
    "prefectureCode": "16",
    "prefectureNumber": 16,
    "prefecture": "富山県",
    "city": "射水市",
    "town": "本田"
  },
  "9390245": {
    "zipcode": "9390245",
    "prefectureCode": "16",
    "prefectureNumber": 16,
    "prefecture": "富山県",
    "city": "射水市",
    "town": "棚田"
  },
  "9390246": {
    "zipcode": "9390246",
    "prefectureCode": "16",
    "prefectureNumber": 16,
    "prefecture": "富山県",
    "city": "射水市",
    "town": "大門本江"
  },
  "9390247": {
    "zipcode": "9390247",
    "prefectureCode": "16",
    "prefectureNumber": 16,
    "prefecture": "富山県",
    "city": "射水市",
    "town": "あおば台"
  },
  "9390251": {
    "zipcode": "9390251",
    "prefectureCode": "16",
    "prefectureNumber": 16,
    "prefecture": "富山県",
    "city": "射水市",
    "town": "土合"
  },
  "9390252": {
    "zipcode": "9390252",
    "prefectureCode": "16",
    "prefectureNumber": 16,
    "prefecture": "富山県",
    "city": "射水市",
    "town": "下条"
  },
  "9390253": {
    "zipcode": "9390253",
    "prefectureCode": "16",
    "prefectureNumber": 16,
    "prefecture": "富山県",
    "city": "射水市",
    "town": "堀内"
  },
  "9390254": {
    "zipcode": "9390254",
    "prefectureCode": "16",
    "prefectureNumber": 16,
    "prefecture": "富山県",
    "city": "射水市",
    "town": "島"
  },
  "9390255": {
    "zipcode": "9390255",
    "prefectureCode": "16",
    "prefectureNumber": 16,
    "prefecture": "富山県",
    "city": "射水市",
    "town": "上条"
  },
  "9390256": {
    "zipcode": "9390256",
    "prefectureCode": "16",
    "prefectureNumber": 16,
    "prefecture": "富山県",
    "city": "射水市",
    "town": "広上"
  },
  "9390257": {
    "zipcode": "9390257",
    "prefectureCode": "16",
    "prefectureNumber": 16,
    "prefecture": "富山県",
    "city": "射水市",
    "town": "西広上"
  },
  "9390271": {
    "zipcode": "9390271",
    "prefectureCode": "16",
    "prefectureNumber": 16,
    "prefecture": "富山県",
    "city": "射水市",
    "town": "大島北野"
  },
  "9390272": {
    "zipcode": "9390272",
    "prefectureCode": "16",
    "prefectureNumber": 16,
    "prefecture": "富山県",
    "city": "射水市",
    "town": "若杉"
  },
  "9390273": {
    "zipcode": "9390273",
    "prefectureCode": "16",
    "prefectureNumber": 16,
    "prefecture": "富山県",
    "city": "射水市",
    "town": "中野"
  },
  "9390274": {
    "zipcode": "9390274",
    "prefectureCode": "16",
    "prefectureNumber": 16,
    "prefecture": "富山県",
    "city": "射水市",
    "town": "小島"
  },
  "9390275": {
    "zipcode": "9390275",
    "prefectureCode": "16",
    "prefectureNumber": 16,
    "prefecture": "富山県",
    "city": "射水市",
    "town": "八塚"
  },
  "9390276": {
    "zipcode": "9390276",
    "prefectureCode": "16",
    "prefectureNumber": 16,
    "prefecture": "富山県",
    "city": "射水市",
    "town": "北野"
  },
  "9390281": {
    "zipcode": "9390281",
    "prefectureCode": "16",
    "prefectureNumber": 16,
    "prefecture": "富山県",
    "city": "射水市",
    "town": "北高木"
  },
  "9390282": {
    "zipcode": "9390282",
    "prefectureCode": "16",
    "prefectureNumber": 16,
    "prefecture": "富山県",
    "city": "射水市",
    "town": "南高木"
  },
  "9390283": {
    "zipcode": "9390283",
    "prefectureCode": "16",
    "prefectureNumber": 16,
    "prefecture": "富山県",
    "city": "射水市",
    "town": "鳥取"
  },
  "9390284": {
    "zipcode": "9390284",
    "prefectureCode": "16",
    "prefectureNumber": 16,
    "prefecture": "富山県",
    "city": "射水市",
    "town": "新開発"
  },
  "9390285": {
    "zipcode": "9390285",
    "prefectureCode": "16",
    "prefectureNumber": 16,
    "prefecture": "富山県",
    "city": "射水市",
    "town": "本開発"
  },
  "9390286": {
    "zipcode": "9390286",
    "prefectureCode": "16",
    "prefectureNumber": 16,
    "prefecture": "富山県",
    "city": "射水市",
    "town": "今開発"
  },
  "9390287": {
    "zipcode": "9390287",
    "prefectureCode": "16",
    "prefectureNumber": 16,
    "prefecture": "富山県",
    "city": "射水市",
    "town": "赤井"
  },
  "9390288": {
    "zipcode": "9390288",
    "prefectureCode": "16",
    "prefectureNumber": 16,
    "prefecture": "富山県",
    "city": "射水市",
    "town": "小林"
  },
  "9390300": {
    "zipcode": "9390300",
    "prefectureCode": "16",
    "prefectureNumber": 16,
    "prefecture": "富山県",
    "city": "射水市",
    "town": "以下に掲載がない場合"
  },
  "9390301": {
    "zipcode": "9390301",
    "prefectureCode": "16",
    "prefectureNumber": 16,
    "prefecture": "富山県",
    "city": "射水市",
    "town": "稲積"
  },
  "9390302": {
    "zipcode": "9390302",
    "prefectureCode": "16",
    "prefectureNumber": 16,
    "prefecture": "富山県",
    "city": "射水市",
    "town": "大江"
  },
  "9390303": {
    "zipcode": "9390303",
    "prefectureCode": "16",
    "prefectureNumber": 16,
    "prefecture": "富山県",
    "city": "射水市",
    "town": "西高木"
  },
  "9390304": {
    "zipcode": "9390304",
    "prefectureCode": "16",
    "prefectureNumber": 16,
    "prefecture": "富山県",
    "city": "射水市",
    "town": "小杉白石（小白石）"
  },
  "9390305": {
    "zipcode": "9390305",
    "prefectureCode": "16",
    "prefectureNumber": 16,
    "prefecture": "富山県",
    "city": "射水市",
    "town": "鷲塚"
  },
  "9390306": {
    "zipcode": "9390306",
    "prefectureCode": "16",
    "prefectureNumber": 16,
    "prefecture": "富山県",
    "city": "射水市",
    "town": "手崎"
  },
  "9390307": {
    "zipcode": "9390307",
    "prefectureCode": "16",
    "prefectureNumber": 16,
    "prefecture": "富山県",
    "city": "射水市",
    "town": "戸破（針原）"
  },
  "9390311": {
    "zipcode": "9390311",
    "prefectureCode": "16",
    "prefectureNumber": 16,
    "prefecture": "富山県",
    "city": "射水市",
    "town": "黒河新"
  },
  "9390312": {
    "zipcode": "9390312",
    "prefectureCode": "16",
    "prefectureNumber": 16,
    "prefecture": "富山県",
    "city": "射水市",
    "town": "中老田新"
  },
  "9390313": {
    "zipcode": "9390313",
    "prefectureCode": "16",
    "prefectureNumber": 16,
    "prefecture": "富山県",
    "city": "射水市",
    "town": "塚越"
  },
  "9390314": {
    "zipcode": "9390314",
    "prefectureCode": "16",
    "prefectureNumber": 16,
    "prefecture": "富山県",
    "city": "射水市",
    "town": "土代"
  },
  "9390315": {
    "zipcode": "9390315",
    "prefectureCode": "16",
    "prefectureNumber": 16,
    "prefecture": "富山県",
    "city": "射水市",
    "town": "椎土"
  },
  "9390316": {
    "zipcode": "9390316",
    "prefectureCode": "16",
    "prefectureNumber": 16,
    "prefecture": "富山県",
    "city": "射水市",
    "town": "小杉北野"
  },
  "9390317": {
    "zipcode": "9390317",
    "prefectureCode": "16",
    "prefectureNumber": 16,
    "prefecture": "富山県",
    "city": "射水市",
    "town": "山本新"
  },
  "9390318": {
    "zipcode": "9390318",
    "prefectureCode": "16",
    "prefectureNumber": 16,
    "prefecture": "富山県",
    "city": "射水市",
    "town": "池多"
  },
  "9390319": {
    "zipcode": "9390319",
    "prefectureCode": "16",
    "prefectureNumber": 16,
    "prefecture": "富山県",
    "city": "射水市",
    "town": "東太閤山"
  },
  "9390321": {
    "zipcode": "9390321",
    "prefectureCode": "16",
    "prefectureNumber": 16,
    "prefecture": "富山県",
    "city": "射水市",
    "town": "流通センター（青井谷１、２丁目）"
  },
  "9390322": {
    "zipcode": "9390322",
    "prefectureCode": "16",
    "prefectureNumber": 16,
    "prefecture": "富山県",
    "city": "射水市",
    "town": "上野"
  },
  "9390323": {
    "zipcode": "9390323",
    "prefectureCode": "16",
    "prefectureNumber": 16,
    "prefecture": "富山県",
    "city": "射水市",
    "town": "平野"
  },
  "9390331": {
    "zipcode": "9390331",
    "prefectureCode": "16",
    "prefectureNumber": 16,
    "prefecture": "富山県",
    "city": "射水市",
    "town": "下条新"
  },
  "9390332": {
    "zipcode": "9390332",
    "prefectureCode": "16",
    "prefectureNumber": 16,
    "prefecture": "富山県",
    "city": "射水市",
    "town": "日宮"
  },
  "9390333": {
    "zipcode": "9390333",
    "prefectureCode": "16",
    "prefectureNumber": 16,
    "prefecture": "富山県",
    "city": "射水市",
    "town": "一条"
  },
  "9390341": {
    "zipcode": "9390341",
    "prefectureCode": "16",
    "prefectureNumber": 16,
    "prefecture": "富山県",
    "city": "射水市",
    "town": "三ケ（元町）"
  },
  "9390351": {
    "zipcode": "9390351",
    "prefectureCode": "16",
    "prefectureNumber": 16,
    "prefecture": "富山県",
    "city": "射水市",
    "town": "戸破（若宮町）"
  },
  "9390361": {
    "zipcode": "9390361",
    "prefectureCode": "16",
    "prefectureNumber": 16,
    "prefecture": "富山県",
    "city": "射水市",
    "town": "太閤町"
  },
  "9390362": {
    "zipcode": "9390362",
    "prefectureCode": "16",
    "prefectureNumber": 16,
    "prefecture": "富山県",
    "city": "射水市",
    "town": "太閤山"
  },
  "9390363": {
    "zipcode": "9390363",
    "prefectureCode": "16",
    "prefectureNumber": 16,
    "prefecture": "富山県",
    "city": "射水市",
    "town": "中太閤山"
  },
  "9390364": {
    "zipcode": "9390364",
    "prefectureCode": "16",
    "prefectureNumber": 16,
    "prefecture": "富山県",
    "city": "射水市",
    "town": "南太閤山"
  },
  "9390401": {
    "zipcode": "9390401",
    "prefectureCode": "16",
    "prefectureNumber": 16,
    "prefecture": "富山県",
    "city": "射水市",
    "town": "水戸田"
  },
  "9390402": {
    "zipcode": "9390402",
    "prefectureCode": "16",
    "prefectureNumber": 16,
    "prefecture": "富山県",
    "city": "射水市",
    "town": "流通センター水戸田"
  },
  "9390403": {
    "zipcode": "9390403",
    "prefectureCode": "16",
    "prefectureNumber": 16,
    "prefecture": "富山県",
    "city": "射水市",
    "town": "生源寺"
  },
  "9390404": {
    "zipcode": "9390404",
    "prefectureCode": "16",
    "prefectureNumber": 16,
    "prefecture": "富山県",
    "city": "射水市",
    "town": "市井"
  },
  "9390405": {
    "zipcode": "9390405",
    "prefectureCode": "16",
    "prefectureNumber": 16,
    "prefecture": "富山県",
    "city": "射水市",
    "town": "藤巻"
  },
  "9390406": {
    "zipcode": "9390406",
    "prefectureCode": "16",
    "prefectureNumber": 16,
    "prefecture": "富山県",
    "city": "射水市",
    "town": "開口"
  },
  "9390407": {
    "zipcode": "9390407",
    "prefectureCode": "16",
    "prefectureNumber": 16,
    "prefecture": "富山県",
    "city": "射水市",
    "town": "竹鼻"
  },
  "9390408": {
    "zipcode": "9390408",
    "prefectureCode": "16",
    "prefectureNumber": 16,
    "prefecture": "富山県",
    "city": "射水市",
    "town": "若林"
  },
  "9390411": {
    "zipcode": "9390411",
    "prefectureCode": "16",
    "prefectureNumber": 16,
    "prefecture": "富山県",
    "city": "射水市",
    "town": "円池"
  },
  "9390412": {
    "zipcode": "9390412",
    "prefectureCode": "16",
    "prefectureNumber": 16,
    "prefecture": "富山県",
    "city": "射水市",
    "town": "荒町"
  },
  "9390413": {
    "zipcode": "9390413",
    "prefectureCode": "16",
    "prefectureNumber": 16,
    "prefecture": "富山県",
    "city": "射水市",
    "town": "串田"
  },
  "9390414": {
    "zipcode": "9390414",
    "prefectureCode": "16",
    "prefectureNumber": 16,
    "prefecture": "富山県",
    "city": "射水市",
    "town": "生源寺新"
  },
  "9390415": {
    "zipcode": "9390415",
    "prefectureCode": "16",
    "prefectureNumber": 16,
    "prefecture": "富山県",
    "city": "射水市",
    "town": "梅木"
  },
  "9390416": {
    "zipcode": "9390416",
    "prefectureCode": "16",
    "prefectureNumber": 16,
    "prefecture": "富山県",
    "city": "射水市",
    "town": "串田新"
  },
  "9390417": {
    "zipcode": "9390417",
    "prefectureCode": "16",
    "prefectureNumber": 16,
    "prefecture": "富山県",
    "city": "射水市",
    "town": "小泉"
  },
  "9390418": {
    "zipcode": "9390418",
    "prefectureCode": "16",
    "prefectureNumber": 16,
    "prefecture": "富山県",
    "city": "射水市",
    "town": "布目沢"
  },
  "9390501": {
    "zipcode": "9390501",
    "prefectureCode": "16",
    "prefectureNumber": 16,
    "prefecture": "富山県",
    "city": "富山市",
    "town": "水橋東浜町"
  },
  "9390502": {
    "zipcode": "9390502",
    "prefectureCode": "16",
    "prefectureNumber": 16,
    "prefecture": "富山県",
    "city": "富山市",
    "town": "水橋地蔵町"
  },
  "9390503": {
    "zipcode": "9390503",
    "prefectureCode": "16",
    "prefectureNumber": 16,
    "prefecture": "富山県",
    "city": "富山市",
    "town": "水橋西出町"
  },
  "9390504": {
    "zipcode": "9390504",
    "prefectureCode": "16",
    "prefectureNumber": 16,
    "prefecture": "富山県",
    "city": "富山市",
    "town": "水橋田町"
  },
  "9390505": {
    "zipcode": "9390505",
    "prefectureCode": "16",
    "prefectureNumber": 16,
    "prefecture": "富山県",
    "city": "富山市",
    "town": "水橋東天神町"
  },
  "9390506": {
    "zipcode": "9390506",
    "prefectureCode": "16",
    "prefectureNumber": 16,
    "prefecture": "富山県",
    "city": "富山市",
    "town": "水橋中大町"
  },
  "9390507": {
    "zipcode": "9390507",
    "prefectureCode": "16",
    "prefectureNumber": 16,
    "prefecture": "富山県",
    "city": "富山市",
    "town": "水橋西天神町"
  },
  "9390508": {
    "zipcode": "9390508",
    "prefectureCode": "16",
    "prefectureNumber": 16,
    "prefecture": "富山県",
    "city": "富山市",
    "town": "水橋西浜町"
  },
  "9390509": {
    "zipcode": "9390509",
    "prefectureCode": "16",
    "prefectureNumber": 16,
    "prefecture": "富山県",
    "city": "富山市",
    "town": "水橋町"
  },
  "9390511": {
    "zipcode": "9390511",
    "prefectureCode": "16",
    "prefectureNumber": 16,
    "prefecture": "富山県",
    "city": "富山市",
    "town": "水橋高月"
  },
  "9390512": {
    "zipcode": "9390512",
    "prefectureCode": "16",
    "prefectureNumber": 16,
    "prefecture": "富山県",
    "city": "富山市",
    "town": "水橋東出町"
  },
  "9390513": {
    "zipcode": "9390513",
    "prefectureCode": "16",
    "prefectureNumber": 16,
    "prefecture": "富山県",
    "city": "富山市",
    "town": "水橋中出町"
  },
  "9390514": {
    "zipcode": "9390514",
    "prefectureCode": "16",
    "prefectureNumber": 16,
    "prefecture": "富山県",
    "city": "富山市",
    "town": "水橋稲荷町"
  },
  "9390515": {
    "zipcode": "9390515",
    "prefectureCode": "16",
    "prefectureNumber": 16,
    "prefecture": "富山県",
    "city": "富山市",
    "town": "水橋新町"
  },
  "9390521": {
    "zipcode": "9390521",
    "prefectureCode": "16",
    "prefectureNumber": 16,
    "prefecture": "富山県",
    "city": "富山市",
    "town": "水橋中村町"
  },
  "9390522": {
    "zipcode": "9390522",
    "prefectureCode": "16",
    "prefectureNumber": 16,
    "prefecture": "富山県",
    "city": "富山市",
    "town": "水橋中村栄町"
  },
  "9390523": {
    "zipcode": "9390523",
    "prefectureCode": "16",
    "prefectureNumber": 16,
    "prefecture": "富山県",
    "city": "富山市",
    "town": "水橋中村新町"
  },
  "9390524": {
    "zipcode": "9390524",
    "prefectureCode": "16",
    "prefectureNumber": 16,
    "prefecture": "富山県",
    "city": "富山市",
    "town": "水橋東舘町"
  },
  "9390525": {
    "zipcode": "9390525",
    "prefectureCode": "16",
    "prefectureNumber": 16,
    "prefecture": "富山県",
    "city": "富山市",
    "town": "水橋新舘町"
  },
  "9390526": {
    "zipcode": "9390526",
    "prefectureCode": "16",
    "prefectureNumber": 16,
    "prefecture": "富山県",
    "city": "富山市",
    "town": "水橋舘町"
  },
  "9390527": {
    "zipcode": "9390527",
    "prefectureCode": "16",
    "prefectureNumber": 16,
    "prefecture": "富山県",
    "city": "富山市",
    "town": "水橋新大町"
  },
  "9390528": {
    "zipcode": "9390528",
    "prefectureCode": "16",
    "prefectureNumber": 16,
    "prefecture": "富山県",
    "city": "富山市",
    "town": "水橋明治町"
  },
  "9390531": {
    "zipcode": "9390531",
    "prefectureCode": "16",
    "prefectureNumber": 16,
    "prefecture": "富山県",
    "city": "富山市",
    "town": "水橋市江"
  },
  "9390532": {
    "zipcode": "9390532",
    "prefectureCode": "16",
    "prefectureNumber": 16,
    "prefecture": "富山県",
    "city": "富山市",
    "town": "水橋市江新町"
  },
  "9390533": {
    "zipcode": "9390533",
    "prefectureCode": "16",
    "prefectureNumber": 16,
    "prefecture": "富山県",
    "city": "富山市",
    "town": "水橋高志園町"
  },
  "9390534": {
    "zipcode": "9390534",
    "prefectureCode": "16",
    "prefectureNumber": 16,
    "prefecture": "富山県",
    "city": "富山市",
    "town": "水橋狐塚"
  },
  "9390535": {
    "zipcode": "9390535",
    "prefectureCode": "16",
    "prefectureNumber": 16,
    "prefecture": "富山県",
    "city": "富山市",
    "town": "水橋開発町"
  },
  "9390536": {
    "zipcode": "9390536",
    "prefectureCode": "16",
    "prefectureNumber": 16,
    "prefecture": "富山県",
    "city": "富山市",
    "town": "水橋柳寺"
  },
  "9390541": {
    "zipcode": "9390541",
    "prefectureCode": "16",
    "prefectureNumber": 16,
    "prefecture": "富山県",
    "city": "富山市",
    "town": "水橋鏡田"
  },
  "9390542": {
    "zipcode": "9390542",
    "prefectureCode": "16",
    "prefectureNumber": 16,
    "prefecture": "富山県",
    "city": "富山市",
    "town": "水橋堅田"
  },
  "9390543": {
    "zipcode": "9390543",
    "prefectureCode": "16",
    "prefectureNumber": 16,
    "prefecture": "富山県",
    "city": "富山市",
    "town": "水橋五郎丸"
  },
  "9390544": {
    "zipcode": "9390544",
    "prefectureCode": "16",
    "prefectureNumber": 16,
    "prefecture": "富山県",
    "city": "富山市",
    "town": "水橋下砂子坂新"
  },
  "9390545": {
    "zipcode": "9390545",
    "prefectureCode": "16",
    "prefectureNumber": 16,
    "prefecture": "富山県",
    "city": "富山市",
    "town": "水橋伊勢領"
  },
  "9390546": {
    "zipcode": "9390546",
    "prefectureCode": "16",
    "prefectureNumber": 16,
    "prefecture": "富山県",
    "city": "富山市",
    "town": "水橋桜木"
  },
  "9390547": {
    "zipcode": "9390547",
    "prefectureCode": "16",
    "prefectureNumber": 16,
    "prefecture": "富山県",
    "city": "富山市",
    "town": "水橋小池"
  },
  "9390551": {
    "zipcode": "9390551",
    "prefectureCode": "16",
    "prefectureNumber": 16,
    "prefecture": "富山県",
    "city": "富山市",
    "town": "水橋石政"
  },
  "9390552": {
    "zipcode": "9390552",
    "prefectureCode": "16",
    "prefectureNumber": 16,
    "prefecture": "富山県",
    "city": "富山市",
    "town": "水橋恋塚"
  },
  "9390553": {
    "zipcode": "9390553",
    "prefectureCode": "16",
    "prefectureNumber": 16,
    "prefecture": "富山県",
    "city": "富山市",
    "town": "水橋小出"
  },
  "9390554": {
    "zipcode": "9390554",
    "prefectureCode": "16",
    "prefectureNumber": 16,
    "prefecture": "富山県",
    "city": "富山市",
    "town": "水橋専光寺"
  },
  "9390555": {
    "zipcode": "9390555",
    "prefectureCode": "16",
    "prefectureNumber": 16,
    "prefecture": "富山県",
    "city": "富山市",
    "town": "水橋高寺"
  },
  "9390556": {
    "zipcode": "9390556",
    "prefectureCode": "16",
    "prefectureNumber": 16,
    "prefecture": "富山県",
    "city": "富山市",
    "town": "水橋曲淵"
  },
  "9390557": {
    "zipcode": "9390557",
    "prefectureCode": "16",
    "prefectureNumber": 16,
    "prefecture": "富山県",
    "city": "富山市",
    "town": "水橋大正北部"
  },
  "9390558": {
    "zipcode": "9390558",
    "prefectureCode": "16",
    "prefectureNumber": 16,
    "prefecture": "富山県",
    "city": "富山市",
    "town": "水橋上条新町"
  },
  "9390561": {
    "zipcode": "9390561",
    "prefectureCode": "16",
    "prefectureNumber": 16,
    "prefecture": "富山県",
    "city": "富山市",
    "town": "水橋石割"
  },
  "9390562": {
    "zipcode": "9390562",
    "prefectureCode": "16",
    "prefectureNumber": 16,
    "prefecture": "富山県",
    "city": "富山市",
    "town": "水橋田伏"
  },
  "9390563": {
    "zipcode": "9390563",
    "prefectureCode": "16",
    "prefectureNumber": 16,
    "prefecture": "富山県",
    "city": "富山市",
    "town": "水橋佐野竹"
  },
  "9390564": {
    "zipcode": "9390564",
    "prefectureCode": "16",
    "prefectureNumber": 16,
    "prefecture": "富山県",
    "city": "富山市",
    "town": "水橋清水堂"
  },
  "9390565": {
    "zipcode": "9390565",
    "prefectureCode": "16",
    "prefectureNumber": 16,
    "prefecture": "富山県",
    "city": "富山市",
    "town": "水橋金広"
  },
  "9390566": {
    "zipcode": "9390566",
    "prefectureCode": "16",
    "prefectureNumber": 16,
    "prefecture": "富山県",
    "city": "富山市",
    "town": "水橋中馬場"
  },
  "9390567": {
    "zipcode": "9390567",
    "prefectureCode": "16",
    "prefectureNumber": 16,
    "prefecture": "富山県",
    "city": "富山市",
    "town": "水橋北馬場"
  },
  "9390568": {
    "zipcode": "9390568",
    "prefectureCode": "16",
    "prefectureNumber": 16,
    "prefecture": "富山県",
    "city": "富山市",
    "town": "水橋平塚"
  },
  "9390600": {
    "zipcode": "9390600",
    "prefectureCode": "16",
    "prefectureNumber": 16,
    "prefecture": "富山県",
    "city": "下新川郡入善町",
    "town": "以下に掲載がない場合"
  },
  "9390611": {
    "zipcode": "9390611",
    "prefectureCode": "16",
    "prefectureNumber": 16,
    "prefecture": "富山県",
    "city": "下新川郡入善町",
    "town": "古黒部"
  },
  "9390612": {
    "zipcode": "9390612",
    "prefectureCode": "16",
    "prefectureNumber": 16,
    "prefecture": "富山県",
    "city": "下新川郡入善町",
    "town": "藤原"
  },
  "9390613": {
    "zipcode": "9390613",
    "prefectureCode": "16",
    "prefectureNumber": 16,
    "prefecture": "富山県",
    "city": "下新川郡入善町",
    "town": "田の又"
  },
  "9390614": {
    "zipcode": "9390614",
    "prefectureCode": "16",
    "prefectureNumber": 16,
    "prefecture": "富山県",
    "city": "下新川郡入善町",
    "town": "君島"
  },
  "9390615": {
    "zipcode": "9390615",
    "prefectureCode": "16",
    "prefectureNumber": 16,
    "prefecture": "富山県",
    "city": "下新川郡入善町",
    "town": "八幡"
  },
  "9390616": {
    "zipcode": "9390616",
    "prefectureCode": "16",
    "prefectureNumber": 16,
    "prefecture": "富山県",
    "city": "下新川郡入善町",
    "town": "横山"
  },
  "9390617": {
    "zipcode": "9390617",
    "prefectureCode": "16",
    "prefectureNumber": 16,
    "prefecture": "富山県",
    "city": "下新川郡入善町",
    "town": "春日"
  },
  "9390621": {
    "zipcode": "9390621",
    "prefectureCode": "16",
    "prefectureNumber": 16,
    "prefecture": "富山県",
    "city": "下新川郡入善町",
    "town": "荒又"
  },
  "9390622": {
    "zipcode": "9390622",
    "prefectureCode": "16",
    "prefectureNumber": 16,
    "prefecture": "富山県",
    "city": "下新川郡入善町",
    "town": "日吉"
  },
  "9390623": {
    "zipcode": "9390623",
    "prefectureCode": "16",
    "prefectureNumber": 16,
    "prefecture": "富山県",
    "city": "下新川郡入善町",
    "town": "小杉"
  },
  "9390624": {
    "zipcode": "9390624",
    "prefectureCode": "16",
    "prefectureNumber": 16,
    "prefecture": "富山県",
    "city": "下新川郡入善町",
    "town": "青島"
  },
  "9390625": {
    "zipcode": "9390625",
    "prefectureCode": "16",
    "prefectureNumber": 16,
    "prefecture": "富山県",
    "city": "下新川郡入善町",
    "town": "神林"
  },
  "9390626": {
    "zipcode": "9390626",
    "prefectureCode": "16",
    "prefectureNumber": 16,
    "prefecture": "富山県",
    "city": "下新川郡入善町",
    "town": "入膳"
  },
  "9390627": {
    "zipcode": "9390627",
    "prefectureCode": "16",
    "prefectureNumber": 16,
    "prefecture": "富山県",
    "city": "下新川郡入善町",
    "town": "椚山"
  },
  "9390628": {
    "zipcode": "9390628",
    "prefectureCode": "16",
    "prefectureNumber": 16,
    "prefecture": "富山県",
    "city": "下新川郡入善町",
    "town": "椚山新"
  },
  "9390631": {
    "zipcode": "9390631",
    "prefectureCode": "16",
    "prefectureNumber": 16,
    "prefecture": "富山県",
    "city": "下新川郡入善町",
    "town": "下山"
  },
  "9390632": {
    "zipcode": "9390632",
    "prefectureCode": "16",
    "prefectureNumber": 16,
    "prefecture": "富山県",
    "city": "下新川郡入善町",
    "town": "墓ノ木"
  },
  "9390633": {
    "zipcode": "9390633",
    "prefectureCode": "16",
    "prefectureNumber": 16,
    "prefecture": "富山県",
    "city": "下新川郡入善町",
    "town": "浦山新"
  },
  "9390634": {
    "zipcode": "9390634",
    "prefectureCode": "16",
    "prefectureNumber": 16,
    "prefecture": "富山県",
    "city": "下新川郡入善町",
    "town": "小摺戸"
  },
  "9390635": {
    "zipcode": "9390635",
    "prefectureCode": "16",
    "prefectureNumber": 16,
    "prefecture": "富山県",
    "city": "下新川郡入善町",
    "town": "若栗新"
  },
  "9390636": {
    "zipcode": "9390636",
    "prefectureCode": "16",
    "prefectureNumber": 16,
    "prefecture": "富山県",
    "city": "下新川郡入善町",
    "town": "一宿"
  },
  "9390637": {
    "zipcode": "9390637",
    "prefectureCode": "16",
    "prefectureNumber": 16,
    "prefecture": "富山県",
    "city": "下新川郡入善町",
    "town": "新屋"
  },
  "9390641": {
    "zipcode": "9390641",
    "prefectureCode": "16",
    "prefectureNumber": 16,
    "prefecture": "富山県",
    "city": "下新川郡入善町",
    "town": "下上野"
  },
  "9390642": {
    "zipcode": "9390642",
    "prefectureCode": "16",
    "prefectureNumber": 16,
    "prefecture": "富山県",
    "city": "下新川郡入善町",
    "town": "上野"
  },
  "9390643": {
    "zipcode": "9390643",
    "prefectureCode": "16",
    "prefectureNumber": 16,
    "prefecture": "富山県",
    "city": "下新川郡入善町",
    "town": "青木"
  },
  "9390644": {
    "zipcode": "9390644",
    "prefectureCode": "16",
    "prefectureNumber": 16,
    "prefecture": "富山県",
    "city": "下新川郡入善町",
    "town": "福島新"
  },
  "9390645": {
    "zipcode": "9390645",
    "prefectureCode": "16",
    "prefectureNumber": 16,
    "prefecture": "富山県",
    "city": "下新川郡入善町",
    "town": "福島"
  },
  "9390646": {
    "zipcode": "9390646",
    "prefectureCode": "16",
    "prefectureNumber": 16,
    "prefecture": "富山県",
    "city": "下新川郡入善町",
    "town": "青木新"
  },
  "9390647": {
    "zipcode": "9390647",
    "prefectureCode": "16",
    "prefectureNumber": 16,
    "prefecture": "富山県",
    "city": "下新川郡入善町",
    "town": "道古"
  },
  "9390651": {
    "zipcode": "9390651",
    "prefectureCode": "16",
    "prefectureNumber": 16,
    "prefecture": "富山県",
    "city": "下新川郡入善町",
    "town": "上飯野新"
  },
  "9390652": {
    "zipcode": "9390652",
    "prefectureCode": "16",
    "prefectureNumber": 16,
    "prefecture": "富山県",
    "city": "下新川郡入善町",
    "town": "袖沢"
  },
  "9390653": {
    "zipcode": "9390653",
    "prefectureCode": "16",
    "prefectureNumber": 16,
    "prefecture": "富山県",
    "city": "下新川郡入善町",
    "town": "上飯野"
  },
  "9390654": {
    "zipcode": "9390654",
    "prefectureCode": "16",
    "prefectureNumber": 16,
    "prefecture": "富山県",
    "city": "下新川郡入善町",
    "town": "板屋"
  },
  "9390655": {
    "zipcode": "9390655",
    "prefectureCode": "16",
    "prefectureNumber": 16,
    "prefecture": "富山県",
    "city": "下新川郡入善町",
    "town": "五郎八"
  },
  "9390656": {
    "zipcode": "9390656",
    "prefectureCode": "16",
    "prefectureNumber": 16,
    "prefecture": "富山県",
    "city": "下新川郡入善町",
    "town": "笹原"
  },
  "9390657": {
    "zipcode": "9390657",
    "prefectureCode": "16",
    "prefectureNumber": 16,
    "prefecture": "富山県",
    "city": "下新川郡入善町",
    "town": "東狐"
  },
  "9390661": {
    "zipcode": "9390661",
    "prefectureCode": "16",
    "prefectureNumber": 16,
    "prefecture": "富山県",
    "city": "下新川郡入善町",
    "town": "高瀬"
  },
  "9390662": {
    "zipcode": "9390662",
    "prefectureCode": "16",
    "prefectureNumber": 16,
    "prefecture": "富山県",
    "city": "下新川郡入善町",
    "town": "下飯野新"
  },
  "9390663": {
    "zipcode": "9390663",
    "prefectureCode": "16",
    "prefectureNumber": 16,
    "prefecture": "富山県",
    "city": "下新川郡入善町",
    "town": "下飯野"
  },
  "9390664": {
    "zipcode": "9390664",
    "prefectureCode": "16",
    "prefectureNumber": 16,
    "prefecture": "富山県",
    "city": "下新川郡入善町",
    "town": "蛇沢"
  },
  "9390665": {
    "zipcode": "9390665",
    "prefectureCode": "16",
    "prefectureNumber": 16,
    "prefecture": "富山県",
    "city": "下新川郡入善町",
    "town": "本村"
  },
  "9390666": {
    "zipcode": "9390666",
    "prefectureCode": "16",
    "prefectureNumber": 16,
    "prefecture": "富山県",
    "city": "下新川郡入善町",
    "town": "高畠"
  },
  "9390667": {
    "zipcode": "9390667",
    "prefectureCode": "16",
    "prefectureNumber": 16,
    "prefecture": "富山県",
    "city": "下新川郡入善町",
    "town": "芦崎"
  },
  "9390671": {
    "zipcode": "9390671",
    "prefectureCode": "16",
    "prefectureNumber": 16,
    "prefecture": "富山県",
    "city": "下新川郡入善町",
    "town": "東五十里"
  },
  "9390672": {
    "zipcode": "9390672",
    "prefectureCode": "16",
    "prefectureNumber": 16,
    "prefecture": "富山県",
    "city": "下新川郡入善町",
    "town": "田中"
  },
  "9390673": {
    "zipcode": "9390673",
    "prefectureCode": "16",
    "prefectureNumber": 16,
    "prefecture": "富山県",
    "city": "下新川郡入善町",
    "town": "吉原東"
  },
  "9390674": {
    "zipcode": "9390674",
    "prefectureCode": "16",
    "prefectureNumber": 16,
    "prefecture": "富山県",
    "city": "下新川郡入善町",
    "town": "吉原"
  },
  "9390675": {
    "zipcode": "9390675",
    "prefectureCode": "16",
    "prefectureNumber": 16,
    "prefecture": "富山県",
    "city": "下新川郡入善町",
    "town": "道市"
  },
  "9390676": {
    "zipcode": "9390676",
    "prefectureCode": "16",
    "prefectureNumber": 16,
    "prefecture": "富山県",
    "city": "下新川郡入善町",
    "town": "目川"
  },
  "9390677": {
    "zipcode": "9390677",
    "prefectureCode": "16",
    "prefectureNumber": 16,
    "prefecture": "富山県",
    "city": "下新川郡入善町",
    "town": "木根"
  },
  "9390678": {
    "zipcode": "9390678",
    "prefectureCode": "16",
    "prefectureNumber": 16,
    "prefecture": "富山県",
    "city": "下新川郡入善町",
    "town": "神子沢"
  },
  "9390679": {
    "zipcode": "9390679",
    "prefectureCode": "16",
    "prefectureNumber": 16,
    "prefecture": "富山県",
    "city": "下新川郡入善町",
    "town": "五十里"
  },
  "9390700": {
    "zipcode": "9390700",
    "prefectureCode": "16",
    "prefectureNumber": 16,
    "prefecture": "富山県",
    "city": "下新川郡朝日町",
    "town": "以下に掲載がない場合"
  },
  "9390701": {
    "zipcode": "9390701",
    "prefectureCode": "16",
    "prefectureNumber": 16,
    "prefecture": "富山県",
    "city": "下新川郡朝日町",
    "town": "横尾"
  },
  "9390702": {
    "zipcode": "9390702",
    "prefectureCode": "16",
    "prefectureNumber": 16,
    "prefecture": "富山県",
    "city": "下新川郡朝日町",
    "town": "元屋敷"
  },
  "9390703": {
    "zipcode": "9390703",
    "prefectureCode": "16",
    "prefectureNumber": 16,
    "prefecture": "富山県",
    "city": "下新川郡朝日町",
    "town": "宮崎"
  },
  "9390704": {
    "zipcode": "9390704",
    "prefectureCode": "16",
    "prefectureNumber": 16,
    "prefecture": "富山県",
    "city": "下新川郡朝日町",
    "town": "境"
  },
  "9390705": {
    "zipcode": "9390705",
    "prefectureCode": "16",
    "prefectureNumber": 16,
    "prefecture": "富山県",
    "city": "下新川郡朝日町",
    "town": "大平"
  },
  "9390711": {
    "zipcode": "9390711",
    "prefectureCode": "16",
    "prefectureNumber": 16,
    "prefecture": "富山県",
    "city": "下新川郡朝日町",
    "town": "笹川"
  },
  "9390712": {
    "zipcode": "9390712",
    "prefectureCode": "16",
    "prefectureNumber": 16,
    "prefecture": "富山県",
    "city": "下新川郡朝日町",
    "town": "蛭谷"
  },
  "9390713": {
    "zipcode": "9390713",
    "prefectureCode": "16",
    "prefectureNumber": 16,
    "prefecture": "富山県",
    "city": "下新川郡朝日町",
    "town": "長野"
  },
  "9390714": {
    "zipcode": "9390714",
    "prefectureCode": "16",
    "prefectureNumber": 16,
    "prefecture": "富山県",
    "city": "下新川郡朝日町",
    "town": "桜町"
  },
  "9390715": {
    "zipcode": "9390715",
    "prefectureCode": "16",
    "prefectureNumber": 16,
    "prefecture": "富山県",
    "city": "下新川郡朝日町",
    "town": "南保"
  },
  "9390716": {
    "zipcode": "9390716",
    "prefectureCode": "16",
    "prefectureNumber": 16,
    "prefecture": "富山県",
    "city": "下新川郡朝日町",
    "town": "南保町"
  },
  "9390717": {
    "zipcode": "9390717",
    "prefectureCode": "16",
    "prefectureNumber": 16,
    "prefecture": "富山県",
    "city": "下新川郡朝日町",
    "town": "石谷"
  },
  "9390721": {
    "zipcode": "9390721",
    "prefectureCode": "16",
    "prefectureNumber": 16,
    "prefecture": "富山県",
    "city": "下新川郡朝日町",
    "town": "三枚橋"
  },
  "9390722": {
    "zipcode": "9390722",
    "prefectureCode": "16",
    "prefectureNumber": 16,
    "prefecture": "富山県",
    "city": "下新川郡朝日町",
    "town": "大家庄"
  },
  "9390723": {
    "zipcode": "9390723",
    "prefectureCode": "16",
    "prefectureNumber": 16,
    "prefecture": "富山県",
    "city": "下新川郡朝日町",
    "town": "不動堂"
  },
  "9390724": {
    "zipcode": "9390724",
    "prefectureCode": "16",
    "prefectureNumber": 16,
    "prefecture": "富山県",
    "city": "下新川郡朝日町",
    "town": "横水"
  },
  "9390725": {
    "zipcode": "9390725",
    "prefectureCode": "16",
    "prefectureNumber": 16,
    "prefecture": "富山県",
    "city": "下新川郡朝日町",
    "town": "高橋"
  },
  "9390726": {
    "zipcode": "9390726",
    "prefectureCode": "16",
    "prefectureNumber": 16,
    "prefecture": "富山県",
    "city": "下新川郡朝日町",
    "town": "下山新"
  },
  "9390727": {
    "zipcode": "9390727",
    "prefectureCode": "16",
    "prefectureNumber": 16,
    "prefecture": "富山県",
    "city": "下新川郡朝日町",
    "town": "金山"
  },
  "9390728": {
    "zipcode": "9390728",
    "prefectureCode": "16",
    "prefectureNumber": 16,
    "prefecture": "富山県",
    "city": "下新川郡朝日町",
    "town": "窪田"
  },
  "9390729": {
    "zipcode": "9390729",
    "prefectureCode": "16",
    "prefectureNumber": 16,
    "prefecture": "富山県",
    "city": "下新川郡朝日町",
    "town": "舟川新"
  },
  "9390731": {
    "zipcode": "9390731",
    "prefectureCode": "16",
    "prefectureNumber": 16,
    "prefecture": "富山県",
    "city": "下新川郡朝日町",
    "town": "東草野"
  },
  "9390732": {
    "zipcode": "9390732",
    "prefectureCode": "16",
    "prefectureNumber": 16,
    "prefecture": "富山県",
    "city": "下新川郡朝日町",
    "town": "中草野"
  },
  "9390733": {
    "zipcode": "9390733",
    "prefectureCode": "16",
    "prefectureNumber": 16,
    "prefecture": "富山県",
    "city": "下新川郡朝日町",
    "town": "月山"
  },
  "9390734": {
    "zipcode": "9390734",
    "prefectureCode": "16",
    "prefectureNumber": 16,
    "prefecture": "富山県",
    "city": "下新川郡朝日町",
    "town": "草野"
  },
  "9390735": {
    "zipcode": "9390735",
    "prefectureCode": "16",
    "prefectureNumber": 16,
    "prefecture": "富山県",
    "city": "下新川郡朝日町",
    "town": "赤川"
  },
  "9390736": {
    "zipcode": "9390736",
    "prefectureCode": "16",
    "prefectureNumber": 16,
    "prefecture": "富山県",
    "city": "下新川郡朝日町",
    "town": "浜草野"
  },
  "9390737": {
    "zipcode": "9390737",
    "prefectureCode": "16",
    "prefectureNumber": 16,
    "prefecture": "富山県",
    "city": "下新川郡朝日町",
    "town": "月山新"
  },
  "9390741": {
    "zipcode": "9390741",
    "prefectureCode": "16",
    "prefectureNumber": 16,
    "prefecture": "富山県",
    "city": "下新川郡朝日町",
    "town": "泊"
  },
  "9390742": {
    "zipcode": "9390742",
    "prefectureCode": "16",
    "prefectureNumber": 16,
    "prefecture": "富山県",
    "city": "下新川郡朝日町",
    "town": "沼保"
  },
  "9390743": {
    "zipcode": "9390743",
    "prefectureCode": "16",
    "prefectureNumber": 16,
    "prefecture": "富山県",
    "city": "下新川郡朝日町",
    "town": "道下"
  },
  "9390744": {
    "zipcode": "9390744",
    "prefectureCode": "16",
    "prefectureNumber": 16,
    "prefecture": "富山県",
    "city": "下新川郡朝日町",
    "town": "平柳"
  },
  "9390745": {
    "zipcode": "9390745",
    "prefectureCode": "16",
    "prefectureNumber": 16,
    "prefecture": "富山県",
    "city": "下新川郡朝日町",
    "town": "西町"
  },
  "9390746": {
    "zipcode": "9390746",
    "prefectureCode": "16",
    "prefectureNumber": 16,
    "prefecture": "富山県",
    "city": "下新川郡朝日町",
    "town": "荒川"
  },
  "9390747": {
    "zipcode": "9390747",
    "prefectureCode": "16",
    "prefectureNumber": 16,
    "prefecture": "富山県",
    "city": "下新川郡朝日町",
    "town": "大屋"
  },
  "9390748": {
    "zipcode": "9390748",
    "prefectureCode": "16",
    "prefectureNumber": 16,
    "prefecture": "富山県",
    "city": "下新川郡朝日町",
    "town": "大屋新"
  },
  "9390749": {
    "zipcode": "9390749",
    "prefectureCode": "16",
    "prefectureNumber": 16,
    "prefecture": "富山県",
    "city": "下新川郡朝日町",
    "town": "泊新"
  },
  "9390751": {
    "zipcode": "9390751",
    "prefectureCode": "16",
    "prefectureNumber": 16,
    "prefecture": "富山県",
    "city": "下新川郡朝日町",
    "town": "野新"
  },
  "9391101": {
    "zipcode": "9391101",
    "prefectureCode": "16",
    "prefectureNumber": 16,
    "prefecture": "富山県",
    "city": "高岡市",
    "town": "戸出市野瀬"
  },
  "9391102": {
    "zipcode": "9391102",
    "prefectureCode": "16",
    "prefectureNumber": 16,
    "prefecture": "富山県",
    "city": "高岡市",
    "town": "戸出狼"
  },
  "9391103": {
    "zipcode": "9391103",
    "prefectureCode": "16",
    "prefectureNumber": 16,
    "prefecture": "富山県",
    "city": "高岡市",
    "town": "戸出池田町"
  },
  "9391104": {
    "zipcode": "9391104",
    "prefectureCode": "16",
    "prefectureNumber": 16,
    "prefecture": "富山県",
    "city": "高岡市",
    "town": "戸出町"
  },
  "9391105": {
    "zipcode": "9391105",
    "prefectureCode": "16",
    "prefectureNumber": 16,
    "prefecture": "富山県",
    "city": "高岡市",
    "town": "戸出伊勢領"
  },
  "9391110": {
    "zipcode": "9391110",
    "prefectureCode": "16",
    "prefectureNumber": 16,
    "prefecture": "富山県",
    "city": "高岡市",
    "town": "ＩＣパーク"
  },
  "9391111": {
    "zipcode": "9391111",
    "prefectureCode": "16",
    "prefectureNumber": 16,
    "prefecture": "富山県",
    "city": "高岡市",
    "town": "戸出徳市"
  },
  "9391112": {
    "zipcode": "9391112",
    "prefectureCode": "16",
    "prefectureNumber": 16,
    "prefecture": "富山県",
    "city": "高岡市",
    "town": "戸出春日"
  },
  "9391113": {
    "zipcode": "9391113",
    "prefectureCode": "16",
    "prefectureNumber": 16,
    "prefecture": "富山県",
    "city": "高岡市",
    "town": "戸出石代"
  },
  "9391114": {
    "zipcode": "9391114",
    "prefectureCode": "16",
    "prefectureNumber": 16,
    "prefecture": "富山県",
    "city": "高岡市",
    "town": "戸出西部金屋"
  },
  "9391115": {
    "zipcode": "9391115",
    "prefectureCode": "16",
    "prefectureNumber": 16,
    "prefecture": "富山県",
    "city": "高岡市",
    "town": "戸出吉住新"
  },
  "9391116": {
    "zipcode": "9391116",
    "prefectureCode": "16",
    "prefectureNumber": 16,
    "prefecture": "富山県",
    "city": "高岡市",
    "town": "戸出吉住"
  },
  "9391117": {
    "zipcode": "9391117",
    "prefectureCode": "16",
    "prefectureNumber": 16,
    "prefecture": "富山県",
    "city": "高岡市",
    "town": "戸出大清水"
  },
  "9391118": {
    "zipcode": "9391118",
    "prefectureCode": "16",
    "prefectureNumber": 16,
    "prefecture": "富山県",
    "city": "高岡市",
    "town": "戸出栄町"
  },
  "9391119": {
    "zipcode": "9391119",
    "prefectureCode": "16",
    "prefectureNumber": 16,
    "prefecture": "富山県",
    "city": "高岡市",
    "town": "オフィスパーク"
  },
  "9391120": {
    "zipcode": "9391120",
    "prefectureCode": "16",
    "prefectureNumber": 16,
    "prefecture": "富山県",
    "city": "高岡市",
    "town": "グリーンパーク"
  },
  "9391121": {
    "zipcode": "9391121",
    "prefectureCode": "16",
    "prefectureNumber": 16,
    "prefecture": "富山県",
    "city": "高岡市",
    "town": "戸出光明寺"
  },
  "9391122": {
    "zipcode": "9391122",
    "prefectureCode": "16",
    "prefectureNumber": 16,
    "prefecture": "富山県",
    "city": "高岡市",
    "town": "戸出古戸出"
  },
  "9391123": {
    "zipcode": "9391123",
    "prefectureCode": "16",
    "prefectureNumber": 16,
    "prefecture": "富山県",
    "city": "高岡市",
    "town": "戸出行兼"
  },
  "9391124": {
    "zipcode": "9391124",
    "prefectureCode": "16",
    "prefectureNumber": 16,
    "prefecture": "富山県",
    "city": "高岡市",
    "town": "戸出六十歩"
  },
  "9391125": {
    "zipcode": "9391125",
    "prefectureCode": "16",
    "prefectureNumber": 16,
    "prefecture": "富山県",
    "city": "高岡市",
    "town": "戸出岡御所"
  },
  "9391131": {
    "zipcode": "9391131",
    "prefectureCode": "16",
    "prefectureNumber": 16,
    "prefecture": "富山県",
    "city": "高岡市",
    "town": "醍醐"
  },
  "9391132": {
    "zipcode": "9391132",
    "prefectureCode": "16",
    "prefectureNumber": 16,
    "prefecture": "富山県",
    "city": "高岡市",
    "town": "戸出竹"
  },
  "9391133": {
    "zipcode": "9391133",
    "prefectureCode": "16",
    "prefectureNumber": 16,
    "prefecture": "富山県",
    "city": "高岡市",
    "town": "戸出放寺"
  },
  "9391134": {
    "zipcode": "9391134",
    "prefectureCode": "16",
    "prefectureNumber": 16,
    "prefecture": "富山県",
    "city": "高岡市",
    "town": "戸出放寺新"
  },
  "9391135": {
    "zipcode": "9391135",
    "prefectureCode": "16",
    "prefectureNumber": 16,
    "prefecture": "富山県",
    "city": "高岡市",
    "town": "戸出竹北"
  },
  "9391136": {
    "zipcode": "9391136",
    "prefectureCode": "16",
    "prefectureNumber": 16,
    "prefecture": "富山県",
    "city": "高岡市",
    "town": "戸出延島"
  },
  "9391251": {
    "zipcode": "9391251",
    "prefectureCode": "16",
    "prefectureNumber": 16,
    "prefecture": "富山県",
    "city": "高岡市",
    "town": "常国"
  },
  "9391252": {
    "zipcode": "9391252",
    "prefectureCode": "16",
    "prefectureNumber": 16,
    "prefecture": "富山県",
    "city": "高岡市",
    "town": "常国みどり台"
  },
  "9391253": {
    "zipcode": "9391253",
    "prefectureCode": "16",
    "prefectureNumber": 16,
    "prefecture": "富山県",
    "city": "高岡市",
    "town": "若杉"
  },
  "9391254": {
    "zipcode": "9391254",
    "prefectureCode": "16",
    "prefectureNumber": 16,
    "prefecture": "富山県",
    "city": "高岡市",
    "town": "滝新"
  },
  "9391255": {
    "zipcode": "9391255",
    "prefectureCode": "16",
    "prefectureNumber": 16,
    "prefecture": "富山県",
    "city": "高岡市",
    "town": "滝"
  },
  "9391261": {
    "zipcode": "9391261",
    "prefectureCode": "16",
    "prefectureNumber": 16,
    "prefecture": "富山県",
    "city": "高岡市",
    "town": "小泉新"
  },
  "9391262": {
    "zipcode": "9391262",
    "prefectureCode": "16",
    "prefectureNumber": 16,
    "prefecture": "富山県",
    "city": "高岡市",
    "town": "山下"
  },
  "9391263": {
    "zipcode": "9391263",
    "prefectureCode": "16",
    "prefectureNumber": 16,
    "prefecture": "富山県",
    "city": "高岡市",
    "town": "島新"
  },
  "9391264": {
    "zipcode": "9391264",
    "prefectureCode": "16",
    "prefectureNumber": 16,
    "prefecture": "富山県",
    "city": "高岡市",
    "town": "下山田"
  },
  "9391265": {
    "zipcode": "9391265",
    "prefectureCode": "16",
    "prefectureNumber": 16,
    "prefecture": "富山県",
    "city": "高岡市",
    "town": "東保新"
  },
  "9391266": {
    "zipcode": "9391266",
    "prefectureCode": "16",
    "prefectureNumber": 16,
    "prefecture": "富山県",
    "city": "高岡市",
    "town": "今泉新"
  },
  "9391267": {
    "zipcode": "9391267",
    "prefectureCode": "16",
    "prefectureNumber": 16,
    "prefecture": "富山県",
    "city": "高岡市",
    "town": "今泉"
  },
  "9391271": {
    "zipcode": "9391271",
    "prefectureCode": "16",
    "prefectureNumber": 16,
    "prefecture": "富山県",
    "city": "高岡市",
    "town": "下麻生伸町"
  },
  "9391272": {
    "zipcode": "9391272",
    "prefectureCode": "16",
    "prefectureNumber": 16,
    "prefecture": "富山県",
    "city": "高岡市",
    "town": "下麻生"
  },
  "9391273": {
    "zipcode": "9391273",
    "prefectureCode": "16",
    "prefectureNumber": 16,
    "prefecture": "富山県",
    "city": "高岡市",
    "town": "葦附"
  },
  "9391274": {
    "zipcode": "9391274",
    "prefectureCode": "16",
    "prefectureNumber": 16,
    "prefecture": "富山県",
    "city": "高岡市",
    "town": "上麻生"
  },
  "9391275": {
    "zipcode": "9391275",
    "prefectureCode": "16",
    "prefectureNumber": 16,
    "prefecture": "富山県",
    "city": "高岡市",
    "town": "中田"
  },
  "9391300": {
    "zipcode": "9391300",
    "prefectureCode": "16",
    "prefectureNumber": 16,
    "prefecture": "富山県",
    "city": "砺波市",
    "town": "以下に掲載がない場合"
  },
  "9391301": {
    "zipcode": "9391301",
    "prefectureCode": "16",
    "prefectureNumber": 16,
    "prefecture": "富山県",
    "city": "砺波市",
    "town": "石丸"
  },
  "9391302": {
    "zipcode": "9391302",
    "prefectureCode": "16",
    "prefectureNumber": 16,
    "prefecture": "富山県",
    "city": "砺波市",
    "town": "東石丸"
  },
  "9391303": {
    "zipcode": "9391303",
    "prefectureCode": "16",
    "prefectureNumber": 16,
    "prefecture": "富山県",
    "city": "砺波市",
    "town": "大窪"
  },
  "9391304": {
    "zipcode": "9391304",
    "prefectureCode": "16",
    "prefectureNumber": 16,
    "prefecture": "富山県",
    "city": "砺波市",
    "town": "秋元"
  },
  "9391305": {
    "zipcode": "9391305",
    "prefectureCode": "16",
    "prefectureNumber": 16,
    "prefecture": "富山県",
    "city": "砺波市",
    "town": "千保"
  },
  "9391306": {
    "zipcode": "9391306",
    "prefectureCode": "16",
    "prefectureNumber": 16,
    "prefecture": "富山県",
    "city": "砺波市",
    "town": "宮村"
  },
  "9391307": {
    "zipcode": "9391307",
    "prefectureCode": "16",
    "prefectureNumber": 16,
    "prefecture": "富山県",
    "city": "砺波市",
    "town": "堀内"
  },
  "9391308": {
    "zipcode": "9391308",
    "prefectureCode": "16",
    "prefectureNumber": 16,
    "prefecture": "富山県",
    "city": "砺波市",
    "town": "三郎丸"
  },
  "9391311": {
    "zipcode": "9391311",
    "prefectureCode": "16",
    "prefectureNumber": 16,
    "prefecture": "富山県",
    "city": "砺波市",
    "town": "下中条"
  },
  "9391312": {
    "zipcode": "9391312",
    "prefectureCode": "16",
    "prefectureNumber": 16,
    "prefecture": "富山県",
    "city": "砺波市",
    "town": "東開発"
  },
  "9391313": {
    "zipcode": "9391313",
    "prefectureCode": "16",
    "prefectureNumber": 16,
    "prefecture": "富山県",
    "city": "砺波市",
    "town": "柳瀬"
  },
  "9391314": {
    "zipcode": "9391314",
    "prefectureCode": "16",
    "prefectureNumber": 16,
    "prefecture": "富山県",
    "city": "砺波市",
    "town": "久泉"
  },
  "9391315": {
    "zipcode": "9391315",
    "prefectureCode": "16",
    "prefectureNumber": 16,
    "prefecture": "富山県",
    "city": "砺波市",
    "town": "太田"
  },
  "9391316": {
    "zipcode": "9391316",
    "prefectureCode": "16",
    "prefectureNumber": 16,
    "prefecture": "富山県",
    "city": "砺波市",
    "town": "大門"
  },
  "9391317": {
    "zipcode": "9391317",
    "prefectureCode": "16",
    "prefectureNumber": 16,
    "prefecture": "富山県",
    "city": "砺波市",
    "town": "矢木"
  },
  "9391318": {
    "zipcode": "9391318",
    "prefectureCode": "16",
    "prefectureNumber": 16,
    "prefecture": "富山県",
    "city": "砺波市",
    "town": "祖泉"
  },
  "9391321": {
    "zipcode": "9391321",
    "prefectureCode": "16",
    "prefectureNumber": 16,
    "prefecture": "富山県",
    "city": "砺波市",
    "town": "新明"
  },
  "9391322": {
    "zipcode": "9391322",
    "prefectureCode": "16",
    "prefectureNumber": 16,
    "prefecture": "富山県",
    "city": "砺波市",
    "town": "中野"
  },
  "9391323": {
    "zipcode": "9391323",
    "prefectureCode": "16",
    "prefectureNumber": 16,
    "prefecture": "富山県",
    "city": "砺波市",
    "town": "上中野"
  },
  "9391324": {
    "zipcode": "9391324",
    "prefectureCode": "16",
    "prefectureNumber": 16,
    "prefecture": "富山県",
    "city": "砺波市",
    "town": "荒高屋"
  },
  "9391325": {
    "zipcode": "9391325",
    "prefectureCode": "16",
    "prefectureNumber": 16,
    "prefecture": "富山県",
    "city": "砺波市",
    "town": "花島"
  },
  "9391326": {
    "zipcode": "9391326",
    "prefectureCode": "16",
    "prefectureNumber": 16,
    "prefecture": "富山県",
    "city": "砺波市",
    "town": "鹿島"
  },
  "9391327": {
    "zipcode": "9391327",
    "prefectureCode": "16",
    "prefectureNumber": 16,
    "prefecture": "富山県",
    "city": "砺波市",
    "town": "五郎丸"
  },
  "9391328": {
    "zipcode": "9391328",
    "prefectureCode": "16",
    "prefectureNumber": 16,
    "prefecture": "富山県",
    "city": "砺波市",
    "town": "大辻"
  },
  "9391331": {
    "zipcode": "9391331",
    "prefectureCode": "16",
    "prefectureNumber": 16,
    "prefecture": "富山県",
    "city": "砺波市",
    "town": "深江"
  },
  "9391332": {
    "zipcode": "9391332",
    "prefectureCode": "16",
    "prefectureNumber": 16,
    "prefecture": "富山県",
    "city": "砺波市",
    "town": "永福町"
  },
  "9391333": {
    "zipcode": "9391333",
    "prefectureCode": "16",
    "prefectureNumber": 16,
    "prefecture": "富山県",
    "city": "砺波市",
    "town": "苗加"
  },
  "9391334": {
    "zipcode": "9391334",
    "prefectureCode": "16",
    "prefectureNumber": 16,
    "prefecture": "富山県",
    "city": "砺波市",
    "town": "野村島"
  },
  "9391335": {
    "zipcode": "9391335",
    "prefectureCode": "16",
    "prefectureNumber": 16,
    "prefecture": "富山県",
    "city": "砺波市",
    "town": "鷹栖"
  },
  "9391336": {
    "zipcode": "9391336",
    "prefectureCode": "16",
    "prefectureNumber": 16,
    "prefecture": "富山県",
    "city": "砺波市",
    "town": "西中"
  },
  "9391337": {
    "zipcode": "9391337",
    "prefectureCode": "16",
    "prefectureNumber": 16,
    "prefecture": "富山県",
    "city": "砺波市",
    "town": "神島"
  },
  "9391338": {
    "zipcode": "9391338",
    "prefectureCode": "16",
    "prefectureNumber": 16,
    "prefecture": "富山県",
    "city": "砺波市",
    "town": "鷹栖出"
  },
  "9391341": {
    "zipcode": "9391341",
    "prefectureCode": "16",
    "prefectureNumber": 16,
    "prefecture": "富山県",
    "city": "砺波市",
    "town": "高波"
  },
  "9391342": {
    "zipcode": "9391342",
    "prefectureCode": "16",
    "prefectureNumber": 16,
    "prefecture": "富山県",
    "city": "砺波市",
    "town": "小島"
  },
  "9391343": {
    "zipcode": "9391343",
    "prefectureCode": "16",
    "prefectureNumber": 16,
    "prefecture": "富山県",
    "city": "砺波市",
    "town": "新富町"
  },
  "9391344": {
    "zipcode": "9391344",
    "prefectureCode": "16",
    "prefectureNumber": 16,
    "prefecture": "富山県",
    "city": "砺波市",
    "town": "中神"
  },
  "9391345": {
    "zipcode": "9391345",
    "prefectureCode": "16",
    "prefectureNumber": 16,
    "prefecture": "富山県",
    "city": "砺波市",
    "town": "林"
  },
  "9391346": {
    "zipcode": "9391346",
    "prefectureCode": "16",
    "prefectureNumber": 16,
    "prefecture": "富山県",
    "city": "砺波市",
    "town": "狐島"
  },
  "9391347": {
    "zipcode": "9391347",
    "prefectureCode": "16",
    "prefectureNumber": 16,
    "prefecture": "富山県",
    "city": "砺波市",
    "town": "下中"
  },
  "9391348": {
    "zipcode": "9391348",
    "prefectureCode": "16",
    "prefectureNumber": 16,
    "prefecture": "富山県",
    "city": "砺波市",
    "town": "東中"
  },
  "9391351": {
    "zipcode": "9391351",
    "prefectureCode": "16",
    "prefectureNumber": 16,
    "prefecture": "富山県",
    "city": "砺波市",
    "town": "千代"
  },
  "9391352": {
    "zipcode": "9391352",
    "prefectureCode": "16",
    "prefectureNumber": 16,
    "prefecture": "富山県",
    "city": "砺波市",
    "town": "宮丸"
  },
  "9391353": {
    "zipcode": "9391353",
    "prefectureCode": "16",
    "prefectureNumber": 16,
    "prefecture": "富山県",
    "city": "砺波市",
    "town": "十年明"
  },
  "9391354": {
    "zipcode": "9391354",
    "prefectureCode": "16",
    "prefectureNumber": 16,
    "prefecture": "富山県",
    "city": "砺波市",
    "town": "新栄町"
  },
  "9391355": {
    "zipcode": "9391355",
    "prefectureCode": "16",
    "prefectureNumber": 16,
    "prefecture": "富山県",
    "city": "砺波市",
    "town": "杉木"
  },
  "9391356": {
    "zipcode": "9391356",
    "prefectureCode": "16",
    "prefectureNumber": 16,
    "prefecture": "富山県",
    "city": "砺波市",
    "town": "若草町"
  },
  "9391357": {
    "zipcode": "9391357",
    "prefectureCode": "16",
    "prefectureNumber": 16,
    "prefecture": "富山県",
    "city": "砺波市",
    "town": "小杉"
  },
  "9391358": {
    "zipcode": "9391358",
    "prefectureCode": "16",
    "prefectureNumber": 16,
    "prefecture": "富山県",
    "city": "砺波市",
    "town": "木下"
  },
  "9391361": {
    "zipcode": "9391361",
    "prefectureCode": "16",
    "prefectureNumber": 16,
    "prefecture": "富山県",
    "city": "砺波市",
    "town": "平成町"
  },
  "9391362": {
    "zipcode": "9391362",
    "prefectureCode": "16",
    "prefectureNumber": 16,
    "prefecture": "富山県",
    "city": "砺波市",
    "town": "鍋島"
  },
  "9391363": {
    "zipcode": "9391363",
    "prefectureCode": "16",
    "prefectureNumber": 16,
    "prefecture": "富山県",
    "city": "砺波市",
    "town": "太郎丸"
  },
  "9391364": {
    "zipcode": "9391364",
    "prefectureCode": "16",
    "prefectureNumber": 16,
    "prefecture": "富山県",
    "city": "砺波市",
    "town": "豊町"
  },
  "9391365": {
    "zipcode": "9391365",
    "prefectureCode": "16",
    "prefectureNumber": 16,
    "prefecture": "富山県",
    "city": "砺波市",
    "town": "三島町"
  },
  "9391366": {
    "zipcode": "9391366",
    "prefectureCode": "16",
    "prefectureNumber": 16,
    "prefecture": "富山県",
    "city": "砺波市",
    "town": "表町"
  },
  "9391367": {
    "zipcode": "9391367",
    "prefectureCode": "16",
    "prefectureNumber": 16,
    "prefecture": "富山県",
    "city": "砺波市",
    "town": "広上町"
  },
  "9391368": {
    "zipcode": "9391368",
    "prefectureCode": "16",
    "prefectureNumber": 16,
    "prefecture": "富山県",
    "city": "砺波市",
    "town": "本町"
  },
  "9391371": {
    "zipcode": "9391371",
    "prefectureCode": "16",
    "prefectureNumber": 16,
    "prefecture": "富山県",
    "city": "砺波市",
    "town": "栄町"
  },
  "9391372": {
    "zipcode": "9391372",
    "prefectureCode": "16",
    "prefectureNumber": 16,
    "prefecture": "富山県",
    "city": "砺波市",
    "town": "新又"
  },
  "9391373": {
    "zipcode": "9391373",
    "prefectureCode": "16",
    "prefectureNumber": 16,
    "prefecture": "富山県",
    "city": "砺波市",
    "town": "一番町"
  },
  "9391374": {
    "zipcode": "9391374",
    "prefectureCode": "16",
    "prefectureNumber": 16,
    "prefecture": "富山県",
    "city": "砺波市",
    "town": "山王町"
  },
  "9391375": {
    "zipcode": "9391375",
    "prefectureCode": "16",
    "prefectureNumber": 16,
    "prefecture": "富山県",
    "city": "砺波市",
    "town": "中央町"
  },
  "9391376": {
    "zipcode": "9391376",
    "prefectureCode": "16",
    "prefectureNumber": 16,
    "prefecture": "富山県",
    "city": "砺波市",
    "town": "平和町"
  },
  "9391377": {
    "zipcode": "9391377",
    "prefectureCode": "16",
    "prefectureNumber": 16,
    "prefecture": "富山県",
    "city": "砺波市",
    "town": "寿町"
  },
  "9391378": {
    "zipcode": "9391378",
    "prefectureCode": "16",
    "prefectureNumber": 16,
    "prefecture": "富山県",
    "city": "砺波市",
    "town": "春日町"
  },
  "9391379": {
    "zipcode": "9391379",
    "prefectureCode": "16",
    "prefectureNumber": 16,
    "prefecture": "富山県",
    "city": "砺波市",
    "town": "出町中央"
  },
  "9391381": {
    "zipcode": "9391381",
    "prefectureCode": "16",
    "prefectureNumber": 16,
    "prefecture": "富山県",
    "city": "砺波市",
    "town": "中村"
  },
  "9391382": {
    "zipcode": "9391382",
    "prefectureCode": "16",
    "prefectureNumber": 16,
    "prefecture": "富山県",
    "city": "砺波市",
    "town": "花園町"
  },
  "9391383": {
    "zipcode": "9391383",
    "prefectureCode": "16",
    "prefectureNumber": 16,
    "prefecture": "富山県",
    "city": "砺波市",
    "town": "高道"
  },
  "9391384": {
    "zipcode": "9391384",
    "prefectureCode": "16",
    "prefectureNumber": 16,
    "prefecture": "富山県",
    "city": "砺波市",
    "town": "坪内"
  },
  "9391385": {
    "zipcode": "9391385",
    "prefectureCode": "16",
    "prefectureNumber": 16,
    "prefecture": "富山県",
    "city": "砺波市",
    "town": "東幸町"
  },
  "9391386": {
    "zipcode": "9391386",
    "prefectureCode": "16",
    "prefectureNumber": 16,
    "prefecture": "富山県",
    "city": "砺波市",
    "town": "幸町"
  },
  "9391387": {
    "zipcode": "9391387",
    "prefectureCode": "16",
    "prefectureNumber": 16,
    "prefecture": "富山県",
    "city": "砺波市",
    "town": "となみ町"
  },
  "9391388": {
    "zipcode": "9391388",
    "prefectureCode": "16",
    "prefectureNumber": 16,
    "prefecture": "富山県",
    "city": "砺波市",
    "town": "宮沢町"
  },
  "9391401": {
    "zipcode": "9391401",
    "prefectureCode": "16",
    "prefectureNumber": 16,
    "prefecture": "富山県",
    "city": "砺波市",
    "town": "本小林"
  },
  "9391402": {
    "zipcode": "9391402",
    "prefectureCode": "16",
    "prefectureNumber": 16,
    "prefecture": "富山県",
    "city": "砺波市",
    "town": "増山"
  },
  "9391403": {
    "zipcode": "9391403",
    "prefectureCode": "16",
    "prefectureNumber": 16,
    "prefecture": "富山県",
    "city": "砺波市",
    "town": "宮新"
  },
  "9391404": {
    "zipcode": "9391404",
    "prefectureCode": "16",
    "prefectureNumber": 16,
    "prefecture": "富山県",
    "city": "砺波市",
    "town": "宮森新"
  },
  "9391405": {
    "zipcode": "9391405",
    "prefectureCode": "16",
    "prefectureNumber": 16,
    "prefecture": "富山県",
    "city": "砺波市",
    "town": "福岡"
  },
  "9391406": {
    "zipcode": "9391406",
    "prefectureCode": "16",
    "prefectureNumber": 16,
    "prefecture": "富山県",
    "city": "砺波市",
    "town": "宮森"
  },
  "9391407": {
    "zipcode": "9391407",
    "prefectureCode": "16",
    "prefectureNumber": 16,
    "prefecture": "富山県",
    "city": "砺波市",
    "town": "権正寺"
  },
  "9391408": {
    "zipcode": "9391408",
    "prefectureCode": "16",
    "prefectureNumber": 16,
    "prefecture": "富山県",
    "city": "砺波市",
    "town": "八十歩"
  },
  "9391411": {
    "zipcode": "9391411",
    "prefectureCode": "16",
    "prefectureNumber": 16,
    "prefecture": "富山県",
    "city": "砺波市",
    "town": "上和田"
  },
  "9391412": {
    "zipcode": "9391412",
    "prefectureCode": "16",
    "prefectureNumber": 16,
    "prefecture": "富山県",
    "city": "砺波市",
    "town": "正権寺"
  },
  "9391413": {
    "zipcode": "9391413",
    "prefectureCode": "16",
    "prefectureNumber": 16,
    "prefecture": "富山県",
    "city": "砺波市",
    "town": "市谷"
  },
  "9391414": {
    "zipcode": "9391414",
    "prefectureCode": "16",
    "prefectureNumber": 16,
    "prefecture": "富山県",
    "city": "砺波市",
    "town": "坪野"
  },
  "9391415": {
    "zipcode": "9391415",
    "prefectureCode": "16",
    "prefectureNumber": 16,
    "prefecture": "富山県",
    "city": "砺波市",
    "town": "池原"
  },
  "9391416": {
    "zipcode": "9391416",
    "prefectureCode": "16",
    "prefectureNumber": 16,
    "prefecture": "富山県",
    "city": "砺波市",
    "town": "芹谷"
  },
  "9391417": {
    "zipcode": "9391417",
    "prefectureCode": "16",
    "prefectureNumber": 16,
    "prefecture": "富山県",
    "city": "砺波市",
    "town": "頼成新"
  },
  "9391421": {
    "zipcode": "9391421",
    "prefectureCode": "16",
    "prefectureNumber": 16,
    "prefecture": "富山県",
    "city": "砺波市",
    "town": "東別所新"
  },
  "9391422": {
    "zipcode": "9391422",
    "prefectureCode": "16",
    "prefectureNumber": 16,
    "prefecture": "富山県",
    "city": "砺波市",
    "town": "浅谷"
  },
  "9391423": {
    "zipcode": "9391423",
    "prefectureCode": "16",
    "prefectureNumber": 16,
    "prefecture": "富山県",
    "city": "砺波市",
    "town": "東別所"
  },
  "9391424": {
    "zipcode": "9391424",
    "prefectureCode": "16",
    "prefectureNumber": 16,
    "prefecture": "富山県",
    "city": "砺波市",
    "town": "栃上"
  },
  "9391425": {
    "zipcode": "9391425",
    "prefectureCode": "16",
    "prefectureNumber": 16,
    "prefecture": "富山県",
    "city": "砺波市",
    "town": "井栗谷"
  },
  "9391426": {
    "zipcode": "9391426",
    "prefectureCode": "16",
    "prefectureNumber": 16,
    "prefecture": "富山県",
    "city": "砺波市",
    "town": "川内"
  },
  "9391427": {
    "zipcode": "9391427",
    "prefectureCode": "16",
    "prefectureNumber": 16,
    "prefecture": "富山県",
    "city": "砺波市",
    "town": "伏木谷"
  },
  "9391428": {
    "zipcode": "9391428",
    "prefectureCode": "16",
    "prefectureNumber": 16,
    "prefecture": "富山県",
    "city": "砺波市",
    "town": "五谷"
  },
  "9391429": {
    "zipcode": "9391429",
    "prefectureCode": "16",
    "prefectureNumber": 16,
    "prefecture": "富山県",
    "city": "砺波市",
    "town": "寺尾"
  },
  "9391431": {
    "zipcode": "9391431",
    "prefectureCode": "16",
    "prefectureNumber": 16,
    "prefecture": "富山県",
    "city": "砺波市",
    "town": "頼成"
  },
  "9391432": {
    "zipcode": "9391432",
    "prefectureCode": "16",
    "prefectureNumber": 16,
    "prefecture": "富山県",
    "city": "砺波市",
    "town": "徳万"
  },
  "9391433": {
    "zipcode": "9391433",
    "prefectureCode": "16",
    "prefectureNumber": 16,
    "prefecture": "富山県",
    "city": "砺波市",
    "town": "徳万新"
  },
  "9391434": {
    "zipcode": "9391434",
    "prefectureCode": "16",
    "prefectureNumber": 16,
    "prefecture": "富山県",
    "city": "砺波市",
    "town": "三合"
  },
  "9391435": {
    "zipcode": "9391435",
    "prefectureCode": "16",
    "prefectureNumber": 16,
    "prefecture": "富山県",
    "city": "砺波市",
    "town": "三合新"
  },
  "9391436": {
    "zipcode": "9391436",
    "prefectureCode": "16",
    "prefectureNumber": 16,
    "prefecture": "富山県",
    "city": "砺波市",
    "town": "福山"
  },
  "9391437": {
    "zipcode": "9391437",
    "prefectureCode": "16",
    "prefectureNumber": 16,
    "prefecture": "富山県",
    "city": "砺波市",
    "town": "茶ノ木"
  },
  "9391438": {
    "zipcode": "9391438",
    "prefectureCode": "16",
    "prefectureNumber": 16,
    "prefecture": "富山県",
    "city": "砺波市",
    "town": "安川"
  },
  "9391501": {
    "zipcode": "9391501",
    "prefectureCode": "16",
    "prefectureNumber": 16,
    "prefecture": "富山県",
    "city": "南砺市",
    "town": "本江"
  },
  "9391502": {
    "zipcode": "9391502",
    "prefectureCode": "16",
    "prefectureNumber": 16,
    "prefecture": "富山県",
    "city": "南砺市",
    "town": "野尻"
  },
  "9391503": {
    "zipcode": "9391503",
    "prefectureCode": "16",
    "prefectureNumber": 16,
    "prefecture": "富山県",
    "city": "南砺市",
    "town": "岩武新"
  },
  "9391504": {
    "zipcode": "9391504",
    "prefectureCode": "16",
    "prefectureNumber": 16,
    "prefecture": "富山県",
    "city": "南砺市",
    "town": "川除新"
  },
  "9391505": {
    "zipcode": "9391505",
    "prefectureCode": "16",
    "prefectureNumber": 16,
    "prefecture": "富山県",
    "city": "南砺市",
    "town": "長源寺"
  },
  "9391506": {
    "zipcode": "9391506",
    "prefectureCode": "16",
    "prefectureNumber": 16,
    "prefecture": "富山県",
    "city": "南砺市",
    "town": "高儀"
  },
  "9391507": {
    "zipcode": "9391507",
    "prefectureCode": "16",
    "prefectureNumber": 16,
    "prefecture": "富山県",
    "city": "南砺市",
    "town": "二日町"
  },
  "9391511": {
    "zipcode": "9391511",
    "prefectureCode": "16",
    "prefectureNumber": 16,
    "prefecture": "富山県",
    "city": "南砺市",
    "town": "高堀"
  },
  "9391512": {
    "zipcode": "9391512",
    "prefectureCode": "16",
    "prefectureNumber": 16,
    "prefecture": "富山県",
    "city": "南砺市",
    "town": "上野"
  },
  "9391513": {
    "zipcode": "9391513",
    "prefectureCode": "16",
    "prefectureNumber": 16,
    "prefecture": "富山県",
    "city": "南砺市",
    "town": "野尻野"
  },
  "9391514": {
    "zipcode": "9391514",
    "prefectureCode": "16",
    "prefectureNumber": 16,
    "prefecture": "富山県",
    "city": "南砺市",
    "town": "年代"
  },
  "9391515": {
    "zipcode": "9391515",
    "prefectureCode": "16",
    "prefectureNumber": 16,
    "prefecture": "富山県",
    "city": "南砺市",
    "town": "福野軸屋"
  },
  "9391516": {
    "zipcode": "9391516",
    "prefectureCode": "16",
    "prefectureNumber": 16,
    "prefecture": "富山県",
    "city": "南砺市",
    "town": "焼野"
  },
  "9391517": {
    "zipcode": "9391517",
    "prefectureCode": "16",
    "prefectureNumber": 16,
    "prefecture": "富山県",
    "city": "南砺市",
    "town": "百町"
  },
  "9391518": {
    "zipcode": "9391518",
    "prefectureCode": "16",
    "prefectureNumber": 16,
    "prefecture": "富山県",
    "city": "南砺市",
    "town": "松原"
  },
  "9391521": {
    "zipcode": "9391521",
    "prefectureCode": "16",
    "prefectureNumber": 16,
    "prefecture": "富山県",
    "city": "南砺市",
    "town": "苗島"
  },
  "9391522": {
    "zipcode": "9391522",
    "prefectureCode": "16",
    "prefectureNumber": 16,
    "prefecture": "富山県",
    "city": "南砺市",
    "town": "野新"
  },
  "9391523": {
    "zipcode": "9391523",
    "prefectureCode": "16",
    "prefectureNumber": 16,
    "prefecture": "富山県",
    "city": "南砺市",
    "town": "野原"
  },
  "9391524": {
    "zipcode": "9391524",
    "prefectureCode": "16",
    "prefectureNumber": 16,
    "prefecture": "富山県",
    "city": "南砺市",
    "town": "雨潜"
  },
  "9391525": {
    "zipcode": "9391525",
    "prefectureCode": "16",
    "prefectureNumber": 16,
    "prefecture": "富山県",
    "city": "南砺市",
    "town": "三清西"
  },
  "9391526": {
    "zipcode": "9391526",
    "prefectureCode": "16",
    "prefectureNumber": 16,
    "prefecture": "富山県",
    "city": "南砺市",
    "town": "江田"
  },
  "9391527": {
    "zipcode": "9391527",
    "prefectureCode": "16",
    "prefectureNumber": 16,
    "prefecture": "富山県",
    "city": "南砺市",
    "town": "森清"
  },
  "9391528": {
    "zipcode": "9391528",
    "prefectureCode": "16",
    "prefectureNumber": 16,
    "prefecture": "富山県",
    "city": "南砺市",
    "town": "安清"
  },
  "9391531": {
    "zipcode": "9391531",
    "prefectureCode": "16",
    "prefectureNumber": 16,
    "prefecture": "富山県",
    "city": "南砺市",
    "town": "院林"
  },
  "9391532": {
    "zipcode": "9391532",
    "prefectureCode": "16",
    "prefectureNumber": 16,
    "prefecture": "富山県",
    "city": "南砺市",
    "town": "寺家"
  },
  "9391533": {
    "zipcode": "9391533",
    "prefectureCode": "16",
    "prefectureNumber": 16,
    "prefecture": "富山県",
    "city": "南砺市",
    "town": "八塚"
  },
  "9391534": {
    "zipcode": "9391534",
    "prefectureCode": "16",
    "prefectureNumber": 16,
    "prefecture": "富山県",
    "city": "南砺市",
    "town": "広安"
  },
  "9391535": {
    "zipcode": "9391535",
    "prefectureCode": "16",
    "prefectureNumber": 16,
    "prefecture": "富山県",
    "city": "南砺市",
    "town": "石田"
  },
  "9391536": {
    "zipcode": "9391536",
    "prefectureCode": "16",
    "prefectureNumber": 16,
    "prefecture": "富山県",
    "city": "南砺市",
    "town": "東石田"
  },
  "9391537": {
    "zipcode": "9391537",
    "prefectureCode": "16",
    "prefectureNumber": 16,
    "prefecture": "富山県",
    "city": "南砺市",
    "town": "田屋"
  },
  "9391538": {
    "zipcode": "9391538",
    "prefectureCode": "16",
    "prefectureNumber": 16,
    "prefecture": "富山県",
    "city": "南砺市",
    "town": "田尻"
  },
  "9391541": {
    "zipcode": "9391541",
    "prefectureCode": "16",
    "prefectureNumber": 16,
    "prefecture": "富山県",
    "city": "南砺市",
    "town": "晩田"
  },
  "9391542": {
    "zipcode": "9391542",
    "prefectureCode": "16",
    "prefectureNumber": 16,
    "prefecture": "富山県",
    "city": "南砺市",
    "town": "梅ケ島"
  },
  "9391543": {
    "zipcode": "9391543",
    "prefectureCode": "16",
    "prefectureNumber": 16,
    "prefecture": "富山県",
    "city": "南砺市",
    "town": "下吉江"
  },
  "9391544": {
    "zipcode": "9391544",
    "prefectureCode": "16",
    "prefectureNumber": 16,
    "prefecture": "富山県",
    "city": "南砺市",
    "town": "新邸"
  },
  "9391545": {
    "zipcode": "9391545",
    "prefectureCode": "16",
    "prefectureNumber": 16,
    "prefecture": "富山県",
    "city": "南砺市",
    "town": "布袋"
  },
  "9391546": {
    "zipcode": "9391546",
    "prefectureCode": "16",
    "prefectureNumber": 16,
    "prefecture": "富山県",
    "city": "南砺市",
    "town": "森"
  },
  "9391547": {
    "zipcode": "9391547",
    "prefectureCode": "16",
    "prefectureNumber": 16,
    "prefecture": "富山県",
    "city": "南砺市",
    "town": "三ツ屋"
  },
  "9391548": {
    "zipcode": "9391548",
    "prefectureCode": "16",
    "prefectureNumber": 16,
    "prefecture": "富山県",
    "city": "南砺市",
    "town": "桐木"
  },
  "9391549": {
    "zipcode": "9391549",
    "prefectureCode": "16",
    "prefectureNumber": 16,
    "prefecture": "富山県",
    "city": "南砺市",
    "town": "前田"
  },
  "9391551": {
    "zipcode": "9391551",
    "prefectureCode": "16",
    "prefectureNumber": 16,
    "prefecture": "富山県",
    "city": "南砺市",
    "town": "上津"
  },
  "9391552": {
    "zipcode": "9391552",
    "prefectureCode": "16",
    "prefectureNumber": 16,
    "prefecture": "富山県",
    "city": "南砺市",
    "town": "柴田屋"
  },
  "9391553": {
    "zipcode": "9391553",
    "prefectureCode": "16",
    "prefectureNumber": 16,
    "prefecture": "富山県",
    "city": "南砺市",
    "town": "上川崎"
  },
  "9391554": {
    "zipcode": "9391554",
    "prefectureCode": "16",
    "prefectureNumber": 16,
    "prefecture": "富山県",
    "city": "南砺市",
    "town": "安居"
  },
  "9391555": {
    "zipcode": "9391555",
    "prefectureCode": "16",
    "prefectureNumber": 16,
    "prefecture": "富山県",
    "city": "南砺市",
    "town": "七村滝寺"
  },
  "9391561": {
    "zipcode": "9391561",
    "prefectureCode": "16",
    "prefectureNumber": 16,
    "prefecture": "富山県",
    "city": "南砺市",
    "town": "福野"
  },
  "9391562": {
    "zipcode": "9391562",
    "prefectureCode": "16",
    "prefectureNumber": 16,
    "prefecture": "富山県",
    "city": "南砺市",
    "town": "福野（浦町）"
  },
  "9391563": {
    "zipcode": "9391563",
    "prefectureCode": "16",
    "prefectureNumber": 16,
    "prefecture": "富山県",
    "city": "南砺市",
    "town": "福野（辰巳町）"
  },
  "9391564": {
    "zipcode": "9391564",
    "prefectureCode": "16",
    "prefectureNumber": 16,
    "prefecture": "富山県",
    "city": "南砺市",
    "town": "福野（御蔵町）"
  },
  "9391565": {
    "zipcode": "9391565",
    "prefectureCode": "16",
    "prefectureNumber": 16,
    "prefecture": "富山県",
    "city": "南砺市",
    "town": "福野（新町）"
  },
  "9391566": {
    "zipcode": "9391566",
    "prefectureCode": "16",
    "prefectureNumber": 16,
    "prefecture": "富山県",
    "city": "南砺市",
    "town": "福野（田中町）"
  },
  "9391567": {
    "zipcode": "9391567",
    "prefectureCode": "16",
    "prefectureNumber": 16,
    "prefecture": "富山県",
    "city": "南砺市",
    "town": "福野（上町）"
  },
  "9391568": {
    "zipcode": "9391568",
    "prefectureCode": "16",
    "prefectureNumber": 16,
    "prefecture": "富山県",
    "city": "南砺市",
    "town": "福野（横町）"
  },
  "9391571": {
    "zipcode": "9391571",
    "prefectureCode": "16",
    "prefectureNumber": 16,
    "prefecture": "富山県",
    "city": "南砺市",
    "town": "松原新"
  },
  "9391572": {
    "zipcode": "9391572",
    "prefectureCode": "16",
    "prefectureNumber": 16,
    "prefecture": "富山県",
    "city": "南砺市",
    "town": "福野（駅前通り）"
  },
  "9391573": {
    "zipcode": "9391573",
    "prefectureCode": "16",
    "prefectureNumber": 16,
    "prefecture": "富山県",
    "city": "南砺市",
    "town": "福野（南町）"
  },
  "9391574": {
    "zipcode": "9391574",
    "prefectureCode": "16",
    "prefectureNumber": 16,
    "prefecture": "富山県",
    "city": "南砺市",
    "town": "福野（七ツ屋）"
  },
  "9391575": {
    "zipcode": "9391575",
    "prefectureCode": "16",
    "prefectureNumber": 16,
    "prefecture": "富山県",
    "city": "南砺市",
    "town": "上三日市"
  },
  "9391576": {
    "zipcode": "9391576",
    "prefectureCode": "16",
    "prefectureNumber": 16,
    "prefecture": "富山県",
    "city": "南砺市",
    "town": "やかた"
  },
  "9391577": {
    "zipcode": "9391577",
    "prefectureCode": "16",
    "prefectureNumber": 16,
    "prefecture": "富山県",
    "city": "南砺市",
    "town": "寺家新屋敷"
  },
  "9391600": {
    "zipcode": "9391600",
    "prefectureCode": "16",
    "prefectureNumber": 16,
    "prefecture": "富山県",
    "city": "南砺市",
    "town": "以下に掲載がない場合"
  },
  "9391601": {
    "zipcode": "9391601",
    "prefectureCode": "16",
    "prefectureNumber": 16,
    "prefecture": "富山県",
    "city": "南砺市",
    "town": "人母"
  },
  "9391602": {
    "zipcode": "9391602",
    "prefectureCode": "16",
    "prefectureNumber": 16,
    "prefecture": "富山県",
    "city": "南砺市",
    "town": "高窪"
  },
  "9391603": {
    "zipcode": "9391603",
    "prefectureCode": "16",
    "prefectureNumber": 16,
    "prefecture": "富山県",
    "city": "南砺市",
    "town": "砂子谷"
  },
  "9391604": {
    "zipcode": "9391604",
    "prefectureCode": "16",
    "prefectureNumber": 16,
    "prefecture": "富山県",
    "city": "南砺市",
    "town": "土山"
  },
  "9391605": {
    "zipcode": "9391605",
    "prefectureCode": "16",
    "prefectureNumber": 16,
    "prefecture": "富山県",
    "city": "南砺市",
    "town": "小又"
  },
  "9391606": {
    "zipcode": "9391606",
    "prefectureCode": "16",
    "prefectureNumber": 16,
    "prefecture": "富山県",
    "city": "南砺市",
    "town": "能美"
  },
  "9391610": {
    "zipcode": "9391610",
    "prefectureCode": "16",
    "prefectureNumber": 16,
    "prefecture": "富山県",
    "city": "南砺市",
    "town": "福光"
  },
  "9391611": {
    "zipcode": "9391611",
    "prefectureCode": "16",
    "prefectureNumber": 16,
    "prefecture": "富山県",
    "city": "南砺市",
    "town": "岩安"
  },
  "9391612": {
    "zipcode": "9391612",
    "prefectureCode": "16",
    "prefectureNumber": 16,
    "prefecture": "富山県",
    "city": "南砺市",
    "town": "岩木"
  },
  "9391613": {
    "zipcode": "9391613",
    "prefectureCode": "16",
    "prefectureNumber": 16,
    "prefecture": "富山県",
    "city": "南砺市",
    "town": "川西"
  },
  "9391614": {
    "zipcode": "9391614",
    "prefectureCode": "16",
    "prefectureNumber": 16,
    "prefecture": "富山県",
    "city": "南砺市",
    "town": "蔵原"
  },
  "9391615": {
    "zipcode": "9391615",
    "prefectureCode": "16",
    "prefectureNumber": 16,
    "prefecture": "富山県",
    "city": "南砺市",
    "town": "湯谷"
  },
  "9391621": {
    "zipcode": "9391621",
    "prefectureCode": "16",
    "prefectureNumber": 16,
    "prefecture": "富山県",
    "city": "南砺市",
    "town": "和泉"
  },
  "9391622": {
    "zipcode": "9391622",
    "prefectureCode": "16",
    "prefectureNumber": 16,
    "prefecture": "富山県",
    "city": "南砺市",
    "town": "遊部川原"
  },
  "9391623": {
    "zipcode": "9391623",
    "prefectureCode": "16",
    "prefectureNumber": 16,
    "prefecture": "富山県",
    "city": "南砺市",
    "town": "松木"
  },
  "9391624": {
    "zipcode": "9391624",
    "prefectureCode": "16",
    "prefectureNumber": 16,
    "prefecture": "富山県",
    "city": "南砺市",
    "town": "八幡"
  },
  "9391625": {
    "zipcode": "9391625",
    "prefectureCode": "16",
    "prefectureNumber": 16,
    "prefecture": "富山県",
    "city": "南砺市",
    "town": "中ノ江"
  },
  "9391626": {
    "zipcode": "9391626",
    "prefectureCode": "16",
    "prefectureNumber": 16,
    "prefecture": "富山県",
    "city": "南砺市",
    "town": "法林寺"
  },
  "9391631": {
    "zipcode": "9391631",
    "prefectureCode": "16",
    "prefectureNumber": 16,
    "prefecture": "富山県",
    "city": "南砺市",
    "town": "福光（旭町）"
  },
  "9391632": {
    "zipcode": "9391632",
    "prefectureCode": "16",
    "prefectureNumber": 16,
    "prefecture": "富山県",
    "city": "南砺市",
    "town": "福光（観音町）"
  },
  "9391633": {
    "zipcode": "9391633",
    "prefectureCode": "16",
    "prefectureNumber": 16,
    "prefecture": "富山県",
    "city": "南砺市",
    "town": "福光（東町）"
  },
  "9391634": {
    "zipcode": "9391634",
    "prefectureCode": "16",
    "prefectureNumber": 16,
    "prefecture": "富山県",
    "city": "南砺市",
    "town": "福光（寺町）"
  },
  "9391635": {
    "zipcode": "9391635",
    "prefectureCode": "16",
    "prefectureNumber": 16,
    "prefecture": "富山県",
    "city": "南砺市",
    "town": "福光（中央通り）"
  },
  "9391636": {
    "zipcode": "9391636",
    "prefectureCode": "16",
    "prefectureNumber": 16,
    "prefecture": "富山県",
    "city": "南砺市",
    "town": "福光（神田町）"
  },
  "9391637": {
    "zipcode": "9391637",
    "prefectureCode": "16",
    "prefectureNumber": 16,
    "prefecture": "富山県",
    "city": "南砺市",
    "town": "福光（西町）"
  },
  "9391641": {
    "zipcode": "9391641",
    "prefectureCode": "16",
    "prefectureNumber": 16,
    "prefecture": "富山県",
    "city": "南砺市",
    "town": "福光（川原町）"
  },
  "9391642": {
    "zipcode": "9391642",
    "prefectureCode": "16",
    "prefectureNumber": 16,
    "prefecture": "富山県",
    "city": "南砺市",
    "town": "福光（味噌屋町）"
  },
  "9391643": {
    "zipcode": "9391643",
    "prefectureCode": "16",
    "prefectureNumber": 16,
    "prefecture": "富山県",
    "city": "南砺市",
    "town": "福光（本町）"
  },
  "9391644": {
    "zipcode": "9391644",
    "prefectureCode": "16",
    "prefectureNumber": 16,
    "prefecture": "富山県",
    "city": "南砺市",
    "town": "福光（五宝町）"
  },
  "9391645": {
    "zipcode": "9391645",
    "prefectureCode": "16",
    "prefectureNumber": 16,
    "prefecture": "富山県",
    "city": "南砺市",
    "town": "福光（中荒町）"
  },
  "9391646": {
    "zipcode": "9391646",
    "prefectureCode": "16",
    "prefectureNumber": 16,
    "prefecture": "富山県",
    "city": "南砺市",
    "town": "福光（荒町）"
  },
  "9391651": {
    "zipcode": "9391651",
    "prefectureCode": "16",
    "prefectureNumber": 16,
    "prefecture": "富山県",
    "city": "南砺市",
    "town": "福光（東新町）"
  },
  "9391652": {
    "zipcode": "9391652",
    "prefectureCode": "16",
    "prefectureNumber": 16,
    "prefecture": "富山県",
    "city": "南砺市",
    "town": "福光新町"
  },
  "9391653": {
    "zipcode": "9391653",
    "prefectureCode": "16",
    "prefectureNumber": 16,
    "prefecture": "富山県",
    "city": "南砺市",
    "town": "福光（宮脇町）"
  },
  "9391654": {
    "zipcode": "9391654",
    "prefectureCode": "16",
    "prefectureNumber": 16,
    "prefecture": "富山県",
    "city": "南砺市",
    "town": "福光（栄町）"
  },
  "9391655": {
    "zipcode": "9391655",
    "prefectureCode": "16",
    "prefectureNumber": 16,
    "prefecture": "富山県",
    "city": "南砺市",
    "town": "坂本"
  },
  "9391661": {
    "zipcode": "9391661",
    "prefectureCode": "16",
    "prefectureNumber": 16,
    "prefecture": "富山県",
    "city": "南砺市",
    "town": "天神"
  },
  "9391662": {
    "zipcode": "9391662",
    "prefectureCode": "16",
    "prefectureNumber": 16,
    "prefecture": "富山県",
    "city": "南砺市",
    "town": "福光（天神町）"
  },
  "9391664": {
    "zipcode": "9391664",
    "prefectureCode": "16",
    "prefectureNumber": 16,
    "prefecture": "富山県",
    "city": "南砺市",
    "town": "竹内"
  },
  "9391665": {
    "zipcode": "9391665",
    "prefectureCode": "16",
    "prefectureNumber": 16,
    "prefecture": "富山県",
    "city": "南砺市",
    "town": "小山"
  },
  "9391666": {
    "zipcode": "9391666",
    "prefectureCode": "16",
    "prefectureNumber": 16,
    "prefecture": "富山県",
    "city": "南砺市",
    "town": "山本"
  },
  "9391667": {
    "zipcode": "9391667",
    "prefectureCode": "16",
    "prefectureNumber": 16,
    "prefecture": "富山県",
    "city": "南砺市",
    "town": "開発"
  },
  "9391671": {
    "zipcode": "9391671",
    "prefectureCode": "16",
    "prefectureNumber": 16,
    "prefecture": "富山県",
    "city": "南砺市",
    "town": "小坂"
  },
  "9391672": {
    "zipcode": "9391672",
    "prefectureCode": "16",
    "prefectureNumber": 16,
    "prefecture": "富山県",
    "city": "南砺市",
    "town": "広谷"
  },
  "9391673": {
    "zipcode": "9391673",
    "prefectureCode": "16",
    "prefectureNumber": 16,
    "prefecture": "富山県",
    "city": "南砺市",
    "town": "糸谷新"
  },
  "9391674": {
    "zipcode": "9391674",
    "prefectureCode": "16",
    "prefectureNumber": 16,
    "prefecture": "富山県",
    "city": "南砺市",
    "town": "香城寺"
  },
  "9391675": {
    "zipcode": "9391675",
    "prefectureCode": "16",
    "prefectureNumber": 16,
    "prefecture": "富山県",
    "city": "南砺市",
    "town": "祖谷"
  },
  "9391676": {
    "zipcode": "9391676",
    "prefectureCode": "16",
    "prefectureNumber": 16,
    "prefecture": "富山県",
    "city": "南砺市",
    "town": "舘"
  },
  "9391681": {
    "zipcode": "9391681",
    "prefectureCode": "16",
    "prefectureNumber": 16,
    "prefecture": "富山県",
    "city": "南砺市",
    "town": "才川七"
  },
  "9391682": {
    "zipcode": "9391682",
    "prefectureCode": "16",
    "prefectureNumber": 16,
    "prefecture": "富山県",
    "city": "南砺市",
    "town": "小二又"
  },
  "9391684": {
    "zipcode": "9391684",
    "prefectureCode": "16",
    "prefectureNumber": 16,
    "prefecture": "富山県",
    "city": "南砺市",
    "town": "小院瀬見"
  },
  "9391701": {
    "zipcode": "9391701",
    "prefectureCode": "16",
    "prefectureNumber": 16,
    "prefecture": "富山県",
    "city": "南砺市",
    "town": "遊部"
  },
  "9391702": {
    "zipcode": "9391702",
    "prefectureCode": "16",
    "prefectureNumber": 16,
    "prefecture": "富山県",
    "city": "南砺市",
    "town": "吉江中"
  },
  "9391703": {
    "zipcode": "9391703",
    "prefectureCode": "16",
    "prefectureNumber": 16,
    "prefecture": "富山県",
    "city": "南砺市",
    "town": "一日市"
  },
  "9391704": {
    "zipcode": "9391704",
    "prefectureCode": "16",
    "prefectureNumber": 16,
    "prefecture": "富山県",
    "city": "南砺市",
    "town": "田中"
  },
  "9391711": {
    "zipcode": "9391711",
    "prefectureCode": "16",
    "prefectureNumber": 16,
    "prefecture": "富山県",
    "city": "南砺市",
    "town": "在房"
  },
  "9391712": {
    "zipcode": "9391712",
    "prefectureCode": "16",
    "prefectureNumber": 16,
    "prefecture": "富山県",
    "city": "南砺市",
    "town": "久戸"
  },
  "9391713": {
    "zipcode": "9391713",
    "prefectureCode": "16",
    "prefectureNumber": 16,
    "prefecture": "富山県",
    "city": "南砺市",
    "town": "神成"
  },
  "9391714": {
    "zipcode": "9391714",
    "prefectureCode": "16",
    "prefectureNumber": 16,
    "prefecture": "富山県",
    "city": "南砺市",
    "town": "高畠"
  },
  "9391715": {
    "zipcode": "9391715",
    "prefectureCode": "16",
    "prefectureNumber": 16,
    "prefecture": "富山県",
    "city": "南砺市",
    "town": "宗守"
  },
  "9391716": {
    "zipcode": "9391716",
    "prefectureCode": "16",
    "prefectureNumber": 16,
    "prefecture": "富山県",
    "city": "南砺市",
    "town": "梅原"
  },
  "9391721": {
    "zipcode": "9391721",
    "prefectureCode": "16",
    "prefectureNumber": 16,
    "prefecture": "富山県",
    "city": "南砺市",
    "town": "東殿"
  },
  "9391722": {
    "zipcode": "9391722",
    "prefectureCode": "16",
    "prefectureNumber": 16,
    "prefecture": "富山県",
    "city": "南砺市",
    "town": "徳成"
  },
  "9391723": {
    "zipcode": "9391723",
    "prefectureCode": "16",
    "prefectureNumber": 16,
    "prefecture": "富山県",
    "city": "南砺市",
    "town": "利波河"
  },
  "9391724": {
    "zipcode": "9391724",
    "prefectureCode": "16",
    "prefectureNumber": 16,
    "prefecture": "富山県",
    "city": "南砺市",
    "town": "梅野"
  },
  "9391725": {
    "zipcode": "9391725",
    "prefectureCode": "16",
    "prefectureNumber": 16,
    "prefecture": "富山県",
    "city": "南砺市",
    "town": "鍛治"
  },
  "9391732": {
    "zipcode": "9391732",
    "prefectureCode": "16",
    "prefectureNumber": 16,
    "prefecture": "富山県",
    "city": "南砺市",
    "town": "荒木"
  },
  "9391733": {
    "zipcode": "9391733",
    "prefectureCode": "16",
    "prefectureNumber": 16,
    "prefecture": "富山県",
    "city": "南砺市",
    "town": "下野"
  },
  "9391734": {
    "zipcode": "9391734",
    "prefectureCode": "16",
    "prefectureNumber": 16,
    "prefecture": "富山県",
    "city": "南砺市",
    "town": "竹林"
  },
  "9391735": {
    "zipcode": "9391735",
    "prefectureCode": "16",
    "prefectureNumber": 16,
    "prefecture": "富山県",
    "city": "南砺市",
    "town": "神宮寺"
  },
  "9391741": {
    "zipcode": "9391741",
    "prefectureCode": "16",
    "prefectureNumber": 16,
    "prefecture": "富山県",
    "city": "南砺市",
    "town": "高宮"
  },
  "9391742": {
    "zipcode": "9391742",
    "prefectureCode": "16",
    "prefectureNumber": 16,
    "prefecture": "富山県",
    "city": "南砺市",
    "town": "吉江野"
  },
  "9391743": {
    "zipcode": "9391743",
    "prefectureCode": "16",
    "prefectureNumber": 16,
    "prefecture": "富山県",
    "city": "南砺市",
    "town": "大塚"
  },
  "9391744": {
    "zipcode": "9391744",
    "prefectureCode": "16",
    "prefectureNumber": 16,
    "prefecture": "富山県",
    "city": "南砺市",
    "town": "天池"
  },
  "9391745": {
    "zipcode": "9391745",
    "prefectureCode": "16",
    "prefectureNumber": 16,
    "prefecture": "富山県",
    "city": "南砺市",
    "town": "縄蔵"
  },
  "9391746": {
    "zipcode": "9391746",
    "prefectureCode": "16",
    "prefectureNumber": 16,
    "prefecture": "富山県",
    "city": "南砺市",
    "town": "出村"
  },
  "9391747": {
    "zipcode": "9391747",
    "prefectureCode": "16",
    "prefectureNumber": 16,
    "prefecture": "富山県",
    "city": "南砺市",
    "town": "山田"
  },
  "9391751": {
    "zipcode": "9391751",
    "prefectureCode": "16",
    "prefectureNumber": 16,
    "prefecture": "富山県",
    "city": "南砺市",
    "town": "赤坂"
  },
  "9391752": {
    "zipcode": "9391752",
    "prefectureCode": "16",
    "prefectureNumber": 16,
    "prefecture": "富山県",
    "city": "南砺市",
    "town": "大西"
  },
  "9391754": {
    "zipcode": "9391754",
    "prefectureCode": "16",
    "prefectureNumber": 16,
    "prefecture": "富山県",
    "city": "南砺市",
    "town": "嫁兼"
  },
  "9391755": {
    "zipcode": "9391755",
    "prefectureCode": "16",
    "prefectureNumber": 16,
    "prefecture": "富山県",
    "city": "南砺市",
    "town": "立野原西"
  },
  "9391756": {
    "zipcode": "9391756",
    "prefectureCode": "16",
    "prefectureNumber": 16,
    "prefecture": "富山県",
    "city": "南砺市",
    "town": "土生新"
  },
  "9391757": {
    "zipcode": "9391757",
    "prefectureCode": "16",
    "prefectureNumber": 16,
    "prefecture": "富山県",
    "city": "南砺市",
    "town": "土生"
  },
  "9391758": {
    "zipcode": "9391758",
    "prefectureCode": "16",
    "prefectureNumber": 16,
    "prefecture": "富山県",
    "city": "南砺市",
    "town": "殿"
  },
  "9391761": {
    "zipcode": "9391761",
    "prefectureCode": "16",
    "prefectureNumber": 16,
    "prefecture": "富山県",
    "city": "南砺市",
    "town": "太美"
  },
  "9391762": {
    "zipcode": "9391762",
    "prefectureCode": "16",
    "prefectureNumber": 16,
    "prefecture": "富山県",
    "city": "南砺市",
    "town": "七曲"
  },
  "9391763": {
    "zipcode": "9391763",
    "prefectureCode": "16",
    "prefectureNumber": 16,
    "prefecture": "富山県",
    "city": "南砺市",
    "town": "樋瀬戸"
  },
  "9391764": {
    "zipcode": "9391764",
    "prefectureCode": "16",
    "prefectureNumber": 16,
    "prefecture": "富山県",
    "city": "南砺市",
    "town": "吉見"
  },
  "9391765": {
    "zipcode": "9391765",
    "prefectureCode": "16",
    "prefectureNumber": 16,
    "prefecture": "富山県",
    "city": "南砺市",
    "town": "綱掛"
  },
  "9391766": {
    "zipcode": "9391766",
    "prefectureCode": "16",
    "prefectureNumber": 16,
    "prefecture": "富山県",
    "city": "南砺市",
    "town": "刀利"
  },
  "9391801": {
    "zipcode": "9391801",
    "prefectureCode": "16",
    "prefectureNumber": 16,
    "prefecture": "富山県",
    "city": "南砺市",
    "town": "北野（長楽寺）"
  },
  "9391802": {
    "zipcode": "9391802",
    "prefectureCode": "16",
    "prefectureNumber": 16,
    "prefecture": "富山県",
    "city": "南砺市",
    "town": "北野（次郎丸）"
  },
  "9391803": {
    "zipcode": "9391803",
    "prefectureCode": "16",
    "prefectureNumber": 16,
    "prefecture": "富山県",
    "city": "南砺市",
    "town": "東西原"
  },
  "9391804": {
    "zipcode": "9391804",
    "prefectureCode": "16",
    "prefectureNumber": 16,
    "prefecture": "富山県",
    "city": "南砺市",
    "town": "西明"
  },
  "9391805": {
    "zipcode": "9391805",
    "prefectureCode": "16",
    "prefectureNumber": 16,
    "prefecture": "富山県",
    "city": "南砺市",
    "town": "細野"
  },
  "9391806": {
    "zipcode": "9391806",
    "prefectureCode": "16",
    "prefectureNumber": 16,
    "prefecture": "富山県",
    "city": "南砺市",
    "town": "北野（吉松）"
  },
  "9391807": {
    "zipcode": "9391807",
    "prefectureCode": "16",
    "prefectureNumber": 16,
    "prefecture": "富山県",
    "city": "南砺市",
    "town": "北野"
  },
  "9391811": {
    "zipcode": "9391811",
    "prefectureCode": "16",
    "prefectureNumber": 16,
    "prefecture": "富山県",
    "city": "南砺市",
    "town": "理休"
  },
  "9391812": {
    "zipcode": "9391812",
    "prefectureCode": "16",
    "prefectureNumber": 16,
    "prefecture": "富山県",
    "city": "南砺市",
    "town": "蓑谷"
  },
  "9391813": {
    "zipcode": "9391813",
    "prefectureCode": "16",
    "prefectureNumber": 16,
    "prefecture": "富山県",
    "city": "南砺市",
    "town": "正谷"
  },
  "9391814": {
    "zipcode": "9391814",
    "prefectureCode": "16",
    "prefectureNumber": 16,
    "prefecture": "富山県",
    "city": "南砺市",
    "town": "城端（大宮野）"
  },
  "9391815": {
    "zipcode": "9391815",
    "prefectureCode": "16",
    "prefectureNumber": 16,
    "prefecture": "富山県",
    "city": "南砺市",
    "town": "城端（東新田）"
  },
  "9391816": {
    "zipcode": "9391816",
    "prefectureCode": "16",
    "prefectureNumber": 16,
    "prefecture": "富山県",
    "city": "南砺市",
    "town": "城端（東上）"
  },
  "9391817": {
    "zipcode": "9391817",
    "prefectureCode": "16",
    "prefectureNumber": 16,
    "prefecture": "富山県",
    "city": "南砺市",
    "town": "城端（東下）"
  },
  "9391818": {
    "zipcode": "9391818",
    "prefectureCode": "16",
    "prefectureNumber": 16,
    "prefecture": "富山県",
    "city": "南砺市",
    "town": "城端（川島）"
  },
  "9391821": {
    "zipcode": "9391821",
    "prefectureCode": "16",
    "prefectureNumber": 16,
    "prefecture": "富山県",
    "city": "南砺市",
    "town": "泉沢"
  },
  "9391822": {
    "zipcode": "9391822",
    "prefectureCode": "16",
    "prefectureNumber": 16,
    "prefecture": "富山県",
    "city": "南砺市",
    "town": "林道"
  },
  "9391823": {
    "zipcode": "9391823",
    "prefectureCode": "16",
    "prefectureNumber": 16,
    "prefecture": "富山県",
    "city": "南砺市",
    "town": "打尾"
  },
  "9391824": {
    "zipcode": "9391824",
    "prefectureCode": "16",
    "prefectureNumber": 16,
    "prefecture": "富山県",
    "city": "南砺市",
    "town": "大鋸屋"
  },
  "9391825": {
    "zipcode": "9391825",
    "prefectureCode": "16",
    "prefectureNumber": 16,
    "prefecture": "富山県",
    "city": "南砺市",
    "town": "大鋸屋（大谷島）"
  },
  "9391826": {
    "zipcode": "9391826",
    "prefectureCode": "16",
    "prefectureNumber": 16,
    "prefecture": "富山県",
    "city": "南砺市",
    "town": "瀬戸"
  },
  "9391827": {
    "zipcode": "9391827",
    "prefectureCode": "16",
    "prefectureNumber": 16,
    "prefecture": "富山県",
    "city": "南砺市",
    "town": "盛新"
  },
  "9391828": {
    "zipcode": "9391828",
    "prefectureCode": "16",
    "prefectureNumber": 16,
    "prefecture": "富山県",
    "city": "南砺市",
    "town": "中尾"
  },
  "9391831": {
    "zipcode": "9391831",
    "prefectureCode": "16",
    "prefectureNumber": 16,
    "prefecture": "富山県",
    "city": "南砺市",
    "town": "千福新"
  },
  "9391832": {
    "zipcode": "9391832",
    "prefectureCode": "16",
    "prefectureNumber": 16,
    "prefecture": "富山県",
    "city": "南砺市",
    "town": "塔尾"
  },
  "9391833": {
    "zipcode": "9391833",
    "prefectureCode": "16",
    "prefectureNumber": 16,
    "prefecture": "富山県",
    "city": "南砺市",
    "town": "上見"
  },
  "9391834": {
    "zipcode": "9391834",
    "prefectureCode": "16",
    "prefectureNumber": 16,
    "prefecture": "富山県",
    "city": "南砺市",
    "town": "上原"
  },
  "9391835": {
    "zipcode": "9391835",
    "prefectureCode": "16",
    "prefectureNumber": 16,
    "prefecture": "富山県",
    "city": "南砺市",
    "town": "南原"
  },
  "9391836": {
    "zipcode": "9391836",
    "prefectureCode": "16",
    "prefectureNumber": 16,
    "prefecture": "富山県",
    "city": "南砺市",
    "town": "雁巻島"
  },
  "9391837": {
    "zipcode": "9391837",
    "prefectureCode": "16",
    "prefectureNumber": 16,
    "prefecture": "富山県",
    "city": "南砺市",
    "town": "西原"
  },
  "9391841": {
    "zipcode": "9391841",
    "prefectureCode": "16",
    "prefectureNumber": 16,
    "prefecture": "富山県",
    "city": "南砺市",
    "town": "細木"
  },
  "9391842": {
    "zipcode": "9391842",
    "prefectureCode": "16",
    "prefectureNumber": 16,
    "prefecture": "富山県",
    "city": "南砺市",
    "town": "野田"
  },
  "9391843": {
    "zipcode": "9391843",
    "prefectureCode": "16",
    "prefectureNumber": 16,
    "prefecture": "富山県",
    "city": "南砺市",
    "town": "金戸"
  },
  "9391844": {
    "zipcode": "9391844",
    "prefectureCode": "16",
    "prefectureNumber": 16,
    "prefecture": "富山県",
    "city": "南砺市",
    "town": "野口"
  },
  "9391845": {
    "zipcode": "9391845",
    "prefectureCode": "16",
    "prefectureNumber": 16,
    "prefecture": "富山県",
    "city": "南砺市",
    "town": "示野"
  },
  "9391846": {
    "zipcode": "9391846",
    "prefectureCode": "16",
    "prefectureNumber": 16,
    "prefecture": "富山県",
    "city": "南砺市",
    "town": "国広"
  },
  "9391851": {
    "zipcode": "9391851",
    "prefectureCode": "16",
    "prefectureNumber": 16,
    "prefecture": "富山県",
    "city": "南砺市",
    "town": "信末"
  },
  "9391852": {
    "zipcode": "9391852",
    "prefectureCode": "16",
    "prefectureNumber": 16,
    "prefecture": "富山県",
    "city": "南砺市",
    "town": "是安"
  },
  "9391853": {
    "zipcode": "9391853",
    "prefectureCode": "16",
    "prefectureNumber": 16,
    "prefecture": "富山県",
    "city": "南砺市",
    "town": "城端（出丸）"
  },
  "9391854": {
    "zipcode": "9391854",
    "prefectureCode": "16",
    "prefectureNumber": 16,
    "prefecture": "富山県",
    "city": "南砺市",
    "town": "城端（栄町）"
  },
  "9391855": {
    "zipcode": "9391855",
    "prefectureCode": "16",
    "prefectureNumber": 16,
    "prefecture": "富山県",
    "city": "南砺市",
    "town": "大窪"
  },
  "9391856": {
    "zipcode": "9391856",
    "prefectureCode": "16",
    "prefectureNumber": 16,
    "prefecture": "富山県",
    "city": "南砺市",
    "town": "是安（末広町）"
  },
  "9391861": {
    "zipcode": "9391861",
    "prefectureCode": "16",
    "prefectureNumber": 16,
    "prefecture": "富山県",
    "city": "南砺市",
    "town": "城端"
  },
  "9391862": {
    "zipcode": "9391862",
    "prefectureCode": "16",
    "prefectureNumber": 16,
    "prefecture": "富山県",
    "city": "南砺市",
    "town": "城端（西下）"
  },
  "9391863": {
    "zipcode": "9391863",
    "prefectureCode": "16",
    "prefectureNumber": 16,
    "prefecture": "富山県",
    "city": "南砺市",
    "town": "城端（西上）"
  },
  "9391864": {
    "zipcode": "9391864",
    "prefectureCode": "16",
    "prefectureNumber": 16,
    "prefecture": "富山県",
    "city": "南砺市",
    "town": "城端（大工町）"
  },
  "9391865": {
    "zipcode": "9391865",
    "prefectureCode": "16",
    "prefectureNumber": 16,
    "prefecture": "富山県",
    "city": "南砺市",
    "town": "城端（新町）"
  },
  "9391866": {
    "zipcode": "9391866",
    "prefectureCode": "16",
    "prefectureNumber": 16,
    "prefecture": "富山県",
    "city": "南砺市",
    "town": "城端（南町）"
  },
  "9391867": {
    "zipcode": "9391867",
    "prefectureCode": "16",
    "prefectureNumber": 16,
    "prefecture": "富山県",
    "city": "南砺市",
    "town": "城端（野下）"
  },
  "9391868": {
    "zipcode": "9391868",
    "prefectureCode": "16",
    "prefectureNumber": 16,
    "prefecture": "富山県",
    "city": "南砺市",
    "town": "城端（西新田）"
  },
  "9391871": {
    "zipcode": "9391871",
    "prefectureCode": "16",
    "prefectureNumber": 16,
    "prefecture": "富山県",
    "city": "南砺市",
    "town": "池尻"
  },
  "9391872": {
    "zipcode": "9391872",
    "prefectureCode": "16",
    "prefectureNumber": 16,
    "prefecture": "富山県",
    "city": "南砺市",
    "town": "久保"
  },
  "9391873": {
    "zipcode": "9391873",
    "prefectureCode": "16",
    "prefectureNumber": 16,
    "prefecture": "富山県",
    "city": "南砺市",
    "town": "池田"
  },
  "9391874": {
    "zipcode": "9391874",
    "prefectureCode": "16",
    "prefectureNumber": 16,
    "prefecture": "富山県",
    "city": "南砺市",
    "town": "蛇喰"
  },
  "9391875": {
    "zipcode": "9391875",
    "prefectureCode": "16",
    "prefectureNumber": 16,
    "prefecture": "富山県",
    "city": "南砺市",
    "town": "大野"
  },
  "9391876": {
    "zipcode": "9391876",
    "prefectureCode": "16",
    "prefectureNumber": 16,
    "prefecture": "富山県",
    "city": "南砺市",
    "town": "川上中"
  },
  "9391877": {
    "zipcode": "9391877",
    "prefectureCode": "16",
    "prefectureNumber": 16,
    "prefecture": "富山県",
    "city": "南砺市",
    "town": "井口"
  },
  "9391878": {
    "zipcode": "9391878",
    "prefectureCode": "16",
    "prefectureNumber": 16,
    "prefecture": "富山県",
    "city": "南砺市",
    "town": "上広安"
  },
  "9391879": {
    "zipcode": "9391879",
    "prefectureCode": "16",
    "prefectureNumber": 16,
    "prefecture": "富山県",
    "city": "南砺市",
    "town": "宮後"
  },
  "9391901": {
    "zipcode": "9391901",
    "prefectureCode": "16",
    "prefectureNumber": 16,
    "prefecture": "富山県",
    "city": "南砺市",
    "town": "祖山"
  },
  "9391902": {
    "zipcode": "9391902",
    "prefectureCode": "16",
    "prefectureNumber": 16,
    "prefecture": "富山県",
    "city": "南砺市",
    "town": "大崩島"
  },
  "9391903": {
    "zipcode": "9391903",
    "prefectureCode": "16",
    "prefectureNumber": 16,
    "prefecture": "富山県",
    "city": "南砺市",
    "town": "寿川"
  },
  "9391904": {
    "zipcode": "9391904",
    "prefectureCode": "16",
    "prefectureNumber": 16,
    "prefecture": "富山県",
    "city": "南砺市",
    "town": "入谷"
  },
  "9391905": {
    "zipcode": "9391905",
    "prefectureCode": "16",
    "prefectureNumber": 16,
    "prefecture": "富山県",
    "city": "南砺市",
    "town": "東中江"
  },
  "9391906": {
    "zipcode": "9391906",
    "prefectureCode": "16",
    "prefectureNumber": 16,
    "prefecture": "富山県",
    "city": "南砺市",
    "town": "高草嶺"
  },
  "9391907": {
    "zipcode": "9391907",
    "prefectureCode": "16",
    "prefectureNumber": 16,
    "prefecture": "富山県",
    "city": "南砺市",
    "town": "夏焼"
  },
  "9391908": {
    "zipcode": "9391908",
    "prefectureCode": "16",
    "prefectureNumber": 16,
    "prefecture": "富山県",
    "city": "南砺市",
    "town": "下出"
  },
  "9391911": {
    "zipcode": "9391911",
    "prefectureCode": "16",
    "prefectureNumber": 16,
    "prefecture": "富山県",
    "city": "南砺市",
    "town": "篭渡"
  },
  "9391912": {
    "zipcode": "9391912",
    "prefectureCode": "16",
    "prefectureNumber": 16,
    "prefecture": "富山県",
    "city": "南砺市",
    "town": "大島"
  },
  "9391913": {
    "zipcode": "9391913",
    "prefectureCode": "16",
    "prefectureNumber": 16,
    "prefecture": "富山県",
    "city": "南砺市",
    "town": "田向"
  },
  "9391914": {
    "zipcode": "9391914",
    "prefectureCode": "16",
    "prefectureNumber": 16,
    "prefecture": "富山県",
    "city": "南砺市",
    "town": "上梨"
  },
  "9391915": {
    "zipcode": "9391915",
    "prefectureCode": "16",
    "prefectureNumber": 16,
    "prefecture": "富山県",
    "city": "南砺市",
    "town": "相倉"
  },
  "9391916": {
    "zipcode": "9391916",
    "prefectureCode": "16",
    "prefectureNumber": 16,
    "prefecture": "富山県",
    "city": "南砺市",
    "town": "見座"
  },
  "9391921": {
    "zipcode": "9391921",
    "prefectureCode": "16",
    "prefectureNumber": 16,
    "prefecture": "富山県",
    "city": "南砺市",
    "town": "杉尾"
  },
  "9391922": {
    "zipcode": "9391922",
    "prefectureCode": "16",
    "prefectureNumber": 16,
    "prefecture": "富山県",
    "city": "南砺市",
    "town": "渡原"
  },
  "9391923": {
    "zipcode": "9391923",
    "prefectureCode": "16",
    "prefectureNumber": 16,
    "prefecture": "富山県",
    "city": "南砺市",
    "town": "下梨"
  },
  "9391924": {
    "zipcode": "9391924",
    "prefectureCode": "16",
    "prefectureNumber": 16,
    "prefecture": "富山県",
    "city": "南砺市",
    "town": "中畑"
  },
  "9391925": {
    "zipcode": "9391925",
    "prefectureCode": "16",
    "prefectureNumber": 16,
    "prefecture": "富山県",
    "city": "南砺市",
    "town": "来栖"
  },
  "9391926": {
    "zipcode": "9391926",
    "prefectureCode": "16",
    "prefectureNumber": 16,
    "prefecture": "富山県",
    "city": "南砺市",
    "town": "小来栖"
  },
  "9391927": {
    "zipcode": "9391927",
    "prefectureCode": "16",
    "prefectureNumber": 16,
    "prefecture": "富山県",
    "city": "南砺市",
    "town": "梨谷"
  },
  "9391928": {
    "zipcode": "9391928",
    "prefectureCode": "16",
    "prefectureNumber": 16,
    "prefecture": "富山県",
    "city": "南砺市",
    "town": "上松尾"
  },
  "9391961": {
    "zipcode": "9391961",
    "prefectureCode": "16",
    "prefectureNumber": 16,
    "prefecture": "富山県",
    "city": "南砺市",
    "town": "皆葎"
  },
  "9391962": {
    "zipcode": "9391962",
    "prefectureCode": "16",
    "prefectureNumber": 16,
    "prefecture": "富山県",
    "city": "南砺市",
    "town": "猪谷"
  },
  "9391963": {
    "zipcode": "9391963",
    "prefectureCode": "16",
    "prefectureNumber": 16,
    "prefecture": "富山県",
    "city": "南砺市",
    "town": "成出"
  },
  "9391964": {
    "zipcode": "9391964",
    "prefectureCode": "16",
    "prefectureNumber": 16,
    "prefecture": "富山県",
    "city": "南砺市",
    "town": "楮"
  },
  "9391965": {
    "zipcode": "9391965",
    "prefectureCode": "16",
    "prefectureNumber": 16,
    "prefecture": "富山県",
    "city": "南砺市",
    "town": "真木"
  },
  "9391966": {
    "zipcode": "9391966",
    "prefectureCode": "16",
    "prefectureNumber": 16,
    "prefecture": "富山県",
    "city": "南砺市",
    "town": "東赤尾"
  },
  "9391967": {
    "zipcode": "9391967",
    "prefectureCode": "16",
    "prefectureNumber": 16,
    "prefecture": "富山県",
    "city": "南砺市",
    "town": "小原"
  },
  "9391968": {
    "zipcode": "9391968",
    "prefectureCode": "16",
    "prefectureNumber": 16,
    "prefecture": "富山県",
    "city": "南砺市",
    "town": "上平細島"
  },
  "9391969": {
    "zipcode": "9391969",
    "prefectureCode": "16",
    "prefectureNumber": 16,
    "prefecture": "富山県",
    "city": "南砺市",
    "town": "桂"
  },
  "9391971": {
    "zipcode": "9391971",
    "prefectureCode": "16",
    "prefectureNumber": 16,
    "prefecture": "富山県",
    "city": "南砺市",
    "town": "小瀬"
  },
  "9391972": {
    "zipcode": "9391972",
    "prefectureCode": "16",
    "prefectureNumber": 16,
    "prefecture": "富山県",
    "city": "南砺市",
    "town": "葎島"
  },
  "9391973": {
    "zipcode": "9391973",
    "prefectureCode": "16",
    "prefectureNumber": 16,
    "prefecture": "富山県",
    "city": "南砺市",
    "town": "菅沼"
  },
  "9391974": {
    "zipcode": "9391974",
    "prefectureCode": "16",
    "prefectureNumber": 16,
    "prefecture": "富山県",
    "city": "南砺市",
    "town": "田下"
  },
  "9391975": {
    "zipcode": "9391975",
    "prefectureCode": "16",
    "prefectureNumber": 16,
    "prefecture": "富山県",
    "city": "南砺市",
    "town": "上中田"
  },
  "9391976": {
    "zipcode": "9391976",
    "prefectureCode": "16",
    "prefectureNumber": 16,
    "prefecture": "富山県",
    "city": "南砺市",
    "town": "新屋"
  },
  "9391977": {
    "zipcode": "9391977",
    "prefectureCode": "16",
    "prefectureNumber": 16,
    "prefecture": "富山県",
    "city": "南砺市",
    "town": "西赤尾町"
  },
  "9391978": {
    "zipcode": "9391978",
    "prefectureCode": "16",
    "prefectureNumber": 16,
    "prefecture": "富山県",
    "city": "南砺市",
    "town": "下島"
  },
  "9391979": {
    "zipcode": "9391979",
    "prefectureCode": "16",
    "prefectureNumber": 16,
    "prefecture": "富山県",
    "city": "南砺市",
    "town": "漆谷"
  },
  "9392161": {
    "zipcode": "9392161",
    "prefectureCode": "16",
    "prefectureNumber": 16,
    "prefecture": "富山県",
    "city": "富山市",
    "town": "芦生"
  },
  "9392162": {
    "zipcode": "9392162",
    "prefectureCode": "16",
    "prefectureNumber": 16,
    "prefecture": "富山県",
    "city": "富山市",
    "town": "今生津"
  },
  "9392163": {
    "zipcode": "9392163",
    "prefectureCode": "16",
    "prefectureNumber": 16,
    "prefecture": "富山県",
    "city": "富山市",
    "town": "布尻"
  },
  "9392164": {
    "zipcode": "9392164",
    "prefectureCode": "16",
    "prefectureNumber": 16,
    "prefecture": "富山県",
    "city": "富山市",
    "town": "町長"
  },
  "9392165": {
    "zipcode": "9392165",
    "prefectureCode": "16",
    "prefectureNumber": 16,
    "prefecture": "富山県",
    "city": "富山市",
    "town": "寺津"
  },
  "9392171": {
    "zipcode": "9392171",
    "prefectureCode": "16",
    "prefectureNumber": 16,
    "prefecture": "富山県",
    "city": "富山市",
    "town": "太田薄波"
  },
  "9392172": {
    "zipcode": "9392172",
    "prefectureCode": "16",
    "prefectureNumber": 16,
    "prefecture": "富山県",
    "city": "富山市",
    "town": "吉野"
  },
  "9392173": {
    "zipcode": "9392173",
    "prefectureCode": "16",
    "prefectureNumber": 16,
    "prefecture": "富山県",
    "city": "富山市",
    "town": "伏木"
  },
  "9392174": {
    "zipcode": "9392174",
    "prefectureCode": "16",
    "prefectureNumber": 16,
    "prefecture": "富山県",
    "city": "富山市",
    "town": "小糸"
  },
  "9392175": {
    "zipcode": "9392175",
    "prefectureCode": "16",
    "prefectureNumber": 16,
    "prefecture": "富山県",
    "city": "富山市",
    "town": "東猪谷"
  },
  "9392176": {
    "zipcode": "9392176",
    "prefectureCode": "16",
    "prefectureNumber": 16,
    "prefecture": "富山県",
    "city": "富山市",
    "town": "舟渡"
  },
  "9392181": {
    "zipcode": "9392181",
    "prefectureCode": "16",
    "prefectureNumber": 16,
    "prefecture": "富山県",
    "city": "富山市",
    "town": "西笹津"
  },
  "9392182": {
    "zipcode": "9392182",
    "prefectureCode": "16",
    "prefectureNumber": 16,
    "prefecture": "富山県",
    "city": "富山市",
    "town": "岩稲"
  },
  "9392183": {
    "zipcode": "9392183",
    "prefectureCode": "16",
    "prefectureNumber": 16,
    "prefecture": "富山県",
    "city": "富山市",
    "town": "割山"
  },
  "9392184": {
    "zipcode": "9392184",
    "prefectureCode": "16",
    "prefectureNumber": 16,
    "prefecture": "富山県",
    "city": "富山市",
    "town": "楡原"
  },
  "9392185": {
    "zipcode": "9392185",
    "prefectureCode": "16",
    "prefectureNumber": 16,
    "prefecture": "富山県",
    "city": "富山市",
    "town": "庵谷"
  },
  "9392186": {
    "zipcode": "9392186",
    "prefectureCode": "16",
    "prefectureNumber": 16,
    "prefecture": "富山県",
    "city": "富山市",
    "town": "片掛"
  },
  "9392187": {
    "zipcode": "9392187",
    "prefectureCode": "16",
    "prefectureNumber": 16,
    "prefecture": "富山県",
    "city": "富山市",
    "town": "猪谷"
  },
  "9392188": {
    "zipcode": "9392188",
    "prefectureCode": "16",
    "prefectureNumber": 16,
    "prefecture": "富山県",
    "city": "富山市",
    "town": "蟹寺"
  },
  "9392189": {
    "zipcode": "9392189",
    "prefectureCode": "16",
    "prefectureNumber": 16,
    "prefecture": "富山県",
    "city": "富山市",
    "town": "加賀沢"
  },
  "9392201": {
    "zipcode": "9392201",
    "prefectureCode": "16",
    "prefectureNumber": 16,
    "prefecture": "富山県",
    "city": "富山市",
    "town": "新村"
  },
  "9392202": {
    "zipcode": "9392202",
    "prefectureCode": "16",
    "prefectureNumber": 16,
    "prefecture": "富山県",
    "city": "富山市",
    "town": "小黒"
  },
  "9392203": {
    "zipcode": "9392203",
    "prefectureCode": "16",
    "prefectureNumber": 16,
    "prefecture": "富山県",
    "city": "富山市",
    "town": "松野"
  },
  "9392204": {
    "zipcode": "9392204",
    "prefectureCode": "16",
    "prefectureNumber": 16,
    "prefecture": "富山県",
    "city": "富山市",
    "town": "万願寺"
  },
  "9392205": {
    "zipcode": "9392205",
    "prefectureCode": "16",
    "prefectureNumber": 16,
    "prefecture": "富山県",
    "city": "富山市",
    "town": "二松"
  },
  "9392206": {
    "zipcode": "9392206",
    "prefectureCode": "16",
    "prefectureNumber": 16,
    "prefecture": "富山県",
    "city": "富山市",
    "town": "坂本"
  },
  "9392207": {
    "zipcode": "9392207",
    "prefectureCode": "16",
    "prefectureNumber": 16,
    "prefecture": "富山県",
    "city": "富山市",
    "town": "大野"
  },
  "9392208": {
    "zipcode": "9392208",
    "prefectureCode": "16",
    "prefectureNumber": 16,
    "prefecture": "富山県",
    "city": "富山市",
    "town": "南野田"
  },
  "9392209": {
    "zipcode": "9392209",
    "prefectureCode": "16",
    "prefectureNumber": 16,
    "prefecture": "富山県",
    "city": "富山市",
    "town": "東大久保"
  },
  "9392211": {
    "zipcode": "9392211",
    "prefectureCode": "16",
    "prefectureNumber": 16,
    "prefecture": "富山県",
    "city": "富山市",
    "town": "市場"
  },
  "9392212": {
    "zipcode": "9392212",
    "prefectureCode": "16",
    "prefectureNumber": 16,
    "prefecture": "富山県",
    "city": "富山市",
    "town": "舟倉"
  },
  "9392213": {
    "zipcode": "9392213",
    "prefectureCode": "16",
    "prefectureNumber": 16,
    "prefecture": "富山県",
    "city": "富山市",
    "town": "牛ケ増"
  },
  "9392214": {
    "zipcode": "9392214",
    "prefectureCode": "16",
    "prefectureNumber": 16,
    "prefecture": "富山県",
    "city": "富山市",
    "town": "寺家"
  },
  "9392215": {
    "zipcode": "9392215",
    "prefectureCode": "16",
    "prefectureNumber": 16,
    "prefecture": "富山県",
    "city": "富山市",
    "town": "直坂"
  },
  "9392216": {
    "zipcode": "9392216",
    "prefectureCode": "16",
    "prefectureNumber": 16,
    "prefecture": "富山県",
    "city": "富山市",
    "town": "横樋"
  },
  "9392221": {
    "zipcode": "9392221",
    "prefectureCode": "16",
    "prefectureNumber": 16,
    "prefecture": "富山県",
    "city": "富山市",
    "town": "西大沢"
  },
  "9392222": {
    "zipcode": "9392222",
    "prefectureCode": "16",
    "prefectureNumber": 16,
    "prefecture": "富山県",
    "city": "富山市",
    "town": "笹津（押上）"
  },
  "9392223": {
    "zipcode": "9392223",
    "prefectureCode": "16",
    "prefectureNumber": 16,
    "prefecture": "富山県",
    "city": "富山市",
    "town": "笹津"
  },
  "9392224": {
    "zipcode": "9392224",
    "prefectureCode": "16",
    "prefectureNumber": 16,
    "prefecture": "富山県",
    "city": "富山市",
    "town": "春日"
  },
  "9392225": {
    "zipcode": "9392225",
    "prefectureCode": "16",
    "prefectureNumber": 16,
    "prefecture": "富山県",
    "city": "富山市",
    "town": "長走"
  },
  "9392226": {
    "zipcode": "9392226",
    "prefectureCode": "16",
    "prefectureNumber": 16,
    "prefecture": "富山県",
    "city": "富山市",
    "town": "下タ林"
  },
  "9392231": {
    "zipcode": "9392231",
    "prefectureCode": "16",
    "prefectureNumber": 16,
    "prefecture": "富山県",
    "city": "富山市",
    "town": "稲代（幸町）"
  },
  "9392232": {
    "zipcode": "9392232",
    "prefectureCode": "16",
    "prefectureNumber": 16,
    "prefecture": "富山県",
    "city": "富山市",
    "town": "小羽"
  },
  "9392233": {
    "zipcode": "9392233",
    "prefectureCode": "16",
    "prefectureNumber": 16,
    "prefecture": "富山県",
    "city": "富山市",
    "town": "長川原"
  },
  "9392234": {
    "zipcode": "9392234",
    "prefectureCode": "16",
    "prefectureNumber": 16,
    "prefecture": "富山県",
    "city": "富山市",
    "town": "須原"
  },
  "9392235": {
    "zipcode": "9392235",
    "prefectureCode": "16",
    "prefectureNumber": 16,
    "prefecture": "富山県",
    "city": "富山市",
    "town": "下伏"
  },
  "9392236": {
    "zipcode": "9392236",
    "prefectureCode": "16",
    "prefectureNumber": 16,
    "prefecture": "富山県",
    "city": "富山市",
    "town": "土"
  },
  "9392237": {
    "zipcode": "9392237",
    "prefectureCode": "16",
    "prefectureNumber": 16,
    "prefecture": "富山県",
    "city": "富山市",
    "town": "根上"
  },
  "9392238": {
    "zipcode": "9392238",
    "prefectureCode": "16",
    "prefectureNumber": 16,
    "prefecture": "富山県",
    "city": "富山市",
    "town": "葛原"
  },
  "9392241": {
    "zipcode": "9392241",
    "prefectureCode": "16",
    "prefectureNumber": 16,
    "prefecture": "富山県",
    "city": "富山市",
    "town": "神通"
  },
  "9392242": {
    "zipcode": "9392242",
    "prefectureCode": "16",
    "prefectureNumber": 16,
    "prefecture": "富山県",
    "city": "富山市",
    "town": "塩"
  },
  "9392243": {
    "zipcode": "9392243",
    "prefectureCode": "16",
    "prefectureNumber": 16,
    "prefecture": "富山県",
    "city": "富山市",
    "town": "中大久保"
  },
  "9392244": {
    "zipcode": "9392244",
    "prefectureCode": "16",
    "prefectureNumber": 16,
    "prefecture": "富山県",
    "city": "富山市",
    "town": "西塩野"
  },
  "9392245": {
    "zipcode": "9392245",
    "prefectureCode": "16",
    "prefectureNumber": 16,
    "prefecture": "富山県",
    "city": "富山市",
    "town": "加納"
  },
  "9392246": {
    "zipcode": "9392246",
    "prefectureCode": "16",
    "prefectureNumber": 16,
    "prefecture": "富山県",
    "city": "富山市",
    "town": "岩木"
  },
  "9392247": {
    "zipcode": "9392247",
    "prefectureCode": "16",
    "prefectureNumber": 16,
    "prefecture": "富山県",
    "city": "富山市",
    "town": "岩木新"
  },
  "9392251": {
    "zipcode": "9392251",
    "prefectureCode": "16",
    "prefectureNumber": 16,
    "prefecture": "富山県",
    "city": "富山市",
    "town": "下大久保緑町"
  },
  "9392252": {
    "zipcode": "9392252",
    "prefectureCode": "16",
    "prefectureNumber": 16,
    "prefecture": "富山県",
    "city": "富山市",
    "town": "上大久保東新町"
  },
  "9392253": {
    "zipcode": "9392253",
    "prefectureCode": "16",
    "prefectureNumber": 16,
    "prefecture": "富山県",
    "city": "富山市",
    "town": "八木山"
  },
  "9392254": {
    "zipcode": "9392254",
    "prefectureCode": "16",
    "prefectureNumber": 16,
    "prefecture": "富山県",
    "city": "富山市",
    "town": "高内"
  },
  "9392255": {
    "zipcode": "9392255",
    "prefectureCode": "16",
    "prefectureNumber": 16,
    "prefecture": "富山県",
    "city": "富山市",
    "town": "長附"
  },
  "9392256": {
    "zipcode": "9392256",
    "prefectureCode": "16",
    "prefectureNumber": 16,
    "prefecture": "富山県",
    "city": "富山市",
    "town": "上二杉"
  },
  "9392257": {
    "zipcode": "9392257",
    "prefectureCode": "16",
    "prefectureNumber": 16,
    "prefecture": "富山県",
    "city": "富山市",
    "town": "南花園町"
  },
  "9392301": {
    "zipcode": "9392301",
    "prefectureCode": "16",
    "prefectureNumber": 16,
    "prefecture": "富山県",
    "city": "富山市",
    "town": "八尾町寺家"
  },
  "9392302": {
    "zipcode": "9392302",
    "prefectureCode": "16",
    "prefectureNumber": 16,
    "prefecture": "富山県",
    "city": "富山市",
    "town": "八尾町杉田"
  },
  "9392303": {
    "zipcode": "9392303",
    "prefectureCode": "16",
    "prefectureNumber": 16,
    "prefecture": "富山県",
    "city": "富山市",
    "town": "八尾町大杉"
  },
  "9392304": {
    "zipcode": "9392304",
    "prefectureCode": "16",
    "prefectureNumber": 16,
    "prefecture": "富山県",
    "city": "富山市",
    "town": "八尾町黒田"
  },
  "9392305": {
    "zipcode": "9392305",
    "prefectureCode": "16",
    "prefectureNumber": 16,
    "prefecture": "富山県",
    "city": "富山市",
    "town": "八尾町井田新"
  },
  "9392306": {
    "zipcode": "9392306",
    "prefectureCode": "16",
    "prefectureNumber": 16,
    "prefecture": "富山県",
    "city": "富山市",
    "town": "八尾町井田"
  },
  "9392311": {
    "zipcode": "9392311",
    "prefectureCode": "16",
    "prefectureNumber": 16,
    "prefecture": "富山県",
    "city": "富山市",
    "town": "八尾町西神通"
  },
  "9392312": {
    "zipcode": "9392312",
    "prefectureCode": "16",
    "prefectureNumber": 16,
    "prefecture": "富山県",
    "city": "富山市",
    "town": "八尾町薄島"
  },
  "9392313": {
    "zipcode": "9392313",
    "prefectureCode": "16",
    "prefectureNumber": 16,
    "prefecture": "富山県",
    "city": "富山市",
    "town": "八尾町滅鬼"
  },
  "9392314": {
    "zipcode": "9392314",
    "prefectureCode": "16",
    "prefectureNumber": 16,
    "prefecture": "富山県",
    "city": "富山市",
    "town": "八尾町野飼"
  },
  "9392315": {
    "zipcode": "9392315",
    "prefectureCode": "16",
    "prefectureNumber": 16,
    "prefecture": "富山県",
    "city": "富山市",
    "town": "八尾町井栗谷"
  },
  "9392316": {
    "zipcode": "9392316",
    "prefectureCode": "16",
    "prefectureNumber": 16,
    "prefecture": "富山県",
    "city": "富山市",
    "town": "八尾町深谷"
  },
  "9392317": {
    "zipcode": "9392317",
    "prefectureCode": "16",
    "prefectureNumber": 16,
    "prefecture": "富山県",
    "city": "富山市",
    "town": "八尾町丸山"
  },
  "9392321": {
    "zipcode": "9392321",
    "prefectureCode": "16",
    "prefectureNumber": 16,
    "prefecture": "富山県",
    "city": "富山市",
    "town": "八尾町小長谷"
  },
  "9392322": {
    "zipcode": "9392322",
    "prefectureCode": "16",
    "prefectureNumber": 16,
    "prefecture": "富山県",
    "city": "富山市",
    "town": "八尾町小長谷新"
  },
  "9392323": {
    "zipcode": "9392323",
    "prefectureCode": "16",
    "prefectureNumber": 16,
    "prefecture": "富山県",
    "city": "富山市",
    "town": "八尾町村杉"
  },
  "9392324": {
    "zipcode": "9392324",
    "prefectureCode": "16",
    "prefectureNumber": 16,
    "prefecture": "富山県",
    "city": "富山市",
    "town": "八尾町東坂下"
  },
  "9392325": {
    "zipcode": "9392325",
    "prefectureCode": "16",
    "prefectureNumber": 16,
    "prefecture": "富山県",
    "city": "富山市",
    "town": "八尾町宮腰"
  },
  "9392326": {
    "zipcode": "9392326",
    "prefectureCode": "16",
    "prefectureNumber": 16,
    "prefecture": "富山県",
    "city": "富山市",
    "town": "八尾町岩屋"
  },
  "9392327": {
    "zipcode": "9392327",
    "prefectureCode": "16",
    "prefectureNumber": 16,
    "prefecture": "富山県",
    "city": "富山市",
    "town": "八尾町樫尾"
  },
  "9392331": {
    "zipcode": "9392331",
    "prefectureCode": "16",
    "prefectureNumber": 16,
    "prefecture": "富山県",
    "city": "富山市",
    "town": "八尾町下笹原"
  },
  "9392332": {
    "zipcode": "9392332",
    "prefectureCode": "16",
    "prefectureNumber": 16,
    "prefecture": "富山県",
    "city": "富山市",
    "town": "八尾町上黒瀬"
  },
  "9392333": {
    "zipcode": "9392333",
    "prefectureCode": "16",
    "prefectureNumber": 16,
    "prefecture": "富山県",
    "city": "富山市",
    "town": "八尾町滝脇"
  },
  "9392334": {
    "zipcode": "9392334",
    "prefectureCode": "16",
    "prefectureNumber": 16,
    "prefecture": "富山県",
    "city": "富山市",
    "town": "八尾町上笹原"
  },
  "9392335": {
    "zipcode": "9392335",
    "prefectureCode": "16",
    "prefectureNumber": 16,
    "prefecture": "富山県",
    "city": "富山市",
    "town": "八尾町茗ケ原"
  },
  "9392336": {
    "zipcode": "9392336",
    "prefectureCode": "16",
    "prefectureNumber": 16,
    "prefecture": "富山県",
    "city": "富山市",
    "town": "八尾町角間"
  },
  "9392337": {
    "zipcode": "9392337",
    "prefectureCode": "16",
    "prefectureNumber": 16,
    "prefecture": "富山県",
    "city": "富山市",
    "town": "八尾町梅苑町"
  },
  "9392341": {
    "zipcode": "9392341",
    "prefectureCode": "16",
    "prefectureNumber": 16,
    "prefecture": "富山県",
    "city": "富山市",
    "town": "八尾町鏡町"
  },
  "9392342": {
    "zipcode": "9392342",
    "prefectureCode": "16",
    "prefectureNumber": 16,
    "prefecture": "富山県",
    "city": "富山市",
    "town": "八尾町上新町"
  },
  "9392343": {
    "zipcode": "9392343",
    "prefectureCode": "16",
    "prefectureNumber": 16,
    "prefecture": "富山県",
    "city": "富山市",
    "town": "八尾町諏訪町"
  },
  "9392344": {
    "zipcode": "9392344",
    "prefectureCode": "16",
    "prefectureNumber": 16,
    "prefecture": "富山県",
    "city": "富山市",
    "town": "八尾町東新町"
  },
  "9392345": {
    "zipcode": "9392345",
    "prefectureCode": "16",
    "prefectureNumber": 16,
    "prefecture": "富山県",
    "city": "富山市",
    "town": "八尾町西新町"
  },
  "9392351": {
    "zipcode": "9392351",
    "prefectureCode": "16",
    "prefectureNumber": 16,
    "prefecture": "富山県",
    "city": "富山市",
    "town": "八尾町天満町"
  },
  "9392352": {
    "zipcode": "9392352",
    "prefectureCode": "16",
    "prefectureNumber": 16,
    "prefecture": "富山県",
    "city": "富山市",
    "town": "八尾町下新町"
  },
  "9392353": {
    "zipcode": "9392353",
    "prefectureCode": "16",
    "prefectureNumber": 16,
    "prefecture": "富山県",
    "city": "富山市",
    "town": "八尾町今町"
  },
  "9392354": {
    "zipcode": "9392354",
    "prefectureCode": "16",
    "prefectureNumber": 16,
    "prefecture": "富山県",
    "city": "富山市",
    "town": "八尾町東町"
  },
  "9392355": {
    "zipcode": "9392355",
    "prefectureCode": "16",
    "prefectureNumber": 16,
    "prefecture": "富山県",
    "city": "富山市",
    "town": "八尾町西町"
  },
  "9392361": {
    "zipcode": "9392361",
    "prefectureCode": "16",
    "prefectureNumber": 16,
    "prefecture": "富山県",
    "city": "富山市",
    "town": "八尾町三田"
  },
  "9392362": {
    "zipcode": "9392362",
    "prefectureCode": "16",
    "prefectureNumber": 16,
    "prefecture": "富山県",
    "city": "富山市",
    "town": "八尾町奥田"
  },
  "9392363": {
    "zipcode": "9392363",
    "prefectureCode": "16",
    "prefectureNumber": 16,
    "prefecture": "富山県",
    "city": "富山市",
    "town": "八尾町新田"
  },
  "9392364": {
    "zipcode": "9392364",
    "prefectureCode": "16",
    "prefectureNumber": 16,
    "prefecture": "富山県",
    "city": "富山市",
    "town": "八尾町水谷"
  },
  "9392365": {
    "zipcode": "9392365",
    "prefectureCode": "16",
    "prefectureNumber": 16,
    "prefecture": "富山県",
    "city": "富山市",
    "town": "八尾町妙川寺"
  },
  "9392366": {
    "zipcode": "9392366",
    "prefectureCode": "16",
    "prefectureNumber": 16,
    "prefecture": "富山県",
    "city": "富山市",
    "town": "八尾町保内"
  },
  "9392367": {
    "zipcode": "9392367",
    "prefectureCode": "16",
    "prefectureNumber": 16,
    "prefecture": "富山県",
    "city": "富山市",
    "town": "八尾町松原"
  },
  "9392371": {
    "zipcode": "9392371",
    "prefectureCode": "16",
    "prefectureNumber": 16,
    "prefecture": "富山県",
    "city": "富山市",
    "town": "八尾町翠尾"
  },
  "9392372": {
    "zipcode": "9392372",
    "prefectureCode": "16",
    "prefectureNumber": 16,
    "prefecture": "富山県",
    "city": "富山市",
    "town": "八尾町舘本郷"
  },
  "9392373": {
    "zipcode": "9392373",
    "prefectureCode": "16",
    "prefectureNumber": 16,
    "prefecture": "富山県",
    "city": "富山市",
    "town": "八尾町高善寺"
  },
  "9392374": {
    "zipcode": "9392374",
    "prefectureCode": "16",
    "prefectureNumber": 16,
    "prefecture": "富山県",
    "city": "富山市",
    "town": "八尾町上高善寺"
  },
  "9392375": {
    "zipcode": "9392375",
    "prefectureCode": "16",
    "prefectureNumber": 16,
    "prefecture": "富山県",
    "city": "富山市",
    "town": "八尾町石戸"
  },
  "9392376": {
    "zipcode": "9392376",
    "prefectureCode": "16",
    "prefectureNumber": 16,
    "prefecture": "富山県",
    "city": "富山市",
    "town": "八尾町福島"
  },
  "9392401": {
    "zipcode": "9392401",
    "prefectureCode": "16",
    "prefectureNumber": 16,
    "prefecture": "富山県",
    "city": "富山市",
    "town": "八尾町東葛坂"
  },
  "9392402": {
    "zipcode": "9392402",
    "prefectureCode": "16",
    "prefectureNumber": 16,
    "prefecture": "富山県",
    "city": "富山市",
    "town": "八尾町八十島"
  },
  "9392403": {
    "zipcode": "9392403",
    "prefectureCode": "16",
    "prefectureNumber": 16,
    "prefecture": "富山県",
    "city": "富山市",
    "town": "八尾町宮ノ下"
  },
  "9392404": {
    "zipcode": "9392404",
    "prefectureCode": "16",
    "prefectureNumber": 16,
    "prefecture": "富山県",
    "city": "富山市",
    "town": "八尾町水口"
  },
  "9392405": {
    "zipcode": "9392405",
    "prefectureCode": "16",
    "prefectureNumber": 16,
    "prefecture": "富山県",
    "city": "富山市",
    "town": "八尾町岩島"
  },
  "9392406": {
    "zipcode": "9392406",
    "prefectureCode": "16",
    "prefectureNumber": 16,
    "prefecture": "富山県",
    "city": "富山市",
    "town": "八尾町乗嶺"
  },
  "9392407": {
    "zipcode": "9392407",
    "prefectureCode": "16",
    "prefectureNumber": 16,
    "prefecture": "富山県",
    "city": "富山市",
    "town": "八尾町新名"
  },
  "9392411": {
    "zipcode": "9392411",
    "prefectureCode": "16",
    "prefectureNumber": 16,
    "prefecture": "富山県",
    "city": "富山市",
    "town": "八尾町東川倉"
  },
  "9392412": {
    "zipcode": "9392412",
    "prefectureCode": "16",
    "prefectureNumber": 16,
    "prefecture": "富山県",
    "city": "富山市",
    "town": "八尾町東布谷"
  },
  "9392413": {
    "zipcode": "9392413",
    "prefectureCode": "16",
    "prefectureNumber": 16,
    "prefecture": "富山県",
    "city": "富山市",
    "town": "八尾町赤石"
  },
  "9392414": {
    "zipcode": "9392414",
    "prefectureCode": "16",
    "prefectureNumber": 16,
    "prefecture": "富山県",
    "city": "富山市",
    "town": "八尾町猟師ケ原"
  },
  "9392415": {
    "zipcode": "9392415",
    "prefectureCode": "16",
    "prefectureNumber": 16,
    "prefecture": "富山県",
    "city": "富山市",
    "town": "八尾町西松瀬"
  },
  "9392416": {
    "zipcode": "9392416",
    "prefectureCode": "16",
    "prefectureNumber": 16,
    "prefecture": "富山県",
    "city": "富山市",
    "town": "八尾町布谷"
  },
  "9392417": {
    "zipcode": "9392417",
    "prefectureCode": "16",
    "prefectureNumber": 16,
    "prefecture": "富山県",
    "city": "富山市",
    "town": "八尾町西川倉"
  },
  "9392421": {
    "zipcode": "9392421",
    "prefectureCode": "16",
    "prefectureNumber": 16,
    "prefecture": "富山県",
    "city": "富山市",
    "town": "八尾町田頭"
  },
  "9392422": {
    "zipcode": "9392422",
    "prefectureCode": "16",
    "prefectureNumber": 16,
    "prefecture": "富山県",
    "city": "富山市",
    "town": "八尾町西原"
  },
  "9392423": {
    "zipcode": "9392423",
    "prefectureCode": "16",
    "prefectureNumber": 16,
    "prefecture": "富山県",
    "city": "富山市",
    "town": "八尾町新屋"
  },
  "9392424": {
    "zipcode": "9392424",
    "prefectureCode": "16",
    "prefectureNumber": 16,
    "prefecture": "富山県",
    "city": "富山市",
    "town": "八尾町東原"
  },
  "9392425": {
    "zipcode": "9392425",
    "prefectureCode": "16",
    "prefectureNumber": 16,
    "prefecture": "富山県",
    "city": "富山市",
    "town": "八尾町庵谷"
  },
  "9392426": {
    "zipcode": "9392426",
    "prefectureCode": "16",
    "prefectureNumber": 16,
    "prefecture": "富山県",
    "city": "富山市",
    "town": "八尾町切詰"
  },
  "9392431": {
    "zipcode": "9392431",
    "prefectureCode": "16",
    "prefectureNumber": 16,
    "prefecture": "富山県",
    "city": "富山市",
    "town": "八尾町栃折"
  },
  "9392432": {
    "zipcode": "9392432",
    "prefectureCode": "16",
    "prefectureNumber": 16,
    "prefecture": "富山県",
    "city": "富山市",
    "town": "八尾町中山"
  },
  "9392433": {
    "zipcode": "9392433",
    "prefectureCode": "16",
    "prefectureNumber": 16,
    "prefecture": "富山県",
    "city": "富山市",
    "town": "八尾町花房"
  },
  "9392434": {
    "zipcode": "9392434",
    "prefectureCode": "16",
    "prefectureNumber": 16,
    "prefecture": "富山県",
    "city": "富山市",
    "town": "八尾町島地"
  },
  "9392435": {
    "zipcode": "9392435",
    "prefectureCode": "16",
    "prefectureNumber": 16,
    "prefecture": "富山県",
    "city": "富山市",
    "town": "八尾町下島"
  },
  "9392436": {
    "zipcode": "9392436",
    "prefectureCode": "16",
    "prefectureNumber": 16,
    "prefecture": "富山県",
    "city": "富山市",
    "town": "八尾町中島"
  },
  "9392437": {
    "zipcode": "9392437",
    "prefectureCode": "16",
    "prefectureNumber": 16,
    "prefecture": "富山県",
    "city": "富山市",
    "town": "八尾町水無"
  },
  "9392441": {
    "zipcode": "9392441",
    "prefectureCode": "16",
    "prefectureNumber": 16,
    "prefecture": "富山県",
    "city": "富山市",
    "town": "八尾町大下"
  },
  "9392442": {
    "zipcode": "9392442",
    "prefectureCode": "16",
    "prefectureNumber": 16,
    "prefecture": "富山県",
    "city": "富山市",
    "town": "八尾町下仁歩"
  },
  "9392443": {
    "zipcode": "9392443",
    "prefectureCode": "16",
    "prefectureNumber": 16,
    "prefecture": "富山県",
    "city": "富山市",
    "town": "八尾町中仁歩"
  },
  "9392444": {
    "zipcode": "9392444",
    "prefectureCode": "16",
    "prefectureNumber": 16,
    "prefecture": "富山県",
    "city": "富山市",
    "town": "八尾町上仁歩"
  },
  "9392445": {
    "zipcode": "9392445",
    "prefectureCode": "16",
    "prefectureNumber": 16,
    "prefecture": "富山県",
    "city": "富山市",
    "town": "八尾町入谷"
  },
  "9392446": {
    "zipcode": "9392446",
    "prefectureCode": "16",
    "prefectureNumber": 16,
    "prefecture": "富山県",
    "city": "富山市",
    "town": "八尾町草連坂"
  },
  "9392447": {
    "zipcode": "9392447",
    "prefectureCode": "16",
    "prefectureNumber": 16,
    "prefecture": "富山県",
    "city": "富山市",
    "town": "八尾町鼠谷"
  },
  "9392451": {
    "zipcode": "9392451",
    "prefectureCode": "16",
    "prefectureNumber": 16,
    "prefecture": "富山県",
    "city": "富山市",
    "town": "八尾町平沢"
  },
  "9392452": {
    "zipcode": "9392452",
    "prefectureCode": "16",
    "prefectureNumber": 16,
    "prefecture": "富山県",
    "city": "富山市",
    "town": "八尾町三ツ松"
  },
  "9392453": {
    "zipcode": "9392453",
    "prefectureCode": "16",
    "prefectureNumber": 16,
    "prefecture": "富山県",
    "city": "富山市",
    "town": "八尾町倉ケ谷"
  },
  "9392454": {
    "zipcode": "9392454",
    "prefectureCode": "16",
    "prefectureNumber": 16,
    "prefecture": "富山県",
    "city": "富山市",
    "town": "八尾町武道原"
  },
  "9392455": {
    "zipcode": "9392455",
    "prefectureCode": "16",
    "prefectureNumber": 16,
    "prefecture": "富山県",
    "city": "富山市",
    "town": "八尾町大玉生"
  },
  "9392456": {
    "zipcode": "9392456",
    "prefectureCode": "16",
    "prefectureNumber": 16,
    "prefecture": "富山県",
    "city": "富山市",
    "town": "八尾町茗ケ島"
  },
  "9392461": {
    "zipcode": "9392461",
    "prefectureCode": "16",
    "prefectureNumber": 16,
    "prefecture": "富山県",
    "city": "富山市",
    "town": "八尾町高熊"
  },
  "9392462": {
    "zipcode": "9392462",
    "prefectureCode": "16",
    "prefectureNumber": 16,
    "prefecture": "富山県",
    "city": "富山市",
    "town": "八尾町高橋"
  },
  "9392463": {
    "zipcode": "9392463",
    "prefectureCode": "16",
    "prefectureNumber": 16,
    "prefecture": "富山県",
    "city": "富山市",
    "town": "八尾町谷内"
  },
  "9392464": {
    "zipcode": "9392464",
    "prefectureCode": "16",
    "prefectureNumber": 16,
    "prefecture": "富山県",
    "city": "富山市",
    "town": "八尾町宮ケ島"
  },
  "9392465": {
    "zipcode": "9392465",
    "prefectureCode": "16",
    "prefectureNumber": 16,
    "prefecture": "富山県",
    "city": "富山市",
    "town": "八尾町窪"
  },
  "9392466": {
    "zipcode": "9392466",
    "prefectureCode": "16",
    "prefectureNumber": 16,
    "prefecture": "富山県",
    "city": "富山市",
    "town": "八尾町天池"
  },
  "9392467": {
    "zipcode": "9392467",
    "prefectureCode": "16",
    "prefectureNumber": 16,
    "prefecture": "富山県",
    "city": "富山市",
    "town": "八尾町高瀬"
  },
  "9392471": {
    "zipcode": "9392471",
    "prefectureCode": "16",
    "prefectureNumber": 16,
    "prefecture": "富山県",
    "city": "富山市",
    "town": "八尾町高尾"
  },
  "9392472": {
    "zipcode": "9392472",
    "prefectureCode": "16",
    "prefectureNumber": 16,
    "prefecture": "富山県",
    "city": "富山市",
    "town": "八尾町和山"
  },
  "9392473": {
    "zipcode": "9392473",
    "prefectureCode": "16",
    "prefectureNumber": 16,
    "prefecture": "富山県",
    "city": "富山市",
    "town": "八尾町峯"
  },
  "9392474": {
    "zipcode": "9392474",
    "prefectureCode": "16",
    "prefectureNumber": 16,
    "prefecture": "富山県",
    "city": "富山市",
    "town": "八尾町須郷"
  },
  "9392475": {
    "zipcode": "9392475",
    "prefectureCode": "16",
    "prefectureNumber": 16,
    "prefecture": "富山県",
    "city": "富山市",
    "town": "八尾町柚木"
  },
  "9392476": {
    "zipcode": "9392476",
    "prefectureCode": "16",
    "prefectureNumber": 16,
    "prefecture": "富山県",
    "city": "富山市",
    "town": "八尾町細滝"
  },
  "9392477": {
    "zipcode": "9392477",
    "prefectureCode": "16",
    "prefectureNumber": 16,
    "prefecture": "富山県",
    "city": "富山市",
    "town": "八尾町上野"
  },
  "9392501": {
    "zipcode": "9392501",
    "prefectureCode": "16",
    "prefectureNumber": 16,
    "prefecture": "富山県",
    "city": "南砺市",
    "town": "利賀村栗当"
  },
  "9392502": {
    "zipcode": "9392502",
    "prefectureCode": "16",
    "prefectureNumber": 16,
    "prefecture": "富山県",
    "city": "南砺市",
    "town": "利賀村高沼"
  },
  "9392503": {
    "zipcode": "9392503",
    "prefectureCode": "16",
    "prefectureNumber": 16,
    "prefecture": "富山県",
    "city": "南砺市",
    "town": "利賀村草嶺"
  },
  "9392504": {
    "zipcode": "9392504",
    "prefectureCode": "16",
    "prefectureNumber": 16,
    "prefecture": "富山県",
    "city": "南砺市",
    "town": "利賀村押場"
  },
  "9392505": {
    "zipcode": "9392505",
    "prefectureCode": "16",
    "prefectureNumber": 16,
    "prefecture": "富山県",
    "city": "南砺市",
    "town": "利賀村北豆谷"
  },
  "9392506": {
    "zipcode": "9392506",
    "prefectureCode": "16",
    "prefectureNumber": 16,
    "prefecture": "富山県",
    "city": "南砺市",
    "town": "利賀村大豆谷"
  },
  "9392507": {
    "zipcode": "9392507",
    "prefectureCode": "16",
    "prefectureNumber": 16,
    "prefecture": "富山県",
    "city": "南砺市",
    "town": "利賀村"
  },
  "9392508": {
    "zipcode": "9392508",
    "prefectureCode": "16",
    "prefectureNumber": 16,
    "prefecture": "富山県",
    "city": "南砺市",
    "town": "利賀村岩渕"
  },
  "9392509": {
    "zipcode": "9392509",
    "prefectureCode": "16",
    "prefectureNumber": 16,
    "prefecture": "富山県",
    "city": "南砺市",
    "town": "利賀村北島"
  },
  "9392511": {
    "zipcode": "9392511",
    "prefectureCode": "16",
    "prefectureNumber": 16,
    "prefecture": "富山県",
    "city": "南砺市",
    "town": "利賀村百瀬川"
  },
  "9392512": {
    "zipcode": "9392512",
    "prefectureCode": "16",
    "prefectureNumber": 16,
    "prefecture": "富山県",
    "city": "南砺市",
    "town": "利賀村中村"
  },
  "9392513": {
    "zipcode": "9392513",
    "prefectureCode": "16",
    "prefectureNumber": 16,
    "prefecture": "富山県",
    "city": "南砺市",
    "town": "利賀村上百瀬"
  },
  "9392514": {
    "zipcode": "9392514",
    "prefectureCode": "16",
    "prefectureNumber": 16,
    "prefecture": "富山県",
    "city": "南砺市",
    "town": "利賀村上畠"
  },
  "9392515": {
    "zipcode": "9392515",
    "prefectureCode": "16",
    "prefectureNumber": 16,
    "prefecture": "富山県",
    "city": "南砺市",
    "town": "利賀村細島"
  },
  "9392516": {
    "zipcode": "9392516",
    "prefectureCode": "16",
    "prefectureNumber": 16,
    "prefecture": "富山県",
    "city": "南砺市",
    "town": "利賀村坂上"
  },
  "9392517": {
    "zipcode": "9392517",
    "prefectureCode": "16",
    "prefectureNumber": 16,
    "prefecture": "富山県",
    "city": "南砺市",
    "town": "利賀村阿別当"
  },
  "9392518": {
    "zipcode": "9392518",
    "prefectureCode": "16",
    "prefectureNumber": 16,
    "prefecture": "富山県",
    "city": "南砺市",
    "town": "利賀村大勘場"
  },
  "9392519": {
    "zipcode": "9392519",
    "prefectureCode": "16",
    "prefectureNumber": 16,
    "prefecture": "富山県",
    "city": "南砺市",
    "town": "利賀村水無"
  },
  "9392601": {
    "zipcode": "9392601",
    "prefectureCode": "16",
    "prefectureNumber": 16,
    "prefecture": "富山県",
    "city": "富山市",
    "town": "婦中町小長沢"
  },
  "9392602": {
    "zipcode": "9392602",
    "prefectureCode": "16",
    "prefectureNumber": 16,
    "prefecture": "富山県",
    "city": "富山市",
    "town": "婦中町下邑"
  },
  "9392603": {
    "zipcode": "9392603",
    "prefectureCode": "16",
    "prefectureNumber": 16,
    "prefecture": "富山県",
    "city": "富山市",
    "town": "婦中町羽根"
  },
  "9392604": {
    "zipcode": "9392604",
    "prefectureCode": "16",
    "prefectureNumber": 16,
    "prefecture": "富山県",
    "city": "富山市",
    "town": "婦中町富川"
  },
  "9392605": {
    "zipcode": "9392605",
    "prefectureCode": "16",
    "prefectureNumber": 16,
    "prefecture": "富山県",
    "city": "富山市",
    "town": "婦中町河原町"
  },
  "9392606": {
    "zipcode": "9392606",
    "prefectureCode": "16",
    "prefectureNumber": 16,
    "prefecture": "富山県",
    "city": "富山市",
    "town": "婦中町ひまわり台"
  },
  "9392607": {
    "zipcode": "9392607",
    "prefectureCode": "16",
    "prefectureNumber": 16,
    "prefecture": "富山県",
    "city": "富山市",
    "town": "婦中町新町"
  },
  "9392611": {
    "zipcode": "9392611",
    "prefectureCode": "16",
    "prefectureNumber": 16,
    "prefecture": "富山県",
    "city": "富山市",
    "town": "婦中町高田"
  },
  "9392612": {
    "zipcode": "9392612",
    "prefectureCode": "16",
    "prefectureNumber": 16,
    "prefecture": "富山県",
    "city": "富山市",
    "town": "婦中町上吉川ニュータウン"
  },
  "9392613": {
    "zipcode": "9392613",
    "prefectureCode": "16",
    "prefectureNumber": 16,
    "prefecture": "富山県",
    "city": "富山市",
    "town": "婦中町高日附"
  },
  "9392614": {
    "zipcode": "9392614",
    "prefectureCode": "16",
    "prefectureNumber": 16,
    "prefecture": "富山県",
    "city": "富山市",
    "town": "婦中町上井沢"
  },
  "9392615": {
    "zipcode": "9392615",
    "prefectureCode": "16",
    "prefectureNumber": 16,
    "prefecture": "富山県",
    "city": "富山市",
    "town": "婦中町熊野道"
  },
  "9392616": {
    "zipcode": "9392616",
    "prefectureCode": "16",
    "prefectureNumber": 16,
    "prefecture": "富山県",
    "city": "富山市",
    "town": "婦中町小倉"
  },
  "9392617": {
    "zipcode": "9392617",
    "prefectureCode": "16",
    "prefectureNumber": 16,
    "prefecture": "富山県",
    "city": "富山市",
    "town": "婦中町島田"
  },
  "9392621": {
    "zipcode": "9392621",
    "prefectureCode": "16",
    "prefectureNumber": 16,
    "prefecture": "富山県",
    "city": "富山市",
    "town": "婦中町富崎"
  },
  "9392622": {
    "zipcode": "9392622",
    "prefectureCode": "16",
    "prefectureNumber": 16,
    "prefecture": "富山県",
    "city": "富山市",
    "town": "婦中町鉾木"
  },
  "9392623": {
    "zipcode": "9392623",
    "prefectureCode": "16",
    "prefectureNumber": 16,
    "prefecture": "富山県",
    "city": "富山市",
    "town": "婦中町蓮花寺"
  },
  "9392624": {
    "zipcode": "9392624",
    "prefectureCode": "16",
    "prefectureNumber": 16,
    "prefecture": "富山県",
    "city": "富山市",
    "town": "婦中町下瀬"
  },
  "9392625": {
    "zipcode": "9392625",
    "prefectureCode": "16",
    "prefectureNumber": 16,
    "prefecture": "富山県",
    "city": "富山市",
    "town": "婦中町高山"
  },
  "9392626": {
    "zipcode": "9392626",
    "prefectureCode": "16",
    "prefectureNumber": 16,
    "prefecture": "富山県",
    "city": "富山市",
    "town": "婦中町道島"
  },
  "9392627": {
    "zipcode": "9392627",
    "prefectureCode": "16",
    "prefectureNumber": 16,
    "prefecture": "富山県",
    "city": "富山市",
    "town": "婦中町皆杓"
  },
  "9392631": {
    "zipcode": "9392631",
    "prefectureCode": "16",
    "prefectureNumber": 16,
    "prefecture": "富山県",
    "city": "富山市",
    "town": "婦中町宮ケ谷"
  },
  "9392632": {
    "zipcode": "9392632",
    "prefectureCode": "16",
    "prefectureNumber": 16,
    "prefecture": "富山県",
    "city": "富山市",
    "town": "婦中町吉住"
  },
  "9392633": {
    "zipcode": "9392633",
    "prefectureCode": "16",
    "prefectureNumber": 16,
    "prefecture": "富山県",
    "city": "富山市",
    "town": "婦中町東谷"
  },
  "9392634": {
    "zipcode": "9392634",
    "prefectureCode": "16",
    "prefectureNumber": 16,
    "prefecture": "富山県",
    "city": "富山市",
    "town": "婦中町牛滑"
  },
  "9392635": {
    "zipcode": "9392635",
    "prefectureCode": "16",
    "prefectureNumber": 16,
    "prefecture": "富山県",
    "city": "富山市",
    "town": "婦中町大瀬谷"
  },
  "9392636": {
    "zipcode": "9392636",
    "prefectureCode": "16",
    "prefectureNumber": 16,
    "prefecture": "富山県",
    "city": "富山市",
    "town": "婦中町葎原"
  },
  "9392637": {
    "zipcode": "9392637",
    "prefectureCode": "16",
    "prefectureNumber": 16,
    "prefecture": "富山県",
    "city": "富山市",
    "town": "婦中町鶚谷"
  },
  "9392638": {
    "zipcode": "9392638",
    "prefectureCode": "16",
    "prefectureNumber": 16,
    "prefecture": "富山県",
    "city": "富山市",
    "town": "婦中町吉谷"
  },
  "9392639": {
    "zipcode": "9392639",
    "prefectureCode": "16",
    "prefectureNumber": 16,
    "prefecture": "富山県",
    "city": "富山市",
    "town": "婦中町平等"
  },
  "9392649": {
    "zipcode": "9392649",
    "prefectureCode": "16",
    "prefectureNumber": 16,
    "prefecture": "富山県",
    "city": "富山市",
    "town": "婦中町余川（西余川）"
  },
  "9392701": {
    "zipcode": "9392701",
    "prefectureCode": "16",
    "prefectureNumber": 16,
    "prefecture": "富山県",
    "city": "富山市",
    "town": "婦中町西本郷"
  },
  "9392702": {
    "zipcode": "9392702",
    "prefectureCode": "16",
    "prefectureNumber": 16,
    "prefecture": "富山県",
    "city": "富山市",
    "town": "婦中町田島"
  },
  "9392703": {
    "zipcode": "9392703",
    "prefectureCode": "16",
    "prefectureNumber": 16,
    "prefecture": "富山県",
    "city": "富山市",
    "town": "婦中町希望ケ丘"
  },
  "9392704": {
    "zipcode": "9392704",
    "prefectureCode": "16",
    "prefectureNumber": 16,
    "prefecture": "富山県",
    "city": "富山市",
    "town": "婦中町羽根新"
  },
  "9392705": {
    "zipcode": "9392705",
    "prefectureCode": "16",
    "prefectureNumber": 16,
    "prefecture": "富山県",
    "city": "富山市",
    "town": "婦中町宮ケ島"
  },
  "9392706": {
    "zipcode": "9392706",
    "prefectureCode": "16",
    "prefectureNumber": 16,
    "prefecture": "富山県",
    "city": "富山市",
    "town": "婦中町速星"
  },
  "9392707": {
    "zipcode": "9392707",
    "prefectureCode": "16",
    "prefectureNumber": 16,
    "prefecture": "富山県",
    "city": "富山市",
    "town": "婦中町東本郷"
  },
  "9392708": {
    "zipcode": "9392708",
    "prefectureCode": "16",
    "prefectureNumber": 16,
    "prefecture": "富山県",
    "city": "富山市",
    "town": "婦中町島本郷"
  },
  "9392709": {
    "zipcode": "9392709",
    "prefectureCode": "16",
    "prefectureNumber": 16,
    "prefecture": "富山県",
    "city": "富山市",
    "town": "婦中町夢ケ丘"
  },
  "9392711": {
    "zipcode": "9392711",
    "prefectureCode": "16",
    "prefectureNumber": 16,
    "prefecture": "富山県",
    "city": "富山市",
    "town": "婦中町鵜坂"
  },
  "9392712": {
    "zipcode": "9392712",
    "prefectureCode": "16",
    "prefectureNumber": 16,
    "prefecture": "富山県",
    "city": "富山市",
    "town": "婦中町塚原"
  },
  "9392713": {
    "zipcode": "9392713",
    "prefectureCode": "16",
    "prefectureNumber": 16,
    "prefecture": "富山県",
    "city": "富山市",
    "town": "婦中町上轡田"
  },
  "9392714": {
    "zipcode": "9392714",
    "prefectureCode": "16",
    "prefectureNumber": 16,
    "prefecture": "富山県",
    "city": "富山市",
    "town": "婦中町増田"
  },
  "9392715": {
    "zipcode": "9392715",
    "prefectureCode": "16",
    "prefectureNumber": 16,
    "prefecture": "富山県",
    "city": "富山市",
    "town": "婦中町下坂倉"
  },
  "9392716": {
    "zipcode": "9392716",
    "prefectureCode": "16",
    "prefectureNumber": 16,
    "prefecture": "富山県",
    "city": "富山市",
    "town": "婦中町下轡田"
  },
  "9392717": {
    "zipcode": "9392717",
    "prefectureCode": "16",
    "prefectureNumber": 16,
    "prefecture": "富山県",
    "city": "富山市",
    "town": "婦中町上田島"
  },
  "9392718": {
    "zipcode": "9392718",
    "prefectureCode": "16",
    "prefectureNumber": 16,
    "prefecture": "富山県",
    "city": "富山市",
    "town": "婦中町分田"
  },
  "9392719": {
    "zipcode": "9392719",
    "prefectureCode": "16",
    "prefectureNumber": 16,
    "prefecture": "富山県",
    "city": "富山市",
    "town": "婦中町西ヶ丘"
  },
  "9392721": {
    "zipcode": "9392721",
    "prefectureCode": "16",
    "prefectureNumber": 16,
    "prefecture": "富山県",
    "city": "富山市",
    "town": "婦中町板倉新"
  },
  "9392722": {
    "zipcode": "9392722",
    "prefectureCode": "16",
    "prefectureNumber": 16,
    "prefecture": "富山県",
    "city": "富山市",
    "town": "婦中町添島"
  },
  "9392723": {
    "zipcode": "9392723",
    "prefectureCode": "16",
    "prefectureNumber": 16,
    "prefecture": "富山県",
    "city": "富山市",
    "town": "婦中町萩島"
  },
  "9392724": {
    "zipcode": "9392724",
    "prefectureCode": "16",
    "prefectureNumber": 16,
    "prefecture": "富山県",
    "city": "富山市",
    "town": "婦中町ねむの木"
  },
  "9392725": {
    "zipcode": "9392725",
    "prefectureCode": "16",
    "prefectureNumber": 16,
    "prefecture": "富山県",
    "city": "富山市",
    "town": "婦中町持田"
  },
  "9392726": {
    "zipcode": "9392726",
    "prefectureCode": "16",
    "prefectureNumber": 16,
    "prefecture": "富山県",
    "city": "富山市",
    "town": "婦中町蔵島"
  },
  "9392727": {
    "zipcode": "9392727",
    "prefectureCode": "16",
    "prefectureNumber": 16,
    "prefecture": "富山県",
    "city": "富山市",
    "town": "婦中町砂子田"
  },
  "9392728": {
    "zipcode": "9392728",
    "prefectureCode": "16",
    "prefectureNumber": 16,
    "prefecture": "富山県",
    "city": "富山市",
    "town": "婦中町蛍川"
  },
  "9392729": {
    "zipcode": "9392729",
    "prefectureCode": "16",
    "prefectureNumber": 16,
    "prefecture": "富山県",
    "city": "富山市",
    "town": "婦中町響の杜"
  },
  "9392731": {
    "zipcode": "9392731",
    "prefectureCode": "16",
    "prefectureNumber": 16,
    "prefecture": "富山県",
    "city": "富山市",
    "town": "婦中町青島"
  },
  "9392732": {
    "zipcode": "9392732",
    "prefectureCode": "16",
    "prefectureNumber": 16,
    "prefecture": "富山県",
    "city": "富山市",
    "town": "婦中町横野"
  },
  "9392733": {
    "zipcode": "9392733",
    "prefectureCode": "16",
    "prefectureNumber": 16,
    "prefecture": "富山県",
    "city": "富山市",
    "town": "婦中町成子"
  },
  "9392734": {
    "zipcode": "9392734",
    "prefectureCode": "16",
    "prefectureNumber": 16,
    "prefecture": "富山県",
    "city": "富山市",
    "town": "婦中町新屋"
  },
  "9392735": {
    "zipcode": "9392735",
    "prefectureCode": "16",
    "prefectureNumber": 16,
    "prefecture": "富山県",
    "city": "富山市",
    "town": "婦中町為成新"
  },
  "9392736": {
    "zipcode": "9392736",
    "prefectureCode": "16",
    "prefectureNumber": 16,
    "prefecture": "富山県",
    "city": "富山市",
    "town": "婦中町上新屋"
  },
  "9392737": {
    "zipcode": "9392737",
    "prefectureCode": "16",
    "prefectureNumber": 16,
    "prefecture": "富山県",
    "city": "富山市",
    "town": "婦中町十五丁"
  },
  "9392738": {
    "zipcode": "9392738",
    "prefectureCode": "16",
    "prefectureNumber": 16,
    "prefecture": "富山県",
    "city": "富山市",
    "town": "婦中町道喜島"
  },
  "9392741": {
    "zipcode": "9392741",
    "prefectureCode": "16",
    "prefectureNumber": 16,
    "prefecture": "富山県",
    "city": "富山市",
    "town": "婦中町中名"
  },
  "9392742": {
    "zipcode": "9392742",
    "prefectureCode": "16",
    "prefectureNumber": 16,
    "prefecture": "富山県",
    "city": "富山市",
    "town": "婦中町堀"
  },
  "9392743": {
    "zipcode": "9392743",
    "prefectureCode": "16",
    "prefectureNumber": 16,
    "prefecture": "富山県",
    "city": "富山市",
    "town": "婦中町清水島"
  },
  "9392744": {
    "zipcode": "9392744",
    "prefectureCode": "16",
    "prefectureNumber": 16,
    "prefecture": "富山県",
    "city": "富山市",
    "town": "婦中町地角"
  },
  "9392745": {
    "zipcode": "9392745",
    "prefectureCode": "16",
    "prefectureNumber": 16,
    "prefecture": "富山県",
    "city": "富山市",
    "town": "婦中町広田"
  },
  "9392746": {
    "zipcode": "9392746",
    "prefectureCode": "16",
    "prefectureNumber": 16,
    "prefecture": "富山県",
    "city": "富山市",
    "town": "婦中町浜子"
  },
  "9392747": {
    "zipcode": "9392747",
    "prefectureCode": "16",
    "prefectureNumber": 16,
    "prefecture": "富山県",
    "city": "富山市",
    "town": "婦中町中島"
  },
  "9392748": {
    "zipcode": "9392748",
    "prefectureCode": "16",
    "prefectureNumber": 16,
    "prefecture": "富山県",
    "city": "富山市",
    "town": "婦中町田屋新"
  },
  "9392749": {
    "zipcode": "9392749",
    "prefectureCode": "16",
    "prefectureNumber": 16,
    "prefecture": "富山県",
    "city": "富山市",
    "town": "婦中町余川（東余川）"
  },
  "9392751": {
    "zipcode": "9392751",
    "prefectureCode": "16",
    "prefectureNumber": 16,
    "prefecture": "富山県",
    "city": "富山市",
    "town": "婦中町安田"
  },
  "9392752": {
    "zipcode": "9392752",
    "prefectureCode": "16",
    "prefectureNumber": 16,
    "prefecture": "富山県",
    "city": "富山市",
    "town": "婦中町小泉"
  },
  "9392753": {
    "zipcode": "9392753",
    "prefectureCode": "16",
    "prefectureNumber": 16,
    "prefecture": "富山県",
    "city": "富山市",
    "town": "婦中町笹倉"
  },
  "9392754": {
    "zipcode": "9392754",
    "prefectureCode": "16",
    "prefectureNumber": 16,
    "prefecture": "富山県",
    "city": "富山市",
    "town": "婦中町麦島"
  },
  "9392755": {
    "zipcode": "9392755",
    "prefectureCode": "16",
    "prefectureNumber": 16,
    "prefecture": "富山県",
    "city": "富山市",
    "town": "婦中町袋"
  },
  "9392756": {
    "zipcode": "9392756",
    "prefectureCode": "16",
    "prefectureNumber": 16,
    "prefecture": "富山県",
    "city": "富山市",
    "town": "婦中町下井沢"
  },
  "9392757": {
    "zipcode": "9392757",
    "prefectureCode": "16",
    "prefectureNumber": 16,
    "prefecture": "富山県",
    "city": "富山市",
    "town": "婦中町道場"
  },
  "9392758": {
    "zipcode": "9392758",
    "prefectureCode": "16",
    "prefectureNumber": 16,
    "prefecture": "富山県",
    "city": "富山市",
    "town": "婦中町下条"
  },
  "9392759": {
    "zipcode": "9392759",
    "prefectureCode": "16",
    "prefectureNumber": 16,
    "prefecture": "富山県",
    "city": "富山市",
    "town": "婦中町友坂"
  },
  "9393501": {
    "zipcode": "9393501",
    "prefectureCode": "16",
    "prefectureNumber": 16,
    "prefecture": "富山県",
    "city": "富山市",
    "town": "水橋印田町"
  },
  "9393502": {
    "zipcode": "9393502",
    "prefectureCode": "16",
    "prefectureNumber": 16,
    "prefecture": "富山県",
    "city": "富山市",
    "town": "水橋川原町"
  },
  "9393503": {
    "zipcode": "9393503",
    "prefectureCode": "16",
    "prefectureNumber": 16,
    "prefecture": "富山県",
    "city": "富山市",
    "town": "水橋立山町"
  },
  "9393504": {
    "zipcode": "9393504",
    "prefectureCode": "16",
    "prefectureNumber": 16,
    "prefecture": "富山県",
    "city": "富山市",
    "town": "水橋今町"
  },
  "9393505": {
    "zipcode": "9393505",
    "prefectureCode": "16",
    "prefectureNumber": 16,
    "prefecture": "富山県",
    "city": "富山市",
    "town": "水橋浜町"
  },
  "9393506": {
    "zipcode": "9393506",
    "prefectureCode": "16",
    "prefectureNumber": 16,
    "prefecture": "富山県",
    "city": "富山市",
    "town": "水橋山王町"
  },
  "9393511": {
    "zipcode": "9393511",
    "prefectureCode": "16",
    "prefectureNumber": 16,
    "prefecture": "富山県",
    "city": "富山市",
    "town": "水橋中町"
  },
  "9393512": {
    "zipcode": "9393512",
    "prefectureCode": "16",
    "prefectureNumber": 16,
    "prefecture": "富山県",
    "city": "富山市",
    "town": "水橋西大町"
  },
  "9393513": {
    "zipcode": "9393513",
    "prefectureCode": "16",
    "prefectureNumber": 16,
    "prefecture": "富山県",
    "city": "富山市",
    "town": "水橋大正町"
  },
  "9393514": {
    "zipcode": "9393514",
    "prefectureCode": "16",
    "prefectureNumber": 16,
    "prefecture": "富山県",
    "city": "富山市",
    "town": "水橋新堂町"
  },
  "9393515": {
    "zipcode": "9393515",
    "prefectureCode": "16",
    "prefectureNumber": 16,
    "prefecture": "富山県",
    "city": "富山市",
    "town": "水橋辻ケ堂"
  },
  "9393516": {
    "zipcode": "9393516",
    "prefectureCode": "16",
    "prefectureNumber": 16,
    "prefecture": "富山県",
    "city": "富山市",
    "town": "水橋荒町"
  },
  "9393521": {
    "zipcode": "9393521",
    "prefectureCode": "16",
    "prefectureNumber": 16,
    "prefecture": "富山県",
    "city": "富山市",
    "town": "水橋畠等"
  },
  "9393522": {
    "zipcode": "9393522",
    "prefectureCode": "16",
    "prefectureNumber": 16,
    "prefecture": "富山県",
    "city": "富山市",
    "town": "水橋花の井町"
  },
  "9393523": {
    "zipcode": "9393523",
    "prefectureCode": "16",
    "prefectureNumber": 16,
    "prefecture": "富山県",
    "city": "富山市",
    "town": "水橋池田舘"
  },
  "9393524": {
    "zipcode": "9393524",
    "prefectureCode": "16",
    "prefectureNumber": 16,
    "prefecture": "富山県",
    "city": "富山市",
    "town": "水橋伊勢屋"
  },
  "9393525": {
    "zipcode": "9393525",
    "prefectureCode": "16",
    "prefectureNumber": 16,
    "prefecture": "富山県",
    "city": "富山市",
    "town": "水橋駅前"
  },
  "9393526": {
    "zipcode": "9393526",
    "prefectureCode": "16",
    "prefectureNumber": 16,
    "prefecture": "富山県",
    "city": "富山市",
    "town": "水橋昭和町"
  },
  "9393531": {
    "zipcode": "9393531",
    "prefectureCode": "16",
    "prefectureNumber": 16,
    "prefecture": "富山県",
    "city": "富山市",
    "town": "水橋池田町"
  },
  "9393532": {
    "zipcode": "9393532",
    "prefectureCode": "16",
    "prefectureNumber": 16,
    "prefecture": "富山県",
    "city": "富山市",
    "town": "水橋二ツ屋"
  },
  "9393533": {
    "zipcode": "9393533",
    "prefectureCode": "16",
    "prefectureNumber": 16,
    "prefecture": "富山県",
    "city": "富山市",
    "town": "水橋高堂"
  },
  "9393534": {
    "zipcode": "9393534",
    "prefectureCode": "16",
    "prefectureNumber": 16,
    "prefecture": "富山県",
    "city": "富山市",
    "town": "水橋番頭名"
  },
  "9393535": {
    "zipcode": "9393535",
    "prefectureCode": "16",
    "prefectureNumber": 16,
    "prefecture": "富山県",
    "city": "富山市",
    "town": "水橋新堀"
  },
  "9393536": {
    "zipcode": "9393536",
    "prefectureCode": "16",
    "prefectureNumber": 16,
    "prefecture": "富山県",
    "city": "富山市",
    "town": "水橋金尾新"
  },
  "9393541": {
    "zipcode": "9393541",
    "prefectureCode": "16",
    "prefectureNumber": 16,
    "prefecture": "富山県",
    "city": "富山市",
    "town": "水橋沖"
  },
  "9393542": {
    "zipcode": "9393542",
    "prefectureCode": "16",
    "prefectureNumber": 16,
    "prefecture": "富山県",
    "city": "富山市",
    "town": "水橋開発"
  },
  "9393543": {
    "zipcode": "9393543",
    "prefectureCode": "16",
    "prefectureNumber": 16,
    "prefecture": "富山県",
    "city": "富山市",
    "town": "水橋常願寺"
  },
  "9393544": {
    "zipcode": "9393544",
    "prefectureCode": "16",
    "prefectureNumber": 16,
    "prefecture": "富山県",
    "city": "富山市",
    "town": "水橋入江"
  },
  "9393545": {
    "zipcode": "9393545",
    "prefectureCode": "16",
    "prefectureNumber": 16,
    "prefecture": "富山県",
    "city": "富山市",
    "town": "水橋入部町"
  },
  "9393546": {
    "zipcode": "9393546",
    "prefectureCode": "16",
    "prefectureNumber": 16,
    "prefecture": "富山県",
    "city": "富山市",
    "town": "水橋二杉"
  },
  "9393547": {
    "zipcode": "9393547",
    "prefectureCode": "16",
    "prefectureNumber": 16,
    "prefecture": "富山県",
    "city": "富山市",
    "town": "水橋柴草"
  },
  "9393548": {
    "zipcode": "9393548",
    "prefectureCode": "16",
    "prefectureNumber": 16,
    "prefecture": "富山県",
    "city": "富山市",
    "town": "三郷"
  },
  "9393551": {
    "zipcode": "9393551",
    "prefectureCode": "16",
    "prefectureNumber": 16,
    "prefecture": "富山県",
    "city": "富山市",
    "town": "水橋中村"
  },
  "9393552": {
    "zipcode": "9393552",
    "prefectureCode": "16",
    "prefectureNumber": 16,
    "prefecture": "富山県",
    "city": "富山市",
    "town": "水橋肘崎"
  },
  "9393553": {
    "zipcode": "9393553",
    "prefectureCode": "16",
    "prefectureNumber": 16,
    "prefecture": "富山県",
    "city": "富山市",
    "town": "水橋的場"
  },
  "9393554": {
    "zipcode": "9393554",
    "prefectureCode": "16",
    "prefectureNumber": 16,
    "prefecture": "富山県",
    "city": "富山市",
    "town": "水橋小路"
  },
  "9393555": {
    "zipcode": "9393555",
    "prefectureCode": "16",
    "prefectureNumber": 16,
    "prefecture": "富山県",
    "city": "富山市",
    "town": "水橋市田袋"
  },
  "9393556": {
    "zipcode": "9393556",
    "prefectureCode": "16",
    "prefectureNumber": 16,
    "prefecture": "富山県",
    "city": "富山市",
    "town": "水橋中新町"
  },
  "9393557": {
    "zipcode": "9393557",
    "prefectureCode": "16",
    "prefectureNumber": 16,
    "prefecture": "富山県",
    "city": "富山市",
    "town": "水橋町袋"
  },
  "9398001": {
    "zipcode": "9398001",
    "prefectureCode": "16",
    "prefectureNumber": 16,
    "prefecture": "富山県",
    "city": "富山市",
    "town": "大泉東部"
  },
  "9398002": {
    "zipcode": "9398002",
    "prefectureCode": "16",
    "prefectureNumber": 16,
    "prefecture": "富山県",
    "city": "富山市",
    "town": "公文名"
  },
  "9398003": {
    "zipcode": "9398003",
    "prefectureCode": "16",
    "prefectureNumber": 16,
    "prefecture": "富山県",
    "city": "富山市",
    "town": "西公文名町"
  },
  "9398004": {
    "zipcode": "9398004",
    "prefectureCode": "16",
    "prefectureNumber": 16,
    "prefecture": "富山県",
    "city": "富山市",
    "town": "西公文名"
  },
  "9398005": {
    "zipcode": "9398005",
    "prefectureCode": "16",
    "prefectureNumber": 16,
    "prefecture": "富山県",
    "city": "富山市",
    "town": "中市"
  },
  "9398006": {
    "zipcode": "9398006",
    "prefectureCode": "16",
    "prefectureNumber": 16,
    "prefecture": "富山県",
    "city": "富山市",
    "town": "山室"
  },
  "9398007": {
    "zipcode": "9398007",
    "prefectureCode": "16",
    "prefectureNumber": 16,
    "prefecture": "富山県",
    "city": "富山市",
    "town": "山室向陽台"
  },
  "9398008": {
    "zipcode": "9398008",
    "prefectureCode": "16",
    "prefectureNumber": 16,
    "prefecture": "富山県",
    "city": "富山市",
    "town": "山室新町"
  },
  "9398011": {
    "zipcode": "9398011",
    "prefectureCode": "16",
    "prefectureNumber": 16,
    "prefecture": "富山県",
    "city": "富山市",
    "town": "不二栄町"
  },
  "9398012": {
    "zipcode": "9398012",
    "prefectureCode": "16",
    "prefectureNumber": 16,
    "prefecture": "富山県",
    "city": "富山市",
    "town": "高原本町"
  },
  "9398013": {
    "zipcode": "9398013",
    "prefectureCode": "16",
    "prefectureNumber": 16,
    "prefecture": "富山県",
    "city": "富山市",
    "town": "高原町"
  },
  "9398014": {
    "zipcode": "9398014",
    "prefectureCode": "16",
    "prefectureNumber": 16,
    "prefecture": "富山県",
    "city": "富山市",
    "town": "中川原新町"
  },
  "9398015": {
    "zipcode": "9398015",
    "prefectureCode": "16",
    "prefectureNumber": 16,
    "prefecture": "富山県",
    "city": "富山市",
    "town": "中川原"
  },
  "9398016": {
    "zipcode": "9398016",
    "prefectureCode": "16",
    "prefectureNumber": 16,
    "prefecture": "富山県",
    "city": "富山市",
    "town": "中川原台"
  },
  "9398017": {
    "zipcode": "9398017",
    "prefectureCode": "16",
    "prefectureNumber": 16,
    "prefecture": "富山県",
    "city": "富山市",
    "town": "松ケ丘"
  },
  "9398021": {
    "zipcode": "9398021",
    "prefectureCode": "16",
    "prefectureNumber": 16,
    "prefecture": "富山県",
    "city": "富山市",
    "town": "若葉台"
  },
  "9398022": {
    "zipcode": "9398022",
    "prefectureCode": "16",
    "prefectureNumber": 16,
    "prefecture": "富山県",
    "city": "富山市",
    "town": "山室荒屋"
  },
  "9398023": {
    "zipcode": "9398023",
    "prefectureCode": "16",
    "prefectureNumber": 16,
    "prefecture": "富山県",
    "city": "富山市",
    "town": "古寺"
  },
  "9398024": {
    "zipcode": "9398024",
    "prefectureCode": "16",
    "prefectureNumber": 16,
    "prefecture": "富山県",
    "city": "富山市",
    "town": "古寺新町"
  },
  "9398025": {
    "zipcode": "9398025",
    "prefectureCode": "16",
    "prefectureNumber": 16,
    "prefecture": "富山県",
    "city": "富山市",
    "town": "大島"
  },
  "9398026": {
    "zipcode": "9398026",
    "prefectureCode": "16",
    "prefectureNumber": 16,
    "prefecture": "富山県",
    "city": "富山市",
    "town": "山室荒屋新町"
  },
  "9398031": {
    "zipcode": "9398031",
    "prefectureCode": "16",
    "prefectureNumber": 16,
    "prefecture": "富山県",
    "city": "富山市",
    "town": "東流杉"
  },
  "9398032": {
    "zipcode": "9398032",
    "prefectureCode": "16",
    "prefectureNumber": 16,
    "prefecture": "富山県",
    "city": "富山市",
    "town": "流杉"
  },
  "9398033": {
    "zipcode": "9398033",
    "prefectureCode": "16",
    "prefectureNumber": 16,
    "prefecture": "富山県",
    "city": "富山市",
    "town": "横内"
  },
  "9398034": {
    "zipcode": "9398034",
    "prefectureCode": "16",
    "prefectureNumber": 16,
    "prefecture": "富山県",
    "city": "富山市",
    "town": "新横内町"
  },
  "9398035": {
    "zipcode": "9398035",
    "prefectureCode": "16",
    "prefectureNumber": 16,
    "prefecture": "富山県",
    "city": "富山市",
    "town": "大宮町"
  },
  "9398036": {
    "zipcode": "9398036",
    "prefectureCode": "16",
    "prefectureNumber": 16,
    "prefecture": "富山県",
    "city": "富山市",
    "town": "高屋敷"
  },
  "9398041": {
    "zipcode": "9398041",
    "prefectureCode": "16",
    "prefectureNumber": 16,
    "prefecture": "富山県",
    "city": "富山市",
    "town": "太田中区"
  },
  "9398042": {
    "zipcode": "9398042",
    "prefectureCode": "16",
    "prefectureNumber": 16,
    "prefecture": "富山県",
    "city": "富山市",
    "town": "太田北区"
  },
  "9398043": {
    "zipcode": "9398043",
    "prefectureCode": "16",
    "prefectureNumber": 16,
    "prefecture": "富山県",
    "city": "富山市",
    "town": "太田向陽台"
  },
  "9398044": {
    "zipcode": "9398044",
    "prefectureCode": "16",
    "prefectureNumber": 16,
    "prefecture": "富山県",
    "city": "富山市",
    "town": "太田南町"
  },
  "9398045": {
    "zipcode": "9398045",
    "prefectureCode": "16",
    "prefectureNumber": 16,
    "prefecture": "富山県",
    "city": "富山市",
    "town": "本郷町"
  },
  "9398046": {
    "zipcode": "9398046",
    "prefectureCode": "16",
    "prefectureNumber": 16,
    "prefecture": "富山県",
    "city": "富山市",
    "town": "本郷新"
  },
  "9398047": {
    "zipcode": "9398047",
    "prefectureCode": "16",
    "prefectureNumber": 16,
    "prefecture": "富山県",
    "city": "富山市",
    "town": "清住町"
  },
  "9398048": {
    "zipcode": "9398048",
    "prefectureCode": "16",
    "prefectureNumber": 16,
    "prefecture": "富山県",
    "city": "富山市",
    "town": "太田"
  },
  "9398049": {
    "zipcode": "9398049",
    "prefectureCode": "16",
    "prefectureNumber": 16,
    "prefecture": "富山県",
    "city": "富山市",
    "town": "堀川本郷"
  },
  "9398051": {
    "zipcode": "9398051",
    "prefectureCode": "16",
    "prefectureNumber": 16,
    "prefecture": "富山県",
    "city": "富山市",
    "town": "大泉中部"
  },
  "9398052": {
    "zipcode": "9398052",
    "prefectureCode": "16",
    "prefectureNumber": 16,
    "prefecture": "富山県",
    "city": "富山市",
    "town": "大泉１区南部"
  },
  "9398053": {
    "zipcode": "9398053",
    "prefectureCode": "16",
    "prefectureNumber": 16,
    "prefecture": "富山県",
    "city": "富山市",
    "town": "堀川天山町"
  },
  "9398054": {
    "zipcode": "9398054",
    "prefectureCode": "16",
    "prefectureNumber": 16,
    "prefecture": "富山県",
    "city": "富山市",
    "town": "新堀町"
  },
  "9398055": {
    "zipcode": "9398055",
    "prefectureCode": "16",
    "prefectureNumber": 16,
    "prefecture": "富山県",
    "city": "富山市",
    "town": "下堀"
  },
  "9398056": {
    "zipcode": "9398056",
    "prefectureCode": "16",
    "prefectureNumber": 16,
    "prefecture": "富山県",
    "city": "富山市",
    "town": "上堀町"
  },
  "9398057": {
    "zipcode": "9398057",
    "prefectureCode": "16",
    "prefectureNumber": 16,
    "prefecture": "富山県",
    "city": "富山市",
    "town": "堀"
  },
  "9398058": {
    "zipcode": "9398058",
    "prefectureCode": "16",
    "prefectureNumber": 16,
    "prefecture": "富山県",
    "city": "富山市",
    "town": "大泉"
  },
  "9398061": {
    "zipcode": "9398061",
    "prefectureCode": "16",
    "prefectureNumber": 16,
    "prefecture": "富山県",
    "city": "富山市",
    "town": "上新保"
  },
  "9398062": {
    "zipcode": "9398062",
    "prefectureCode": "16",
    "prefectureNumber": 16,
    "prefecture": "富山県",
    "city": "富山市",
    "town": "上堀南町"
  },
  "9398063": {
    "zipcode": "9398063",
    "prefectureCode": "16",
    "prefectureNumber": 16,
    "prefecture": "富山県",
    "city": "富山市",
    "town": "小杉"
  },
  "9398064": {
    "zipcode": "9398064",
    "prefectureCode": "16",
    "prefectureNumber": 16,
    "prefecture": "富山県",
    "city": "富山市",
    "town": "赤田"
  },
  "9398065": {
    "zipcode": "9398065",
    "prefectureCode": "16",
    "prefectureNumber": 16,
    "prefecture": "富山県",
    "city": "富山市",
    "town": "赤田新町"
  },
  "9398066": {
    "zipcode": "9398066",
    "prefectureCode": "16",
    "prefectureNumber": 16,
    "prefecture": "富山県",
    "city": "富山市",
    "town": "朝菜町"
  },
  "9398071": {
    "zipcode": "9398071",
    "prefectureCode": "16",
    "prefectureNumber": 16,
    "prefecture": "富山県",
    "city": "富山市",
    "town": "上袋"
  },
  "9398072": {
    "zipcode": "9398072",
    "prefectureCode": "16",
    "prefectureNumber": 16,
    "prefecture": "富山県",
    "city": "富山市",
    "town": "堀川町"
  },
  "9398073": {
    "zipcode": "9398073",
    "prefectureCode": "16",
    "prefectureNumber": 16,
    "prefecture": "富山県",
    "city": "富山市",
    "town": "大町"
  },
  "9398074": {
    "zipcode": "9398074",
    "prefectureCode": "16",
    "prefectureNumber": 16,
    "prefecture": "富山県",
    "city": "富山市",
    "town": "大町南台"
  },
  "9398075": {
    "zipcode": "9398075",
    "prefectureCode": "16",
    "prefectureNumber": 16,
    "prefecture": "富山県",
    "city": "富山市",
    "town": "今泉"
  },
  "9398076": {
    "zipcode": "9398076",
    "prefectureCode": "16",
    "prefectureNumber": 16,
    "prefecture": "富山県",
    "city": "富山市",
    "town": "太郎丸"
  },
  "9398077": {
    "zipcode": "9398077",
    "prefectureCode": "16",
    "prefectureNumber": 16,
    "prefecture": "富山県",
    "city": "富山市",
    "town": "春日町"
  },
  "9398081": {
    "zipcode": "9398081",
    "prefectureCode": "16",
    "prefectureNumber": 16,
    "prefecture": "富山県",
    "city": "富山市",
    "town": "堀川小泉町"
  },
  "9398082": {
    "zipcode": "9398082",
    "prefectureCode": "16",
    "prefectureNumber": 16,
    "prefecture": "富山県",
    "city": "富山市",
    "town": "小泉町"
  },
  "9398083": {
    "zipcode": "9398083",
    "prefectureCode": "16",
    "prefectureNumber": 16,
    "prefecture": "富山県",
    "city": "富山市",
    "town": "西中野本町"
  },
  "9398084": {
    "zipcode": "9398084",
    "prefectureCode": "16",
    "prefectureNumber": 16,
    "prefecture": "富山県",
    "city": "富山市",
    "town": "西中野町"
  },
  "9398085": {
    "zipcode": "9398085",
    "prefectureCode": "16",
    "prefectureNumber": 16,
    "prefecture": "富山県",
    "city": "富山市",
    "town": "中野新町"
  },
  "9398086": {
    "zipcode": "9398086",
    "prefectureCode": "16",
    "prefectureNumber": 16,
    "prefecture": "富山県",
    "city": "富山市",
    "town": "東中野町"
  },
  "9398087": {
    "zipcode": "9398087",
    "prefectureCode": "16",
    "prefectureNumber": 16,
    "prefecture": "富山県",
    "city": "富山市",
    "town": "大泉町"
  },
  "9398091": {
    "zipcode": "9398091",
    "prefectureCode": "16",
    "prefectureNumber": 16,
    "prefecture": "富山県",
    "city": "富山市",
    "town": "旭町"
  },
  "9398092": {
    "zipcode": "9398092",
    "prefectureCode": "16",
    "prefectureNumber": 16,
    "prefecture": "富山県",
    "city": "富山市",
    "town": "雄山町"
  },
  "9398093": {
    "zipcode": "9398093",
    "prefectureCode": "16",
    "prefectureNumber": 16,
    "prefecture": "富山県",
    "city": "富山市",
    "town": "大泉東町"
  },
  "9398094": {
    "zipcode": "9398094",
    "prefectureCode": "16",
    "prefectureNumber": 16,
    "prefecture": "富山県",
    "city": "富山市",
    "town": "大泉本町"
  },
  "9398095": {
    "zipcode": "9398095",
    "prefectureCode": "16",
    "prefectureNumber": 16,
    "prefecture": "富山県",
    "city": "富山市",
    "town": "大泉中町"
  },
  "9398096": {
    "zipcode": "9398096",
    "prefectureCode": "16",
    "prefectureNumber": 16,
    "prefecture": "富山県",
    "city": "富山市",
    "town": "西大泉"
  },
  "9398097": {
    "zipcode": "9398097",
    "prefectureCode": "16",
    "prefectureNumber": 16,
    "prefecture": "富山県",
    "city": "富山市",
    "town": "大泉北町"
  },
  "9398101": {
    "zipcode": "9398101",
    "prefectureCode": "16",
    "prefectureNumber": 16,
    "prefecture": "富山県",
    "city": "富山市",
    "town": "西野新"
  },
  "9398102": {
    "zipcode": "9398102",
    "prefectureCode": "16",
    "prefectureNumber": 16,
    "prefecture": "富山県",
    "city": "富山市",
    "town": "昭和新町"
  },
  "9398103": {
    "zipcode": "9398103",
    "prefectureCode": "16",
    "prefectureNumber": 16,
    "prefecture": "富山県",
    "city": "富山市",
    "town": "大場"
  },
  "9398104": {
    "zipcode": "9398104",
    "prefectureCode": "16",
    "prefectureNumber": 16,
    "prefecture": "富山県",
    "city": "富山市",
    "town": "西番"
  },
  "9398111": {
    "zipcode": "9398111",
    "prefectureCode": "16",
    "prefectureNumber": 16,
    "prefecture": "富山県",
    "city": "富山市",
    "town": "城新町"
  },
  "9398112": {
    "zipcode": "9398112",
    "prefectureCode": "16",
    "prefectureNumber": 16,
    "prefecture": "富山県",
    "city": "富山市",
    "town": "城ケ丘"
  },
  "9398113": {
    "zipcode": "9398113",
    "prefectureCode": "16",
    "prefectureNumber": 16,
    "prefecture": "富山県",
    "city": "富山市",
    "town": "城若町"
  },
  "9398114": {
    "zipcode": "9398114",
    "prefectureCode": "16",
    "prefectureNumber": 16,
    "prefecture": "富山県",
    "city": "富山市",
    "town": "城村"
  },
  "9398115": {
    "zipcode": "9398115",
    "prefectureCode": "16",
    "prefectureNumber": 16,
    "prefecture": "富山県",
    "city": "富山市",
    "town": "城村新町"
  },
  "9398121": {
    "zipcode": "9398121",
    "prefectureCode": "16",
    "prefectureNumber": 16,
    "prefecture": "富山県",
    "city": "富山市",
    "town": "石屋"
  },
  "9398122": {
    "zipcode": "9398122",
    "prefectureCode": "16",
    "prefectureNumber": 16,
    "prefecture": "富山県",
    "city": "富山市",
    "town": "新名"
  },
  "9398123": {
    "zipcode": "9398123",
    "prefectureCode": "16",
    "prefectureNumber": 16,
    "prefecture": "富山県",
    "city": "富山市",
    "town": "関"
  },
  "9398124": {
    "zipcode": "9398124",
    "prefectureCode": "16",
    "prefectureNumber": 16,
    "prefecture": "富山県",
    "city": "富山市",
    "town": "八川"
  },
  "9398131": {
    "zipcode": "9398131",
    "prefectureCode": "16",
    "prefectureNumber": 16,
    "prefecture": "富山県",
    "city": "富山市",
    "town": "中屋"
  },
  "9398132": {
    "zipcode": "9398132",
    "prefectureCode": "16",
    "prefectureNumber": 16,
    "prefecture": "富山県",
    "city": "富山市",
    "town": "月岡町"
  },
  "9398133": {
    "zipcode": "9398133",
    "prefectureCode": "16",
    "prefectureNumber": 16,
    "prefecture": "富山県",
    "city": "富山市",
    "town": "月見が丘"
  },
  "9398134": {
    "zipcode": "9398134",
    "prefectureCode": "16",
    "prefectureNumber": 16,
    "prefecture": "富山県",
    "city": "富山市",
    "town": "上千俵町"
  },
  "9398135": {
    "zipcode": "9398135",
    "prefectureCode": "16",
    "prefectureNumber": 16,
    "prefecture": "富山県",
    "city": "富山市",
    "town": "千俵町"
  },
  "9398136": {
    "zipcode": "9398136",
    "prefectureCode": "16",
    "prefectureNumber": 16,
    "prefecture": "富山県",
    "city": "富山市",
    "town": "月見町"
  },
  "9398137": {
    "zipcode": "9398137",
    "prefectureCode": "16",
    "prefectureNumber": 16,
    "prefecture": "富山県",
    "city": "富山市",
    "town": "開発"
  },
  "9398138": {
    "zipcode": "9398138",
    "prefectureCode": "16",
    "prefectureNumber": 16,
    "prefecture": "富山県",
    "city": "富山市",
    "town": "上千俵"
  },
  "9398139": {
    "zipcode": "9398139",
    "prefectureCode": "16",
    "prefectureNumber": 16,
    "prefecture": "富山県",
    "city": "富山市",
    "town": "月岡新"
  },
  "9398141": {
    "zipcode": "9398141",
    "prefectureCode": "16",
    "prefectureNumber": 16,
    "prefecture": "富山県",
    "city": "富山市",
    "town": "月岡東緑町"
  },
  "9398142": {
    "zipcode": "9398142",
    "prefectureCode": "16",
    "prefectureNumber": 16,
    "prefecture": "富山県",
    "city": "富山市",
    "town": "月岡西緑町"
  },
  "9398143": {
    "zipcode": "9398143",
    "prefectureCode": "16",
    "prefectureNumber": 16,
    "prefecture": "富山県",
    "city": "富山市",
    "town": "上布目"
  },
  "9398144": {
    "zipcode": "9398144",
    "prefectureCode": "16",
    "prefectureNumber": 16,
    "prefecture": "富山県",
    "city": "富山市",
    "town": "上今町"
  },
  "9398145": {
    "zipcode": "9398145",
    "prefectureCode": "16",
    "prefectureNumber": 16,
    "prefecture": "富山県",
    "city": "富山市",
    "town": "大井"
  },
  "9398146": {
    "zipcode": "9398146",
    "prefectureCode": "16",
    "prefectureNumber": 16,
    "prefecture": "富山県",
    "city": "富山市",
    "town": "中布目"
  },
  "9398151": {
    "zipcode": "9398151",
    "prefectureCode": "16",
    "prefectureNumber": 16,
    "prefecture": "富山県",
    "city": "富山市",
    "town": "上栄"
  },
  "9398152": {
    "zipcode": "9398152",
    "prefectureCode": "16",
    "prefectureNumber": 16,
    "prefecture": "富山県",
    "city": "富山市",
    "town": "経力"
  },
  "9398153": {
    "zipcode": "9398153",
    "prefectureCode": "16",
    "prefectureNumber": 16,
    "prefecture": "富山県",
    "city": "富山市",
    "town": "吉岡"
  },
  "9398154": {
    "zipcode": "9398154",
    "prefectureCode": "16",
    "prefectureNumber": 16,
    "prefecture": "富山県",
    "city": "富山市",
    "town": "森田"
  },
  "9398155": {
    "zipcode": "9398155",
    "prefectureCode": "16",
    "prefectureNumber": 16,
    "prefecture": "富山県",
    "city": "富山市",
    "town": "江本"
  },
  "9398156": {
    "zipcode": "9398156",
    "prefectureCode": "16",
    "prefectureNumber": 16,
    "prefecture": "富山県",
    "city": "富山市",
    "town": "珠泉東町"
  },
  "9398157": {
    "zipcode": "9398157",
    "prefectureCode": "16",
    "prefectureNumber": 16,
    "prefecture": "富山県",
    "city": "富山市",
    "town": "珠泉西町"
  },
  "9398161": {
    "zipcode": "9398161",
    "prefectureCode": "16",
    "prefectureNumber": 16,
    "prefecture": "富山県",
    "city": "富山市",
    "town": "牧田"
  },
  "9398162": {
    "zipcode": "9398162",
    "prefectureCode": "16",
    "prefectureNumber": 16,
    "prefecture": "富山県",
    "city": "富山市",
    "town": "青柳"
  },
  "9398163": {
    "zipcode": "9398163",
    "prefectureCode": "16",
    "prefectureNumber": 16,
    "prefecture": "富山県",
    "city": "富山市",
    "town": "青柳新"
  },
  "9398164": {
    "zipcode": "9398164",
    "prefectureCode": "16",
    "prefectureNumber": 16,
    "prefecture": "富山県",
    "city": "富山市",
    "town": "林崎"
  },
  "9398165": {
    "zipcode": "9398165",
    "prefectureCode": "16",
    "prefectureNumber": 16,
    "prefecture": "富山県",
    "city": "富山市",
    "town": "杉瀬"
  },
  "9398166": {
    "zipcode": "9398166",
    "prefectureCode": "16",
    "prefectureNumber": 16,
    "prefecture": "富山県",
    "city": "富山市",
    "town": "上熊野"
  },
  "9398171": {
    "zipcode": "9398171",
    "prefectureCode": "16",
    "prefectureNumber": 16,
    "prefecture": "富山県",
    "city": "富山市",
    "town": "宮保"
  },
  "9398172": {
    "zipcode": "9398172",
    "prefectureCode": "16",
    "prefectureNumber": 16,
    "prefecture": "富山県",
    "city": "富山市",
    "town": "辰尾"
  },
  "9398173": {
    "zipcode": "9398173",
    "prefectureCode": "16",
    "prefectureNumber": 16,
    "prefecture": "富山県",
    "city": "富山市",
    "town": "辰尾新町"
  },
  "9398174": {
    "zipcode": "9398174",
    "prefectureCode": "16",
    "prefectureNumber": 16,
    "prefecture": "富山県",
    "city": "富山市",
    "town": "下栗山"
  },
  "9398175": {
    "zipcode": "9398175",
    "prefectureCode": "16",
    "prefectureNumber": 16,
    "prefecture": "富山県",
    "city": "富山市",
    "town": "上栗山"
  },
  "9398176": {
    "zipcode": "9398176",
    "prefectureCode": "16",
    "prefectureNumber": 16,
    "prefecture": "富山県",
    "city": "富山市",
    "town": "南栗山"
  },
  "9398177": {
    "zipcode": "9398177",
    "prefectureCode": "16",
    "prefectureNumber": 16,
    "prefecture": "富山県",
    "city": "富山市",
    "town": "安養寺"
  },
  "9398178": {
    "zipcode": "9398178",
    "prefectureCode": "16",
    "prefectureNumber": 16,
    "prefecture": "富山県",
    "city": "富山市",
    "town": "栗山"
  },
  "9398181": {
    "zipcode": "9398181",
    "prefectureCode": "16",
    "prefectureNumber": 16,
    "prefecture": "富山県",
    "city": "富山市",
    "town": "若竹町"
  },
  "9398182": {
    "zipcode": "9398182",
    "prefectureCode": "16",
    "prefectureNumber": 16,
    "prefecture": "富山県",
    "city": "富山市",
    "town": "悪王寺"
  },
  "9398183": {
    "zipcode": "9398183",
    "prefectureCode": "16",
    "prefectureNumber": 16,
    "prefecture": "富山県",
    "city": "富山市",
    "town": "小中"
  },
  "9398184": {
    "zipcode": "9398184",
    "prefectureCode": "16",
    "prefectureNumber": 16,
    "prefecture": "富山県",
    "city": "富山市",
    "town": "二俣新町"
  },
  "9398185": {
    "zipcode": "9398185",
    "prefectureCode": "16",
    "prefectureNumber": 16,
    "prefecture": "富山県",
    "city": "富山市",
    "town": "二俣"
  },
  "9398191": {
    "zipcode": "9398191",
    "prefectureCode": "16",
    "prefectureNumber": 16,
    "prefecture": "富山県",
    "city": "富山市",
    "town": "布市"
  },
  "9398192": {
    "zipcode": "9398192",
    "prefectureCode": "16",
    "prefectureNumber": 16,
    "prefecture": "富山県",
    "city": "富山市",
    "town": "布市新町"
  },
  "9398193": {
    "zipcode": "9398193",
    "prefectureCode": "16",
    "prefectureNumber": 16,
    "prefecture": "富山県",
    "city": "富山市",
    "town": "石田"
  },
  "9398194": {
    "zipcode": "9398194",
    "prefectureCode": "16",
    "prefectureNumber": 16,
    "prefecture": "富山県",
    "city": "富山市",
    "town": "南金屋"
  },
  "9398195": {
    "zipcode": "9398195",
    "prefectureCode": "16",
    "prefectureNumber": 16,
    "prefecture": "富山県",
    "city": "富山市",
    "town": "上野"
  },
  "9398196": {
    "zipcode": "9398196",
    "prefectureCode": "16",
    "prefectureNumber": 16,
    "prefecture": "富山県",
    "city": "富山市",
    "town": "上野南町"
  },
  "9398197": {
    "zipcode": "9398197",
    "prefectureCode": "16",
    "prefectureNumber": 16,
    "prefecture": "富山県",
    "city": "富山市",
    "town": "上野寿町"
  },
  "9398201": {
    "zipcode": "9398201",
    "prefectureCode": "16",
    "prefectureNumber": 16,
    "prefecture": "富山県",
    "city": "富山市",
    "town": "花園町"
  },
  "9398202": {
    "zipcode": "9398202",
    "prefectureCode": "16",
    "prefectureNumber": 16,
    "prefecture": "富山県",
    "city": "富山市",
    "town": "西田地方町"
  },
  "9398203": {
    "zipcode": "9398203",
    "prefectureCode": "16",
    "prefectureNumber": 16,
    "prefecture": "富山県",
    "city": "富山市",
    "town": "西田地方"
  },
  "9398204": {
    "zipcode": "9398204",
    "prefectureCode": "16",
    "prefectureNumber": 16,
    "prefecture": "富山県",
    "city": "富山市",
    "town": "根塚町"
  },
  "9398205": {
    "zipcode": "9398205",
    "prefectureCode": "16",
    "prefectureNumber": 16,
    "prefecture": "富山県",
    "city": "富山市",
    "town": "新根塚町"
  },
  "9398206": {
    "zipcode": "9398206",
    "prefectureCode": "16",
    "prefectureNumber": 16,
    "prefecture": "富山県",
    "city": "富山市",
    "town": "布瀬町"
  },
  "9398207": {
    "zipcode": "9398207",
    "prefectureCode": "16",
    "prefectureNumber": 16,
    "prefecture": "富山県",
    "city": "富山市",
    "town": "布瀬本町"
  },
  "9398208": {
    "zipcode": "9398208",
    "prefectureCode": "16",
    "prefectureNumber": 16,
    "prefecture": "富山県",
    "city": "富山市",
    "town": "布瀬町南"
  },
  "9398211": {
    "zipcode": "9398211",
    "prefectureCode": "16",
    "prefectureNumber": 16,
    "prefecture": "富山県",
    "city": "富山市",
    "town": "二口町"
  },
  "9398212": {
    "zipcode": "9398212",
    "prefectureCode": "16",
    "prefectureNumber": 16,
    "prefecture": "富山県",
    "city": "富山市",
    "town": "掛尾町"
  },
  "9398213": {
    "zipcode": "9398213",
    "prefectureCode": "16",
    "prefectureNumber": 16,
    "prefecture": "富山県",
    "city": "富山市",
    "town": "黒瀬"
  },
  "9398214": {
    "zipcode": "9398214",
    "prefectureCode": "16",
    "prefectureNumber": 16,
    "prefecture": "富山県",
    "city": "富山市",
    "town": "黒崎"
  },
  "9398215": {
    "zipcode": "9398215",
    "prefectureCode": "16",
    "prefectureNumber": 16,
    "prefecture": "富山県",
    "city": "富山市",
    "town": "掛尾栄町"
  },
  "9398216": {
    "zipcode": "9398216",
    "prefectureCode": "16",
    "prefectureNumber": 16,
    "prefecture": "富山県",
    "city": "富山市",
    "town": "黒瀬北町"
  },
  "9398221": {
    "zipcode": "9398221",
    "prefectureCode": "16",
    "prefectureNumber": 16,
    "prefecture": "富山県",
    "city": "富山市",
    "town": "八日町"
  },
  "9398222": {
    "zipcode": "9398222",
    "prefectureCode": "16",
    "prefectureNumber": 16,
    "prefecture": "富山県",
    "city": "富山市",
    "town": "蜷川"
  },
  "9398223": {
    "zipcode": "9398223",
    "prefectureCode": "16",
    "prefectureNumber": 16,
    "prefecture": "富山県",
    "city": "富山市",
    "town": "島田"
  },
  "9398224": {
    "zipcode": "9398224",
    "prefectureCode": "16",
    "prefectureNumber": 16,
    "prefecture": "富山県",
    "city": "富山市",
    "town": "友杉"
  },
  "9398225": {
    "zipcode": "9398225",
    "prefectureCode": "16",
    "prefectureNumber": 16,
    "prefecture": "富山県",
    "city": "富山市",
    "town": "上八日町"
  },
  "9398231": {
    "zipcode": "9398231",
    "prefectureCode": "16",
    "prefectureNumber": 16,
    "prefecture": "富山県",
    "city": "富山市",
    "town": "下熊野"
  },
  "9398232": {
    "zipcode": "9398232",
    "prefectureCode": "16",
    "prefectureNumber": 16,
    "prefecture": "富山県",
    "city": "富山市",
    "town": "南央町"
  },
  "9398233": {
    "zipcode": "9398233",
    "prefectureCode": "16",
    "prefectureNumber": 16,
    "prefecture": "富山県",
    "city": "富山市",
    "town": "任海"
  },
  "9398234": {
    "zipcode": "9398234",
    "prefectureCode": "16",
    "prefectureNumber": 16,
    "prefecture": "富山県",
    "city": "富山市",
    "town": "南中田"
  },
  "9398241": {
    "zipcode": "9398241",
    "prefectureCode": "16",
    "prefectureNumber": 16,
    "prefecture": "富山県",
    "city": "富山市",
    "town": "惣在寺"
  },
  "9398242": {
    "zipcode": "9398242",
    "prefectureCode": "16",
    "prefectureNumber": 16,
    "prefecture": "富山県",
    "city": "富山市",
    "town": "福居"
  },
  "9398243": {
    "zipcode": "9398243",
    "prefectureCode": "16",
    "prefectureNumber": 16,
    "prefecture": "富山県",
    "city": "富山市",
    "town": "押上"
  },
  "9398244": {
    "zipcode": "9398244",
    "prefectureCode": "16",
    "prefectureNumber": 16,
    "prefecture": "富山県",
    "city": "富山市",
    "town": "吉倉"
  },
  "9398251": {
    "zipcode": "9398251",
    "prefectureCode": "16",
    "prefectureNumber": 16,
    "prefecture": "富山県",
    "city": "富山市",
    "town": "西荒屋"
  },
  "9398252": {
    "zipcode": "9398252",
    "prefectureCode": "16",
    "prefectureNumber": 16,
    "prefecture": "富山県",
    "city": "富山市",
    "town": "秋ケ島"
  },
  "9398253": {
    "zipcode": "9398253",
    "prefectureCode": "16",
    "prefectureNumber": 16,
    "prefecture": "富山県",
    "city": "富山市",
    "town": "新保"
  },
  "9398254": {
    "zipcode": "9398254",
    "prefectureCode": "16",
    "prefectureNumber": 16,
    "prefecture": "富山県",
    "city": "富山市",
    "town": "別名"
  },
  "9398261": {
    "zipcode": "9398261",
    "prefectureCode": "16",
    "prefectureNumber": 16,
    "prefecture": "富山県",
    "city": "富山市",
    "town": "萩原"
  },
  "9398262": {
    "zipcode": "9398262",
    "prefectureCode": "16",
    "prefectureNumber": 16,
    "prefecture": "富山県",
    "city": "富山市",
    "town": "塚原"
  },
  "9398263": {
    "zipcode": "9398263",
    "prefectureCode": "16",
    "prefectureNumber": 16,
    "prefecture": "富山県",
    "city": "富山市",
    "town": "才覚寺"
  },
  "9398264": {
    "zipcode": "9398264",
    "prefectureCode": "16",
    "prefectureNumber": 16,
    "prefecture": "富山県",
    "city": "富山市",
    "town": "経田"
  },
  "9398271": {
    "zipcode": "9398271",
    "prefectureCode": "16",
    "prefectureNumber": 16,
    "prefecture": "富山県",
    "city": "富山市",
    "town": "太郎丸西町"
  },
  "9398272": {
    "zipcode": "9398272",
    "prefectureCode": "16",
    "prefectureNumber": 16,
    "prefecture": "富山県",
    "city": "富山市",
    "town": "太郎丸本町"
  },
  "9398281": {
    "zipcode": "9398281",
    "prefectureCode": "16",
    "prefectureNumber": 16,
    "prefecture": "富山県",
    "city": "富山市",
    "town": "今泉西部町"
  },
  "9398282": {
    "zipcode": "9398282",
    "prefectureCode": "16",
    "prefectureNumber": 16,
    "prefecture": "富山県",
    "city": "富山市",
    "town": "今泉北部町"
  }
}
