{
  "9410000": {
    "zipcode": "9410000",
    "prefectureCode": "15",
    "prefectureNumber": 15,
    "prefecture": "新潟県",
    "city": "糸魚川市",
    "town": "以下に掲載がない場合"
  },
  "9410001": {
    "zipcode": "9410001",
    "prefectureCode": "15",
    "prefectureNumber": 15,
    "prefecture": "新潟県",
    "city": "糸魚川市",
    "town": "間脇"
  },
  "9410002": {
    "zipcode": "9410002",
    "prefectureCode": "15",
    "prefectureNumber": 15,
    "prefecture": "新潟県",
    "city": "糸魚川市",
    "town": "中浜"
  },
  "9410003": {
    "zipcode": "9410003",
    "prefectureCode": "15",
    "prefectureNumber": 15,
    "prefecture": "新潟県",
    "city": "糸魚川市",
    "town": "中宿"
  },
  "9410004": {
    "zipcode": "9410004",
    "prefectureCode": "15",
    "prefectureNumber": 15,
    "prefecture": "新潟県",
    "city": "糸魚川市",
    "town": "梶屋敷"
  },
  "9410005": {
    "zipcode": "9410005",
    "prefectureCode": "15",
    "prefectureNumber": 15,
    "prefecture": "新潟県",
    "city": "糸魚川市",
    "town": "厚田"
  },
  "9410006": {
    "zipcode": "9410006",
    "prefectureCode": "15",
    "prefectureNumber": 15,
    "prefecture": "新潟県",
    "city": "糸魚川市",
    "town": "竹ケ花"
  },
  "9410007": {
    "zipcode": "9410007",
    "prefectureCode": "15",
    "prefectureNumber": 15,
    "prefecture": "新潟県",
    "city": "糸魚川市",
    "town": "大和川"
  },
  "9410008": {
    "zipcode": "9410008",
    "prefectureCode": "15",
    "prefectureNumber": 15,
    "prefecture": "新潟県",
    "city": "糸魚川市",
    "town": "田伏"
  },
  "9410011": {
    "zipcode": "9410011",
    "prefectureCode": "15",
    "prefectureNumber": 15,
    "prefecture": "新潟県",
    "city": "糸魚川市",
    "town": "滝川原"
  },
  "9410012": {
    "zipcode": "9410012",
    "prefectureCode": "15",
    "prefectureNumber": 15,
    "prefecture": "新潟県",
    "city": "糸魚川市",
    "town": "上出"
  },
  "9410013": {
    "zipcode": "9410013",
    "prefectureCode": "15",
    "prefectureNumber": 15,
    "prefecture": "新潟県",
    "city": "糸魚川市",
    "town": "下出"
  },
  "9410014": {
    "zipcode": "9410014",
    "prefectureCode": "15",
    "prefectureNumber": 15,
    "prefecture": "新潟県",
    "city": "糸魚川市",
    "town": "日光寺"
  },
  "9410015": {
    "zipcode": "9410015",
    "prefectureCode": "15",
    "prefectureNumber": 15,
    "prefecture": "新潟県",
    "city": "糸魚川市",
    "town": "清水山"
  },
  "9410016": {
    "zipcode": "9410016",
    "prefectureCode": "15",
    "prefectureNumber": 15,
    "prefecture": "新潟県",
    "city": "糸魚川市",
    "town": "四ツ屋"
  },
  "9410019": {
    "zipcode": "9410019",
    "prefectureCode": "15",
    "prefectureNumber": 15,
    "prefecture": "新潟県",
    "city": "糸魚川市",
    "town": "道明"
  },
  "9410021": {
    "zipcode": "9410021",
    "prefectureCode": "15",
    "prefectureNumber": 15,
    "prefecture": "新潟県",
    "city": "糸魚川市",
    "town": "東海"
  },
  "9410022": {
    "zipcode": "9410022",
    "prefectureCode": "15",
    "prefectureNumber": 15,
    "prefecture": "新潟県",
    "city": "糸魚川市",
    "town": "新町"
  },
  "9410023": {
    "zipcode": "9410023",
    "prefectureCode": "15",
    "prefectureNumber": 15,
    "prefecture": "新潟県",
    "city": "糸魚川市",
    "town": "上覚"
  },
  "9410024": {
    "zipcode": "9410024",
    "prefectureCode": "15",
    "prefectureNumber": 15,
    "prefecture": "新潟県",
    "city": "糸魚川市",
    "town": "西谷内"
  },
  "9410025": {
    "zipcode": "9410025",
    "prefectureCode": "15",
    "prefectureNumber": 15,
    "prefecture": "新潟県",
    "city": "糸魚川市",
    "town": "堀切"
  },
  "9410026": {
    "zipcode": "9410026",
    "prefectureCode": "15",
    "prefectureNumber": 15,
    "prefecture": "新潟県",
    "city": "糸魚川市",
    "town": "田屋"
  },
  "9410027": {
    "zipcode": "9410027",
    "prefectureCode": "15",
    "prefectureNumber": 15,
    "prefecture": "新潟県",
    "city": "糸魚川市",
    "town": "東川原"
  },
  "9410031": {
    "zipcode": "9410031",
    "prefectureCode": "15",
    "prefectureNumber": 15,
    "prefecture": "新潟県",
    "city": "糸魚川市",
    "town": "粟倉"
  },
  "9410032": {
    "zipcode": "9410032",
    "prefectureCode": "15",
    "prefectureNumber": 15,
    "prefecture": "新潟県",
    "city": "糸魚川市",
    "town": "来海沢"
  },
  "9410033": {
    "zipcode": "9410033",
    "prefectureCode": "15",
    "prefectureNumber": 15,
    "prefecture": "新潟県",
    "city": "糸魚川市",
    "town": "御前山"
  },
  "9410034": {
    "zipcode": "9410034",
    "prefectureCode": "15",
    "prefectureNumber": 15,
    "prefecture": "新潟県",
    "city": "糸魚川市",
    "town": "市野々"
  },
  "9410035": {
    "zipcode": "9410035",
    "prefectureCode": "15",
    "prefectureNumber": 15,
    "prefecture": "新潟県",
    "city": "糸魚川市",
    "town": "真木"
  },
  "9410036": {
    "zipcode": "9410036",
    "prefectureCode": "15",
    "prefectureNumber": 15,
    "prefecture": "新潟県",
    "city": "糸魚川市",
    "town": "釜沢"
  },
  "9410037": {
    "zipcode": "9410037",
    "prefectureCode": "15",
    "prefectureNumber": 15,
    "prefecture": "新潟県",
    "city": "糸魚川市",
    "town": "道平"
  },
  "9410041": {
    "zipcode": "9410041",
    "prefectureCode": "15",
    "prefectureNumber": 15,
    "prefecture": "新潟県",
    "city": "糸魚川市",
    "town": "真光寺"
  },
  "9410042": {
    "zipcode": "9410042",
    "prefectureCode": "15",
    "prefectureNumber": 15,
    "prefecture": "新潟県",
    "city": "糸魚川市",
    "town": "川島"
  },
  "9410043": {
    "zipcode": "9410043",
    "prefectureCode": "15",
    "prefectureNumber": 15,
    "prefecture": "新潟県",
    "city": "糸魚川市",
    "town": "田中"
  },
  "9410044": {
    "zipcode": "9410044",
    "prefectureCode": "15",
    "prefectureNumber": 15,
    "prefecture": "新潟県",
    "city": "糸魚川市",
    "town": "水保"
  },
  "9410045": {
    "zipcode": "9410045",
    "prefectureCode": "15",
    "prefectureNumber": 15,
    "prefecture": "新潟県",
    "city": "糸魚川市",
    "town": "成沢"
  },
  "9410046": {
    "zipcode": "9410046",
    "prefectureCode": "15",
    "prefectureNumber": 15,
    "prefecture": "新潟県",
    "city": "糸魚川市",
    "town": "羽生"
  },
  "9410047": {
    "zipcode": "9410047",
    "prefectureCode": "15",
    "prefectureNumber": 15,
    "prefecture": "新潟県",
    "city": "糸魚川市",
    "town": "平牛"
  },
  "9410051": {
    "zipcode": "9410051",
    "prefectureCode": "15",
    "prefectureNumber": 15,
    "prefecture": "新潟県",
    "city": "糸魚川市",
    "town": "押上"
  },
  "9410052": {
    "zipcode": "9410052",
    "prefectureCode": "15",
    "prefectureNumber": 15,
    "prefecture": "新潟県",
    "city": "糸魚川市",
    "town": "南押上"
  },
  "9410053": {
    "zipcode": "9410053",
    "prefectureCode": "15",
    "prefectureNumber": 15,
    "prefecture": "新潟県",
    "city": "糸魚川市",
    "town": "東寺町"
  },
  "9410054": {
    "zipcode": "9410054",
    "prefectureCode": "15",
    "prefectureNumber": 15,
    "prefecture": "新潟県",
    "city": "糸魚川市",
    "town": "京ケ峰"
  },
  "9410055": {
    "zipcode": "9410055",
    "prefectureCode": "15",
    "prefectureNumber": 15,
    "prefecture": "新潟県",
    "city": "糸魚川市",
    "town": "蓮台寺"
  },
  "9410056": {
    "zipcode": "9410056",
    "prefectureCode": "15",
    "prefectureNumber": 15,
    "prefecture": "新潟県",
    "city": "糸魚川市",
    "town": "一の宮"
  },
  "9410057": {
    "zipcode": "9410057",
    "prefectureCode": "15",
    "prefectureNumber": 15,
    "prefecture": "新潟県",
    "city": "糸魚川市",
    "town": "南寺町"
  },
  "9410058": {
    "zipcode": "9410058",
    "prefectureCode": "15",
    "prefectureNumber": 15,
    "prefecture": "新潟県",
    "city": "糸魚川市",
    "town": "寺町"
  },
  "9410061": {
    "zipcode": "9410061",
    "prefectureCode": "15",
    "prefectureNumber": 15,
    "prefecture": "新潟県",
    "city": "糸魚川市",
    "town": "大町"
  },
  "9410062": {
    "zipcode": "9410062",
    "prefectureCode": "15",
    "prefectureNumber": 15,
    "prefecture": "新潟県",
    "city": "糸魚川市",
    "town": "中央"
  },
  "9410063": {
    "zipcode": "9410063",
    "prefectureCode": "15",
    "prefectureNumber": 15,
    "prefecture": "新潟県",
    "city": "糸魚川市",
    "town": "清崎"
  },
  "9410064": {
    "zipcode": "9410064",
    "prefectureCode": "15",
    "prefectureNumber": 15,
    "prefecture": "新潟県",
    "city": "糸魚川市",
    "town": "上刈"
  },
  "9410065": {
    "zipcode": "9410065",
    "prefectureCode": "15",
    "prefectureNumber": 15,
    "prefecture": "新潟県",
    "city": "糸魚川市",
    "town": "新鉄"
  },
  "9410066": {
    "zipcode": "9410066",
    "prefectureCode": "15",
    "prefectureNumber": 15,
    "prefecture": "新潟県",
    "city": "糸魚川市",
    "town": "寺島"
  },
  "9410067": {
    "zipcode": "9410067",
    "prefectureCode": "15",
    "prefectureNumber": 15,
    "prefecture": "新潟県",
    "city": "糸魚川市",
    "town": "横町"
  },
  "9410068": {
    "zipcode": "9410068",
    "prefectureCode": "15",
    "prefectureNumber": 15,
    "prefecture": "新潟県",
    "city": "糸魚川市",
    "town": "本町"
  },
  "9410069": {
    "zipcode": "9410069",
    "prefectureCode": "15",
    "prefectureNumber": 15,
    "prefecture": "新潟県",
    "city": "糸魚川市",
    "town": "南寺島"
  },
  "9410071": {
    "zipcode": "9410071",
    "prefectureCode": "15",
    "prefectureNumber": 15,
    "prefecture": "新潟県",
    "city": "糸魚川市",
    "town": "大野"
  },
  "9410072": {
    "zipcode": "9410072",
    "prefectureCode": "15",
    "prefectureNumber": 15,
    "prefecture": "新潟県",
    "city": "糸魚川市",
    "town": "山本"
  },
  "9410073": {
    "zipcode": "9410073",
    "prefectureCode": "15",
    "prefectureNumber": 15,
    "prefecture": "新潟県",
    "city": "糸魚川市",
    "town": "西川原"
  },
  "9410074": {
    "zipcode": "9410074",
    "prefectureCode": "15",
    "prefectureNumber": 15,
    "prefecture": "新潟県",
    "city": "糸魚川市",
    "town": "大谷内"
  },
  "9410075": {
    "zipcode": "9410075",
    "prefectureCode": "15",
    "prefectureNumber": 15,
    "prefecture": "新潟県",
    "city": "糸魚川市",
    "town": "中谷内"
  },
  "9410076": {
    "zipcode": "9410076",
    "prefectureCode": "15",
    "prefectureNumber": 15,
    "prefecture": "新潟県",
    "city": "糸魚川市",
    "town": "西中"
  },
  "9410077": {
    "zipcode": "9410077",
    "prefectureCode": "15",
    "prefectureNumber": 15,
    "prefecture": "新潟県",
    "city": "糸魚川市",
    "town": "頭山"
  },
  "9410078": {
    "zipcode": "9410078",
    "prefectureCode": "15",
    "prefectureNumber": 15,
    "prefecture": "新潟県",
    "city": "糸魚川市",
    "town": "岩木"
  }
}
