{
  "9420001": {
    "zipcode": "9420001",
    "prefectureCode": "15",
    "prefectureNumber": 15,
    "prefecture": "新潟県",
    "city": "上越市",
    "town": "中央"
  },
  "9420002": {
    "zipcode": "9420002",
    "prefectureCode": "15",
    "prefectureNumber": 15,
    "prefecture": "新潟県",
    "city": "上越市",
    "town": "住吉町"
  },
  "9420003": {
    "zipcode": "9420003",
    "prefectureCode": "15",
    "prefectureNumber": 15,
    "prefecture": "新潟県",
    "city": "上越市",
    "town": "東町"
  },
  "9420004": {
    "zipcode": "9420004",
    "prefectureCode": "15",
    "prefectureNumber": 15,
    "prefecture": "新潟県",
    "city": "上越市",
    "town": "西本町"
  },
  "9420011": {
    "zipcode": "9420011",
    "prefectureCode": "15",
    "prefectureNumber": 15,
    "prefecture": "新潟県",
    "city": "上越市",
    "town": "港町"
  },
  "9420012": {
    "zipcode": "9420012",
    "prefectureCode": "15",
    "prefectureNumber": 15,
    "prefecture": "新潟県",
    "city": "上越市",
    "town": "高崎新田"
  },
  "9420013": {
    "zipcode": "9420013",
    "prefectureCode": "15",
    "prefectureNumber": 15,
    "prefecture": "新潟県",
    "city": "上越市",
    "town": "黒井"
  },
  "9420014": {
    "zipcode": "9420014",
    "prefectureCode": "15",
    "prefectureNumber": 15,
    "prefecture": "新潟県",
    "city": "上越市",
    "town": "日之出町"
  },
  "9420021": {
    "zipcode": "9420021",
    "prefectureCode": "15",
    "prefectureNumber": 15,
    "prefecture": "新潟県",
    "city": "上越市",
    "town": "上荒浜"
  },
  "9420022": {
    "zipcode": "9420022",
    "prefectureCode": "15",
    "prefectureNumber": 15,
    "prefecture": "新潟県",
    "city": "上越市",
    "town": "下荒浜"
  },
  "9420023": {
    "zipcode": "9420023",
    "prefectureCode": "15",
    "prefectureNumber": 15,
    "prefecture": "新潟県",
    "city": "上越市",
    "town": "石橋新田"
  },
  "9420024": {
    "zipcode": "9420024",
    "prefectureCode": "15",
    "prefectureNumber": 15,
    "prefecture": "新潟県",
    "city": "上越市",
    "town": "遊光寺浜"
  },
  "9420025": {
    "zipcode": "9420025",
    "prefectureCode": "15",
    "prefectureNumber": 15,
    "prefecture": "新潟県",
    "city": "上越市",
    "town": "夷浜"
  },
  "9420026": {
    "zipcode": "9420026",
    "prefectureCode": "15",
    "prefectureNumber": 15,
    "prefecture": "新潟県",
    "city": "上越市",
    "town": "西ケ窪浜"
  },
  "9420027": {
    "zipcode": "9420027",
    "prefectureCode": "15",
    "prefectureNumber": 15,
    "prefecture": "新潟県",
    "city": "上越市",
    "town": "八千浦"
  },
  "9420031": {
    "zipcode": "9420031",
    "prefectureCode": "15",
    "prefectureNumber": 15,
    "prefecture": "新潟県",
    "city": "上越市",
    "town": "佐内町"
  },
  "9420032": {
    "zipcode": "9420032",
    "prefectureCode": "15",
    "prefectureNumber": 15,
    "prefecture": "新潟県",
    "city": "上越市",
    "town": "福田"
  },
  "9420033": {
    "zipcode": "9420033",
    "prefectureCode": "15",
    "prefectureNumber": 15,
    "prefecture": "新潟県",
    "city": "上越市",
    "town": "福橋"
  },
  "9420034": {
    "zipcode": "9420034",
    "prefectureCode": "15",
    "prefectureNumber": 15,
    "prefecture": "新潟県",
    "city": "上越市",
    "town": "下真砂"
  },
  "9420035": {
    "zipcode": "9420035",
    "prefectureCode": "15",
    "prefectureNumber": 15,
    "prefecture": "新潟県",
    "city": "上越市",
    "town": "上千原"
  },
  "9420036": {
    "zipcode": "9420036",
    "prefectureCode": "15",
    "prefectureNumber": 15,
    "prefecture": "新潟県",
    "city": "上越市",
    "town": "東中島"
  },
  "9420037": {
    "zipcode": "9420037",
    "prefectureCode": "15",
    "prefectureNumber": 15,
    "prefecture": "新潟県",
    "city": "上越市",
    "town": "中真砂"
  },
  "9420038": {
    "zipcode": "9420038",
    "prefectureCode": "15",
    "prefectureNumber": 15,
    "prefecture": "新潟県",
    "city": "上越市",
    "town": "川端"
  },
  "9420039": {
    "zipcode": "9420039",
    "prefectureCode": "15",
    "prefectureNumber": 15,
    "prefecture": "新潟県",
    "city": "上越市",
    "town": "飯塚"
  },
  "9420041": {
    "zipcode": "9420041",
    "prefectureCode": "15",
    "prefectureNumber": 15,
    "prefecture": "新潟県",
    "city": "上越市",
    "town": "安江"
  },
  "9420042": {
    "zipcode": "9420042",
    "prefectureCode": "15",
    "prefectureNumber": 15,
    "prefecture": "新潟県",
    "city": "上越市",
    "town": "三ツ屋町"
  },
  "9420043": {
    "zipcode": "9420043",
    "prefectureCode": "15",
    "prefectureNumber": 15,
    "prefecture": "新潟県",
    "city": "上越市",
    "town": "三ツ橋"
  },
  "9420044": {
    "zipcode": "9420044",
    "prefectureCode": "15",
    "prefectureNumber": 15,
    "prefecture": "新潟県",
    "city": "上越市",
    "town": "三ツ橋新田"
  },
  "9420045": {
    "zipcode": "9420045",
    "prefectureCode": "15",
    "prefectureNumber": 15,
    "prefecture": "新潟県",
    "city": "上越市",
    "town": "横曾根"
  },
  "9420046": {
    "zipcode": "9420046",
    "prefectureCode": "15",
    "prefectureNumber": 15,
    "prefecture": "新潟県",
    "city": "上越市",
    "town": "田園"
  },
  "9420051": {
    "zipcode": "9420051",
    "prefectureCode": "15",
    "prefectureNumber": 15,
    "prefecture": "新潟県",
    "city": "上越市",
    "town": "下源入"
  },
  "9420052": {
    "zipcode": "9420052",
    "prefectureCode": "15",
    "prefectureNumber": 15,
    "prefecture": "新潟県",
    "city": "上越市",
    "town": "上源入"
  },
  "9420053": {
    "zipcode": "9420053",
    "prefectureCode": "15",
    "prefectureNumber": 15,
    "prefecture": "新潟県",
    "city": "上越市",
    "town": "三田新田"
  },
  "9420054": {
    "zipcode": "9420054",
    "prefectureCode": "15",
    "prefectureNumber": 15,
    "prefecture": "新潟県",
    "city": "上越市",
    "town": "三田"
  },
  "9420055": {
    "zipcode": "9420055",
    "prefectureCode": "15",
    "prefectureNumber": 15,
    "prefecture": "新潟県",
    "city": "上越市",
    "town": "小猿屋"
  },
  "9420056": {
    "zipcode": "9420056",
    "prefectureCode": "15",
    "prefectureNumber": 15,
    "prefecture": "新潟県",
    "city": "上越市",
    "town": "小猿屋新田"
  },
  "9420061": {
    "zipcode": "9420061",
    "prefectureCode": "15",
    "prefectureNumber": 15,
    "prefecture": "新潟県",
    "city": "上越市",
    "town": "春日新田"
  },
  "9420062": {
    "zipcode": "9420062",
    "prefectureCode": "15",
    "prefectureNumber": 15,
    "prefecture": "新潟県",
    "city": "上越市",
    "town": "松村新田"
  },
  "9420063": {
    "zipcode": "9420063",
    "prefectureCode": "15",
    "prefectureNumber": 15,
    "prefecture": "新潟県",
    "city": "上越市",
    "town": "下門前"
  },
  "9420064": {
    "zipcode": "9420064",
    "prefectureCode": "15",
    "prefectureNumber": 15,
    "prefecture": "新潟県",
    "city": "上越市",
    "town": "塩屋新田"
  },
  "9420065": {
    "zipcode": "9420065",
    "prefectureCode": "15",
    "prefectureNumber": 15,
    "prefecture": "新潟県",
    "city": "上越市",
    "town": "川原町"
  },
  "9420071": {
    "zipcode": "9420071",
    "prefectureCode": "15",
    "prefectureNumber": 15,
    "prefecture": "新潟県",
    "city": "上越市",
    "town": "東雲町"
  },
  "9420072": {
    "zipcode": "9420072",
    "prefectureCode": "15",
    "prefectureNumber": 15,
    "prefecture": "新潟県",
    "city": "上越市",
    "town": "栄町（１、２丁目）"
  },
  "9420074": {
    "zipcode": "9420074",
    "prefectureCode": "15",
    "prefectureNumber": 15,
    "prefecture": "新潟県",
    "city": "上越市",
    "town": "石橋"
  },
  "9420081": {
    "zipcode": "9420081",
    "prefectureCode": "15",
    "prefectureNumber": 15,
    "prefecture": "新潟県",
    "city": "上越市",
    "town": "五智"
  },
  "9420082": {
    "zipcode": "9420082",
    "prefectureCode": "15",
    "prefectureNumber": 15,
    "prefecture": "新潟県",
    "city": "上越市",
    "town": "国府"
  },
  "9420083": {
    "zipcode": "9420083",
    "prefectureCode": "15",
    "prefectureNumber": 15,
    "prefecture": "新潟県",
    "city": "上越市",
    "town": "大豆（１の２、３の２〜６、４の２・４・６、１１の１番地）"
  },
  "9420084": {
    "zipcode": "9420084",
    "prefectureCode": "15",
    "prefectureNumber": 15,
    "prefecture": "新潟県",
    "city": "上越市",
    "town": "五智新町"
  },
  "9420085": {
    "zipcode": "9420085",
    "prefectureCode": "15",
    "prefectureNumber": 15,
    "prefecture": "新潟県",
    "city": "上越市",
    "town": "五智国分"
  },
  "9420086": {
    "zipcode": "9420086",
    "prefectureCode": "15",
    "prefectureNumber": 15,
    "prefecture": "新潟県",
    "city": "上越市",
    "town": "加賀町"
  },
  "9420087": {
    "zipcode": "9420087",
    "prefectureCode": "15",
    "prefectureNumber": 15,
    "prefecture": "新潟県",
    "city": "上越市",
    "town": "虫生岩戸"
  },
  "9420088": {
    "zipcode": "9420088",
    "prefectureCode": "15",
    "prefectureNumber": 15,
    "prefecture": "新潟県",
    "city": "上越市",
    "town": "毘沙門国分寺"
  },
  "9420089": {
    "zipcode": "9420089",
    "prefectureCode": "15",
    "prefectureNumber": 15,
    "prefecture": "新潟県",
    "city": "上越市",
    "town": "大場"
  },
  "9420091": {
    "zipcode": "9420091",
    "prefectureCode": "15",
    "prefectureNumber": 15,
    "prefecture": "新潟県",
    "city": "上越市",
    "town": "頸城区西福島（１〜２２５、２２７〜２８８、１０６０番地）"
  },
  "9420101": {
    "zipcode": "9420101",
    "prefectureCode": "15",
    "prefectureNumber": 15,
    "prefecture": "新潟県",
    "city": "上越市",
    "town": "頸城区柳町新田"
  },
  "9420102": {
    "zipcode": "9420102",
    "prefectureCode": "15",
    "prefectureNumber": 15,
    "prefecture": "新潟県",
    "city": "上越市",
    "town": "頸城区岡田"
  },
  "9420103": {
    "zipcode": "9420103",
    "prefectureCode": "15",
    "prefectureNumber": 15,
    "prefecture": "新潟県",
    "city": "上越市",
    "town": "頸城区富田"
  },
  "9420104": {
    "zipcode": "9420104",
    "prefectureCode": "15",
    "prefectureNumber": 15,
    "prefecture": "新潟県",
    "city": "上越市",
    "town": "頸城区下池田"
  },
  "9420105": {
    "zipcode": "9420105",
    "prefectureCode": "15",
    "prefectureNumber": 15,
    "prefecture": "新潟県",
    "city": "上越市",
    "town": "頸城区戸口野"
  },
  "9420106": {
    "zipcode": "9420106",
    "prefectureCode": "15",
    "prefectureNumber": 15,
    "prefecture": "新潟県",
    "city": "上越市",
    "town": "頸城区上柳町"
  },
  "9420107": {
    "zipcode": "9420107",
    "prefectureCode": "15",
    "prefectureNumber": 15,
    "prefecture": "新潟県",
    "city": "上越市",
    "town": "頸城区中柳町"
  },
  "9420108": {
    "zipcode": "9420108",
    "prefectureCode": "15",
    "prefectureNumber": 15,
    "prefecture": "新潟県",
    "city": "上越市",
    "town": "頸城区下柳町"
  },
  "9420109": {
    "zipcode": "9420109",
    "prefectureCode": "15",
    "prefectureNumber": 15,
    "prefecture": "新潟県",
    "city": "上越市",
    "town": "頸城区寺田"
  },
  "9420111": {
    "zipcode": "9420111",
    "prefectureCode": "15",
    "prefectureNumber": 15,
    "prefecture": "新潟県",
    "city": "上越市",
    "town": "頸城区片津"
  },
  "9420112": {
    "zipcode": "9420112",
    "prefectureCode": "15",
    "prefectureNumber": 15,
    "prefecture": "新潟県",
    "city": "上越市",
    "town": "頸城区姥谷内"
  },
  "9420113": {
    "zipcode": "9420113",
    "prefectureCode": "15",
    "prefectureNumber": 15,
    "prefecture": "新潟県",
    "city": "上越市",
    "town": "頸城区中城"
  },
  "9420114": {
    "zipcode": "9420114",
    "prefectureCode": "15",
    "prefectureNumber": 15,
    "prefecture": "新潟県",
    "city": "上越市",
    "town": "頸城区柿野"
  },
  "9420115": {
    "zipcode": "9420115",
    "prefectureCode": "15",
    "prefectureNumber": 15,
    "prefecture": "新潟県",
    "city": "上越市",
    "town": "頸城区田中"
  },
  "9420116": {
    "zipcode": "9420116",
    "prefectureCode": "15",
    "prefectureNumber": 15,
    "prefecture": "新潟県",
    "city": "上越市",
    "town": "頸城区大坂井"
  },
  "9420117": {
    "zipcode": "9420117",
    "prefectureCode": "15",
    "prefectureNumber": 15,
    "prefecture": "新潟県",
    "city": "上越市",
    "town": "頸城区西湊"
  },
  "9420121": {
    "zipcode": "9420121",
    "prefectureCode": "15",
    "prefectureNumber": 15,
    "prefecture": "新潟県",
    "city": "上越市",
    "town": "頸城区鵜ノ木"
  },
  "9420122": {
    "zipcode": "9420122",
    "prefectureCode": "15",
    "prefectureNumber": 15,
    "prefecture": "新潟県",
    "city": "上越市",
    "town": "頸城区川袋"
  },
  "9420123": {
    "zipcode": "9420123",
    "prefectureCode": "15",
    "prefectureNumber": 15,
    "prefecture": "新潟県",
    "city": "上越市",
    "town": "頸城区下中村"
  },
  "9420124": {
    "zipcode": "9420124",
    "prefectureCode": "15",
    "prefectureNumber": 15,
    "prefecture": "新潟県",
    "city": "上越市",
    "town": "頸城区東俣"
  },
  "9420125": {
    "zipcode": "9420125",
    "prefectureCode": "15",
    "prefectureNumber": 15,
    "prefecture": "新潟県",
    "city": "上越市",
    "town": "頸城区飯田"
  },
  "9420126": {
    "zipcode": "9420126",
    "prefectureCode": "15",
    "prefectureNumber": 15,
    "prefecture": "新潟県",
    "city": "上越市",
    "town": "頸城区宮原"
  },
  "9420127": {
    "zipcode": "9420127",
    "prefectureCode": "15",
    "prefectureNumber": 15,
    "prefecture": "新潟県",
    "city": "上越市",
    "town": "頸城区百間町"
  },
  "9420128": {
    "zipcode": "9420128",
    "prefectureCode": "15",
    "prefectureNumber": 15,
    "prefecture": "新潟県",
    "city": "上越市",
    "town": "頸城区諏訪"
  },
  "9420129": {
    "zipcode": "9420129",
    "prefectureCode": "15",
    "prefectureNumber": 15,
    "prefecture": "新潟県",
    "city": "上越市",
    "town": "頸城区立崎"
  },
  "9420131": {
    "zipcode": "9420131",
    "prefectureCode": "15",
    "prefectureNumber": 15,
    "prefecture": "新潟県",
    "city": "上越市",
    "town": "頸城区千原"
  },
  "9420132": {
    "zipcode": "9420132",
    "prefectureCode": "15",
    "prefectureNumber": 15,
    "prefecture": "新潟県",
    "city": "上越市",
    "town": "頸城区北福崎"
  },
  "9420133": {
    "zipcode": "9420133",
    "prefectureCode": "15",
    "prefectureNumber": 15,
    "prefecture": "新潟県",
    "city": "上越市",
    "town": "頸城区上神原"
  },
  "9420134": {
    "zipcode": "9420134",
    "prefectureCode": "15",
    "prefectureNumber": 15,
    "prefecture": "新潟県",
    "city": "上越市",
    "town": "頸城区下神原"
  },
  "9420135": {
    "zipcode": "9420135",
    "prefectureCode": "15",
    "prefectureNumber": 15,
    "prefecture": "新潟県",
    "city": "上越市",
    "town": "頸城区五十嵐"
  },
  "9420136": {
    "zipcode": "9420136",
    "prefectureCode": "15",
    "prefectureNumber": 15,
    "prefecture": "新潟県",
    "city": "上越市",
    "town": "頸城区島田"
  },
  "9420137": {
    "zipcode": "9420137",
    "prefectureCode": "15",
    "prefectureNumber": 15,
    "prefecture": "新潟県",
    "city": "上越市",
    "town": "頸城区下千原"
  },
  "9420138": {
    "zipcode": "9420138",
    "prefectureCode": "15",
    "prefectureNumber": 15,
    "prefecture": "新潟県",
    "city": "上越市",
    "town": "頸城区望ケ丘"
  },
  "9420139": {
    "zipcode": "9420139",
    "prefectureCode": "15",
    "prefectureNumber": 15,
    "prefecture": "新潟県",
    "city": "上越市",
    "town": "頸城区美しが丘"
  },
  "9420141": {
    "zipcode": "9420141",
    "prefectureCode": "15",
    "prefectureNumber": 15,
    "prefecture": "新潟県",
    "city": "上越市",
    "town": "頸城区市村"
  },
  "9420142": {
    "zipcode": "9420142",
    "prefectureCode": "15",
    "prefectureNumber": 15,
    "prefecture": "新潟県",
    "city": "上越市",
    "town": "頸城区上三分一"
  },
  "9420143": {
    "zipcode": "9420143",
    "prefectureCode": "15",
    "prefectureNumber": 15,
    "prefecture": "新潟県",
    "city": "上越市",
    "town": "頸城区下三分一"
  },
  "9420144": {
    "zipcode": "9420144",
    "prefectureCode": "15",
    "prefectureNumber": 15,
    "prefecture": "新潟県",
    "city": "上越市",
    "town": "頸城区松本"
  },
  "9420145": {
    "zipcode": "9420145",
    "prefectureCode": "15",
    "prefectureNumber": 15,
    "prefecture": "新潟県",
    "city": "上越市",
    "town": "頸城区上吉"
  },
  "9420146": {
    "zipcode": "9420146",
    "prefectureCode": "15",
    "prefectureNumber": 15,
    "prefecture": "新潟県",
    "city": "上越市",
    "town": "頸城区下吉"
  },
  "9420147": {
    "zipcode": "9420147",
    "prefectureCode": "15",
    "prefectureNumber": 15,
    "prefecture": "新潟県",
    "city": "上越市",
    "town": "頸城区西福島（その他）"
  },
  "9420151": {
    "zipcode": "9420151",
    "prefectureCode": "15",
    "prefectureNumber": 15,
    "prefecture": "新潟県",
    "city": "上越市",
    "town": "頸城区北四ツ屋"
  },
  "9420152": {
    "zipcode": "9420152",
    "prefectureCode": "15",
    "prefectureNumber": 15,
    "prefecture": "新潟県",
    "city": "上越市",
    "town": "頸城区浮島"
  },
  "9420153": {
    "zipcode": "9420153",
    "prefectureCode": "15",
    "prefectureNumber": 15,
    "prefecture": "新潟県",
    "city": "上越市",
    "town": "頸城区下米岡"
  },
  "9420154": {
    "zipcode": "9420154",
    "prefectureCode": "15",
    "prefectureNumber": 15,
    "prefecture": "新潟県",
    "city": "上越市",
    "town": "頸城区榎井"
  },
  "9420155": {
    "zipcode": "9420155",
    "prefectureCode": "15",
    "prefectureNumber": 15,
    "prefecture": "新潟県",
    "city": "上越市",
    "town": "頸城区下中島"
  },
  "9420156": {
    "zipcode": "9420156",
    "prefectureCode": "15",
    "prefectureNumber": 15,
    "prefecture": "新潟県",
    "city": "上越市",
    "town": "頸城区松橋"
  },
  "9420157": {
    "zipcode": "9420157",
    "prefectureCode": "15",
    "prefectureNumber": 15,
    "prefecture": "新潟県",
    "city": "上越市",
    "town": "頸城区城野腰"
  },
  "9420158": {
    "zipcode": "9420158",
    "prefectureCode": "15",
    "prefectureNumber": 15,
    "prefecture": "新潟県",
    "city": "上越市",
    "town": "頸城区松橋新田"
  },
  "9420161": {
    "zipcode": "9420161",
    "prefectureCode": "15",
    "prefectureNumber": 15,
    "prefecture": "新潟県",
    "city": "上越市",
    "town": "頸城区手宮"
  },
  "9420162": {
    "zipcode": "9420162",
    "prefectureCode": "15",
    "prefectureNumber": 15,
    "prefecture": "新潟県",
    "city": "上越市",
    "town": "頸城区森下"
  },
  "9420163": {
    "zipcode": "9420163",
    "prefectureCode": "15",
    "prefectureNumber": 15,
    "prefecture": "新潟県",
    "city": "上越市",
    "town": "頸城区大谷内"
  },
  "9420164": {
    "zipcode": "9420164",
    "prefectureCode": "15",
    "prefectureNumber": 15,
    "prefecture": "新潟県",
    "city": "上越市",
    "town": "頸城区潟口"
  },
  "9420165": {
    "zipcode": "9420165",
    "prefectureCode": "15",
    "prefectureNumber": 15,
    "prefecture": "新潟県",
    "city": "上越市",
    "town": "頸城区青野"
  },
  "9420171": {
    "zipcode": "9420171",
    "prefectureCode": "15",
    "prefectureNumber": 15,
    "prefecture": "新潟県",
    "city": "上越市",
    "town": "頸城区北方"
  },
  "9420172": {
    "zipcode": "9420172",
    "prefectureCode": "15",
    "prefectureNumber": 15,
    "prefecture": "新潟県",
    "city": "上越市",
    "town": "頸城区宮本"
  },
  "9420173": {
    "zipcode": "9420173",
    "prefectureCode": "15",
    "prefectureNumber": 15,
    "prefecture": "新潟県",
    "city": "上越市",
    "town": "頸城区舟津"
  },
  "9420181": {
    "zipcode": "9420181",
    "prefectureCode": "15",
    "prefectureNumber": 15,
    "prefecture": "新潟県",
    "city": "上越市",
    "town": "大潟区潟守新田（５３の１〜６０の９番地）"
  },
  "9420201": {
    "zipcode": "9420201",
    "prefectureCode": "15",
    "prefectureNumber": 15,
    "prefecture": "新潟県",
    "city": "上越市",
    "town": "頸城区大潟"
  },
  "9420202": {
    "zipcode": "9420202",
    "prefectureCode": "15",
    "prefectureNumber": 15,
    "prefecture": "新潟県",
    "city": "上越市",
    "town": "頸城区上池田"
  },
  "9420203": {
    "zipcode": "9420203",
    "prefectureCode": "15",
    "prefectureNumber": 15,
    "prefecture": "新潟県",
    "city": "上越市",
    "town": "頸城区上増田"
  },
  "9420204": {
    "zipcode": "9420204",
    "prefectureCode": "15",
    "prefectureNumber": 15,
    "prefecture": "新潟県",
    "city": "上越市",
    "town": "頸城区両毛"
  },
  "9420205": {
    "zipcode": "9420205",
    "prefectureCode": "15",
    "prefectureNumber": 15,
    "prefecture": "新潟県",
    "city": "上越市",
    "town": "頸城区中増田"
  },
  "9420206": {
    "zipcode": "9420206",
    "prefectureCode": "15",
    "prefectureNumber": 15,
    "prefecture": "新潟県",
    "city": "上越市",
    "town": "頸城区下増田"
  },
  "9420207": {
    "zipcode": "9420207",
    "prefectureCode": "15",
    "prefectureNumber": 15,
    "prefecture": "新潟県",
    "city": "上越市",
    "town": "頸城区手島"
  },
  "9420208": {
    "zipcode": "9420208",
    "prefectureCode": "15",
    "prefectureNumber": 15,
    "prefecture": "新潟県",
    "city": "上越市",
    "town": "頸城区潟"
  },
  "9420211": {
    "zipcode": "9420211",
    "prefectureCode": "15",
    "prefectureNumber": 15,
    "prefecture": "新潟県",
    "city": "上越市",
    "town": "頸城区畑ケ崎"
  },
  "9420212": {
    "zipcode": "9420212",
    "prefectureCode": "15",
    "prefectureNumber": 15,
    "prefecture": "新潟県",
    "city": "上越市",
    "town": "頸城区矢住"
  },
  "9420213": {
    "zipcode": "9420213",
    "prefectureCode": "15",
    "prefectureNumber": 15,
    "prefecture": "新潟県",
    "city": "上越市",
    "town": "頸城区中島"
  },
  "9420214": {
    "zipcode": "9420214",
    "prefectureCode": "15",
    "prefectureNumber": 15,
    "prefecture": "新潟県",
    "city": "上越市",
    "town": "頸城区大蒲生田"
  },
  "9420215": {
    "zipcode": "9420215",
    "prefectureCode": "15",
    "prefectureNumber": 15,
    "prefecture": "新潟県",
    "city": "上越市",
    "town": "頸城区玄僧"
  },
  "9420216": {
    "zipcode": "9420216",
    "prefectureCode": "15",
    "prefectureNumber": 15,
    "prefecture": "新潟県",
    "city": "上越市",
    "town": "頸城区日根津"
  },
  "9420221": {
    "zipcode": "9420221",
    "prefectureCode": "15",
    "prefectureNumber": 15,
    "prefecture": "新潟県",
    "city": "上越市",
    "town": "頸城区石神"
  },
  "9420222": {
    "zipcode": "9420222",
    "prefectureCode": "15",
    "prefectureNumber": 15,
    "prefecture": "新潟県",
    "city": "上越市",
    "town": "頸城区花ケ崎"
  },
  "9420223": {
    "zipcode": "9420223",
    "prefectureCode": "15",
    "prefectureNumber": 15,
    "prefecture": "新潟県",
    "city": "上越市",
    "town": "頸城区森本"
  },
  "9420224": {
    "zipcode": "9420224",
    "prefectureCode": "15",
    "prefectureNumber": 15,
    "prefecture": "新潟県",
    "city": "上越市",
    "town": "頸城区仁野分"
  },
  "9420225": {
    "zipcode": "9420225",
    "prefectureCode": "15",
    "prefectureNumber": 15,
    "prefecture": "新潟県",
    "city": "上越市",
    "town": "頸城区天ケ崎"
  },
  "9420226": {
    "zipcode": "9420226",
    "prefectureCode": "15",
    "prefectureNumber": 15,
    "prefecture": "新潟県",
    "city": "上越市",
    "town": "頸城区塔ケ崎"
  },
  "9420231": {
    "zipcode": "9420231",
    "prefectureCode": "15",
    "prefectureNumber": 15,
    "prefecture": "新潟県",
    "city": "上越市",
    "town": "下吉野"
  },
  "9420232": {
    "zipcode": "9420232",
    "prefectureCode": "15",
    "prefectureNumber": 15,
    "prefecture": "新潟県",
    "city": "上越市",
    "town": "福岡新田"
  },
  "9420233": {
    "zipcode": "9420233",
    "prefectureCode": "15",
    "prefectureNumber": 15,
    "prefecture": "新潟県",
    "city": "上越市",
    "town": "岡崎新田"
  },
  "9420234": {
    "zipcode": "9420234",
    "prefectureCode": "15",
    "prefectureNumber": 15,
    "prefecture": "新潟県",
    "city": "上越市",
    "town": "田沢新田"
  },
  "9420238": {
    "zipcode": "9420238",
    "prefectureCode": "15",
    "prefectureNumber": 15,
    "prefecture": "新潟県",
    "city": "上越市",
    "town": "青野"
  },
  "9420241": {
    "zipcode": "9420241",
    "prefectureCode": "15",
    "prefectureNumber": 15,
    "prefecture": "新潟県",
    "city": "上越市",
    "town": "上吉野"
  },
  "9420242": {
    "zipcode": "9420242",
    "prefectureCode": "15",
    "prefectureNumber": 15,
    "prefecture": "新潟県",
    "city": "上越市",
    "town": "石川"
  },
  "9420243": {
    "zipcode": "9420243",
    "prefectureCode": "15",
    "prefectureNumber": 15,
    "prefecture": "新潟県",
    "city": "上越市",
    "town": "五野井"
  },
  "9420244": {
    "zipcode": "9420244",
    "prefectureCode": "15",
    "prefectureNumber": 15,
    "prefecture": "新潟県",
    "city": "上越市",
    "town": "長岡新田"
  },
  "9420245": {
    "zipcode": "9420245",
    "prefectureCode": "15",
    "prefectureNumber": 15,
    "prefecture": "新潟県",
    "city": "上越市",
    "town": "長岡"
  },
  "9420246": {
    "zipcode": "9420246",
    "prefectureCode": "15",
    "prefectureNumber": 15,
    "prefecture": "新潟県",
    "city": "上越市",
    "town": "駒林"
  },
  "9420247": {
    "zipcode": "9420247",
    "prefectureCode": "15",
    "prefectureNumber": 15,
    "prefecture": "新潟県",
    "city": "上越市",
    "town": "下百々"
  },
  "9420251": {
    "zipcode": "9420251",
    "prefectureCode": "15",
    "prefectureNumber": 15,
    "prefecture": "新潟県",
    "city": "上越市",
    "town": "小泉"
  },
  "9420252": {
    "zipcode": "9420252",
    "prefectureCode": "15",
    "prefectureNumber": 15,
    "prefecture": "新潟県",
    "city": "上越市",
    "town": "上名柄"
  },
  "9420253": {
    "zipcode": "9420253",
    "prefectureCode": "15",
    "prefectureNumber": 15,
    "prefecture": "新潟県",
    "city": "上越市",
    "town": "下名柄"
  },
  "9420254": {
    "zipcode": "9420254",
    "prefectureCode": "15",
    "prefectureNumber": 15,
    "prefecture": "新潟県",
    "city": "上越市",
    "town": "上五貫野"
  },
  "9420255": {
    "zipcode": "9420255",
    "prefectureCode": "15",
    "prefectureNumber": 15,
    "prefecture": "新潟県",
    "city": "上越市",
    "town": "下五貫野"
  },
  "9420261": {
    "zipcode": "9420261",
    "prefectureCode": "15",
    "prefectureNumber": 15,
    "prefecture": "新潟県",
    "city": "上越市",
    "town": "三和区末野新田"
  },
  "9420262": {
    "zipcode": "9420262",
    "prefectureCode": "15",
    "prefectureNumber": 15,
    "prefecture": "新潟県",
    "city": "上越市",
    "town": "三和区末野"
  },
  "9420263": {
    "zipcode": "9420263",
    "prefectureCode": "15",
    "prefectureNumber": 15,
    "prefecture": "新潟県",
    "city": "上越市",
    "town": "三和区山腰新田"
  },
  "9420264": {
    "zipcode": "9420264",
    "prefectureCode": "15",
    "prefectureNumber": 15,
    "prefecture": "新潟県",
    "city": "上越市",
    "town": "三和区塔ノ輪"
  },
  "9420265": {
    "zipcode": "9420265",
    "prefectureCode": "15",
    "prefectureNumber": 15,
    "prefecture": "新潟県",
    "city": "上越市",
    "town": "三和区神田"
  },
  "9420266": {
    "zipcode": "9420266",
    "prefectureCode": "15",
    "prefectureNumber": 15,
    "prefecture": "新潟県",
    "city": "上越市",
    "town": "三和区越柳"
  },
  "9420267": {
    "zipcode": "9420267",
    "prefectureCode": "15",
    "prefectureNumber": 15,
    "prefecture": "新潟県",
    "city": "上越市",
    "town": "三和区沖柳"
  },
  "9420268": {
    "zipcode": "9420268",
    "prefectureCode": "15",
    "prefectureNumber": 15,
    "prefecture": "新潟県",
    "city": "上越市",
    "town": "三和区本郷"
  },
  "9420271": {
    "zipcode": "9420271",
    "prefectureCode": "15",
    "prefectureNumber": 15,
    "prefecture": "新潟県",
    "city": "上越市",
    "town": "三和区錦"
  },
  "9420272": {
    "zipcode": "9420272",
    "prefectureCode": "15",
    "prefectureNumber": 15,
    "prefecture": "新潟県",
    "city": "上越市",
    "town": "三和区柳林"
  },
  "9420273": {
    "zipcode": "9420273",
    "prefectureCode": "15",
    "prefectureNumber": 15,
    "prefecture": "新潟県",
    "city": "上越市",
    "town": "三和区上広田"
  },
  "9420274": {
    "zipcode": "9420274",
    "prefectureCode": "15",
    "prefectureNumber": 15,
    "prefecture": "新潟県",
    "city": "上越市",
    "town": "三和区下広田"
  },
  "9420275": {
    "zipcode": "9420275",
    "prefectureCode": "15",
    "prefectureNumber": 15,
    "prefecture": "新潟県",
    "city": "上越市",
    "town": "三和区岡木"
  },
  "9420276": {
    "zipcode": "9420276",
    "prefectureCode": "15",
    "prefectureNumber": 15,
    "prefecture": "新潟県",
    "city": "上越市",
    "town": "三和区米子"
  },
  "9420277": {
    "zipcode": "9420277",
    "prefectureCode": "15",
    "prefectureNumber": 15,
    "prefecture": "新潟県",
    "city": "上越市",
    "town": "三和区広井"
  },
  "9420301": {
    "zipcode": "9420301",
    "prefectureCode": "15",
    "prefectureNumber": 15,
    "prefecture": "新潟県",
    "city": "上越市",
    "town": "浦川原区上猪子田"
  },
  "9420302": {
    "zipcode": "9420302",
    "prefectureCode": "15",
    "prefectureNumber": 15,
    "prefecture": "新潟県",
    "city": "上越市",
    "town": "浦川原区小谷島"
  },
  "9420303": {
    "zipcode": "9420303",
    "prefectureCode": "15",
    "prefectureNumber": 15,
    "prefecture": "新潟県",
    "city": "上越市",
    "town": "浦川原区下猪子田"
  },
  "9420304": {
    "zipcode": "9420304",
    "prefectureCode": "15",
    "prefectureNumber": 15,
    "prefecture": "新潟県",
    "city": "上越市",
    "town": "浦川原区中猪子田"
  },
  "9420305": {
    "zipcode": "9420305",
    "prefectureCode": "15",
    "prefectureNumber": 15,
    "prefecture": "新潟県",
    "city": "上越市",
    "town": "浦川原区虫川"
  },
  "9420306": {
    "zipcode": "9420306",
    "prefectureCode": "15",
    "prefectureNumber": 15,
    "prefecture": "新潟県",
    "city": "上越市",
    "town": "浦川原区有島"
  },
  "9420307": {
    "zipcode": "9420307",
    "prefectureCode": "15",
    "prefectureNumber": 15,
    "prefecture": "新潟県",
    "city": "上越市",
    "town": "浦川原区釜淵"
  },
  "9420308": {
    "zipcode": "9420308",
    "prefectureCode": "15",
    "prefectureNumber": 15,
    "prefecture": "新潟県",
    "city": "上越市",
    "town": "浦川原区小蒲生田"
  },
  "9420311": {
    "zipcode": "9420311",
    "prefectureCode": "15",
    "prefectureNumber": 15,
    "prefecture": "新潟県",
    "city": "上越市",
    "town": "浦川原区上柿野"
  },
  "9420312": {
    "zipcode": "9420312",
    "prefectureCode": "15",
    "prefectureNumber": 15,
    "prefecture": "新潟県",
    "city": "上越市",
    "town": "浦川原区大栃山"
  },
  "9420313": {
    "zipcode": "9420313",
    "prefectureCode": "15",
    "prefectureNumber": 15,
    "prefecture": "新潟県",
    "city": "上越市",
    "town": "浦川原区下柿野"
  },
  "9420314": {
    "zipcode": "9420314",
    "prefectureCode": "15",
    "prefectureNumber": 15,
    "prefecture": "新潟県",
    "city": "上越市",
    "town": "浦川原区顕聖寺"
  },
  "9420315": {
    "zipcode": "9420315",
    "prefectureCode": "15",
    "prefectureNumber": 15,
    "prefecture": "新潟県",
    "city": "上越市",
    "town": "浦川原区横川"
  },
  "9420316": {
    "zipcode": "9420316",
    "prefectureCode": "15",
    "prefectureNumber": 15,
    "prefecture": "新潟県",
    "city": "上越市",
    "town": "浦川原区六日町"
  },
  "9420317": {
    "zipcode": "9420317",
    "prefectureCode": "15",
    "prefectureNumber": 15,
    "prefecture": "新潟県",
    "city": "上越市",
    "town": "浦川原区杉坪"
  },
  "9420318": {
    "zipcode": "9420318",
    "prefectureCode": "15",
    "prefectureNumber": 15,
    "prefecture": "新潟県",
    "city": "上越市",
    "town": "浦川原区上岡"
  },
  "9420319": {
    "zipcode": "9420319",
    "prefectureCode": "15",
    "prefectureNumber": 15,
    "prefecture": "新潟県",
    "city": "上越市",
    "town": "浦川原区東俣"
  },
  "9420321": {
    "zipcode": "9420321",
    "prefectureCode": "15",
    "prefectureNumber": 15,
    "prefecture": "新潟県",
    "city": "上越市",
    "town": "浦川原区熊沢"
  },
  "9420322": {
    "zipcode": "9420322",
    "prefectureCode": "15",
    "prefectureNumber": 15,
    "prefecture": "新潟県",
    "city": "上越市",
    "town": "浦川原区横住"
  },
  "9420323": {
    "zipcode": "9420323",
    "prefectureCode": "15",
    "prefectureNumber": 15,
    "prefecture": "新潟県",
    "city": "上越市",
    "town": "浦川原区真光寺"
  },
  "9420324": {
    "zipcode": "9420324",
    "prefectureCode": "15",
    "prefectureNumber": 15,
    "prefecture": "新潟県",
    "city": "上越市",
    "town": "浦川原区谷"
  },
  "9420325": {
    "zipcode": "9420325",
    "prefectureCode": "15",
    "prefectureNumber": 15,
    "prefecture": "新潟県",
    "city": "上越市",
    "town": "浦川原区坪野"
  },
  "9420326": {
    "zipcode": "9420326",
    "prefectureCode": "15",
    "prefectureNumber": 15,
    "prefecture": "新潟県",
    "city": "上越市",
    "town": "浦川原区法定寺"
  },
  "9420327": {
    "zipcode": "9420327",
    "prefectureCode": "15",
    "prefectureNumber": 15,
    "prefecture": "新潟県",
    "city": "上越市",
    "town": "浦川原区菱田"
  },
  "9420331": {
    "zipcode": "9420331",
    "prefectureCode": "15",
    "prefectureNumber": 15,
    "prefecture": "新潟県",
    "city": "上越市",
    "town": "浦川原区長走"
  },
  "9420332": {
    "zipcode": "9420332",
    "prefectureCode": "15",
    "prefectureNumber": 15,
    "prefecture": "新潟県",
    "city": "上越市",
    "town": "浦川原区岩室"
  },
  "9420333": {
    "zipcode": "9420333",
    "prefectureCode": "15",
    "prefectureNumber": 15,
    "prefecture": "新潟県",
    "city": "上越市",
    "town": "浦川原区桜島"
  },
  "9420334": {
    "zipcode": "9420334",
    "prefectureCode": "15",
    "prefectureNumber": 15,
    "prefecture": "新潟県",
    "city": "上越市",
    "town": "浦川原区山本"
  },
  "9420335": {
    "zipcode": "9420335",
    "prefectureCode": "15",
    "prefectureNumber": 15,
    "prefecture": "新潟県",
    "city": "上越市",
    "town": "浦川原区今熊"
  },
  "9420336": {
    "zipcode": "9420336",
    "prefectureCode": "15",
    "prefectureNumber": 15,
    "prefecture": "新潟県",
    "city": "上越市",
    "town": "浦川原区飯室"
  },
  "9420337": {
    "zipcode": "9420337",
    "prefectureCode": "15",
    "prefectureNumber": 15,
    "prefecture": "新潟県",
    "city": "上越市",
    "town": "浦川原区山印内"
  },
  "9420338": {
    "zipcode": "9420338",
    "prefectureCode": "15",
    "prefectureNumber": 15,
    "prefecture": "新潟県",
    "city": "上越市",
    "town": "浦川原区印内"
  },
  "9420339": {
    "zipcode": "9420339",
    "prefectureCode": "15",
    "prefectureNumber": 15,
    "prefecture": "新潟県",
    "city": "上越市",
    "town": "浦川原区日向"
  },
  "9420401": {
    "zipcode": "9420401",
    "prefectureCode": "15",
    "prefectureNumber": 15,
    "prefecture": "新潟県",
    "city": "上越市",
    "town": "安塚区細野"
  },
  "9420402": {
    "zipcode": "9420402",
    "prefectureCode": "15",
    "prefectureNumber": 15,
    "prefecture": "新潟県",
    "city": "上越市",
    "town": "安塚区坊金"
  },
  "9420403": {
    "zipcode": "9420403",
    "prefectureCode": "15",
    "prefectureNumber": 15,
    "prefecture": "新潟県",
    "city": "上越市",
    "town": "安塚区本郷"
  },
  "9420404": {
    "zipcode": "9420404",
    "prefectureCode": "15",
    "prefectureNumber": 15,
    "prefecture": "新潟県",
    "city": "上越市",
    "town": "安塚区石橋"
  },
  "9420405": {
    "zipcode": "9420405",
    "prefectureCode": "15",
    "prefectureNumber": 15,
    "prefecture": "新潟県",
    "city": "上越市",
    "town": "安塚区上方"
  },
  "9420411": {
    "zipcode": "9420411",
    "prefectureCode": "15",
    "prefectureNumber": 15,
    "prefecture": "新潟県",
    "city": "上越市",
    "town": "安塚区安塚"
  },
  "9420412": {
    "zipcode": "9420412",
    "prefectureCode": "15",
    "prefectureNumber": 15,
    "prefecture": "新潟県",
    "city": "上越市",
    "town": "安塚区牧野"
  },
  "9420413": {
    "zipcode": "9420413",
    "prefectureCode": "15",
    "prefectureNumber": 15,
    "prefecture": "新潟県",
    "city": "上越市",
    "town": "安塚区板尾"
  },
  "9420414": {
    "zipcode": "9420414",
    "prefectureCode": "15",
    "prefectureNumber": 15,
    "prefecture": "新潟県",
    "city": "上越市",
    "town": "安塚区袖山"
  },
  "9420415": {
    "zipcode": "9420415",
    "prefectureCode": "15",
    "prefectureNumber": 15,
    "prefecture": "新潟県",
    "city": "上越市",
    "town": "安塚区松崎"
  },
  "9420521": {
    "zipcode": "9420521",
    "prefectureCode": "15",
    "prefectureNumber": 15,
    "prefecture": "新潟県",
    "city": "上越市",
    "town": "安塚区行野"
  },
  "9420522": {
    "zipcode": "9420522",
    "prefectureCode": "15",
    "prefectureNumber": 15,
    "prefecture": "新潟県",
    "city": "上越市",
    "town": "安塚区大原"
  },
  "9420523": {
    "zipcode": "9420523",
    "prefectureCode": "15",
    "prefectureNumber": 15,
    "prefecture": "新潟県",
    "city": "上越市",
    "town": "安塚区戸沢"
  },
  "9420524": {
    "zipcode": "9420524",
    "prefectureCode": "15",
    "prefectureNumber": 15,
    "prefecture": "新潟県",
    "city": "上越市",
    "town": "安塚区芹田"
  },
  "9420525": {
    "zipcode": "9420525",
    "prefectureCode": "15",
    "prefectureNumber": 15,
    "prefecture": "新潟県",
    "city": "上越市",
    "town": "安塚区和田"
  },
  "9420531": {
    "zipcode": "9420531",
    "prefectureCode": "15",
    "prefectureNumber": 15,
    "prefecture": "新潟県",
    "city": "上越市",
    "town": "安塚区樽田"
  },
  "9420532": {
    "zipcode": "9420532",
    "prefectureCode": "15",
    "prefectureNumber": 15,
    "prefecture": "新潟県",
    "city": "上越市",
    "town": "安塚区下船倉"
  },
  "9420533": {
    "zipcode": "9420533",
    "prefectureCode": "15",
    "prefectureNumber": 15,
    "prefecture": "新潟県",
    "city": "上越市",
    "town": "安塚区上船倉"
  },
  "9420534": {
    "zipcode": "9420534",
    "prefectureCode": "15",
    "prefectureNumber": 15,
    "prefecture": "新潟県",
    "city": "上越市",
    "town": "安塚区須川"
  },
  "9420535": {
    "zipcode": "9420535",
    "prefectureCode": "15",
    "prefectureNumber": 15,
    "prefecture": "新潟県",
    "city": "上越市",
    "town": "安塚区真荻平"
  },
  "9420536": {
    "zipcode": "9420536",
    "prefectureCode": "15",
    "prefectureNumber": 15,
    "prefecture": "新潟県",
    "city": "上越市",
    "town": "安塚区信濃坂"
  },
  "9420537": {
    "zipcode": "9420537",
    "prefectureCode": "15",
    "prefectureNumber": 15,
    "prefecture": "新潟県",
    "city": "上越市",
    "town": "安塚区二本木"
  },
  "9420538": {
    "zipcode": "9420538",
    "prefectureCode": "15",
    "prefectureNumber": 15,
    "prefecture": "新潟県",
    "city": "上越市",
    "town": "安塚区高沢"
  },
  "9420539": {
    "zipcode": "9420539",
    "prefectureCode": "15",
    "prefectureNumber": 15,
    "prefecture": "新潟県",
    "city": "上越市",
    "town": "安塚区円平坊"
  },
  "9420541": {
    "zipcode": "9420541",
    "prefectureCode": "15",
    "prefectureNumber": 15,
    "prefecture": "新潟県",
    "city": "上越市",
    "town": "安塚区小黒"
  },
  "9420542": {
    "zipcode": "9420542",
    "prefectureCode": "15",
    "prefectureNumber": 15,
    "prefecture": "新潟県",
    "city": "上越市",
    "town": "安塚区切越"
  },
  "9420543": {
    "zipcode": "9420543",
    "prefectureCode": "15",
    "prefectureNumber": 15,
    "prefecture": "新潟県",
    "city": "上越市",
    "town": "安塚区菅沼"
  },
  "9420544": {
    "zipcode": "9420544",
    "prefectureCode": "15",
    "prefectureNumber": 15,
    "prefecture": "新潟県",
    "city": "上越市",
    "town": "安塚区朴ノ木"
  },
  "9421101": {
    "zipcode": "9421101",
    "prefectureCode": "15",
    "prefectureNumber": 15,
    "prefecture": "新潟県",
    "city": "上越市",
    "town": "大島区嶺"
  },
  "9421102": {
    "zipcode": "9421102",
    "prefectureCode": "15",
    "prefectureNumber": 15,
    "prefecture": "新潟県",
    "city": "上越市",
    "town": "大島区田麦"
  },
  "9421103": {
    "zipcode": "9421103",
    "prefectureCode": "15",
    "prefectureNumber": 15,
    "prefecture": "新潟県",
    "city": "上越市",
    "town": "大島区大平"
  },
  "9421104": {
    "zipcode": "9421104",
    "prefectureCode": "15",
    "prefectureNumber": 15,
    "prefecture": "新潟県",
    "city": "上越市",
    "town": "大島区下達"
  },
  "9421105": {
    "zipcode": "9421105",
    "prefectureCode": "15",
    "prefectureNumber": 15,
    "prefecture": "新潟県",
    "city": "上越市",
    "town": "大島区上達"
  },
  "9421106": {
    "zipcode": "9421106",
    "prefectureCode": "15",
    "prefectureNumber": 15,
    "prefecture": "新潟県",
    "city": "上越市",
    "town": "大島区岡"
  },
  "9421107": {
    "zipcode": "9421107",
    "prefectureCode": "15",
    "prefectureNumber": 15,
    "prefecture": "新潟県",
    "city": "上越市",
    "town": "大島区板山"
  },
  "9421211": {
    "zipcode": "9421211",
    "prefectureCode": "15",
    "prefectureNumber": 15,
    "prefecture": "新潟県",
    "city": "上越市",
    "town": "大島区大島"
  },
  "9421212": {
    "zipcode": "9421212",
    "prefectureCode": "15",
    "prefectureNumber": 15,
    "prefecture": "新潟県",
    "city": "上越市",
    "town": "大島区中野"
  },
  "9421213": {
    "zipcode": "9421213",
    "prefectureCode": "15",
    "prefectureNumber": 15,
    "prefecture": "新潟県",
    "city": "上越市",
    "town": "大島区棚岡"
  },
  "9421214": {
    "zipcode": "9421214",
    "prefectureCode": "15",
    "prefectureNumber": 15,
    "prefecture": "新潟県",
    "city": "上越市",
    "town": "大島区仁上"
  },
  "9421215": {
    "zipcode": "9421215",
    "prefectureCode": "15",
    "prefectureNumber": 15,
    "prefecture": "新潟県",
    "city": "上越市",
    "town": "大島区牛ケ鼻"
  },
  "9421216": {
    "zipcode": "9421216",
    "prefectureCode": "15",
    "prefectureNumber": 15,
    "prefecture": "新潟県",
    "city": "上越市",
    "town": "大島区菖蒲"
  },
  "9421341": {
    "zipcode": "9421341",
    "prefectureCode": "15",
    "prefectureNumber": 15,
    "prefecture": "新潟県",
    "city": "十日町市",
    "town": "松之山黒倉"
  },
  "9421342": {
    "zipcode": "9421342",
    "prefectureCode": "15",
    "prefectureNumber": 15,
    "prefecture": "新潟県",
    "city": "十日町市",
    "town": "浦田"
  },
  "9421351": {
    "zipcode": "9421351",
    "prefectureCode": "15",
    "prefectureNumber": 15,
    "prefecture": "新潟県",
    "city": "十日町市",
    "town": "峠"
  },
  "9421352": {
    "zipcode": "9421352",
    "prefectureCode": "15",
    "prefectureNumber": 15,
    "prefecture": "新潟県",
    "city": "十日町市",
    "town": "木和田原"
  },
  "9421353": {
    "zipcode": "9421353",
    "prefectureCode": "15",
    "prefectureNumber": 15,
    "prefecture": "新潟県",
    "city": "十日町市",
    "town": "室野"
  },
  "9421354": {
    "zipcode": "9421354",
    "prefectureCode": "15",
    "prefectureNumber": 15,
    "prefecture": "新潟県",
    "city": "十日町市",
    "town": "福島"
  },
  "9421355": {
    "zipcode": "9421355",
    "prefectureCode": "15",
    "prefectureNumber": 15,
    "prefecture": "新潟県",
    "city": "十日町市",
    "town": "奈良立"
  },
  "9421356": {
    "zipcode": "9421356",
    "prefectureCode": "15",
    "prefectureNumber": 15,
    "prefecture": "新潟県",
    "city": "十日町市",
    "town": "竹所"
  },
  "9421401": {
    "zipcode": "9421401",
    "prefectureCode": "15",
    "prefectureNumber": 15,
    "prefecture": "新潟県",
    "city": "十日町市",
    "town": "松之山水梨"
  },
  "9421402": {
    "zipcode": "9421402",
    "prefectureCode": "15",
    "prefectureNumber": 15,
    "prefecture": "新潟県",
    "city": "十日町市",
    "town": "松之山小谷"
  },
  "9421403": {
    "zipcode": "9421403",
    "prefectureCode": "15",
    "prefectureNumber": 15,
    "prefecture": "新潟県",
    "city": "十日町市",
    "town": "松之山大荒戸"
  },
  "9421404": {
    "zipcode": "9421404",
    "prefectureCode": "15",
    "prefectureNumber": 15,
    "prefecture": "新潟県",
    "city": "十日町市",
    "town": "松之山新山"
  },
  "9421405": {
    "zipcode": "9421405",
    "prefectureCode": "15",
    "prefectureNumber": 15,
    "prefecture": "新潟県",
    "city": "十日町市",
    "town": "松之山光間"
  },
  "9421406": {
    "zipcode": "9421406",
    "prefectureCode": "15",
    "prefectureNumber": 15,
    "prefecture": "新潟県",
    "city": "十日町市",
    "town": "松之山"
  },
  "9421411": {
    "zipcode": "9421411",
    "prefectureCode": "15",
    "prefectureNumber": 15,
    "prefecture": "新潟県",
    "city": "十日町市",
    "town": "松之山松口"
  },
  "9421412": {
    "zipcode": "9421412",
    "prefectureCode": "15",
    "prefectureNumber": 15,
    "prefecture": "新潟県",
    "city": "十日町市",
    "town": "松之山三桶"
  },
  "9421413": {
    "zipcode": "9421413",
    "prefectureCode": "15",
    "prefectureNumber": 15,
    "prefecture": "新潟県",
    "city": "十日町市",
    "town": "松之山沢口"
  },
  "9421414": {
    "zipcode": "9421414",
    "prefectureCode": "15",
    "prefectureNumber": 15,
    "prefecture": "新潟県",
    "city": "十日町市",
    "town": "松之山古戸"
  },
  "9421415": {
    "zipcode": "9421415",
    "prefectureCode": "15",
    "prefectureNumber": 15,
    "prefecture": "新潟県",
    "city": "十日町市",
    "town": "松之山観音寺"
  },
  "9421416": {
    "zipcode": "9421416",
    "prefectureCode": "15",
    "prefectureNumber": 15,
    "prefecture": "新潟県",
    "city": "十日町市",
    "town": "松之山坂下"
  },
  "9421417": {
    "zipcode": "9421417",
    "prefectureCode": "15",
    "prefectureNumber": 15,
    "prefecture": "新潟県",
    "city": "十日町市",
    "town": "松之山猪之名"
  },
  "9421418": {
    "zipcode": "9421418",
    "prefectureCode": "15",
    "prefectureNumber": 15,
    "prefecture": "新潟県",
    "city": "十日町市",
    "town": "松之山藤内名"
  },
  "9421419": {
    "zipcode": "9421419",
    "prefectureCode": "15",
    "prefectureNumber": 15,
    "prefecture": "新潟県",
    "city": "十日町市",
    "town": "松之山橋詰"
  },
  "9421421": {
    "zipcode": "9421421",
    "prefectureCode": "15",
    "prefectureNumber": 15,
    "prefecture": "新潟県",
    "city": "十日町市",
    "town": "松之山五十子平"
  },
  "9421422": {
    "zipcode": "9421422",
    "prefectureCode": "15",
    "prefectureNumber": 15,
    "prefecture": "新潟県",
    "city": "十日町市",
    "town": "松之山坪野"
  },
  "9421423": {
    "zipcode": "9421423",
    "prefectureCode": "15",
    "prefectureNumber": 15,
    "prefecture": "新潟県",
    "city": "十日町市",
    "town": "松之山赤倉"
  },
  "9421424": {
    "zipcode": "9421424",
    "prefectureCode": "15",
    "prefectureNumber": 15,
    "prefecture": "新潟県",
    "city": "十日町市",
    "town": "松之山東山"
  },
  "9421425": {
    "zipcode": "9421425",
    "prefectureCode": "15",
    "prefectureNumber": 15,
    "prefecture": "新潟県",
    "city": "十日町市",
    "town": "松之山下鰕池"
  },
  "9421426": {
    "zipcode": "9421426",
    "prefectureCode": "15",
    "prefectureNumber": 15,
    "prefecture": "新潟県",
    "city": "十日町市",
    "town": "松之山上鰕池"
  },
  "9421427": {
    "zipcode": "9421427",
    "prefectureCode": "15",
    "prefectureNumber": 15,
    "prefecture": "新潟県",
    "city": "十日町市",
    "town": "松之山東川"
  },
  "9421428": {
    "zipcode": "9421428",
    "prefectureCode": "15",
    "prefectureNumber": 15,
    "prefecture": "新潟県",
    "city": "十日町市",
    "town": "松之山中尾"
  },
  "9421429": {
    "zipcode": "9421429",
    "prefectureCode": "15",
    "prefectureNumber": 15,
    "prefecture": "新潟県",
    "city": "十日町市",
    "town": "松之山藤倉"
  },
  "9421431": {
    "zipcode": "9421431",
    "prefectureCode": "15",
    "prefectureNumber": 15,
    "prefecture": "新潟県",
    "city": "十日町市",
    "town": "松之山湯山"
  },
  "9421432": {
    "zipcode": "9421432",
    "prefectureCode": "15",
    "prefectureNumber": 15,
    "prefecture": "新潟県",
    "city": "十日町市",
    "town": "松之山湯本"
  },
  "9421434": {
    "zipcode": "9421434",
    "prefectureCode": "15",
    "prefectureNumber": 15,
    "prefecture": "新潟県",
    "city": "十日町市",
    "town": "松之山天水島"
  },
  "9421435": {
    "zipcode": "9421435",
    "prefectureCode": "15",
    "prefectureNumber": 15,
    "prefecture": "新潟県",
    "city": "十日町市",
    "town": "松之山天水越"
  },
  "9421501": {
    "zipcode": "9421501",
    "prefectureCode": "15",
    "prefectureNumber": 15,
    "prefecture": "新潟県",
    "city": "十日町市",
    "town": "滝沢"
  },
  "9421502": {
    "zipcode": "9421502",
    "prefectureCode": "15",
    "prefectureNumber": 15,
    "prefecture": "新潟県",
    "city": "十日町市",
    "town": "片桐山"
  },
  "9421503": {
    "zipcode": "9421503",
    "prefectureCode": "15",
    "prefectureNumber": 15,
    "prefecture": "新潟県",
    "city": "十日町市",
    "town": "孟地"
  },
  "9421504": {
    "zipcode": "9421504",
    "prefectureCode": "15",
    "prefectureNumber": 15,
    "prefecture": "新潟県",
    "city": "十日町市",
    "town": "犬伏"
  },
  "9421505": {
    "zipcode": "9421505",
    "prefectureCode": "15",
    "prefectureNumber": 15,
    "prefecture": "新潟県",
    "city": "十日町市",
    "town": "苧島"
  },
  "9421506": {
    "zipcode": "9421506",
    "prefectureCode": "15",
    "prefectureNumber": 15,
    "prefecture": "新潟県",
    "city": "十日町市",
    "town": "中子"
  },
  "9421511": {
    "zipcode": "9421511",
    "prefectureCode": "15",
    "prefectureNumber": 15,
    "prefecture": "新潟県",
    "city": "十日町市",
    "town": "海老"
  },
  "9421512": {
    "zipcode": "9421512",
    "prefectureCode": "15",
    "prefectureNumber": 15,
    "prefecture": "新潟県",
    "city": "十日町市",
    "town": "松代東山"
  },
  "9421513": {
    "zipcode": "9421513",
    "prefectureCode": "15",
    "prefectureNumber": 15,
    "prefecture": "新潟県",
    "city": "十日町市",
    "town": "松代下山"
  },
  "9421514": {
    "zipcode": "9421514",
    "prefectureCode": "15",
    "prefectureNumber": 15,
    "prefecture": "新潟県",
    "city": "十日町市",
    "town": "小屋丸"
  },
  "9421515": {
    "zipcode": "9421515",
    "prefectureCode": "15",
    "prefectureNumber": 15,
    "prefecture": "新潟県",
    "city": "十日町市",
    "town": "池之畑"
  },
  "9421521": {
    "zipcode": "9421521",
    "prefectureCode": "15",
    "prefectureNumber": 15,
    "prefecture": "新潟県",
    "city": "十日町市",
    "town": "菅刈"
  },
  "9421522": {
    "zipcode": "9421522",
    "prefectureCode": "15",
    "prefectureNumber": 15,
    "prefecture": "新潟県",
    "city": "十日町市",
    "town": "松代田沢"
  },
  "9421523": {
    "zipcode": "9421523",
    "prefectureCode": "15",
    "prefectureNumber": 15,
    "prefecture": "新潟県",
    "city": "十日町市",
    "town": "小荒戸"
  },
  "9421524": {
    "zipcode": "9421524",
    "prefectureCode": "15",
    "prefectureNumber": 15,
    "prefecture": "新潟県",
    "city": "十日町市",
    "town": "千年"
  },
  "9421525": {
    "zipcode": "9421525",
    "prefectureCode": "15",
    "prefectureNumber": 15,
    "prefecture": "新潟県",
    "city": "十日町市",
    "town": "池尻"
  },
  "9421526": {
    "zipcode": "9421526",
    "prefectureCode": "15",
    "prefectureNumber": 15,
    "prefecture": "新潟県",
    "city": "十日町市",
    "town": "松代"
  },
  "9421527": {
    "zipcode": "9421527",
    "prefectureCode": "15",
    "prefectureNumber": 15,
    "prefecture": "新潟県",
    "city": "十日町市",
    "town": "太平"
  },
  "9421531": {
    "zipcode": "9421531",
    "prefectureCode": "15",
    "prefectureNumber": 15,
    "prefecture": "新潟県",
    "city": "十日町市",
    "town": "莇平"
  },
  "9421532": {
    "zipcode": "9421532",
    "prefectureCode": "15",
    "prefectureNumber": 15,
    "prefecture": "新潟県",
    "city": "十日町市",
    "town": "仙納"
  },
  "9421533": {
    "zipcode": "9421533",
    "prefectureCode": "15",
    "prefectureNumber": 15,
    "prefecture": "新潟県",
    "city": "十日町市",
    "town": "田野倉"
  },
  "9421534": {
    "zipcode": "9421534",
    "prefectureCode": "15",
    "prefectureNumber": 15,
    "prefecture": "新潟県",
    "city": "十日町市",
    "town": "蒲生"
  },
  "9421535": {
    "zipcode": "9421535",
    "prefectureCode": "15",
    "prefectureNumber": 15,
    "prefecture": "新潟県",
    "city": "十日町市",
    "town": "名平"
  },
  "9421536": {
    "zipcode": "9421536",
    "prefectureCode": "15",
    "prefectureNumber": 15,
    "prefecture": "新潟県",
    "city": "十日町市",
    "town": "儀明"
  },
  "9421537": {
    "zipcode": "9421537",
    "prefectureCode": "15",
    "prefectureNumber": 15,
    "prefecture": "新潟県",
    "city": "十日町市",
    "town": "寺田"
  },
  "9421538": {
    "zipcode": "9421538",
    "prefectureCode": "15",
    "prefectureNumber": 15,
    "prefecture": "新潟県",
    "city": "十日町市",
    "town": "小池"
  },
  "9421541": {
    "zipcode": "9421541",
    "prefectureCode": "15",
    "prefectureNumber": 15,
    "prefecture": "新潟県",
    "city": "十日町市",
    "town": "桐山"
  },
  "9421542": {
    "zipcode": "9421542",
    "prefectureCode": "15",
    "prefectureNumber": 15,
    "prefecture": "新潟県",
    "city": "十日町市",
    "town": "清水"
  },
  "9421543": {
    "zipcode": "9421543",
    "prefectureCode": "15",
    "prefectureNumber": 15,
    "prefecture": "新潟県",
    "city": "十日町市",
    "town": "会沢"
  },
  "9421544": {
    "zipcode": "9421544",
    "prefectureCode": "15",
    "prefectureNumber": 15,
    "prefecture": "新潟県",
    "city": "十日町市",
    "town": "蓬平"
  }
}
