{
  "9430000": {
    "zipcode": "9430000",
    "prefectureCode": "15",
    "prefectureNumber": 15,
    "prefecture": "新潟県",
    "city": "上越市",
    "town": "以下に掲載がない場合"
  },
  "9430101": {
    "zipcode": "9430101",
    "prefectureCode": "15",
    "prefectureNumber": 15,
    "prefecture": "新潟県",
    "city": "上越市",
    "town": "上真砂"
  },
  "9430102": {
    "zipcode": "9430102",
    "prefectureCode": "15",
    "prefectureNumber": 15,
    "prefecture": "新潟県",
    "city": "上越市",
    "town": "杉野袋"
  },
  "9430103": {
    "zipcode": "9430103",
    "prefectureCode": "15",
    "prefectureNumber": 15,
    "prefecture": "新潟県",
    "city": "上越市",
    "town": "米岡"
  },
  "9430104": {
    "zipcode": "9430104",
    "prefectureCode": "15",
    "prefectureNumber": 15,
    "prefecture": "新潟県",
    "city": "上越市",
    "town": "鶴町"
  },
  "9430105": {
    "zipcode": "9430105",
    "prefectureCode": "15",
    "prefectureNumber": 15,
    "prefecture": "新潟県",
    "city": "上越市",
    "town": "東原"
  },
  "9430106": {
    "zipcode": "9430106",
    "prefectureCode": "15",
    "prefectureNumber": 15,
    "prefecture": "新潟県",
    "city": "上越市",
    "town": "北田中"
  },
  "9430107": {
    "zipcode": "9430107",
    "prefectureCode": "15",
    "prefectureNumber": 15,
    "prefecture": "新潟県",
    "city": "上越市",
    "town": "諏訪"
  },
  "9430108": {
    "zipcode": "9430108",
    "prefectureCode": "15",
    "prefectureNumber": 15,
    "prefecture": "新潟県",
    "city": "上越市",
    "town": "南新保"
  },
  "9430109": {
    "zipcode": "9430109",
    "prefectureCode": "15",
    "prefectureNumber": 15,
    "prefecture": "新潟県",
    "city": "上越市",
    "town": "北新保"
  },
  "9430111": {
    "zipcode": "9430111",
    "prefectureCode": "15",
    "prefectureNumber": 15,
    "prefecture": "新潟県",
    "city": "上越市",
    "town": "下野田"
  },
  "9430112": {
    "zipcode": "9430112",
    "prefectureCode": "15",
    "prefectureNumber": 15,
    "prefecture": "新潟県",
    "city": "上越市",
    "town": "上野田"
  },
  "9430113": {
    "zipcode": "9430113",
    "prefectureCode": "15",
    "prefectureNumber": 15,
    "prefecture": "新潟県",
    "city": "上越市",
    "town": "上池部"
  },
  "9430114": {
    "zipcode": "9430114",
    "prefectureCode": "15",
    "prefectureNumber": 15,
    "prefecture": "新潟県",
    "city": "上越市",
    "town": "吉岡"
  },
  "9430115": {
    "zipcode": "9430115",
    "prefectureCode": "15",
    "prefectureNumber": 15,
    "prefecture": "新潟県",
    "city": "上越市",
    "town": "劔"
  },
  "9430116": {
    "zipcode": "9430116",
    "prefectureCode": "15",
    "prefectureNumber": 15,
    "prefecture": "新潟県",
    "city": "上越市",
    "town": "野尻"
  },
  "9430117": {
    "zipcode": "9430117",
    "prefectureCode": "15",
    "prefectureNumber": 15,
    "prefecture": "新潟県",
    "city": "上越市",
    "town": "稲"
  },
  "9430118": {
    "zipcode": "9430118",
    "prefectureCode": "15",
    "prefectureNumber": 15,
    "prefecture": "新潟県",
    "city": "上越市",
    "town": "東市野口"
  },
  "9430119": {
    "zipcode": "9430119",
    "prefectureCode": "15",
    "prefectureNumber": 15,
    "prefecture": "新潟県",
    "city": "上越市",
    "town": "下池部"
  },
  "9430121": {
    "zipcode": "9430121",
    "prefectureCode": "15",
    "prefectureNumber": 15,
    "prefecture": "新潟県",
    "city": "上越市",
    "town": "藤塚"
  },
  "9430122": {
    "zipcode": "9430122",
    "prefectureCode": "15",
    "prefectureNumber": 15,
    "prefecture": "新潟県",
    "city": "上越市",
    "town": "新保古新田"
  },
  "9430123": {
    "zipcode": "9430123",
    "prefectureCode": "15",
    "prefectureNumber": 15,
    "prefecture": "新潟県",
    "city": "上越市",
    "town": "本新保"
  },
  "9430124": {
    "zipcode": "9430124",
    "prefectureCode": "15",
    "prefectureNumber": 15,
    "prefecture": "新潟県",
    "city": "上越市",
    "town": "上雲寺"
  },
  "9430125": {
    "zipcode": "9430125",
    "prefectureCode": "15",
    "prefectureNumber": 15,
    "prefecture": "新潟県",
    "city": "上越市",
    "town": "下富川"
  },
  "9430126": {
    "zipcode": "9430126",
    "prefectureCode": "15",
    "prefectureNumber": 15,
    "prefecture": "新潟県",
    "city": "上越市",
    "town": "上富川"
  },
  "9430127": {
    "zipcode": "9430127",
    "prefectureCode": "15",
    "prefectureNumber": 15,
    "prefecture": "新潟県",
    "city": "上越市",
    "town": "熊塚"
  },
  "9430128": {
    "zipcode": "9430128",
    "prefectureCode": "15",
    "prefectureNumber": 15,
    "prefecture": "新潟県",
    "city": "上越市",
    "town": "池"
  },
  "9430129": {
    "zipcode": "9430129",
    "prefectureCode": "15",
    "prefectureNumber": 15,
    "prefecture": "新潟県",
    "city": "上越市",
    "town": "茨沢"
  },
  "9430131": {
    "zipcode": "9430131",
    "prefectureCode": "15",
    "prefectureNumber": 15,
    "prefecture": "新潟県",
    "city": "上越市",
    "town": "薮野"
  },
  "9430132": {
    "zipcode": "9430132",
    "prefectureCode": "15",
    "prefectureNumber": 15,
    "prefecture": "新潟県",
    "city": "上越市",
    "town": "辰尾新田"
  },
  "9430133": {
    "zipcode": "9430133",
    "prefectureCode": "15",
    "prefectureNumber": 15,
    "prefecture": "新潟県",
    "city": "上越市",
    "town": "東稲塚新田"
  },
  "9430134": {
    "zipcode": "9430134",
    "prefectureCode": "15",
    "prefectureNumber": 15,
    "prefecture": "新潟県",
    "city": "上越市",
    "town": "下稲塚"
  },
  "9430135": {
    "zipcode": "9430135",
    "prefectureCode": "15",
    "prefectureNumber": 15,
    "prefecture": "新潟県",
    "city": "上越市",
    "town": "下四ツ屋"
  },
  "9430136": {
    "zipcode": "9430136",
    "prefectureCode": "15",
    "prefectureNumber": 15,
    "prefecture": "新潟県",
    "city": "上越市",
    "town": "西松野木"
  },
  "9430137": {
    "zipcode": "9430137",
    "prefectureCode": "15",
    "prefectureNumber": 15,
    "prefecture": "新潟県",
    "city": "上越市",
    "town": "長者町"
  },
  "9430138": {
    "zipcode": "9430138",
    "prefectureCode": "15",
    "prefectureNumber": 15,
    "prefecture": "新潟県",
    "city": "上越市",
    "town": "本長者原"
  },
  "9430139": {
    "zipcode": "9430139",
    "prefectureCode": "15",
    "prefectureNumber": 15,
    "prefecture": "新潟県",
    "city": "上越市",
    "town": "天野原新田"
  },
  "9430141": {
    "zipcode": "9430141",
    "prefectureCode": "15",
    "prefectureNumber": 15,
    "prefecture": "新潟県",
    "city": "上越市",
    "town": "子安"
  },
  "9430142": {
    "zipcode": "9430142",
    "prefectureCode": "15",
    "prefectureNumber": 15,
    "prefecture": "新潟県",
    "city": "上越市",
    "town": "下新町"
  },
  "9430143": {
    "zipcode": "9430143",
    "prefectureCode": "15",
    "prefectureNumber": 15,
    "prefecture": "新潟県",
    "city": "上越市",
    "town": "上新町"
  },
  "9430144": {
    "zipcode": "9430144",
    "prefectureCode": "15",
    "prefectureNumber": 15,
    "prefecture": "新潟県",
    "city": "上越市",
    "town": "桜町"
  },
  "9430145": {
    "zipcode": "9430145",
    "prefectureCode": "15",
    "prefectureNumber": 15,
    "prefecture": "新潟県",
    "city": "上越市",
    "town": "今池"
  },
  "9430146": {
    "zipcode": "9430146",
    "prefectureCode": "15",
    "prefectureNumber": 15,
    "prefecture": "新潟県",
    "city": "上越市",
    "town": "とよば"
  },
  "9430147": {
    "zipcode": "9430147",
    "prefectureCode": "15",
    "prefectureNumber": 15,
    "prefecture": "新潟県",
    "city": "上越市",
    "town": "新南町"
  },
  "9430148": {
    "zipcode": "9430148",
    "prefectureCode": "15",
    "prefectureNumber": 15,
    "prefecture": "新潟県",
    "city": "上越市",
    "town": "子安新田"
  },
  "9430151": {
    "zipcode": "9430151",
    "prefectureCode": "15",
    "prefectureNumber": 15,
    "prefecture": "新潟県",
    "city": "上越市",
    "town": "平成町"
  },
  "9430152": {
    "zipcode": "9430152",
    "prefectureCode": "15",
    "prefectureNumber": 15,
    "prefecture": "新潟県",
    "city": "上越市",
    "town": "西市野口"
  },
  "9430153": {
    "zipcode": "9430153",
    "prefectureCode": "15",
    "prefectureNumber": 15,
    "prefecture": "新潟県",
    "city": "上越市",
    "town": "鴨島"
  },
  "9430154": {
    "zipcode": "9430154",
    "prefectureCode": "15",
    "prefectureNumber": 15,
    "prefecture": "新潟県",
    "city": "上越市",
    "town": "稲田"
  },
  "9430155": {
    "zipcode": "9430155",
    "prefectureCode": "15",
    "prefectureNumber": 15,
    "prefecture": "新潟県",
    "city": "上越市",
    "town": "四ケ所"
  },
  "9430161": {
    "zipcode": "9430161",
    "prefectureCode": "15",
    "prefectureNumber": 15,
    "prefecture": "新潟県",
    "city": "上越市",
    "town": "北田屋新田"
  },
  "9430162": {
    "zipcode": "9430162",
    "prefectureCode": "15",
    "prefectureNumber": 15,
    "prefecture": "新潟県",
    "city": "上越市",
    "town": "南田屋新田"
  },
  "9430163": {
    "zipcode": "9430163",
    "prefectureCode": "15",
    "prefectureNumber": 15,
    "prefecture": "新潟県",
    "city": "上越市",
    "town": "平岡"
  },
  "9430164": {
    "zipcode": "9430164",
    "prefectureCode": "15",
    "prefectureNumber": 15,
    "prefecture": "新潟県",
    "city": "上越市",
    "town": "中々村新田"
  },
  "9430165": {
    "zipcode": "9430165",
    "prefectureCode": "15",
    "prefectureNumber": 15,
    "prefecture": "新潟県",
    "city": "上越市",
    "town": "上島"
  },
  "9430166": {
    "zipcode": "9430166",
    "prefectureCode": "15",
    "prefectureNumber": 15,
    "prefecture": "新潟県",
    "city": "上越市",
    "town": "寺"
  },
  "9430167": {
    "zipcode": "9430167",
    "prefectureCode": "15",
    "prefectureNumber": 15,
    "prefecture": "新潟県",
    "city": "上越市",
    "town": "下稲田"
  },
  "9430168": {
    "zipcode": "9430168",
    "prefectureCode": "15",
    "prefectureNumber": 15,
    "prefecture": "新潟県",
    "city": "上越市",
    "town": "上稲田"
  },
  "9430171": {
    "zipcode": "9430171",
    "prefectureCode": "15",
    "prefectureNumber": 15,
    "prefecture": "新潟県",
    "city": "上越市",
    "town": "藤野新田"
  },
  "9430172": {
    "zipcode": "9430172",
    "prefectureCode": "15",
    "prefectureNumber": 15,
    "prefecture": "新潟県",
    "city": "上越市",
    "town": "大道福田"
  },
  "9430173": {
    "zipcode": "9430173",
    "prefectureCode": "15",
    "prefectureNumber": 15,
    "prefecture": "新潟県",
    "city": "上越市",
    "town": "富岡"
  },
  "9430174": {
    "zipcode": "9430174",
    "prefectureCode": "15",
    "prefectureNumber": 15,
    "prefecture": "新潟県",
    "city": "上越市",
    "town": "中田新田"
  },
  "9430175": {
    "zipcode": "9430175",
    "prefectureCode": "15",
    "prefectureNumber": 15,
    "prefecture": "新潟県",
    "city": "上越市",
    "town": "大日"
  },
  "9430176": {
    "zipcode": "9430176",
    "prefectureCode": "15",
    "prefectureNumber": 15,
    "prefecture": "新潟県",
    "city": "上越市",
    "town": "戸野目古新田"
  },
  "9430177": {
    "zipcode": "9430177",
    "prefectureCode": "15",
    "prefectureNumber": 15,
    "prefecture": "新潟県",
    "city": "上越市",
    "town": "門田新田"
  },
  "9430178": {
    "zipcode": "9430178",
    "prefectureCode": "15",
    "prefectureNumber": 15,
    "prefecture": "新潟県",
    "city": "上越市",
    "town": "戸野目"
  },
  "9430181": {
    "zipcode": "9430181",
    "prefectureCode": "15",
    "prefectureNumber": 15,
    "prefecture": "新潟県",
    "city": "上越市",
    "town": "虫川"
  },
  "9430182": {
    "zipcode": "9430182",
    "prefectureCode": "15",
    "prefectureNumber": 15,
    "prefecture": "新潟県",
    "city": "上越市",
    "town": "高森"
  },
  "9430183": {
    "zipcode": "9430183",
    "prefectureCode": "15",
    "prefectureNumber": 15,
    "prefecture": "新潟県",
    "city": "上越市",
    "town": "桐原"
  },
  "9430184": {
    "zipcode": "9430184",
    "prefectureCode": "15",
    "prefectureNumber": 15,
    "prefecture": "新潟県",
    "city": "上越市",
    "town": "本道"
  },
  "9430185": {
    "zipcode": "9430185",
    "prefectureCode": "15",
    "prefectureNumber": 15,
    "prefecture": "新潟県",
    "city": "上越市",
    "town": "長面"
  },
  "9430186": {
    "zipcode": "9430186",
    "prefectureCode": "15",
    "prefectureNumber": 15,
    "prefecture": "新潟県",
    "city": "上越市",
    "town": "市野江"
  },
  "9430187": {
    "zipcode": "9430187",
    "prefectureCode": "15",
    "prefectureNumber": 15,
    "prefecture": "新潟県",
    "city": "上越市",
    "town": "荒屋"
  },
  "9430201": {
    "zipcode": "9430201",
    "prefectureCode": "15",
    "prefectureNumber": 15,
    "prefecture": "新潟県",
    "city": "上越市",
    "town": "四辻町"
  },
  "9430202": {
    "zipcode": "9430202",
    "prefectureCode": "15",
    "prefectureNumber": 15,
    "prefecture": "新潟県",
    "city": "上越市",
    "town": "米町"
  },
  "9430221": {
    "zipcode": "9430221",
    "prefectureCode": "15",
    "prefectureNumber": 15,
    "prefecture": "新潟県",
    "city": "上越市",
    "town": "三和区稲原"
  },
  "9430222": {
    "zipcode": "9430222",
    "prefectureCode": "15",
    "prefectureNumber": 15,
    "prefecture": "新潟県",
    "city": "上越市",
    "town": "三和区下中"
  },
  "9430223": {
    "zipcode": "9430223",
    "prefectureCode": "15",
    "prefectureNumber": 15,
    "prefecture": "新潟県",
    "city": "上越市",
    "town": "三和区田"
  },
  "9430224": {
    "zipcode": "9430224",
    "prefectureCode": "15",
    "prefectureNumber": 15,
    "prefecture": "新潟県",
    "city": "上越市",
    "town": "三和区川浦"
  },
  "9430225": {
    "zipcode": "9430225",
    "prefectureCode": "15",
    "prefectureNumber": 15,
    "prefecture": "新潟県",
    "city": "上越市",
    "town": "三和区野"
  },
  "9430226": {
    "zipcode": "9430226",
    "prefectureCode": "15",
    "prefectureNumber": 15,
    "prefecture": "新潟県",
    "city": "上越市",
    "town": "三和区日和町"
  },
  "9430227": {
    "zipcode": "9430227",
    "prefectureCode": "15",
    "prefectureNumber": 15,
    "prefecture": "新潟県",
    "city": "上越市",
    "town": "三和区番町"
  },
  "9430228": {
    "zipcode": "9430228",
    "prefectureCode": "15",
    "prefectureNumber": 15,
    "prefecture": "新潟県",
    "city": "上越市",
    "town": "三和区神明町"
  },
  "9430231": {
    "zipcode": "9430231",
    "prefectureCode": "15",
    "prefectureNumber": 15,
    "prefecture": "新潟県",
    "city": "上越市",
    "town": "三和区鴨井"
  },
  "9430232": {
    "zipcode": "9430232",
    "prefectureCode": "15",
    "prefectureNumber": 15,
    "prefecture": "新潟県",
    "city": "上越市",
    "town": "三和区水吉"
  },
  "9430233": {
    "zipcode": "9430233",
    "prefectureCode": "15",
    "prefectureNumber": 15,
    "prefecture": "新潟県",
    "city": "上越市",
    "town": "三和区水科"
  },
  "9430234": {
    "zipcode": "9430234",
    "prefectureCode": "15",
    "prefectureNumber": 15,
    "prefecture": "新潟県",
    "city": "上越市",
    "town": "三和区法花寺"
  },
  "9430235": {
    "zipcode": "9430235",
    "prefectureCode": "15",
    "prefectureNumber": 15,
    "prefecture": "新潟県",
    "city": "上越市",
    "town": "三和区窪"
  },
  "9430236": {
    "zipcode": "9430236",
    "prefectureCode": "15",
    "prefectureNumber": 15,
    "prefecture": "新潟県",
    "city": "上越市",
    "town": "三和区中野"
  },
  "9430301": {
    "zipcode": "9430301",
    "prefectureCode": "15",
    "prefectureNumber": 15,
    "prefecture": "新潟県",
    "city": "上越市",
    "town": "三和区北代"
  },
  "9430302": {
    "zipcode": "9430302",
    "prefectureCode": "15",
    "prefectureNumber": 15,
    "prefecture": "新潟県",
    "city": "上越市",
    "town": "三和区払沢"
  },
  "9430303": {
    "zipcode": "9430303",
    "prefectureCode": "15",
    "prefectureNumber": 15,
    "prefecture": "新潟県",
    "city": "上越市",
    "town": "三和区山高津"
  },
  "9430304": {
    "zipcode": "9430304",
    "prefectureCode": "15",
    "prefectureNumber": 15,
    "prefecture": "新潟県",
    "city": "上越市",
    "town": "三和区桑曽根"
  },
  "9430305": {
    "zipcode": "9430305",
    "prefectureCode": "15",
    "prefectureNumber": 15,
    "prefecture": "新潟県",
    "city": "上越市",
    "town": "三和区岡田"
  },
  "9430306": {
    "zipcode": "9430306",
    "prefectureCode": "15",
    "prefectureNumber": 15,
    "prefecture": "新潟県",
    "city": "上越市",
    "town": "三和区所山田"
  },
  "9430307": {
    "zipcode": "9430307",
    "prefectureCode": "15",
    "prefectureNumber": 15,
    "prefecture": "新潟県",
    "city": "上越市",
    "town": "三和区下新保"
  },
  "9430311": {
    "zipcode": "9430311",
    "prefectureCode": "15",
    "prefectureNumber": 15,
    "prefecture": "新潟県",
    "city": "上越市",
    "town": "三和区島倉"
  },
  "9430312": {
    "zipcode": "9430312",
    "prefectureCode": "15",
    "prefectureNumber": 15,
    "prefecture": "新潟県",
    "city": "上越市",
    "town": "三和区下田島"
  },
  "9430313": {
    "zipcode": "9430313",
    "prefectureCode": "15",
    "prefectureNumber": 15,
    "prefecture": "新潟県",
    "city": "上越市",
    "town": "三和区今保"
  },
  "9430314": {
    "zipcode": "9430314",
    "prefectureCode": "15",
    "prefectureNumber": 15,
    "prefecture": "新潟県",
    "city": "上越市",
    "town": "三和区大"
  },
  "9430315": {
    "zipcode": "9430315",
    "prefectureCode": "15",
    "prefectureNumber": 15,
    "prefecture": "新潟県",
    "city": "上越市",
    "town": "三和区三村新田"
  },
  "9430316": {
    "zipcode": "9430316",
    "prefectureCode": "15",
    "prefectureNumber": 15,
    "prefecture": "新潟県",
    "city": "上越市",
    "town": "三和区井ノ口"
  },
  "9430317": {
    "zipcode": "9430317",
    "prefectureCode": "15",
    "prefectureNumber": 15,
    "prefecture": "新潟県",
    "city": "上越市",
    "town": "三和区浮島"
  },
  "9430318": {
    "zipcode": "9430318",
    "prefectureCode": "15",
    "prefectureNumber": 15,
    "prefecture": "新潟県",
    "city": "上越市",
    "town": "三和区宮崎新田"
  },
  "9430411": {
    "zipcode": "9430411",
    "prefectureCode": "15",
    "prefectureNumber": 15,
    "prefecture": "新潟県",
    "city": "上越市",
    "town": "妙油"
  },
  "9430412": {
    "zipcode": "9430412",
    "prefectureCode": "15",
    "prefectureNumber": 15,
    "prefecture": "新潟県",
    "city": "上越市",
    "town": "北方"
  },
  "9430413": {
    "zipcode": "9430413",
    "prefectureCode": "15",
    "prefectureNumber": 15,
    "prefecture": "新潟県",
    "city": "上越市",
    "town": "南方"
  },
  "9430414": {
    "zipcode": "9430414",
    "prefectureCode": "15",
    "prefectureNumber": 15,
    "prefecture": "新潟県",
    "city": "上越市",
    "town": "大口"
  },
  "9430415": {
    "zipcode": "9430415",
    "prefectureCode": "15",
    "prefectureNumber": 15,
    "prefecture": "新潟県",
    "city": "上越市",
    "town": "東京田"
  },
  "9430416": {
    "zipcode": "9430416",
    "prefectureCode": "15",
    "prefectureNumber": 15,
    "prefecture": "新潟県",
    "city": "上越市",
    "town": "十二ノ木"
  },
  "9430417": {
    "zipcode": "9430417",
    "prefectureCode": "15",
    "prefectureNumber": 15,
    "prefecture": "新潟県",
    "city": "上越市",
    "town": "森田"
  },
  "9430421": {
    "zipcode": "9430421",
    "prefectureCode": "15",
    "prefectureNumber": 15,
    "prefecture": "新潟県",
    "city": "上越市",
    "town": "高和町"
  },
  "9430422": {
    "zipcode": "9430422",
    "prefectureCode": "15",
    "prefectureNumber": 15,
    "prefecture": "新潟県",
    "city": "上越市",
    "town": "飯田"
  },
  "9430423": {
    "zipcode": "9430423",
    "prefectureCode": "15",
    "prefectureNumber": 15,
    "prefecture": "新潟県",
    "city": "上越市",
    "town": "高津"
  },
  "9430424": {
    "zipcode": "9430424",
    "prefectureCode": "15",
    "prefectureNumber": 15,
    "prefecture": "新潟県",
    "city": "上越市",
    "town": "上曾根"
  },
  "9430425": {
    "zipcode": "9430425",
    "prefectureCode": "15",
    "prefectureNumber": 15,
    "prefecture": "新潟県",
    "city": "上越市",
    "town": "稲谷"
  },
  "9430426": {
    "zipcode": "9430426",
    "prefectureCode": "15",
    "prefectureNumber": 15,
    "prefecture": "新潟県",
    "city": "上越市",
    "town": "下曾根"
  },
  "9430427": {
    "zipcode": "9430427",
    "prefectureCode": "15",
    "prefectureNumber": 15,
    "prefecture": "新潟県",
    "city": "上越市",
    "town": "元屋敷"
  },
  "9430501": {
    "zipcode": "9430501",
    "prefectureCode": "15",
    "prefectureNumber": 15,
    "prefecture": "新潟県",
    "city": "上越市",
    "town": "清里区岡野町"
  },
  "9430502": {
    "zipcode": "9430502",
    "prefectureCode": "15",
    "prefectureNumber": 15,
    "prefecture": "新潟県",
    "city": "上越市",
    "town": "清里区荒牧"
  },
  "9430503": {
    "zipcode": "9430503",
    "prefectureCode": "15",
    "prefectureNumber": 15,
    "prefecture": "新潟県",
    "city": "上越市",
    "town": "清里区上深沢"
  },
  "9430504": {
    "zipcode": "9430504",
    "prefectureCode": "15",
    "prefectureNumber": 15,
    "prefecture": "新潟県",
    "city": "上越市",
    "town": "清里区上田島"
  },
  "9430505": {
    "zipcode": "9430505",
    "prefectureCode": "15",
    "prefectureNumber": 15,
    "prefecture": "新潟県",
    "city": "上越市",
    "town": "清里区東福島"
  },
  "9430506": {
    "zipcode": "9430506",
    "prefectureCode": "15",
    "prefectureNumber": 15,
    "prefecture": "新潟県",
    "city": "上越市",
    "town": "清里区菅原"
  },
  "9430507": {
    "zipcode": "9430507",
    "prefectureCode": "15",
    "prefectureNumber": 15,
    "prefecture": "新潟県",
    "city": "上越市",
    "town": "清里区岡嶺新田"
  },
  "9430508": {
    "zipcode": "9430508",
    "prefectureCode": "15",
    "prefectureNumber": 15,
    "prefecture": "新潟県",
    "city": "上越市",
    "town": "清里区平成"
  },
  "9430509": {
    "zipcode": "9430509",
    "prefectureCode": "15",
    "prefectureNumber": 15,
    "prefecture": "新潟県",
    "city": "上越市",
    "town": "清里区弥生"
  },
  "9430510": {
    "zipcode": "9430510",
    "prefectureCode": "15",
    "prefectureNumber": 15,
    "prefecture": "新潟県",
    "city": "上越市",
    "town": "清里区みらい"
  },
  "9430511": {
    "zipcode": "9430511",
    "prefectureCode": "15",
    "prefectureNumber": 15,
    "prefecture": "新潟県",
    "city": "上越市",
    "town": "清里区塩曽根"
  },
  "9430512": {
    "zipcode": "9430512",
    "prefectureCode": "15",
    "prefectureNumber": 15,
    "prefecture": "新潟県",
    "city": "上越市",
    "town": "清里区馬屋"
  },
  "9430513": {
    "zipcode": "9430513",
    "prefectureCode": "15",
    "prefectureNumber": 15,
    "prefecture": "新潟県",
    "city": "上越市",
    "town": "清里区今曽根"
  },
  "9430514": {
    "zipcode": "9430514",
    "prefectureCode": "15",
    "prefectureNumber": 15,
    "prefecture": "新潟県",
    "city": "上越市",
    "town": "清里区南田中"
  },
  "9430515": {
    "zipcode": "9430515",
    "prefectureCode": "15",
    "prefectureNumber": 15,
    "prefecture": "新潟県",
    "city": "上越市",
    "town": "清里区武士"
  },
  "9430516": {
    "zipcode": "9430516",
    "prefectureCode": "15",
    "prefectureNumber": 15,
    "prefecture": "新潟県",
    "city": "上越市",
    "town": "清里区上稲塚"
  },
  "9430521": {
    "zipcode": "9430521",
    "prefectureCode": "15",
    "prefectureNumber": 15,
    "prefecture": "新潟県",
    "city": "上越市",
    "town": "清里区寺脇"
  },
  "9430522": {
    "zipcode": "9430522",
    "prefectureCode": "15",
    "prefectureNumber": 15,
    "prefecture": "新潟県",
    "city": "上越市",
    "town": "清里区東戸野"
  },
  "9430523": {
    "zipcode": "9430523",
    "prefectureCode": "15",
    "prefectureNumber": 15,
    "prefecture": "新潟県",
    "city": "上越市",
    "town": "清里区棚田"
  },
  "9430524": {
    "zipcode": "9430524",
    "prefectureCode": "15",
    "prefectureNumber": 15,
    "prefecture": "新潟県",
    "city": "上越市",
    "town": "清里区水草"
  },
  "9430525": {
    "zipcode": "9430525",
    "prefectureCode": "15",
    "prefectureNumber": 15,
    "prefecture": "新潟県",
    "city": "上越市",
    "town": "清里区北野"
  },
  "9430526": {
    "zipcode": "9430526",
    "prefectureCode": "15",
    "prefectureNumber": 15,
    "prefecture": "新潟県",
    "city": "上越市",
    "town": "清里区梨平"
  },
  "9430527": {
    "zipcode": "9430527",
    "prefectureCode": "15",
    "prefectureNumber": 15,
    "prefecture": "新潟県",
    "city": "上越市",
    "town": "清里区赤池"
  },
  "9430531": {
    "zipcode": "9430531",
    "prefectureCode": "15",
    "prefectureNumber": 15,
    "prefecture": "新潟県",
    "city": "上越市",
    "town": "清里区青柳"
  },
  "9430532": {
    "zipcode": "9430532",
    "prefectureCode": "15",
    "prefectureNumber": 15,
    "prefecture": "新潟県",
    "city": "上越市",
    "town": "清里区梨窪"
  },
  "9430533": {
    "zipcode": "9430533",
    "prefectureCode": "15",
    "prefectureNumber": 15,
    "prefecture": "新潟県",
    "city": "上越市",
    "town": "清里区鶯沢"
  },
  "9430534": {
    "zipcode": "9430534",
    "prefectureCode": "15",
    "prefectureNumber": 15,
    "prefecture": "新潟県",
    "city": "上越市",
    "town": "清里区上中条"
  },
  "9430535": {
    "zipcode": "9430535",
    "prefectureCode": "15",
    "prefectureNumber": 15,
    "prefecture": "新潟県",
    "city": "上越市",
    "town": "清里区鈴倉"
  },
  "9430601": {
    "zipcode": "9430601",
    "prefectureCode": "15",
    "prefectureNumber": 15,
    "prefecture": "新潟県",
    "city": "上越市",
    "town": "牧区坪山"
  },
  "9430602": {
    "zipcode": "9430602",
    "prefectureCode": "15",
    "prefectureNumber": 15,
    "prefecture": "新潟県",
    "city": "上越市",
    "town": "牧区平方"
  },
  "9430603": {
    "zipcode": "9430603",
    "prefectureCode": "15",
    "prefectureNumber": 15,
    "prefecture": "新潟県",
    "city": "上越市",
    "town": "牧区平山"
  },
  "9430604": {
    "zipcode": "9430604",
    "prefectureCode": "15",
    "prefectureNumber": 15,
    "prefecture": "新潟県",
    "city": "上越市",
    "town": "牧区七森"
  },
  "9430605": {
    "zipcode": "9430605",
    "prefectureCode": "15",
    "prefectureNumber": 15,
    "prefecture": "新潟県",
    "city": "上越市",
    "town": "牧区神谷"
  },
  "9430606": {
    "zipcode": "9430606",
    "prefectureCode": "15",
    "prefectureNumber": 15,
    "prefecture": "新潟県",
    "city": "上越市",
    "town": "牧区大月"
  },
  "9430607": {
    "zipcode": "9430607",
    "prefectureCode": "15",
    "prefectureNumber": 15,
    "prefecture": "新潟県",
    "city": "上越市",
    "town": "牧区川井沢"
  },
  "9430611": {
    "zipcode": "9430611",
    "prefectureCode": "15",
    "prefectureNumber": 15,
    "prefecture": "新潟県",
    "city": "上越市",
    "town": "牧区片町"
  },
  "9430612": {
    "zipcode": "9430612",
    "prefectureCode": "15",
    "prefectureNumber": 15,
    "prefecture": "新潟県",
    "city": "上越市",
    "town": "牧区吉坪"
  },
  "9430613": {
    "zipcode": "9430613",
    "prefectureCode": "15",
    "prefectureNumber": 15,
    "prefecture": "新潟県",
    "city": "上越市",
    "town": "牧区高谷"
  },
  "9430614": {
    "zipcode": "9430614",
    "prefectureCode": "15",
    "prefectureNumber": 15,
    "prefecture": "新潟県",
    "city": "上越市",
    "town": "牧区切光"
  },
  "9430615": {
    "zipcode": "9430615",
    "prefectureCode": "15",
    "prefectureNumber": 15,
    "prefecture": "新潟県",
    "city": "上越市",
    "town": "牧区今清水"
  },
  "9430616": {
    "zipcode": "9430616",
    "prefectureCode": "15",
    "prefectureNumber": 15,
    "prefecture": "新潟県",
    "city": "上越市",
    "town": "牧区樫谷"
  },
  "9430617": {
    "zipcode": "9430617",
    "prefectureCode": "15",
    "prefectureNumber": 15,
    "prefecture": "新潟県",
    "city": "上越市",
    "town": "牧区泉"
  },
  "9430621": {
    "zipcode": "9430621",
    "prefectureCode": "15",
    "prefectureNumber": 15,
    "prefecture": "新潟県",
    "city": "上越市",
    "town": "牧区高尾"
  },
  "9430622": {
    "zipcode": "9430622",
    "prefectureCode": "15",
    "prefectureNumber": 15,
    "prefecture": "新潟県",
    "city": "上越市",
    "town": "牧区棚広新田"
  },
  "9430623": {
    "zipcode": "9430623",
    "prefectureCode": "15",
    "prefectureNumber": 15,
    "prefecture": "新潟県",
    "city": "上越市",
    "town": "牧区宇津俣"
  },
  "9430624": {
    "zipcode": "9430624",
    "prefectureCode": "15",
    "prefectureNumber": 15,
    "prefecture": "新潟県",
    "city": "上越市",
    "town": "牧区府殿"
  },
  "9430625": {
    "zipcode": "9430625",
    "prefectureCode": "15",
    "prefectureNumber": 15,
    "prefecture": "新潟県",
    "city": "上越市",
    "town": "牧区上牧"
  },
  "9430626": {
    "zipcode": "9430626",
    "prefectureCode": "15",
    "prefectureNumber": 15,
    "prefecture": "新潟県",
    "city": "上越市",
    "town": "牧区倉下"
  },
  "9430627": {
    "zipcode": "9430627",
    "prefectureCode": "15",
    "prefectureNumber": 15,
    "prefecture": "新潟県",
    "city": "上越市",
    "town": "牧区原"
  },
  "9430628": {
    "zipcode": "9430628",
    "prefectureCode": "15",
    "prefectureNumber": 15,
    "prefecture": "新潟県",
    "city": "上越市",
    "town": "牧区棚広"
  },
  "9430631": {
    "zipcode": "9430631",
    "prefectureCode": "15",
    "prefectureNumber": 15,
    "prefecture": "新潟県",
    "city": "上越市",
    "town": "牧区下湯谷"
  },
  "9430632": {
    "zipcode": "9430632",
    "prefectureCode": "15",
    "prefectureNumber": 15,
    "prefecture": "新潟県",
    "city": "上越市",
    "town": "牧区上昆子"
  },
  "9430633": {
    "zipcode": "9430633",
    "prefectureCode": "15",
    "prefectureNumber": 15,
    "prefecture": "新潟県",
    "city": "上越市",
    "town": "牧区下昆子"
  },
  "9430634": {
    "zipcode": "9430634",
    "prefectureCode": "15",
    "prefectureNumber": 15,
    "prefecture": "新潟県",
    "city": "上越市",
    "town": "牧区田島"
  },
  "9430635": {
    "zipcode": "9430635",
    "prefectureCode": "15",
    "prefectureNumber": 15,
    "prefecture": "新潟県",
    "city": "上越市",
    "town": "牧区岩神"
  },
  "9430636": {
    "zipcode": "9430636",
    "prefectureCode": "15",
    "prefectureNumber": 15,
    "prefecture": "新潟県",
    "city": "上越市",
    "town": "牧区国川"
  },
  "9430637": {
    "zipcode": "9430637",
    "prefectureCode": "15",
    "prefectureNumber": 15,
    "prefecture": "新潟県",
    "city": "上越市",
    "town": "牧区桜滝"
  },
  "9430641": {
    "zipcode": "9430641",
    "prefectureCode": "15",
    "prefectureNumber": 15,
    "prefecture": "新潟県",
    "city": "上越市",
    "town": "牧区東松ノ木"
  },
  "9430642": {
    "zipcode": "9430642",
    "prefectureCode": "15",
    "prefectureNumber": 15,
    "prefecture": "新潟県",
    "city": "上越市",
    "town": "牧区荒井"
  },
  "9430643": {
    "zipcode": "9430643",
    "prefectureCode": "15",
    "prefectureNumber": 15,
    "prefecture": "新潟県",
    "city": "上越市",
    "town": "牧区山口"
  },
  "9430644": {
    "zipcode": "9430644",
    "prefectureCode": "15",
    "prefectureNumber": 15,
    "prefecture": "新潟県",
    "city": "上越市",
    "town": "牧区宮口"
  },
  "9430645": {
    "zipcode": "9430645",
    "prefectureCode": "15",
    "prefectureNumber": 15,
    "prefecture": "新潟県",
    "city": "上越市",
    "town": "牧区池舟"
  },
  "9430646": {
    "zipcode": "9430646",
    "prefectureCode": "15",
    "prefectureNumber": 15,
    "prefecture": "新潟県",
    "city": "上越市",
    "town": "牧区落田"
  },
  "9430647": {
    "zipcode": "9430647",
    "prefectureCode": "15",
    "prefectureNumber": 15,
    "prefecture": "新潟県",
    "city": "上越市",
    "town": "牧区柳島"
  },
  "9430648": {
    "zipcode": "9430648",
    "prefectureCode": "15",
    "prefectureNumber": 15,
    "prefecture": "新潟県",
    "city": "上越市",
    "town": "牧区小川"
  },
  "9430801": {
    "zipcode": "9430801",
    "prefectureCode": "15",
    "prefectureNumber": 15,
    "prefecture": "新潟県",
    "city": "上越市",
    "town": "中門前"
  },
  "9430802": {
    "zipcode": "9430802",
    "prefectureCode": "15",
    "prefectureNumber": 15,
    "prefecture": "新潟県",
    "city": "上越市",
    "town": "大豆（その他）"
  },
  "9430803": {
    "zipcode": "9430803",
    "prefectureCode": "15",
    "prefectureNumber": 15,
    "prefecture": "新潟県",
    "city": "上越市",
    "town": "春日野"
  },
  "9430804": {
    "zipcode": "9430804",
    "prefectureCode": "15",
    "prefectureNumber": 15,
    "prefecture": "新潟県",
    "city": "上越市",
    "town": "新光町"
  },
  "9430805": {
    "zipcode": "9430805",
    "prefectureCode": "15",
    "prefectureNumber": 15,
    "prefecture": "新潟県",
    "city": "上越市",
    "town": "木田"
  },
  "9430806": {
    "zipcode": "9430806",
    "prefectureCode": "15",
    "prefectureNumber": 15,
    "prefecture": "新潟県",
    "city": "上越市",
    "town": "木田新田"
  },
  "9430807": {
    "zipcode": "9430807",
    "prefectureCode": "15",
    "prefectureNumber": 15,
    "prefecture": "新潟県",
    "city": "上越市",
    "town": "春日山町"
  },
  "9430808": {
    "zipcode": "9430808",
    "prefectureCode": "15",
    "prefectureNumber": 15,
    "prefecture": "新潟県",
    "city": "上越市",
    "town": "宮野尾"
  },
  "9430809": {
    "zipcode": "9430809",
    "prefectureCode": "15",
    "prefectureNumber": 15,
    "prefecture": "新潟県",
    "city": "上越市",
    "town": "春日"
  },
  "9430810": {
    "zipcode": "9430810",
    "prefectureCode": "15",
    "prefectureNumber": 15,
    "prefecture": "新潟県",
    "city": "上越市",
    "town": "大学前"
  },
  "9430811": {
    "zipcode": "9430811",
    "prefectureCode": "15",
    "prefectureNumber": 15,
    "prefecture": "新潟県",
    "city": "上越市",
    "town": "上正善寺"
  },
  "9430812": {
    "zipcode": "9430812",
    "prefectureCode": "15",
    "prefectureNumber": 15,
    "prefecture": "新潟県",
    "city": "上越市",
    "town": "中正善寺"
  },
  "9430813": {
    "zipcode": "9430813",
    "prefectureCode": "15",
    "prefectureNumber": 15,
    "prefecture": "新潟県",
    "city": "上越市",
    "town": "下正善寺"
  },
  "9430814": {
    "zipcode": "9430814",
    "prefectureCode": "15",
    "prefectureNumber": 15,
    "prefecture": "新潟県",
    "city": "上越市",
    "town": "岩木"
  },
  "9430815": {
    "zipcode": "9430815",
    "prefectureCode": "15",
    "prefectureNumber": 15,
    "prefecture": "新潟県",
    "city": "上越市",
    "town": "山屋敷町"
  },
  "9430816": {
    "zipcode": "9430816",
    "prefectureCode": "15",
    "prefectureNumber": 15,
    "prefecture": "新潟県",
    "city": "上越市",
    "town": "藤新田"
  },
  "9430817": {
    "zipcode": "9430817",
    "prefectureCode": "15",
    "prefectureNumber": 15,
    "prefecture": "新潟県",
    "city": "上越市",
    "town": "藤巻"
  },
  "9430818": {
    "zipcode": "9430818",
    "prefectureCode": "15",
    "prefectureNumber": 15,
    "prefecture": "新潟県",
    "city": "上越市",
    "town": "宇津尾"
  },
  "9430819": {
    "zipcode": "9430819",
    "prefectureCode": "15",
    "prefectureNumber": 15,
    "prefecture": "新潟県",
    "city": "上越市",
    "town": "中屋敷"
  },
  "9430821": {
    "zipcode": "9430821",
    "prefectureCode": "15",
    "prefectureNumber": 15,
    "prefecture": "新潟県",
    "city": "上越市",
    "town": "土橋"
  },
  "9430822": {
    "zipcode": "9430822",
    "prefectureCode": "15",
    "prefectureNumber": 15,
    "prefecture": "新潟県",
    "city": "上越市",
    "town": "新町"
  },
  "9430823": {
    "zipcode": "9430823",
    "prefectureCode": "15",
    "prefectureNumber": 15,
    "prefecture": "新潟県",
    "city": "上越市",
    "town": "高土町"
  },
  "9430824": {
    "zipcode": "9430824",
    "prefectureCode": "15",
    "prefectureNumber": 15,
    "prefecture": "新潟県",
    "city": "上越市",
    "town": "北城町"
  },
  "9430825": {
    "zipcode": "9430825",
    "prefectureCode": "15",
    "prefectureNumber": 15,
    "prefecture": "新潟県",
    "city": "上越市",
    "town": "東本町"
  },
  "9430826": {
    "zipcode": "9430826",
    "prefectureCode": "15",
    "prefectureNumber": 15,
    "prefecture": "新潟県",
    "city": "上越市",
    "town": "幸町"
  },
  "9430827": {
    "zipcode": "9430827",
    "prefectureCode": "15",
    "prefectureNumber": 15,
    "prefecture": "新潟県",
    "city": "上越市",
    "town": "栄町（その他）"
  },
  "9430828": {
    "zipcode": "9430828",
    "prefectureCode": "15",
    "prefectureNumber": 15,
    "prefecture": "新潟県",
    "city": "上越市",
    "town": "北本町"
  },
  "9430829": {
    "zipcode": "9430829",
    "prefectureCode": "15",
    "prefectureNumber": 15,
    "prefecture": "新潟県",
    "city": "上越市",
    "town": "薄袋"
  },
  "9430831": {
    "zipcode": "9430831",
    "prefectureCode": "15",
    "prefectureNumber": 15,
    "prefecture": "新潟県",
    "city": "上越市",
    "town": "仲町"
  },
  "9430832": {
    "zipcode": "9430832",
    "prefectureCode": "15",
    "prefectureNumber": 15,
    "prefecture": "新潟県",
    "city": "上越市",
    "town": "本町"
  },
  "9430833": {
    "zipcode": "9430833",
    "prefectureCode": "15",
    "prefectureNumber": 15,
    "prefecture": "新潟県",
    "city": "上越市",
    "town": "大町"
  },
  "9430834": {
    "zipcode": "9430834",
    "prefectureCode": "15",
    "prefectureNumber": 15,
    "prefecture": "新潟県",
    "city": "上越市",
    "town": "西城町"
  },
  "9430835": {
    "zipcode": "9430835",
    "prefectureCode": "15",
    "prefectureNumber": 15,
    "prefecture": "新潟県",
    "city": "上越市",
    "town": "本城町"
  },
  "9430836": {
    "zipcode": "9430836",
    "prefectureCode": "15",
    "prefectureNumber": 15,
    "prefecture": "新潟県",
    "city": "上越市",
    "town": "東城町"
  },
  "9430837": {
    "zipcode": "9430837",
    "prefectureCode": "15",
    "prefectureNumber": 15,
    "prefecture": "新潟県",
    "city": "上越市",
    "town": "南城町"
  },
  "9430838": {
    "zipcode": "9430838",
    "prefectureCode": "15",
    "prefectureNumber": 15,
    "prefecture": "新潟県",
    "city": "上越市",
    "town": "大手町"
  },
  "9430839": {
    "zipcode": "9430839",
    "prefectureCode": "15",
    "prefectureNumber": 15,
    "prefecture": "新潟県",
    "city": "上越市",
    "town": "上湯谷"
  },
  "9430841": {
    "zipcode": "9430841",
    "prefectureCode": "15",
    "prefectureNumber": 15,
    "prefecture": "新潟県",
    "city": "上越市",
    "town": "南本町"
  },
  "9430842": {
    "zipcode": "9430842",
    "prefectureCode": "15",
    "prefectureNumber": 15,
    "prefecture": "新潟県",
    "city": "上越市",
    "town": "五ケ所新田"
  },
  "9430843": {
    "zipcode": "9430843",
    "prefectureCode": "15",
    "prefectureNumber": 15,
    "prefecture": "新潟県",
    "city": "上越市",
    "town": "下新田"
  },
  "9430844": {
    "zipcode": "9430844",
    "prefectureCode": "15",
    "prefectureNumber": 15,
    "prefecture": "新潟県",
    "city": "上越市",
    "town": "丸山新田"
  },
  "9430845": {
    "zipcode": "9430845",
    "prefectureCode": "15",
    "prefectureNumber": 15,
    "prefecture": "新潟県",
    "city": "上越市",
    "town": "高田新田"
  },
  "9430846": {
    "zipcode": "9430846",
    "prefectureCode": "15",
    "prefectureNumber": 15,
    "prefecture": "新潟県",
    "city": "上越市",
    "town": "南高田町"
  },
  "9430847": {
    "zipcode": "9430847",
    "prefectureCode": "15",
    "prefectureNumber": 15,
    "prefecture": "新潟県",
    "city": "上越市",
    "town": "南新町"
  },
  "9430848": {
    "zipcode": "9430848",
    "prefectureCode": "15",
    "prefectureNumber": 15,
    "prefecture": "新潟県",
    "city": "上越市",
    "town": "儀明"
  },
  "9430849": {
    "zipcode": "9430849",
    "prefectureCode": "15",
    "prefectureNumber": 15,
    "prefecture": "新潟県",
    "city": "上越市",
    "town": "塩荷谷"
  },
  "9430851": {
    "zipcode": "9430851",
    "prefectureCode": "15",
    "prefectureNumber": 15,
    "prefecture": "新潟県",
    "city": "上越市",
    "town": "下箱井"
  },
  "9430852": {
    "zipcode": "9430852",
    "prefectureCode": "15",
    "prefectureNumber": 15,
    "prefecture": "新潟県",
    "city": "上越市",
    "town": "島田下新田"
  },
  "9430853": {
    "zipcode": "9430853",
    "prefectureCode": "15",
    "prefectureNumber": 15,
    "prefecture": "新潟県",
    "city": "上越市",
    "town": "島田"
  },
  "9430854": {
    "zipcode": "9430854",
    "prefectureCode": "15",
    "prefectureNumber": 15,
    "prefecture": "新潟県",
    "city": "上越市",
    "town": "島田上新田"
  },
  "9430855": {
    "zipcode": "9430855",
    "prefectureCode": "15",
    "prefectureNumber": 15,
    "prefecture": "新潟県",
    "city": "上越市",
    "town": "木島"
  },
  "9430856": {
    "zipcode": "9430856",
    "prefectureCode": "15",
    "prefectureNumber": 15,
    "prefecture": "新潟県",
    "city": "上越市",
    "town": "上箱井"
  },
  "9430857": {
    "zipcode": "9430857",
    "prefectureCode": "15",
    "prefectureNumber": 15,
    "prefecture": "新潟県",
    "city": "上越市",
    "town": "中箱井"
  },
  "9430858": {
    "zipcode": "9430858",
    "prefectureCode": "15",
    "prefectureNumber": 15,
    "prefecture": "新潟県",
    "city": "上越市",
    "town": "岡原"
  },
  "9430859": {
    "zipcode": "9430859",
    "prefectureCode": "15",
    "prefectureNumber": 15,
    "prefecture": "新潟県",
    "city": "上越市",
    "town": "寺町（番地）"
  },
  "9430861": {
    "zipcode": "9430861",
    "prefectureCode": "15",
    "prefectureNumber": 15,
    "prefecture": "新潟県",
    "city": "上越市",
    "town": "大和"
  },
  "9430862": {
    "zipcode": "9430862",
    "prefectureCode": "15",
    "prefectureNumber": 15,
    "prefecture": "新潟県",
    "city": "上越市",
    "town": "荒町"
  },
  "9430863": {
    "zipcode": "9430863",
    "prefectureCode": "15",
    "prefectureNumber": 15,
    "prefecture": "新潟県",
    "city": "上越市",
    "town": "脇野田"
  },
  "9430864": {
    "zipcode": "9430864",
    "prefectureCode": "15",
    "prefectureNumber": 15,
    "prefecture": "新潟県",
    "city": "上越市",
    "town": "今泉"
  },
  "9430865": {
    "zipcode": "9430865",
    "prefectureCode": "15",
    "prefectureNumber": 15,
    "prefecture": "新潟県",
    "city": "上越市",
    "town": "七ケ所新田"
  },
  "9430866": {
    "zipcode": "9430866",
    "prefectureCode": "15",
    "prefectureNumber": 15,
    "prefecture": "新潟県",
    "city": "上越市",
    "town": "土合"
  },
  "9430871": {
    "zipcode": "9430871",
    "prefectureCode": "15",
    "prefectureNumber": 15,
    "prefecture": "新潟県",
    "city": "上越市",
    "town": "青木"
  },
  "9430872": {
    "zipcode": "9430872",
    "prefectureCode": "15",
    "prefectureNumber": 15,
    "prefecture": "新潟県",
    "city": "上越市",
    "town": "石沢"
  },
  "9430873": {
    "zipcode": "9430873",
    "prefectureCode": "15",
    "prefectureNumber": 15,
    "prefecture": "新潟県",
    "city": "上越市",
    "town": "西田中"
  },
  "9430874": {
    "zipcode": "9430874",
    "prefectureCode": "15",
    "prefectureNumber": 15,
    "prefecture": "新潟県",
    "city": "上越市",
    "town": "稲荷"
  },
  "9430875": {
    "zipcode": "9430875",
    "prefectureCode": "15",
    "prefectureNumber": 15,
    "prefecture": "新潟県",
    "city": "上越市",
    "town": "地頭方"
  },
  "9430876": {
    "zipcode": "9430876",
    "prefectureCode": "15",
    "prefectureNumber": 15,
    "prefecture": "新潟県",
    "city": "上越市",
    "town": "上門前"
  },
  "9430877": {
    "zipcode": "9430877",
    "prefectureCode": "15",
    "prefectureNumber": 15,
    "prefecture": "新潟県",
    "city": "上越市",
    "town": "小滝"
  },
  "9430878": {
    "zipcode": "9430878",
    "prefectureCode": "15",
    "prefectureNumber": 15,
    "prefecture": "新潟県",
    "city": "上越市",
    "town": "下馬場"
  },
  "9430881": {
    "zipcode": "9430881",
    "prefectureCode": "15",
    "prefectureNumber": 15,
    "prefecture": "新潟県",
    "city": "上越市",
    "town": "京田"
  },
  "9430882": {
    "zipcode": "9430882",
    "prefectureCode": "15",
    "prefectureNumber": 15,
    "prefecture": "新潟県",
    "city": "上越市",
    "town": "中田原"
  },
  "9430883": {
    "zipcode": "9430883",
    "prefectureCode": "15",
    "prefectureNumber": 15,
    "prefecture": "新潟県",
    "city": "上越市",
    "town": "中通町"
  },
  "9430884": {
    "zipcode": "9430884",
    "prefectureCode": "15",
    "prefectureNumber": 15,
    "prefecture": "新潟県",
    "city": "上越市",
    "town": "上中田"
  },
  "9430885": {
    "zipcode": "9430885",
    "prefectureCode": "15",
    "prefectureNumber": 15,
    "prefecture": "新潟県",
    "city": "上越市",
    "town": "黒田"
  },
  "9430886": {
    "zipcode": "9430886",
    "prefectureCode": "15",
    "prefectureNumber": 15,
    "prefecture": "新潟県",
    "city": "上越市",
    "town": "朝日"
  },
  "9430887": {
    "zipcode": "9430887",
    "prefectureCode": "15",
    "prefectureNumber": 15,
    "prefecture": "新潟県",
    "city": "上越市",
    "town": "灰塚"
  },
  "9430888": {
    "zipcode": "9430888",
    "prefectureCode": "15",
    "prefectureNumber": 15,
    "prefecture": "新潟県",
    "city": "上越市",
    "town": "向橋"
  },
  "9430889": {
    "zipcode": "9430889",
    "prefectureCode": "15",
    "prefectureNumber": 15,
    "prefecture": "新潟県",
    "city": "上越市",
    "town": "後谷"
  },
  "9430891": {
    "zipcode": "9430891",
    "prefectureCode": "15",
    "prefectureNumber": 15,
    "prefecture": "新潟県",
    "city": "上越市",
    "town": "昭和町"
  },
  "9430892": {
    "zipcode": "9430892",
    "prefectureCode": "15",
    "prefectureNumber": 15,
    "prefecture": "新潟県",
    "city": "上越市",
    "town": "寺町（丁目）"
  },
  "9430893": {
    "zipcode": "9430893",
    "prefectureCode": "15",
    "prefectureNumber": 15,
    "prefecture": "新潟県",
    "city": "上越市",
    "town": "大貫"
  },
  "9430894": {
    "zipcode": "9430894",
    "prefectureCode": "15",
    "prefectureNumber": 15,
    "prefecture": "新潟県",
    "city": "上越市",
    "town": "上昭和町"
  },
  "9430895": {
    "zipcode": "9430895",
    "prefectureCode": "15",
    "prefectureNumber": 15,
    "prefecture": "新潟県",
    "city": "上越市",
    "town": "御殿山町"
  },
  "9430896": {
    "zipcode": "9430896",
    "prefectureCode": "15",
    "prefectureNumber": 15,
    "prefecture": "新潟県",
    "city": "上越市",
    "town": "飯"
  },
  "9430897": {
    "zipcode": "9430897",
    "prefectureCode": "15",
    "prefectureNumber": 15,
    "prefecture": "新潟県",
    "city": "上越市",
    "town": "滝寺"
  },
  "9430898": {
    "zipcode": "9430898",
    "prefectureCode": "15",
    "prefectureNumber": 15,
    "prefecture": "新潟県",
    "city": "上越市",
    "town": "塚田新田"
  },
  "9430899": {
    "zipcode": "9430899",
    "prefectureCode": "15",
    "prefectureNumber": 15,
    "prefecture": "新潟県",
    "city": "上越市",
    "town": "下中田"
  }
}
