{
  "9450000": {
    "zipcode": "9450000",
    "prefectureCode": "15",
    "prefectureNumber": 15,
    "prefecture": "新潟県",
    "city": "柏崎市",
    "town": "以下に掲載がない場合"
  },
  "9450011": {
    "zipcode": "9450011",
    "prefectureCode": "15",
    "prefectureNumber": 15,
    "prefecture": "新潟県",
    "city": "柏崎市",
    "town": "松波"
  },
  "9450012": {
    "zipcode": "9450012",
    "prefectureCode": "15",
    "prefectureNumber": 15,
    "prefecture": "新潟県",
    "city": "柏崎市",
    "town": "橋場"
  },
  "9450013": {
    "zipcode": "9450013",
    "prefectureCode": "15",
    "prefectureNumber": 15,
    "prefecture": "新潟県",
    "city": "柏崎市",
    "town": "山本"
  },
  "9450014": {
    "zipcode": "9450014",
    "prefectureCode": "15",
    "prefectureNumber": 15,
    "prefecture": "新潟県",
    "city": "柏崎市",
    "town": "橋場町"
  },
  "9450015": {
    "zipcode": "9450015",
    "prefectureCode": "15",
    "prefectureNumber": 15,
    "prefecture": "新潟県",
    "city": "柏崎市",
    "town": "槇原町"
  },
  "9450016": {
    "zipcode": "9450016",
    "prefectureCode": "15",
    "prefectureNumber": 15,
    "prefecture": "新潟県",
    "city": "柏崎市",
    "town": "青山町"
  },
  "9450017": {
    "zipcode": "9450017",
    "prefectureCode": "15",
    "prefectureNumber": 15,
    "prefecture": "新潟県",
    "city": "柏崎市",
    "town": "荒浜"
  },
  "9450021": {
    "zipcode": "9450021",
    "prefectureCode": "15",
    "prefectureNumber": 15,
    "prefecture": "新潟県",
    "city": "柏崎市",
    "town": "上原"
  },
  "9450022": {
    "zipcode": "9450022",
    "prefectureCode": "15",
    "prefectureNumber": 15,
    "prefecture": "新潟県",
    "city": "柏崎市",
    "town": "東原町"
  },
  "9450023": {
    "zipcode": "9450023",
    "prefectureCode": "15",
    "prefectureNumber": 15,
    "prefecture": "新潟県",
    "city": "柏崎市",
    "town": "原町"
  },
  "9450024": {
    "zipcode": "9450024",
    "prefectureCode": "15",
    "prefectureNumber": 15,
    "prefecture": "新潟県",
    "city": "柏崎市",
    "town": "小金町"
  },
  "9450025": {
    "zipcode": "9450025",
    "prefectureCode": "15",
    "prefectureNumber": 15,
    "prefecture": "新潟県",
    "city": "柏崎市",
    "town": "柳田町"
  },
  "9450026": {
    "zipcode": "9450026",
    "prefectureCode": "15",
    "prefectureNumber": 15,
    "prefecture": "新潟県",
    "city": "柏崎市",
    "town": "藤元町"
  },
  "9450027": {
    "zipcode": "9450027",
    "prefectureCode": "15",
    "prefectureNumber": 15,
    "prefecture": "新潟県",
    "city": "柏崎市",
    "town": "北斗町"
  },
  "9450031": {
    "zipcode": "9450031",
    "prefectureCode": "15",
    "prefectureNumber": 15,
    "prefecture": "新潟県",
    "city": "柏崎市",
    "town": "新田畑"
  },
  "9450032": {
    "zipcode": "9450032",
    "prefectureCode": "15",
    "prefectureNumber": 15,
    "prefecture": "新潟県",
    "city": "柏崎市",
    "town": "田塚"
  },
  "9450033": {
    "zipcode": "9450033",
    "prefectureCode": "15",
    "prefectureNumber": 15,
    "prefecture": "新潟県",
    "city": "柏崎市",
    "town": "東長浜町"
  },
  "9450034": {
    "zipcode": "9450034",
    "prefectureCode": "15",
    "prefectureNumber": 15,
    "prefecture": "新潟県",
    "city": "柏崎市",
    "town": "三和町"
  },
  "9450035": {
    "zipcode": "9450035",
    "prefectureCode": "15",
    "prefectureNumber": 15,
    "prefecture": "新潟県",
    "city": "柏崎市",
    "town": "北半田"
  },
  "9450036": {
    "zipcode": "9450036",
    "prefectureCode": "15",
    "prefectureNumber": 15,
    "prefecture": "新潟県",
    "city": "柏崎市",
    "town": "東柳田"
  },
  "9450041": {
    "zipcode": "9450041",
    "prefectureCode": "15",
    "prefectureNumber": 15,
    "prefecture": "新潟県",
    "city": "柏崎市",
    "town": "松美"
  },
  "9450042": {
    "zipcode": "9450042",
    "prefectureCode": "15",
    "prefectureNumber": 15,
    "prefecture": "新潟県",
    "city": "柏崎市",
    "town": "長浜町"
  },
  "9450043": {
    "zipcode": "9450043",
    "prefectureCode": "15",
    "prefectureNumber": 15,
    "prefecture": "新潟県",
    "city": "柏崎市",
    "town": "日吉町"
  },
  "9450044": {
    "zipcode": "9450044",
    "prefectureCode": "15",
    "prefectureNumber": 15,
    "prefecture": "新潟県",
    "city": "柏崎市",
    "town": "扇町"
  },
  "9450045": {
    "zipcode": "9450045",
    "prefectureCode": "15",
    "prefectureNumber": 15,
    "prefecture": "新潟県",
    "city": "柏崎市",
    "town": "豊町"
  },
  "9450046": {
    "zipcode": "9450046",
    "prefectureCode": "15",
    "prefectureNumber": 15,
    "prefecture": "新潟県",
    "city": "柏崎市",
    "town": "四谷"
  },
  "9450047": {
    "zipcode": "9450047",
    "prefectureCode": "15",
    "prefectureNumber": 15,
    "prefecture": "新潟県",
    "city": "柏崎市",
    "town": "比角"
  },
  "9450051": {
    "zipcode": "9450051",
    "prefectureCode": "15",
    "prefectureNumber": 15,
    "prefecture": "新潟県",
    "city": "柏崎市",
    "town": "東本町"
  },
  "9450052": {
    "zipcode": "9450052",
    "prefectureCode": "15",
    "prefectureNumber": 15,
    "prefecture": "新潟県",
    "city": "柏崎市",
    "town": "錦町"
  },
  "9450053": {
    "zipcode": "9450053",
    "prefectureCode": "15",
    "prefectureNumber": 15,
    "prefecture": "新潟県",
    "city": "柏崎市",
    "town": "鏡町"
  },
  "9450054": {
    "zipcode": "9450054",
    "prefectureCode": "15",
    "prefectureNumber": 15,
    "prefecture": "新潟県",
    "city": "柏崎市",
    "town": "日石町"
  },
  "9450055": {
    "zipcode": "9450055",
    "prefectureCode": "15",
    "prefectureNumber": 15,
    "prefecture": "新潟県",
    "city": "柏崎市",
    "town": "駅前"
  },
  "9450056": {
    "zipcode": "9450056",
    "prefectureCode": "15",
    "prefectureNumber": 15,
    "prefecture": "新潟県",
    "city": "柏崎市",
    "town": "新橋"
  },
  "9450061": {
    "zipcode": "9450061",
    "prefectureCode": "15",
    "prefectureNumber": 15,
    "prefecture": "新潟県",
    "city": "柏崎市",
    "town": "栄町"
  },
  "9450062": {
    "zipcode": "9450062",
    "prefectureCode": "15",
    "prefectureNumber": 15,
    "prefecture": "新潟県",
    "city": "柏崎市",
    "town": "新花町"
  },
  "9450063": {
    "zipcode": "9450063",
    "prefectureCode": "15",
    "prefectureNumber": 15,
    "prefecture": "新潟県",
    "city": "柏崎市",
    "town": "諏訪町"
  },
  "9450064": {
    "zipcode": "9450064",
    "prefectureCode": "15",
    "prefectureNumber": 15,
    "prefecture": "新潟県",
    "city": "柏崎市",
    "town": "中央町"
  },
  "9450065": {
    "zipcode": "9450065",
    "prefectureCode": "15",
    "prefectureNumber": 15,
    "prefecture": "新潟県",
    "city": "柏崎市",
    "town": "学校町"
  },
  "9450066": {
    "zipcode": "9450066",
    "prefectureCode": "15",
    "prefectureNumber": 15,
    "prefecture": "新潟県",
    "city": "柏崎市",
    "town": "西本町"
  },
  "9450067": {
    "zipcode": "9450067",
    "prefectureCode": "15",
    "prefectureNumber": 15,
    "prefecture": "新潟県",
    "city": "柏崎市",
    "town": "西港町"
  },
  "9450068": {
    "zipcode": "9450068",
    "prefectureCode": "15",
    "prefectureNumber": 15,
    "prefecture": "新潟県",
    "city": "柏崎市",
    "town": "東港町"
  },
  "9450071": {
    "zipcode": "9450071",
    "prefectureCode": "15",
    "prefectureNumber": 15,
    "prefecture": "新潟県",
    "city": "柏崎市",
    "town": "安政町"
  },
  "9450072": {
    "zipcode": "9450072",
    "prefectureCode": "15",
    "prefectureNumber": 15,
    "prefecture": "新潟県",
    "city": "柏崎市",
    "town": "北園町"
  },
  "9450073": {
    "zipcode": "9450073",
    "prefectureCode": "15",
    "prefectureNumber": 15,
    "prefecture": "新潟県",
    "city": "柏崎市",
    "town": "桜木町"
  },
  "9450074": {
    "zipcode": "9450074",
    "prefectureCode": "15",
    "prefectureNumber": 15,
    "prefecture": "新潟県",
    "city": "柏崎市",
    "town": "春日"
  },
  "9450075": {
    "zipcode": "9450075",
    "prefectureCode": "15",
    "prefectureNumber": 15,
    "prefecture": "新潟県",
    "city": "柏崎市",
    "town": "大和町"
  },
  "9450076": {
    "zipcode": "9450076",
    "prefectureCode": "15",
    "prefectureNumber": 15,
    "prefecture": "新潟県",
    "city": "柏崎市",
    "town": "小倉町"
  },
  "9450101": {
    "zipcode": "9450101",
    "prefectureCode": "15",
    "prefectureNumber": 15,
    "prefecture": "新潟県",
    "city": "柏崎市",
    "town": "長崎"
  },
  "9450102": {
    "zipcode": "9450102",
    "prefectureCode": "15",
    "prefectureNumber": 15,
    "prefecture": "新潟県",
    "city": "柏崎市",
    "town": "長崎新田"
  },
  "9450103": {
    "zipcode": "9450103",
    "prefectureCode": "15",
    "prefectureNumber": 15,
    "prefecture": "新潟県",
    "city": "柏崎市",
    "town": "下大新田"
  },
  "9450104": {
    "zipcode": "9450104",
    "prefectureCode": "15",
    "prefectureNumber": 15,
    "prefecture": "新潟県",
    "city": "柏崎市",
    "town": "土合新田"
  },
  "9450105": {
    "zipcode": "9450105",
    "prefectureCode": "15",
    "prefectureNumber": 15,
    "prefecture": "新潟県",
    "city": "柏崎市",
    "town": "剣"
  },
  "9450106": {
    "zipcode": "9450106",
    "prefectureCode": "15",
    "prefectureNumber": 15,
    "prefecture": "新潟県",
    "city": "柏崎市",
    "town": "土合"
  },
  "9450111": {
    "zipcode": "9450111",
    "prefectureCode": "15",
    "prefectureNumber": 15,
    "prefecture": "新潟県",
    "city": "柏崎市",
    "town": "与三"
  },
  "9450112": {
    "zipcode": "9450112",
    "prefectureCode": "15",
    "prefectureNumber": 15,
    "prefecture": "新潟県",
    "city": "柏崎市",
    "town": "畔屋"
  },
  "9450113": {
    "zipcode": "9450113",
    "prefectureCode": "15",
    "prefectureNumber": 15,
    "prefecture": "新潟県",
    "city": "柏崎市",
    "town": "中田"
  },
  "9450114": {
    "zipcode": "9450114",
    "prefectureCode": "15",
    "prefectureNumber": 15,
    "prefecture": "新潟県",
    "city": "柏崎市",
    "town": "藤井"
  },
  "9450211": {
    "zipcode": "9450211",
    "prefectureCode": "15",
    "prefectureNumber": 15,
    "prefecture": "新潟県",
    "city": "柏崎市",
    "town": "小黒須"
  },
  "9450212": {
    "zipcode": "9450212",
    "prefectureCode": "15",
    "prefectureNumber": 15,
    "prefecture": "新潟県",
    "city": "柏崎市",
    "town": "五十土"
  },
  "9450213": {
    "zipcode": "9450213",
    "prefectureCode": "15",
    "prefectureNumber": 15,
    "prefecture": "新潟県",
    "city": "柏崎市",
    "town": "成沢"
  },
  "9450214": {
    "zipcode": "9450214",
    "prefectureCode": "15",
    "prefectureNumber": 15,
    "prefecture": "新潟県",
    "city": "柏崎市",
    "town": "曽地"
  },
  "9450215": {
    "zipcode": "9450215",
    "prefectureCode": "15",
    "prefectureNumber": 15,
    "prefecture": "新潟県",
    "city": "柏崎市",
    "town": "矢田"
  },
  "9450216": {
    "zipcode": "9450216",
    "prefectureCode": "15",
    "prefectureNumber": 15,
    "prefecture": "新潟県",
    "city": "柏崎市",
    "town": "吉井"
  },
  "9450217": {
    "zipcode": "9450217",
    "prefectureCode": "15",
    "prefectureNumber": 15,
    "prefecture": "新潟県",
    "city": "柏崎市",
    "town": "曽地新田"
  },
  "9450218": {
    "zipcode": "9450218",
    "prefectureCode": "15",
    "prefectureNumber": 15,
    "prefecture": "新潟県",
    "city": "柏崎市",
    "town": "花田"
  },
  "9450219": {
    "zipcode": "9450219",
    "prefectureCode": "15",
    "prefectureNumber": 15,
    "prefecture": "新潟県",
    "city": "柏崎市",
    "town": "飯塚"
  },
  "9450300": {
    "zipcode": "9450300",
    "prefectureCode": "15",
    "prefectureNumber": 15,
    "prefecture": "新潟県",
    "city": "刈羽郡刈羽村",
    "town": "以下に掲載がない場合"
  },
  "9450301": {
    "zipcode": "9450301",
    "prefectureCode": "15",
    "prefectureNumber": 15,
    "prefecture": "新潟県",
    "city": "刈羽郡刈羽村",
    "town": "入和田"
  },
  "9450302": {
    "zipcode": "9450302",
    "prefectureCode": "15",
    "prefectureNumber": 15,
    "prefecture": "新潟県",
    "city": "刈羽郡刈羽村",
    "town": "滝谷新田"
  },
  "9450303": {
    "zipcode": "9450303",
    "prefectureCode": "15",
    "prefectureNumber": 15,
    "prefecture": "新潟県",
    "city": "刈羽郡刈羽村",
    "town": "滝谷"
  },
  "9450304": {
    "zipcode": "9450304",
    "prefectureCode": "15",
    "prefectureNumber": 15,
    "prefecture": "新潟県",
    "city": "刈羽郡刈羽村",
    "town": "寺尾"
  },
  "9450305": {
    "zipcode": "9450305",
    "prefectureCode": "15",
    "prefectureNumber": 15,
    "prefecture": "新潟県",
    "city": "刈羽郡刈羽村",
    "town": "西元寺"
  },
  "9450306": {
    "zipcode": "9450306",
    "prefectureCode": "15",
    "prefectureNumber": 15,
    "prefecture": "新潟県",
    "city": "刈羽郡刈羽村",
    "town": "十日市"
  },
  "9450307": {
    "zipcode": "9450307",
    "prefectureCode": "15",
    "prefectureNumber": 15,
    "prefecture": "新潟県",
    "city": "刈羽郡刈羽村",
    "town": "刈羽"
  },
  "9450308": {
    "zipcode": "9450308",
    "prefectureCode": "15",
    "prefectureNumber": 15,
    "prefecture": "新潟県",
    "city": "刈羽郡刈羽村",
    "town": "割町新田"
  },
  "9450311": {
    "zipcode": "9450311",
    "prefectureCode": "15",
    "prefectureNumber": 15,
    "prefecture": "新潟県",
    "city": "刈羽郡刈羽村",
    "town": "井岡"
  },
  "9450312": {
    "zipcode": "9450312",
    "prefectureCode": "15",
    "prefectureNumber": 15,
    "prefecture": "新潟県",
    "city": "刈羽郡刈羽村",
    "town": "西谷"
  },
  "9450313": {
    "zipcode": "9450313",
    "prefectureCode": "15",
    "prefectureNumber": 15,
    "prefecture": "新潟県",
    "city": "刈羽郡刈羽村",
    "town": "大塚"
  },
  "9450314": {
    "zipcode": "9450314",
    "prefectureCode": "15",
    "prefectureNumber": 15,
    "prefecture": "新潟県",
    "city": "刈羽郡刈羽村",
    "town": "新屋敷"
  },
  "9450315": {
    "zipcode": "9450315",
    "prefectureCode": "15",
    "prefectureNumber": 15,
    "prefecture": "新潟県",
    "city": "刈羽郡刈羽村",
    "town": "上高町"
  },
  "9450316": {
    "zipcode": "9450316",
    "prefectureCode": "15",
    "prefectureNumber": 15,
    "prefecture": "新潟県",
    "city": "刈羽郡刈羽村",
    "town": "下高町"
  },
  "9450317": {
    "zipcode": "9450317",
    "prefectureCode": "15",
    "prefectureNumber": 15,
    "prefecture": "新潟県",
    "city": "刈羽郡刈羽村",
    "town": "正明寺"
  },
  "9450321": {
    "zipcode": "9450321",
    "prefectureCode": "15",
    "prefectureNumber": 15,
    "prefecture": "新潟県",
    "city": "刈羽郡刈羽村",
    "town": "油田"
  },
  "9450322": {
    "zipcode": "9450322",
    "prefectureCode": "15",
    "prefectureNumber": 15,
    "prefecture": "新潟県",
    "city": "刈羽郡刈羽村",
    "town": "黒川"
  },
  "9450323": {
    "zipcode": "9450323",
    "prefectureCode": "15",
    "prefectureNumber": 15,
    "prefecture": "新潟県",
    "city": "刈羽郡刈羽村",
    "town": "赤田町方"
  },
  "9450324": {
    "zipcode": "9450324",
    "prefectureCode": "15",
    "prefectureNumber": 15,
    "prefecture": "新潟県",
    "city": "刈羽郡刈羽村",
    "town": "枯木"
  },
  "9450325": {
    "zipcode": "9450325",
    "prefectureCode": "15",
    "prefectureNumber": 15,
    "prefecture": "新潟県",
    "city": "刈羽郡刈羽村",
    "town": "赤田北方"
  },
  "9450401": {
    "zipcode": "9450401",
    "prefectureCode": "15",
    "prefectureNumber": 15,
    "prefecture": "新潟県",
    "city": "柏崎市",
    "town": "椎谷"
  },
  "9450402": {
    "zipcode": "9450402",
    "prefectureCode": "15",
    "prefectureNumber": 15,
    "prefecture": "新潟県",
    "city": "柏崎市",
    "town": "宮川"
  },
  "9450403": {
    "zipcode": "9450403",
    "prefectureCode": "15",
    "prefectureNumber": 15,
    "prefecture": "新潟県",
    "city": "柏崎市",
    "town": "大湊"
  },
  "9450811": {
    "zipcode": "9450811",
    "prefectureCode": "15",
    "prefectureNumber": 15,
    "prefecture": "新潟県",
    "city": "柏崎市",
    "town": "岩上"
  },
  "9450812": {
    "zipcode": "9450812",
    "prefectureCode": "15",
    "prefectureNumber": 15,
    "prefecture": "新潟県",
    "city": "柏崎市",
    "town": "半田"
  },
  "9450813": {
    "zipcode": "9450813",
    "prefectureCode": "15",
    "prefectureNumber": 15,
    "prefecture": "新潟県",
    "city": "柏崎市",
    "town": "南半田"
  },
  "9450814": {
    "zipcode": "9450814",
    "prefectureCode": "15",
    "prefectureNumber": 15,
    "prefecture": "新潟県",
    "city": "柏崎市",
    "town": "朝日が丘"
  },
  "9450815": {
    "zipcode": "9450815",
    "prefectureCode": "15",
    "prefectureNumber": 15,
    "prefecture": "新潟県",
    "city": "柏崎市",
    "town": "希望が丘"
  },
  "9450816": {
    "zipcode": "9450816",
    "prefectureCode": "15",
    "prefectureNumber": 15,
    "prefecture": "新潟県",
    "city": "柏崎市",
    "town": "田中"
  },
  "9450817": {
    "zipcode": "9450817",
    "prefectureCode": "15",
    "prefectureNumber": 15,
    "prefecture": "新潟県",
    "city": "柏崎市",
    "town": "宝町"
  },
  "9450821": {
    "zipcode": "9450821",
    "prefectureCode": "15",
    "prefectureNumber": 15,
    "prefecture": "新潟県",
    "city": "柏崎市",
    "town": "幸町"
  },
  "9450822": {
    "zipcode": "9450822",
    "prefectureCode": "15",
    "prefectureNumber": 15,
    "prefecture": "新潟県",
    "city": "柏崎市",
    "town": "穂波町"
  },
  "9450823": {
    "zipcode": "9450823",
    "prefectureCode": "15",
    "prefectureNumber": 15,
    "prefecture": "新潟県",
    "city": "柏崎市",
    "town": "南光町"
  },
  "9450824": {
    "zipcode": "9450824",
    "prefectureCode": "15",
    "prefectureNumber": 15,
    "prefecture": "新潟県",
    "city": "柏崎市",
    "town": "枇杷島"
  },
  "9450825": {
    "zipcode": "9450825",
    "prefectureCode": "15",
    "prefectureNumber": 15,
    "prefecture": "新潟県",
    "city": "柏崎市",
    "town": "城東"
  },
  "9450826": {
    "zipcode": "9450826",
    "prefectureCode": "15",
    "prefectureNumber": 15,
    "prefecture": "新潟県",
    "city": "柏崎市",
    "town": "元城町"
  },
  "9450827": {
    "zipcode": "9450827",
    "prefectureCode": "15",
    "prefectureNumber": 15,
    "prefecture": "新潟県",
    "city": "柏崎市",
    "town": "宮場町"
  },
  "9450831": {
    "zipcode": "9450831",
    "prefectureCode": "15",
    "prefectureNumber": 15,
    "prefecture": "新潟県",
    "city": "柏崎市",
    "town": "柳橋町"
  },
  "9450832": {
    "zipcode": "9450832",
    "prefectureCode": "15",
    "prefectureNumber": 15,
    "prefecture": "新潟県",
    "city": "柏崎市",
    "town": "関町"
  },
  "9450833": {
    "zipcode": "9450833",
    "prefectureCode": "15",
    "prefectureNumber": 15,
    "prefecture": "新潟県",
    "city": "柏崎市",
    "town": "若葉町"
  },
  "9450834": {
    "zipcode": "9450834",
    "prefectureCode": "15",
    "prefectureNumber": 15,
    "prefecture": "新潟県",
    "city": "柏崎市",
    "town": "常盤台"
  },
  "9450835": {
    "zipcode": "9450835",
    "prefectureCode": "15",
    "prefectureNumber": 15,
    "prefecture": "新潟県",
    "city": "柏崎市",
    "town": "剣野町"
  },
  "9450836": {
    "zipcode": "9450836",
    "prefectureCode": "15",
    "prefectureNumber": 15,
    "prefecture": "新潟県",
    "city": "柏崎市",
    "town": "剣野"
  },
  "9450837": {
    "zipcode": "9450837",
    "prefectureCode": "15",
    "prefectureNumber": 15,
    "prefecture": "新潟県",
    "city": "柏崎市",
    "town": "三島町"
  },
  "9450838": {
    "zipcode": "9450838",
    "prefectureCode": "15",
    "prefectureNumber": 15,
    "prefecture": "新潟県",
    "city": "柏崎市",
    "town": "三島西"
  },
  "9450841": {
    "zipcode": "9450841",
    "prefectureCode": "15",
    "prefectureNumber": 15,
    "prefecture": "新潟県",
    "city": "柏崎市",
    "town": "緑町"
  },
  "9450842": {
    "zipcode": "9450842",
    "prefectureCode": "15",
    "prefectureNumber": 15,
    "prefecture": "新潟県",
    "city": "柏崎市",
    "town": "米山台"
  },
  "9450843": {
    "zipcode": "9450843",
    "prefectureCode": "15",
    "prefectureNumber": 15,
    "prefecture": "新潟県",
    "city": "柏崎市",
    "town": "米山台東"
  },
  "9450844": {
    "zipcode": "9450844",
    "prefectureCode": "15",
    "prefectureNumber": 15,
    "prefecture": "新潟県",
    "city": "柏崎市",
    "town": "米山台西"
  },
  "9450845": {
    "zipcode": "9450845",
    "prefectureCode": "15",
    "prefectureNumber": 15,
    "prefecture": "新潟県",
    "city": "柏崎市",
    "town": "新赤坂"
  },
  "9450846": {
    "zipcode": "9450846",
    "prefectureCode": "15",
    "prefectureNumber": 15,
    "prefecture": "新潟県",
    "city": "柏崎市",
    "town": "寿町"
  },
  "9450847": {
    "zipcode": "9450847",
    "prefectureCode": "15",
    "prefectureNumber": 15,
    "prefecture": "新潟県",
    "city": "柏崎市",
    "town": "赤坂町"
  },
  "9450851": {
    "zipcode": "9450851",
    "prefectureCode": "15",
    "prefectureNumber": 15,
    "prefecture": "新潟県",
    "city": "柏崎市",
    "town": "大久保"
  },
  "9450852": {
    "zipcode": "9450852",
    "prefectureCode": "15",
    "prefectureNumber": 15,
    "prefecture": "新潟県",
    "city": "柏崎市",
    "town": "中浜"
  },
  "9450853": {
    "zipcode": "9450853",
    "prefectureCode": "15",
    "prefectureNumber": 15,
    "prefecture": "新潟県",
    "city": "柏崎市",
    "town": "番神"
  },
  "9450854": {
    "zipcode": "9450854",
    "prefectureCode": "15",
    "prefectureNumber": 15,
    "prefecture": "新潟県",
    "city": "柏崎市",
    "town": "東の輪町"
  },
  "9450855": {
    "zipcode": "9450855",
    "prefectureCode": "15",
    "prefectureNumber": 15,
    "prefecture": "新潟県",
    "city": "柏崎市",
    "town": "鯨波"
  },
  "9450857": {
    "zipcode": "9450857",
    "prefectureCode": "15",
    "prefectureNumber": 15,
    "prefecture": "新潟県",
    "city": "柏崎市",
    "town": "谷根"
  },
  "9450858": {
    "zipcode": "9450858",
    "prefectureCode": "15",
    "prefectureNumber": 15,
    "prefecture": "新潟県",
    "city": "柏崎市",
    "town": "小杉"
  },
  "9451101": {
    "zipcode": "9451101",
    "prefectureCode": "15",
    "prefectureNumber": 15,
    "prefecture": "新潟県",
    "city": "柏崎市",
    "town": "横山"
  },
  "9451102": {
    "zipcode": "9451102",
    "prefectureCode": "15",
    "prefectureNumber": 15,
    "prefecture": "新潟県",
    "city": "柏崎市",
    "town": "向陽町"
  },
  "9451103": {
    "zipcode": "9451103",
    "prefectureCode": "15",
    "prefectureNumber": 15,
    "prefecture": "新潟県",
    "city": "柏崎市",
    "town": "藤橋"
  },
  "9451104": {
    "zipcode": "9451104",
    "prefectureCode": "15",
    "prefectureNumber": 15,
    "prefecture": "新潟県",
    "city": "柏崎市",
    "town": "下方"
  },
  "9451105": {
    "zipcode": "9451105",
    "prefectureCode": "15",
    "prefectureNumber": 15,
    "prefecture": "新潟県",
    "city": "柏崎市",
    "town": "長峰町"
  },
  "9451106": {
    "zipcode": "9451106",
    "prefectureCode": "15",
    "prefectureNumber": 15,
    "prefecture": "新潟県",
    "city": "柏崎市",
    "town": "ゆりが丘"
  },
  "9451111": {
    "zipcode": "9451111",
    "prefectureCode": "15",
    "prefectureNumber": 15,
    "prefecture": "新潟県",
    "city": "柏崎市",
    "town": "堀"
  },
  "9451112": {
    "zipcode": "9451112",
    "prefectureCode": "15",
    "prefectureNumber": 15,
    "prefecture": "新潟県",
    "city": "柏崎市",
    "town": "南下"
  },
  "9451113": {
    "zipcode": "9451113",
    "prefectureCode": "15",
    "prefectureNumber": 15,
    "prefecture": "新潟県",
    "city": "柏崎市",
    "town": "古町"
  },
  "9451114": {
    "zipcode": "9451114",
    "prefectureCode": "15",
    "prefectureNumber": 15,
    "prefecture": "新潟県",
    "city": "柏崎市",
    "town": "芋川"
  },
  "9451115": {
    "zipcode": "9451115",
    "prefectureCode": "15",
    "prefectureNumber": 15,
    "prefecture": "新潟県",
    "city": "柏崎市",
    "town": "佐水"
  },
  "9451116": {
    "zipcode": "9451116",
    "prefectureCode": "15",
    "prefectureNumber": 15,
    "prefecture": "新潟県",
    "city": "柏崎市",
    "town": "山口"
  },
  "9451117": {
    "zipcode": "9451117",
    "prefectureCode": "15",
    "prefectureNumber": 15,
    "prefecture": "新潟県",
    "city": "柏崎市",
    "town": "宮之窪"
  },
  "9451118": {
    "zipcode": "9451118",
    "prefectureCode": "15",
    "prefectureNumber": 15,
    "prefecture": "新潟県",
    "city": "柏崎市",
    "town": "上条"
  },
  "9451121": {
    "zipcode": "9451121",
    "prefectureCode": "15",
    "prefectureNumber": 15,
    "prefecture": "新潟県",
    "city": "柏崎市",
    "town": "上方"
  },
  "9451122": {
    "zipcode": "9451122",
    "prefectureCode": "15",
    "prefectureNumber": 15,
    "prefecture": "新潟県",
    "city": "柏崎市",
    "town": "新道"
  },
  "9451123": {
    "zipcode": "9451123",
    "prefectureCode": "15",
    "prefectureNumber": 15,
    "prefecture": "新潟県",
    "city": "柏崎市",
    "town": "貝渕"
  },
  "9451124": {
    "zipcode": "9451124",
    "prefectureCode": "15",
    "prefectureNumber": 15,
    "prefecture": "新潟県",
    "city": "柏崎市",
    "town": "黒滝"
  },
  "9451125": {
    "zipcode": "9451125",
    "prefectureCode": "15",
    "prefectureNumber": 15,
    "prefecture": "新潟県",
    "city": "柏崎市",
    "town": "小田山新田"
  },
  "9451126": {
    "zipcode": "9451126",
    "prefectureCode": "15",
    "prefectureNumber": 15,
    "prefecture": "新潟県",
    "city": "柏崎市",
    "town": "大河内新田"
  },
  "9451241": {
    "zipcode": "9451241",
    "prefectureCode": "15",
    "prefectureNumber": 15,
    "prefecture": "新潟県",
    "city": "柏崎市",
    "town": "野田"
  },
  "9451242": {
    "zipcode": "9451242",
    "prefectureCode": "15",
    "prefectureNumber": 15,
    "prefecture": "新潟県",
    "city": "柏崎市",
    "town": "細越"
  },
  "9451243": {
    "zipcode": "9451243",
    "prefectureCode": "15",
    "prefectureNumber": 15,
    "prefecture": "新潟県",
    "city": "柏崎市",
    "town": "久米"
  },
  "9451244": {
    "zipcode": "9451244",
    "prefectureCode": "15",
    "prefectureNumber": 15,
    "prefecture": "新潟県",
    "city": "柏崎市",
    "town": "水上"
  },
  "9451245": {
    "zipcode": "9451245",
    "prefectureCode": "15",
    "prefectureNumber": 15,
    "prefecture": "新潟県",
    "city": "柏崎市",
    "town": "宮川新田"
  },
  "9451246": {
    "zipcode": "9451246",
    "prefectureCode": "15",
    "prefectureNumber": 15,
    "prefecture": "新潟県",
    "city": "柏崎市",
    "town": "清水谷"
  },
  "9451247": {
    "zipcode": "9451247",
    "prefectureCode": "15",
    "prefectureNumber": 15,
    "prefecture": "新潟県",
    "city": "柏崎市",
    "town": "木沢"
  },
  "9451248": {
    "zipcode": "9451248",
    "prefectureCode": "15",
    "prefectureNumber": 15,
    "prefecture": "新潟県",
    "city": "柏崎市",
    "town": "田屋"
  },
  "9451251": {
    "zipcode": "9451251",
    "prefectureCode": "15",
    "prefectureNumber": 15,
    "prefecture": "新潟県",
    "city": "柏崎市",
    "town": "市野新田"
  },
  "9451252": {
    "zipcode": "9451252",
    "prefectureCode": "15",
    "prefectureNumber": 15,
    "prefecture": "新潟県",
    "city": "柏崎市",
    "town": "女谷"
  },
  "9451253": {
    "zipcode": "9451253",
    "prefectureCode": "15",
    "prefectureNumber": 15,
    "prefecture": "新潟県",
    "city": "柏崎市",
    "town": "折居"
  },
  "9451341": {
    "zipcode": "9451341",
    "prefectureCode": "15",
    "prefectureNumber": 15,
    "prefecture": "新潟県",
    "city": "柏崎市",
    "town": "茨目"
  },
  "9451343": {
    "zipcode": "9451343",
    "prefectureCode": "15",
    "prefectureNumber": 15,
    "prefecture": "新潟県",
    "city": "柏崎市",
    "town": "城塚"
  },
  "9451344": {
    "zipcode": "9451344",
    "prefectureCode": "15",
    "prefectureNumber": 15,
    "prefecture": "新潟県",
    "city": "柏崎市",
    "town": "両田尻"
  },
  "9451345": {
    "zipcode": "9451345",
    "prefectureCode": "15",
    "prefectureNumber": 15,
    "prefecture": "新潟県",
    "city": "柏崎市",
    "town": "下田尻"
  },
  "9451351": {
    "zipcode": "9451351",
    "prefectureCode": "15",
    "prefectureNumber": 15,
    "prefecture": "新潟県",
    "city": "柏崎市",
    "town": "上田尻"
  },
  "9451352": {
    "zipcode": "9451352",
    "prefectureCode": "15",
    "prefectureNumber": 15,
    "prefecture": "新潟県",
    "city": "柏崎市",
    "town": "安田"
  },
  "9451353": {
    "zipcode": "9451353",
    "prefectureCode": "15",
    "prefectureNumber": 15,
    "prefecture": "新潟県",
    "city": "柏崎市",
    "town": "平井"
  },
  "9451354": {
    "zipcode": "9451354",
    "prefectureCode": "15",
    "prefectureNumber": 15,
    "prefecture": "新潟県",
    "city": "柏崎市",
    "town": "佐藤池新田"
  },
  "9451355": {
    "zipcode": "9451355",
    "prefectureCode": "15",
    "prefectureNumber": 15,
    "prefecture": "新潟県",
    "city": "柏崎市",
    "town": "軽井川"
  },
  "9451431": {
    "zipcode": "9451431",
    "prefectureCode": "15",
    "prefectureNumber": 15,
    "prefecture": "新潟県",
    "city": "柏崎市",
    "town": "加納"
  },
  "9451432": {
    "zipcode": "9451432",
    "prefectureCode": "15",
    "prefectureNumber": 15,
    "prefecture": "新潟県",
    "city": "柏崎市",
    "town": "善根"
  },
  "9451433": {
    "zipcode": "9451433",
    "prefectureCode": "15",
    "prefectureNumber": 15,
    "prefecture": "新潟県",
    "city": "柏崎市",
    "town": "与板"
  },
  "9451434": {
    "zipcode": "9451434",
    "prefectureCode": "15",
    "prefectureNumber": 15,
    "prefecture": "新潟県",
    "city": "柏崎市",
    "town": "宮平"
  },
  "9451435": {
    "zipcode": "9451435",
    "prefectureCode": "15",
    "prefectureNumber": 15,
    "prefecture": "新潟県",
    "city": "柏崎市",
    "town": "森近"
  },
  "9451436": {
    "zipcode": "9451436",
    "prefectureCode": "15",
    "prefectureNumber": 15,
    "prefecture": "新潟県",
    "city": "柏崎市",
    "town": "石曽根"
  },
  "9451437": {
    "zipcode": "9451437",
    "prefectureCode": "15",
    "prefectureNumber": 15,
    "prefecture": "新潟県",
    "city": "柏崎市",
    "town": "山室"
  },
  "9451438": {
    "zipcode": "9451438",
    "prefectureCode": "15",
    "prefectureNumber": 15,
    "prefecture": "新潟県",
    "city": "柏崎市",
    "town": "大沢"
  },
  "9451501": {
    "zipcode": "9451501",
    "prefectureCode": "15",
    "prefectureNumber": 15,
    "prefecture": "新潟県",
    "city": "柏崎市",
    "town": "高柳町岡田"
  },
  "9451502": {
    "zipcode": "9451502",
    "prefectureCode": "15",
    "prefectureNumber": 15,
    "prefecture": "新潟県",
    "city": "柏崎市",
    "town": "高柳町岡野町"
  },
  "9451503": {
    "zipcode": "9451503",
    "prefectureCode": "15",
    "prefectureNumber": 15,
    "prefecture": "新潟県",
    "city": "柏崎市",
    "town": "高柳町山中"
  },
  "9451504": {
    "zipcode": "9451504",
    "prefectureCode": "15",
    "prefectureNumber": 15,
    "prefecture": "新潟県",
    "city": "柏崎市",
    "town": "高柳町栃ケ原"
  },
  "9451505": {
    "zipcode": "9451505",
    "prefectureCode": "15",
    "prefectureNumber": 15,
    "prefecture": "新潟県",
    "city": "柏崎市",
    "town": "高柳町高尾"
  },
  "9451511": {
    "zipcode": "9451511",
    "prefectureCode": "15",
    "prefectureNumber": 15,
    "prefecture": "新潟県",
    "city": "柏崎市",
    "town": "高柳町漆島"
  },
  "9451512": {
    "zipcode": "9451512",
    "prefectureCode": "15",
    "prefectureNumber": 15,
    "prefecture": "新潟県",
    "city": "柏崎市",
    "town": "高柳町荻ノ島"
  },
  "9451513": {
    "zipcode": "9451513",
    "prefectureCode": "15",
    "prefectureNumber": 15,
    "prefecture": "新潟県",
    "city": "柏崎市",
    "town": "高柳町門出"
  },
  "9451514": {
    "zipcode": "9451514",
    "prefectureCode": "15",
    "prefectureNumber": 15,
    "prefecture": "新潟県",
    "city": "柏崎市",
    "town": "高柳町田代"
  },
  "9451515": {
    "zipcode": "9451515",
    "prefectureCode": "15",
    "prefectureNumber": 15,
    "prefecture": "新潟県",
    "city": "柏崎市",
    "town": "高柳町石黒"
  }
}
