{
  "9470000": {
    "zipcode": "9470000",
    "prefectureCode": "15",
    "prefectureNumber": 15,
    "prefecture": "新潟県",
    "city": "小千谷市",
    "town": "以下に掲載がない場合"
  },
  "9470001": {
    "zipcode": "9470001",
    "prefectureCode": "15",
    "prefectureNumber": 15,
    "prefecture": "新潟県",
    "city": "小千谷市",
    "town": "浦柄"
  },
  "9470002": {
    "zipcode": "9470002",
    "prefectureCode": "15",
    "prefectureNumber": 15,
    "prefecture": "新潟県",
    "city": "小千谷市",
    "town": "横渡"
  },
  "9470003": {
    "zipcode": "9470003",
    "prefectureCode": "15",
    "prefectureNumber": 15,
    "prefecture": "新潟県",
    "city": "小千谷市",
    "town": "ひ生"
  },
  "9470004": {
    "zipcode": "9470004",
    "prefectureCode": "15",
    "prefectureNumber": 15,
    "prefecture": "新潟県",
    "city": "小千谷市",
    "town": "東栄"
  },
  "9470005": {
    "zipcode": "9470005",
    "prefectureCode": "15",
    "prefectureNumber": 15,
    "prefecture": "新潟県",
    "city": "小千谷市",
    "town": "旭町"
  },
  "9470011": {
    "zipcode": "9470011",
    "prefectureCode": "15",
    "prefectureNumber": 15,
    "prefecture": "新潟県",
    "city": "小千谷市",
    "town": "栄町"
  },
  "9470012": {
    "zipcode": "9470012",
    "prefectureCode": "15",
    "prefectureNumber": 15,
    "prefecture": "新潟県",
    "city": "小千谷市",
    "town": "山本"
  },
  "9470013": {
    "zipcode": "9470013",
    "prefectureCode": "15",
    "prefectureNumber": 15,
    "prefecture": "新潟県",
    "city": "小千谷市",
    "town": "上片貝"
  },
  "9470014": {
    "zipcode": "9470014",
    "prefectureCode": "15",
    "prefectureNumber": 15,
    "prefecture": "新潟県",
    "city": "小千谷市",
    "town": "西中"
  },
  "9470015": {
    "zipcode": "9470015",
    "prefectureCode": "15",
    "prefectureNumber": 15,
    "prefecture": "新潟県",
    "city": "小千谷市",
    "town": "谷内"
  },
  "9470016": {
    "zipcode": "9470016",
    "prefectureCode": "15",
    "prefectureNumber": 15,
    "prefecture": "新潟県",
    "city": "小千谷市",
    "town": "四ツ子"
  },
  "9470017": {
    "zipcode": "9470017",
    "prefectureCode": "15",
    "prefectureNumber": 15,
    "prefecture": "新潟県",
    "city": "小千谷市",
    "town": "東吉谷"
  },
  "9470018": {
    "zipcode": "9470018",
    "prefectureCode": "15",
    "prefectureNumber": 15,
    "prefecture": "新潟県",
    "city": "小千谷市",
    "town": "西吉谷"
  },
  "9470021": {
    "zipcode": "9470021",
    "prefectureCode": "15",
    "prefectureNumber": 15,
    "prefecture": "新潟県",
    "city": "小千谷市",
    "town": "本町"
  },
  "9470022": {
    "zipcode": "9470022",
    "prefectureCode": "15",
    "prefectureNumber": 15,
    "prefecture": "新潟県",
    "city": "小千谷市",
    "town": "元町"
  },
  "9470023": {
    "zipcode": "9470023",
    "prefectureCode": "15",
    "prefectureNumber": 15,
    "prefecture": "新潟県",
    "city": "小千谷市",
    "town": "日吉"
  },
  "9470024": {
    "zipcode": "9470024",
    "prefectureCode": "15",
    "prefectureNumber": 15,
    "prefecture": "新潟県",
    "city": "小千谷市",
    "town": "船岡"
  },
  "9470025": {
    "zipcode": "9470025",
    "prefectureCode": "15",
    "prefectureNumber": 15,
    "prefecture": "新潟県",
    "city": "小千谷市",
    "town": "稲荷町"
  },
  "9470026": {
    "zipcode": "9470026",
    "prefectureCode": "15",
    "prefectureNumber": 15,
    "prefecture": "新潟県",
    "city": "小千谷市",
    "town": "上ノ山"
  },
  "9470027": {
    "zipcode": "9470027",
    "prefectureCode": "15",
    "prefectureNumber": 15,
    "prefecture": "新潟県",
    "city": "小千谷市",
    "town": "平成"
  },
  "9470028": {
    "zipcode": "9470028",
    "prefectureCode": "15",
    "prefectureNumber": 15,
    "prefecture": "新潟県",
    "city": "小千谷市",
    "town": "城内"
  },
  "9470031": {
    "zipcode": "9470031",
    "prefectureCode": "15",
    "prefectureNumber": 15,
    "prefecture": "新潟県",
    "city": "小千谷市",
    "town": "土川"
  },
  "9470032": {
    "zipcode": "9470032",
    "prefectureCode": "15",
    "prefectureNumber": 15,
    "prefecture": "新潟県",
    "city": "小千谷市",
    "town": "薮川"
  },
  "9470033": {
    "zipcode": "9470033",
    "prefectureCode": "15",
    "prefectureNumber": 15,
    "prefecture": "新潟県",
    "city": "小千谷市",
    "town": "時水"
  },
  "9470034": {
    "zipcode": "9470034",
    "prefectureCode": "15",
    "prefectureNumber": 15,
    "prefecture": "新潟県",
    "city": "小千谷市",
    "town": "両新田"
  },
  "9470035": {
    "zipcode": "9470035",
    "prefectureCode": "15",
    "prefectureNumber": 15,
    "prefecture": "新潟県",
    "city": "小千谷市",
    "town": "桜町"
  },
  "9470041": {
    "zipcode": "9470041",
    "prefectureCode": "15",
    "prefectureNumber": 15,
    "prefecture": "新潟県",
    "city": "小千谷市",
    "town": "小粟田"
  },
  "9470042": {
    "zipcode": "9470042",
    "prefectureCode": "15",
    "prefectureNumber": 15,
    "prefecture": "新潟県",
    "city": "小千谷市",
    "town": "平沢新田"
  },
  "9470043": {
    "zipcode": "9470043",
    "prefectureCode": "15",
    "prefectureNumber": 15,
    "prefecture": "新潟県",
    "city": "小千谷市",
    "town": "山谷"
  },
  "9470044": {
    "zipcode": "9470044",
    "prefectureCode": "15",
    "prefectureNumber": 15,
    "prefecture": "新潟県",
    "city": "小千谷市",
    "town": "坪野"
  },
  "9470045": {
    "zipcode": "9470045",
    "prefectureCode": "15",
    "prefectureNumber": 15,
    "prefecture": "新潟県",
    "city": "小千谷市",
    "town": "鴻巣町"
  },
  "9470051": {
    "zipcode": "9470051",
    "prefectureCode": "15",
    "prefectureNumber": 15,
    "prefecture": "新潟県",
    "city": "小千谷市",
    "town": "三仏生"
  },
  "9470052": {
    "zipcode": "9470052",
    "prefectureCode": "15",
    "prefectureNumber": 15,
    "prefecture": "新潟県",
    "city": "小千谷市",
    "town": "千谷"
  },
  "9470053": {
    "zipcode": "9470053",
    "prefectureCode": "15",
    "prefectureNumber": 15,
    "prefecture": "新潟県",
    "city": "小千谷市",
    "town": "千谷川"
  },
  "9470054": {
    "zipcode": "9470054",
    "prefectureCode": "15",
    "prefectureNumber": 15,
    "prefecture": "新潟県",
    "city": "小千谷市",
    "town": "若葉"
  },
  "9470101": {
    "zipcode": "9470101",
    "prefectureCode": "15",
    "prefectureNumber": 15,
    "prefecture": "新潟県",
    "city": "小千谷市",
    "town": "片貝町"
  },
  "9470102": {
    "zipcode": "9470102",
    "prefectureCode": "15",
    "prefectureNumber": 15,
    "prefecture": "新潟県",
    "city": "小千谷市",
    "town": "高梨町"
  },
  "9470103": {
    "zipcode": "9470103",
    "prefectureCode": "15",
    "prefectureNumber": 15,
    "prefecture": "新潟県",
    "city": "小千谷市",
    "town": "片貝山屋町"
  },
  "9470201": {
    "zipcode": "9470201",
    "prefectureCode": "15",
    "prefectureNumber": 15,
    "prefecture": "新潟県",
    "city": "長岡市",
    "town": "山古志種苧原"
  },
  "9470202": {
    "zipcode": "9470202",
    "prefectureCode": "15",
    "prefectureNumber": 15,
    "prefecture": "新潟県",
    "city": "長岡市",
    "town": "山古志南平"
  },
  "9470203": {
    "zipcode": "9470203",
    "prefectureCode": "15",
    "prefectureNumber": 15,
    "prefecture": "新潟県",
    "city": "長岡市",
    "town": "山古志東竹沢"
  },
  "9470204": {
    "zipcode": "9470204",
    "prefectureCode": "15",
    "prefectureNumber": 15,
    "prefecture": "新潟県",
    "city": "長岡市",
    "town": "山古志竹沢"
  },
  "9470205": {
    "zipcode": "9470205",
    "prefectureCode": "15",
    "prefectureNumber": 15,
    "prefecture": "新潟県",
    "city": "長岡市",
    "town": "山古志虫亀"
  },
  "9470211": {
    "zipcode": "9470211",
    "prefectureCode": "15",
    "prefectureNumber": 15,
    "prefecture": "新潟県",
    "city": "小千谷市",
    "town": "小栗山"
  },
  "9470212": {
    "zipcode": "9470212",
    "prefectureCode": "15",
    "prefectureNumber": 15,
    "prefecture": "新潟県",
    "city": "小千谷市",
    "town": "南荷頃"
  },
  "9470213": {
    "zipcode": "9470213",
    "prefectureCode": "15",
    "prefectureNumber": 15,
    "prefecture": "新潟県",
    "city": "小千谷市",
    "town": "塩谷"
  }
}
