{
  "9480000": {
    "zipcode": "9480000",
    "prefectureCode": "15",
    "prefectureNumber": 15,
    "prefecture": "新潟県",
    "city": "十日町市",
    "town": "以下に掲載がない場合"
  },
  "9480001": {
    "zipcode": "9480001",
    "prefectureCode": "15",
    "prefectureNumber": 15,
    "prefecture": "新潟県",
    "city": "十日町市",
    "town": "五軒新田"
  },
  "9480002": {
    "zipcode": "9480002",
    "prefectureCode": "15",
    "prefectureNumber": 15,
    "prefecture": "新潟県",
    "city": "十日町市",
    "town": "三和町"
  },
  "9480003": {
    "zipcode": "9480003",
    "prefectureCode": "15",
    "prefectureNumber": 15,
    "prefecture": "新潟県",
    "city": "十日町市",
    "town": "本町六の三丁目"
  },
  "9480004": {
    "zipcode": "9480004",
    "prefectureCode": "15",
    "prefectureNumber": 15,
    "prefecture": "新潟県",
    "city": "十日町市",
    "town": "下川原町"
  },
  "9480005": {
    "zipcode": "9480005",
    "prefectureCode": "15",
    "prefectureNumber": 15,
    "prefecture": "新潟県",
    "city": "十日町市",
    "town": "南新田町"
  },
  "9480006": {
    "zipcode": "9480006",
    "prefectureCode": "15",
    "prefectureNumber": 15,
    "prefecture": "新潟県",
    "city": "十日町市",
    "town": "四日町"
  },
  "9480007": {
    "zipcode": "9480007",
    "prefectureCode": "15",
    "prefectureNumber": 15,
    "prefecture": "新潟県",
    "city": "十日町市",
    "town": "四日町新田"
  },
  "9480008": {
    "zipcode": "9480008",
    "prefectureCode": "15",
    "prefectureNumber": 15,
    "prefecture": "新潟県",
    "city": "十日町市",
    "town": "尾崎"
  },
  "9480011": {
    "zipcode": "9480011",
    "prefectureCode": "15",
    "prefectureNumber": 15,
    "prefecture": "新潟県",
    "city": "十日町市",
    "town": "新座（第３、４）"
  },
  "9480012": {
    "zipcode": "9480012",
    "prefectureCode": "15",
    "prefectureNumber": 15,
    "prefecture": "新潟県",
    "city": "十日町市",
    "town": "新座（第１、２）"
  },
  "9480013": {
    "zipcode": "9480013",
    "prefectureCode": "15",
    "prefectureNumber": 15,
    "prefecture": "新潟県",
    "city": "十日町市",
    "town": "川原町"
  },
  "9480014": {
    "zipcode": "9480014",
    "prefectureCode": "15",
    "prefectureNumber": 15,
    "prefecture": "新潟県",
    "city": "十日町市",
    "town": "江道"
  },
  "9480015": {
    "zipcode": "9480015",
    "prefectureCode": "15",
    "prefectureNumber": 15,
    "prefecture": "新潟県",
    "city": "十日町市",
    "town": "猿倉"
  },
  "9480016": {
    "zipcode": "9480016",
    "prefectureCode": "15",
    "prefectureNumber": 15,
    "prefecture": "新潟県",
    "city": "十日町市",
    "town": "津池"
  },
  "9480017": {
    "zipcode": "9480017",
    "prefectureCode": "15",
    "prefectureNumber": 15,
    "prefecture": "新潟県",
    "city": "十日町市",
    "town": "菅沼"
  },
  "9480018": {
    "zipcode": "9480018",
    "prefectureCode": "15",
    "prefectureNumber": 15,
    "prefecture": "新潟県",
    "city": "十日町市",
    "town": "大池"
  },
  "9480019": {
    "zipcode": "9480019",
    "prefectureCode": "15",
    "prefectureNumber": 15,
    "prefecture": "新潟県",
    "city": "十日町市",
    "town": "十日町赤倉"
  },
  "9480021": {
    "zipcode": "9480021",
    "prefectureCode": "15",
    "prefectureNumber": 15,
    "prefecture": "新潟県",
    "city": "十日町市",
    "town": "田川町"
  },
  "9480022": {
    "zipcode": "9480022",
    "prefectureCode": "15",
    "prefectureNumber": 15,
    "prefecture": "新潟県",
    "city": "十日町市",
    "town": "学校町"
  },
  "9480023": {
    "zipcode": "9480023",
    "prefectureCode": "15",
    "prefectureNumber": 15,
    "prefecture": "新潟県",
    "city": "十日町市",
    "town": "宮下町東"
  },
  "9480024": {
    "zipcode": "9480024",
    "prefectureCode": "15",
    "prefectureNumber": 15,
    "prefecture": "新潟県",
    "city": "十日町市",
    "town": "諏訪町"
  },
  "9480025": {
    "zipcode": "9480025",
    "prefectureCode": "15",
    "prefectureNumber": 15,
    "prefecture": "新潟県",
    "city": "十日町市",
    "town": "神明町"
  },
  "9480026": {
    "zipcode": "9480026",
    "prefectureCode": "15",
    "prefectureNumber": 15,
    "prefecture": "新潟県",
    "city": "十日町市",
    "town": "水野町"
  },
  "9480027": {
    "zipcode": "9480027",
    "prefectureCode": "15",
    "prefectureNumber": 15,
    "prefecture": "新潟県",
    "city": "十日町市",
    "town": "若宮町"
  },
  "9480028": {
    "zipcode": "9480028",
    "prefectureCode": "15",
    "prefectureNumber": 15,
    "prefecture": "新潟県",
    "city": "十日町市",
    "town": "田中町本通り"
  },
  "9480029": {
    "zipcode": "9480029",
    "prefectureCode": "15",
    "prefectureNumber": 15,
    "prefecture": "新潟県",
    "city": "十日町市",
    "town": "上川町"
  },
  "9480031": {
    "zipcode": "9480031",
    "prefectureCode": "15",
    "prefectureNumber": 15,
    "prefecture": "新潟県",
    "city": "十日町市",
    "town": "山本町"
  },
  "9480032": {
    "zipcode": "9480032",
    "prefectureCode": "15",
    "prefectureNumber": 15,
    "prefecture": "新潟県",
    "city": "十日町市",
    "town": "関根"
  },
  "9480033": {
    "zipcode": "9480033",
    "prefectureCode": "15",
    "prefectureNumber": 15,
    "prefecture": "新潟県",
    "city": "十日町市",
    "town": "八箇"
  },
  "9480034": {
    "zipcode": "9480034",
    "prefectureCode": "15",
    "prefectureNumber": 15,
    "prefecture": "新潟県",
    "city": "十日町市",
    "town": "二ツ屋"
  },
  "9480035": {
    "zipcode": "9480035",
    "prefectureCode": "15",
    "prefectureNumber": 15,
    "prefecture": "新潟県",
    "city": "十日町市",
    "town": "川治下町"
  },
  "9480036": {
    "zipcode": "9480036",
    "prefectureCode": "15",
    "prefectureNumber": 15,
    "prefecture": "新潟県",
    "city": "十日町市",
    "town": "川治"
  },
  "9480037": {
    "zipcode": "9480037",
    "prefectureCode": "15",
    "prefectureNumber": 15,
    "prefecture": "新潟県",
    "city": "十日町市",
    "town": "妻有町"
  },
  "9480038": {
    "zipcode": "9480038",
    "prefectureCode": "15",
    "prefectureNumber": 15,
    "prefecture": "新潟県",
    "city": "十日町市",
    "town": "河内町"
  },
  "9480039": {
    "zipcode": "9480039",
    "prefectureCode": "15",
    "prefectureNumber": 15,
    "prefecture": "新潟県",
    "city": "十日町市",
    "town": "塩ノ又"
  },
  "9480041": {
    "zipcode": "9480041",
    "prefectureCode": "15",
    "prefectureNumber": 15,
    "prefecture": "新潟県",
    "city": "十日町市",
    "town": "北新田"
  },
  "9480042": {
    "zipcode": "9480042",
    "prefectureCode": "15",
    "prefectureNumber": 15,
    "prefecture": "新潟県",
    "city": "十日町市",
    "town": "中村"
  },
  "9480043": {
    "zipcode": "9480043",
    "prefectureCode": "15",
    "prefectureNumber": 15,
    "prefecture": "新潟県",
    "city": "十日町市",
    "town": "六箇山谷"
  },
  "9480044": {
    "zipcode": "9480044",
    "prefectureCode": "15",
    "prefectureNumber": 15,
    "prefecture": "新潟県",
    "city": "十日町市",
    "town": "田麦"
  },
  "9480045": {
    "zipcode": "9480045",
    "prefectureCode": "15",
    "prefectureNumber": 15,
    "prefecture": "新潟県",
    "city": "十日町市",
    "town": "麻畑"
  },
  "9480046": {
    "zipcode": "9480046",
    "prefectureCode": "15",
    "prefectureNumber": 15,
    "prefecture": "新潟県",
    "city": "十日町市",
    "town": "明石町"
  },
  "9480047": {
    "zipcode": "9480047",
    "prefectureCode": "15",
    "prefectureNumber": 15,
    "prefecture": "新潟県",
    "city": "十日町市",
    "town": "城之古"
  },
  "9480048": {
    "zipcode": "9480048",
    "prefectureCode": "15",
    "prefectureNumber": 15,
    "prefecture": "新潟県",
    "city": "十日町市",
    "town": "谷内丑"
  },
  "9480049": {
    "zipcode": "9480049",
    "prefectureCode": "15",
    "prefectureNumber": 15,
    "prefecture": "新潟県",
    "city": "十日町市",
    "town": "船坂"
  },
  "9480051": {
    "zipcode": "9480051",
    "prefectureCode": "15",
    "prefectureNumber": 15,
    "prefecture": "新潟県",
    "city": "十日町市",
    "town": "寿町"
  },
  "9480052": {
    "zipcode": "9480052",
    "prefectureCode": "15",
    "prefectureNumber": 15,
    "prefecture": "新潟県",
    "city": "十日町市",
    "town": "美雪町"
  },
  "9480053": {
    "zipcode": "9480053",
    "prefectureCode": "15",
    "prefectureNumber": 15,
    "prefecture": "新潟県",
    "city": "十日町市",
    "town": "錦町"
  },
  "9480054": {
    "zipcode": "9480054",
    "prefectureCode": "15",
    "prefectureNumber": 15,
    "prefecture": "新潟県",
    "city": "十日町市",
    "town": "塚原町"
  },
  "9480055": {
    "zipcode": "9480055",
    "prefectureCode": "15",
    "prefectureNumber": 15,
    "prefecture": "新潟県",
    "city": "十日町市",
    "town": "高山"
  },
  "9480056": {
    "zipcode": "9480056",
    "prefectureCode": "15",
    "prefectureNumber": 15,
    "prefecture": "新潟県",
    "city": "十日町市",
    "town": "高田町六丁目"
  },
  "9480057": {
    "zipcode": "9480057",
    "prefectureCode": "15",
    "prefectureNumber": 15,
    "prefecture": "新潟県",
    "city": "十日町市",
    "town": "春日町"
  },
  "9480058": {
    "zipcode": "9480058",
    "prefectureCode": "15",
    "prefectureNumber": 15,
    "prefecture": "新潟県",
    "city": "十日町市",
    "town": "桜木町"
  },
  "9480061": {
    "zipcode": "9480061",
    "prefectureCode": "15",
    "prefectureNumber": 15,
    "prefecture": "新潟県",
    "city": "十日町市",
    "town": "昭和町"
  },
  "9480062": {
    "zipcode": "9480062",
    "prefectureCode": "15",
    "prefectureNumber": 15,
    "prefecture": "新潟県",
    "city": "十日町市",
    "town": "泉町"
  },
  "9480063": {
    "zipcode": "9480063",
    "prefectureCode": "15",
    "prefectureNumber": 15,
    "prefecture": "新潟県",
    "city": "十日町市",
    "town": "高田町一丁目"
  },
  "9480064": {
    "zipcode": "9480064",
    "prefectureCode": "15",
    "prefectureNumber": 15,
    "prefecture": "新潟県",
    "city": "十日町市",
    "town": "高田町二丁目"
  },
  "9480065": {
    "zipcode": "9480065",
    "prefectureCode": "15",
    "prefectureNumber": 15,
    "prefecture": "新潟県",
    "city": "十日町市",
    "town": "高田町三丁目南"
  },
  "9480066": {
    "zipcode": "9480066",
    "prefectureCode": "15",
    "prefectureNumber": 15,
    "prefecture": "新潟県",
    "city": "十日町市",
    "town": "袋町東"
  },
  "9480067": {
    "zipcode": "9480067",
    "prefectureCode": "15",
    "prefectureNumber": 15,
    "prefecture": "新潟県",
    "city": "十日町市",
    "town": "千歳町"
  },
  "9480068": {
    "zipcode": "9480068",
    "prefectureCode": "15",
    "prefectureNumber": 15,
    "prefecture": "新潟県",
    "city": "十日町市",
    "town": "栄町"
  },
  "9480071": {
    "zipcode": "9480071",
    "prefectureCode": "15",
    "prefectureNumber": 15,
    "prefecture": "新潟県",
    "city": "十日町市",
    "town": "八幡田町"
  },
  "9480072": {
    "zipcode": "9480072",
    "prefectureCode": "15",
    "prefectureNumber": 15,
    "prefecture": "新潟県",
    "city": "十日町市",
    "town": "西本町"
  },
  "9480073": {
    "zipcode": "9480073",
    "prefectureCode": "15",
    "prefectureNumber": 15,
    "prefecture": "新潟県",
    "city": "十日町市",
    "town": "稲荷町西"
  },
  "9480074": {
    "zipcode": "9480074",
    "prefectureCode": "15",
    "prefectureNumber": 15,
    "prefecture": "新潟県",
    "city": "十日町市",
    "town": "西浦町東"
  },
  "9480075": {
    "zipcode": "9480075",
    "prefectureCode": "15",
    "prefectureNumber": 15,
    "prefecture": "新潟県",
    "city": "十日町市",
    "town": "丸山町"
  },
  "9480076": {
    "zipcode": "9480076",
    "prefectureCode": "15",
    "prefectureNumber": 15,
    "prefecture": "新潟県",
    "city": "十日町市",
    "town": "住吉町"
  },
  "9480078": {
    "zipcode": "9480078",
    "prefectureCode": "15",
    "prefectureNumber": 15,
    "prefecture": "新潟県",
    "city": "十日町市",
    "town": "千代田町"
  },
  "9480079": {
    "zipcode": "9480079",
    "prefectureCode": "15",
    "prefectureNumber": 15,
    "prefecture": "新潟県",
    "city": "十日町市",
    "town": "旭町"
  },
  "9480081": {
    "zipcode": "9480081",
    "prefectureCode": "15",
    "prefectureNumber": 15,
    "prefecture": "新潟県",
    "city": "十日町市",
    "town": "本町五丁目"
  },
  "9480082": {
    "zipcode": "9480082",
    "prefectureCode": "15",
    "prefectureNumber": 15,
    "prefecture": "新潟県",
    "city": "十日町市",
    "town": "本町四丁目"
  },
  "9480083": {
    "zipcode": "9480083",
    "prefectureCode": "15",
    "prefectureNumber": 15,
    "prefecture": "新潟県",
    "city": "十日町市",
    "town": "本町東一丁目"
  },
  "9480084": {
    "zipcode": "9480084",
    "prefectureCode": "15",
    "prefectureNumber": 15,
    "prefecture": "新潟県",
    "city": "十日町市",
    "town": "七軒町"
  },
  "9480085": {
    "zipcode": "9480085",
    "prefectureCode": "15",
    "prefectureNumber": 15,
    "prefecture": "新潟県",
    "city": "十日町市",
    "town": "西寺町"
  },
  "9480086": {
    "zipcode": "9480086",
    "prefectureCode": "15",
    "prefectureNumber": 15,
    "prefecture": "新潟県",
    "city": "十日町市",
    "town": "加賀糸屋町"
  },
  "9480087": {
    "zipcode": "9480087",
    "prefectureCode": "15",
    "prefectureNumber": 15,
    "prefecture": "新潟県",
    "city": "十日町市",
    "town": "関口樋口町"
  },
  "9480088": {
    "zipcode": "9480088",
    "prefectureCode": "15",
    "prefectureNumber": 15,
    "prefecture": "新潟県",
    "city": "十日町市",
    "town": "駅通り"
  },
  "9480091": {
    "zipcode": "9480091",
    "prefectureCode": "15",
    "prefectureNumber": 15,
    "prefecture": "新潟県",
    "city": "十日町市",
    "town": "稲荷町三丁目"
  },
  "9480092": {
    "zipcode": "9480092",
    "prefectureCode": "15",
    "prefectureNumber": 15,
    "prefecture": "新潟県",
    "city": "十日町市",
    "town": "稲荷町三丁目北"
  },
  "9480093": {
    "zipcode": "9480093",
    "prefectureCode": "15",
    "prefectureNumber": 15,
    "prefecture": "新潟県",
    "city": "十日町市",
    "town": "稲荷町三丁目南"
  },
  "9480094": {
    "zipcode": "9480094",
    "prefectureCode": "15",
    "prefectureNumber": 15,
    "prefecture": "新潟県",
    "city": "十日町市",
    "town": "上島"
  },
  "9480095": {
    "zipcode": "9480095",
    "prefectureCode": "15",
    "prefectureNumber": 15,
    "prefecture": "新潟県",
    "city": "十日町市",
    "town": "下島"
  },
  "9480096": {
    "zipcode": "9480096",
    "prefectureCode": "15",
    "prefectureNumber": 15,
    "prefecture": "新潟県",
    "city": "十日町市",
    "town": "内島"
  },
  "9480101": {
    "zipcode": "9480101",
    "prefectureCode": "15",
    "prefectureNumber": 15,
    "prefecture": "新潟県",
    "city": "十日町市",
    "town": "稲葉"
  },
  "9480102": {
    "zipcode": "9480102",
    "prefectureCode": "15",
    "prefectureNumber": 15,
    "prefecture": "新潟県",
    "city": "十日町市",
    "town": "山谷"
  },
  "9480103": {
    "zipcode": "9480103",
    "prefectureCode": "15",
    "prefectureNumber": 15,
    "prefecture": "新潟県",
    "city": "十日町市",
    "town": "小泉"
  },
  "9480104": {
    "zipcode": "9480104",
    "prefectureCode": "15",
    "prefectureNumber": 15,
    "prefecture": "新潟県",
    "city": "十日町市",
    "town": "樽沢"
  },
  "9480105": {
    "zipcode": "9480105",
    "prefectureCode": "15",
    "prefectureNumber": 15,
    "prefecture": "新潟県",
    "city": "十日町市",
    "town": "北鐙坂"
  },
  "9480106": {
    "zipcode": "9480106",
    "prefectureCode": "15",
    "prefectureNumber": 15,
    "prefecture": "新潟県",
    "city": "十日町市",
    "town": "南鐙坂"
  },
  "9480107": {
    "zipcode": "9480107",
    "prefectureCode": "15",
    "prefectureNumber": 15,
    "prefecture": "新潟県",
    "city": "十日町市",
    "town": "高島"
  },
  "9480111": {
    "zipcode": "9480111",
    "prefectureCode": "15",
    "prefectureNumber": 15,
    "prefecture": "新潟県",
    "city": "十日町市",
    "town": "真田甲"
  },
  "9480112": {
    "zipcode": "9480112",
    "prefectureCode": "15",
    "prefectureNumber": 15,
    "prefecture": "新潟県",
    "city": "十日町市",
    "town": "真田乙"
  },
  "9480113": {
    "zipcode": "9480113",
    "prefectureCode": "15",
    "prefectureNumber": 15,
    "prefecture": "新潟県",
    "city": "十日町市",
    "town": "真田丁"
  },
  "9480114": {
    "zipcode": "9480114",
    "prefectureCode": "15",
    "prefectureNumber": 15,
    "prefecture": "新潟県",
    "city": "十日町市",
    "town": "真田丙"
  },
  "9480121": {
    "zipcode": "9480121",
    "prefectureCode": "15",
    "prefectureNumber": 15,
    "prefecture": "新潟県",
    "city": "十日町市",
    "town": "新町新田"
  },
  "9480122": {
    "zipcode": "9480122",
    "prefectureCode": "15",
    "prefectureNumber": 15,
    "prefecture": "新潟県",
    "city": "十日町市",
    "town": "上野"
  },
  "9480123": {
    "zipcode": "9480123",
    "prefectureCode": "15",
    "prefectureNumber": 15,
    "prefecture": "新潟県",
    "city": "十日町市",
    "town": "下平新田"
  },
  "9480124": {
    "zipcode": "9480124",
    "prefectureCode": "15",
    "prefectureNumber": 15,
    "prefecture": "新潟県",
    "city": "十日町市",
    "town": "三領"
  },
  "9480125": {
    "zipcode": "9480125",
    "prefectureCode": "15",
    "prefectureNumber": 15,
    "prefecture": "新潟県",
    "city": "十日町市",
    "town": "小根岸"
  },
  "9480131": {
    "zipcode": "9480131",
    "prefectureCode": "15",
    "prefectureNumber": 15,
    "prefecture": "新潟県",
    "city": "十日町市",
    "town": "伊勢平治"
  },
  "9480132": {
    "zipcode": "9480132",
    "prefectureCode": "15",
    "prefectureNumber": 15,
    "prefecture": "新潟県",
    "city": "十日町市",
    "town": "友重"
  },
  "9480133": {
    "zipcode": "9480133",
    "prefectureCode": "15",
    "prefectureNumber": 15,
    "prefecture": "新潟県",
    "city": "十日町市",
    "town": "沖立"
  },
  "9480134": {
    "zipcode": "9480134",
    "prefectureCode": "15",
    "prefectureNumber": 15,
    "prefecture": "新潟県",
    "city": "十日町市",
    "town": "上新井"
  },
  "9480135": {
    "zipcode": "9480135",
    "prefectureCode": "15",
    "prefectureNumber": 15,
    "prefecture": "新潟県",
    "city": "十日町市",
    "town": "中屋敷"
  },
  "9480136": {
    "zipcode": "9480136",
    "prefectureCode": "15",
    "prefectureNumber": 15,
    "prefecture": "新潟県",
    "city": "十日町市",
    "town": "高原田"
  },
  "9480141": {
    "zipcode": "9480141",
    "prefectureCode": "15",
    "prefectureNumber": 15,
    "prefecture": "新潟県",
    "city": "十日町市",
    "town": "霜条"
  },
  "9480142": {
    "zipcode": "9480142",
    "prefectureCode": "15",
    "prefectureNumber": 15,
    "prefecture": "新潟県",
    "city": "十日町市",
    "town": "東善寺"
  },
  "9480143": {
    "zipcode": "9480143",
    "prefectureCode": "15",
    "prefectureNumber": 15,
    "prefecture": "新潟県",
    "city": "十日町市",
    "town": "山野田"
  },
  "9480144": {
    "zipcode": "9480144",
    "prefectureCode": "15",
    "prefectureNumber": 15,
    "prefecture": "新潟県",
    "city": "十日町市",
    "town": "水口沢"
  },
  "9480145": {
    "zipcode": "9480145",
    "prefectureCode": "15",
    "prefectureNumber": 15,
    "prefecture": "新潟県",
    "city": "十日町市",
    "town": "坪山"
  },
  "9480146": {
    "zipcode": "9480146",
    "prefectureCode": "15",
    "prefectureNumber": 15,
    "prefecture": "新潟県",
    "city": "十日町市",
    "town": "鶴吉"
  },
  "9480211": {
    "zipcode": "9480211",
    "prefectureCode": "15",
    "prefectureNumber": 15,
    "prefecture": "新潟県",
    "city": "十日町市",
    "town": "大倉"
  },
  "9480212": {
    "zipcode": "9480212",
    "prefectureCode": "15",
    "prefectureNumber": 15,
    "prefecture": "新潟県",
    "city": "十日町市",
    "town": "岩瀬"
  },
  "9480213": {
    "zipcode": "9480213",
    "prefectureCode": "15",
    "prefectureNumber": 15,
    "prefecture": "新潟県",
    "city": "十日町市",
    "town": "赤谷"
  },
  "9480214": {
    "zipcode": "9480214",
    "prefectureCode": "15",
    "prefectureNumber": 15,
    "prefecture": "新潟県",
    "city": "十日町市",
    "town": "中仙田"
  },
  "9480215": {
    "zipcode": "9480215",
    "prefectureCode": "15",
    "prefectureNumber": 15,
    "prefecture": "新潟県",
    "city": "十日町市",
    "town": "田戸"
  },
  "9480216": {
    "zipcode": "9480216",
    "prefectureCode": "15",
    "prefectureNumber": 15,
    "prefecture": "新潟県",
    "city": "十日町市",
    "town": "室島"
  },
  "9480217": {
    "zipcode": "9480217",
    "prefectureCode": "15",
    "prefectureNumber": 15,
    "prefecture": "新潟県",
    "city": "十日町市",
    "town": "高倉"
  },
  "9480218": {
    "zipcode": "9480218",
    "prefectureCode": "15",
    "prefectureNumber": 15,
    "prefecture": "新潟県",
    "city": "十日町市",
    "town": "小脇"
  },
  "9480219": {
    "zipcode": "9480219",
    "prefectureCode": "15",
    "prefectureNumber": 15,
    "prefecture": "新潟県",
    "city": "十日町市",
    "town": "越ケ沢"
  },
  "9480301": {
    "zipcode": "9480301",
    "prefectureCode": "15",
    "prefectureNumber": 15,
    "prefecture": "新潟県",
    "city": "十日町市",
    "town": "野口"
  },
  "9480302": {
    "zipcode": "9480302",
    "prefectureCode": "15",
    "prefectureNumber": 15,
    "prefecture": "新潟県",
    "city": "十日町市",
    "town": "仁田"
  },
  "9480303": {
    "zipcode": "9480303",
    "prefectureCode": "15",
    "prefectureNumber": 15,
    "prefecture": "新潟県",
    "city": "十日町市",
    "town": "寺ケ崎"
  },
  "9480304": {
    "zipcode": "9480304",
    "prefectureCode": "15",
    "prefectureNumber": 15,
    "prefecture": "新潟県",
    "city": "十日町市",
    "town": "木落"
  },
  "9480305": {
    "zipcode": "9480305",
    "prefectureCode": "15",
    "prefectureNumber": 15,
    "prefecture": "新潟県",
    "city": "十日町市",
    "town": "大白倉"
  },
  "9480306": {
    "zipcode": "9480306",
    "prefectureCode": "15",
    "prefectureNumber": 15,
    "prefecture": "新潟県",
    "city": "十日町市",
    "town": "小白倉"
  }
}
