{
  "9490111": {
    "zipcode": "9490111",
    "prefectureCode": "15",
    "prefectureNumber": 15,
    "prefecture": "新潟県",
    "city": "糸魚川市",
    "town": "市振"
  },
  "9490112": {
    "zipcode": "9490112",
    "prefectureCode": "15",
    "prefectureNumber": 15,
    "prefecture": "新潟県",
    "city": "糸魚川市",
    "town": "上路"
  },
  "9490301": {
    "zipcode": "9490301",
    "prefectureCode": "15",
    "prefectureNumber": 15,
    "prefecture": "新潟県",
    "city": "糸魚川市",
    "town": "須沢"
  },
  "9490302": {
    "zipcode": "9490302",
    "prefectureCode": "15",
    "prefectureNumber": 15,
    "prefecture": "新潟県",
    "city": "糸魚川市",
    "town": "今村新田"
  },
  "9490303": {
    "zipcode": "9490303",
    "prefectureCode": "15",
    "prefectureNumber": 15,
    "prefecture": "新潟県",
    "city": "糸魚川市",
    "town": "田海"
  },
  "9490304": {
    "zipcode": "9490304",
    "prefectureCode": "15",
    "prefectureNumber": 15,
    "prefecture": "新潟県",
    "city": "糸魚川市",
    "town": "寺地"
  },
  "9490305": {
    "zipcode": "9490305",
    "prefectureCode": "15",
    "prefectureNumber": 15,
    "prefecture": "新潟県",
    "city": "糸魚川市",
    "town": "青海"
  },
  "9490306": {
    "zipcode": "9490306",
    "prefectureCode": "15",
    "prefectureNumber": 15,
    "prefecture": "新潟県",
    "city": "糸魚川市",
    "town": "橋立"
  },
  "9490307": {
    "zipcode": "9490307",
    "prefectureCode": "15",
    "prefectureNumber": 15,
    "prefecture": "新潟県",
    "city": "糸魚川市",
    "town": "歌"
  },
  "9490308": {
    "zipcode": "9490308",
    "prefectureCode": "15",
    "prefectureNumber": 15,
    "prefecture": "新潟県",
    "city": "糸魚川市",
    "town": "外波"
  },
  "9490461": {
    "zipcode": "9490461",
    "prefectureCode": "15",
    "prefectureNumber": 15,
    "prefecture": "新潟県",
    "city": "糸魚川市",
    "town": "西山（大前）"
  },
  "9490462": {
    "zipcode": "9490462",
    "prefectureCode": "15",
    "prefectureNumber": 15,
    "prefecture": "新潟県",
    "city": "糸魚川市",
    "town": "小滝"
  },
  "9490463": {
    "zipcode": "9490463",
    "prefectureCode": "15",
    "prefectureNumber": 15,
    "prefecture": "新潟県",
    "city": "糸魚川市",
    "town": "山之坊"
  },
  "9490464": {
    "zipcode": "9490464",
    "prefectureCode": "15",
    "prefectureNumber": 15,
    "prefecture": "新潟県",
    "city": "糸魚川市",
    "town": "大所"
  },
  "9490531": {
    "zipcode": "9490531",
    "prefectureCode": "15",
    "prefectureNumber": 15,
    "prefecture": "新潟県",
    "city": "糸魚川市",
    "town": "東中"
  },
  "9490532": {
    "zipcode": "9490532",
    "prefectureCode": "15",
    "prefectureNumber": 15,
    "prefecture": "新潟県",
    "city": "糸魚川市",
    "town": "上野"
  },
  "9490533": {
    "zipcode": "9490533",
    "prefectureCode": "15",
    "prefectureNumber": 15,
    "prefecture": "新潟県",
    "city": "糸魚川市",
    "town": "大工屋敷"
  },
  "9490534": {
    "zipcode": "9490534",
    "prefectureCode": "15",
    "prefectureNumber": 15,
    "prefecture": "新潟県",
    "city": "糸魚川市",
    "town": "和泉"
  },
  "9490535": {
    "zipcode": "9490535",
    "prefectureCode": "15",
    "prefectureNumber": 15,
    "prefecture": "新潟県",
    "city": "糸魚川市",
    "town": "栗山"
  },
  "9490536": {
    "zipcode": "9490536",
    "prefectureCode": "15",
    "prefectureNumber": 15,
    "prefecture": "新潟県",
    "city": "糸魚川市",
    "town": "根小屋"
  },
  "9490541": {
    "zipcode": "9490541",
    "prefectureCode": "15",
    "prefectureNumber": 15,
    "prefecture": "新潟県",
    "city": "糸魚川市",
    "town": "上沢"
  },
  "9490542": {
    "zipcode": "9490542",
    "prefectureCode": "15",
    "prefectureNumber": 15,
    "prefecture": "新潟県",
    "city": "糸魚川市",
    "town": "大神堂"
  },
  "9490543": {
    "zipcode": "9490543",
    "prefectureCode": "15",
    "prefectureNumber": 15,
    "prefecture": "新潟県",
    "city": "糸魚川市",
    "town": "山寺"
  },
  "9490544": {
    "zipcode": "9490544",
    "prefectureCode": "15",
    "prefectureNumber": 15,
    "prefecture": "新潟県",
    "city": "糸魚川市",
    "town": "梶山"
  },
  "9490545": {
    "zipcode": "9490545",
    "prefectureCode": "15",
    "prefectureNumber": 15,
    "prefecture": "新潟県",
    "city": "糸魚川市",
    "town": "大久保"
  },
  "9490551": {
    "zipcode": "9490551",
    "prefectureCode": "15",
    "prefectureNumber": 15,
    "prefecture": "新潟県",
    "city": "糸魚川市",
    "town": "上野山"
  },
  "9490552": {
    "zipcode": "9490552",
    "prefectureCode": "15",
    "prefectureNumber": 15,
    "prefecture": "新潟県",
    "city": "糸魚川市",
    "town": "蒲池"
  },
  "9490553": {
    "zipcode": "9490553",
    "prefectureCode": "15",
    "prefectureNumber": 15,
    "prefecture": "新潟県",
    "city": "糸魚川市",
    "town": "上横"
  },
  "9490554": {
    "zipcode": "9490554",
    "prefectureCode": "15",
    "prefectureNumber": 15,
    "prefecture": "新潟県",
    "city": "糸魚川市",
    "town": "山口"
  },
  "9490555": {
    "zipcode": "9490555",
    "prefectureCode": "15",
    "prefectureNumber": 15,
    "prefecture": "新潟県",
    "city": "糸魚川市",
    "town": "別所"
  },
  "9490556": {
    "zipcode": "9490556",
    "prefectureCode": "15",
    "prefectureNumber": 15,
    "prefecture": "新潟県",
    "city": "糸魚川市",
    "town": "杉之当"
  },
  "9490557": {
    "zipcode": "9490557",
    "prefectureCode": "15",
    "prefectureNumber": 15,
    "prefecture": "新潟県",
    "city": "糸魚川市",
    "town": "西山（その他）"
  },
  "9490558": {
    "zipcode": "9490558",
    "prefectureCode": "15",
    "prefectureNumber": 15,
    "prefecture": "新潟県",
    "city": "糸魚川市",
    "town": "余所"
  },
  "9491201": {
    "zipcode": "9491201",
    "prefectureCode": "15",
    "prefectureNumber": 15,
    "prefecture": "新潟県",
    "city": "糸魚川市",
    "town": "越"
  },
  "9491202": {
    "zipcode": "9491202",
    "prefectureCode": "15",
    "prefectureNumber": 15,
    "prefecture": "新潟県",
    "city": "糸魚川市",
    "town": "宮平"
  },
  "9491203": {
    "zipcode": "9491203",
    "prefectureCode": "15",
    "prefectureNumber": 15,
    "prefecture": "新潟県",
    "city": "糸魚川市",
    "town": "中野"
  },
  "9491204": {
    "zipcode": "9491204",
    "prefectureCode": "15",
    "prefectureNumber": 15,
    "prefecture": "新潟県",
    "city": "糸魚川市",
    "town": "中林"
  },
  "9491205": {
    "zipcode": "9491205",
    "prefectureCode": "15",
    "prefectureNumber": 15,
    "prefecture": "新潟県",
    "city": "糸魚川市",
    "town": "土塩"
  },
  "9491206": {
    "zipcode": "9491206",
    "prefectureCode": "15",
    "prefectureNumber": 15,
    "prefecture": "新潟県",
    "city": "糸魚川市",
    "town": "猿倉"
  },
  "9491207": {
    "zipcode": "9491207",
    "prefectureCode": "15",
    "prefectureNumber": 15,
    "prefecture": "新潟県",
    "city": "糸魚川市",
    "town": "吹原"
  },
  "9491208": {
    "zipcode": "9491208",
    "prefectureCode": "15",
    "prefectureNumber": 15,
    "prefecture": "新潟県",
    "city": "糸魚川市",
    "town": "坪野"
  },
  "9491211": {
    "zipcode": "9491211",
    "prefectureCode": "15",
    "prefectureNumber": 15,
    "prefecture": "新潟県",
    "city": "糸魚川市",
    "town": "五十原"
  },
  "9491212": {
    "zipcode": "9491212",
    "prefectureCode": "15",
    "prefectureNumber": 15,
    "prefecture": "新潟県",
    "city": "糸魚川市",
    "town": "東塚"
  },
  "9491213": {
    "zipcode": "9491213",
    "prefectureCode": "15",
    "prefectureNumber": 15,
    "prefecture": "新潟県",
    "city": "糸魚川市",
    "town": "西塚"
  },
  "9491214": {
    "zipcode": "9491214",
    "prefectureCode": "15",
    "prefectureNumber": 15,
    "prefecture": "新潟県",
    "city": "糸魚川市",
    "town": "見滝"
  },
  "9491215": {
    "zipcode": "9491215",
    "prefectureCode": "15",
    "prefectureNumber": 15,
    "prefecture": "新潟県",
    "city": "糸魚川市",
    "town": "谷根"
  },
  "9491221": {
    "zipcode": "9491221",
    "prefectureCode": "15",
    "prefectureNumber": 15,
    "prefecture": "新潟県",
    "city": "糸魚川市",
    "town": "大平"
  },
  "9491222": {
    "zipcode": "9491222",
    "prefectureCode": "15",
    "prefectureNumber": 15,
    "prefecture": "新潟県",
    "city": "糸魚川市",
    "town": "土倉"
  },
  "9491223": {
    "zipcode": "9491223",
    "prefectureCode": "15",
    "prefectureNumber": 15,
    "prefecture": "新潟県",
    "city": "糸魚川市",
    "town": "中川原新田"
  },
  "9491224": {
    "zipcode": "9491224",
    "prefectureCode": "15",
    "prefectureNumber": 15,
    "prefecture": "新潟県",
    "city": "糸魚川市",
    "town": "砂場"
  },
  "9491225": {
    "zipcode": "9491225",
    "prefectureCode": "15",
    "prefectureNumber": 15,
    "prefecture": "新潟県",
    "city": "糸魚川市",
    "town": "角間"
  },
  "9491226": {
    "zipcode": "9491226",
    "prefectureCode": "15",
    "prefectureNumber": 15,
    "prefecture": "新潟県",
    "city": "糸魚川市",
    "town": "北山"
  },
  "9491301": {
    "zipcode": "9491301",
    "prefectureCode": "15",
    "prefectureNumber": 15,
    "prefecture": "新潟県",
    "city": "糸魚川市",
    "town": "徳合"
  },
  "9491302": {
    "zipcode": "9491302",
    "prefectureCode": "15",
    "prefectureNumber": 15,
    "prefecture": "新潟県",
    "city": "糸魚川市",
    "town": "仙納"
  },
  "9491303": {
    "zipcode": "9491303",
    "prefectureCode": "15",
    "prefectureNumber": 15,
    "prefecture": "新潟県",
    "city": "糸魚川市",
    "town": "大洞"
  },
  "9491304": {
    "zipcode": "9491304",
    "prefectureCode": "15",
    "prefectureNumber": 15,
    "prefecture": "新潟県",
    "city": "糸魚川市",
    "town": "百川"
  },
  "9491305": {
    "zipcode": "9491305",
    "prefectureCode": "15",
    "prefectureNumber": 15,
    "prefecture": "新潟県",
    "city": "糸魚川市",
    "town": "藤崎"
  },
  "9491306": {
    "zipcode": "9491306",
    "prefectureCode": "15",
    "prefectureNumber": 15,
    "prefecture": "新潟県",
    "city": "糸魚川市",
    "town": "筒石"
  },
  "9491311": {
    "zipcode": "9491311",
    "prefectureCode": "15",
    "prefectureNumber": 15,
    "prefecture": "新潟県",
    "city": "糸魚川市",
    "town": "高倉"
  },
  "9491312": {
    "zipcode": "9491312",
    "prefectureCode": "15",
    "prefectureNumber": 15,
    "prefecture": "新潟県",
    "city": "糸魚川市",
    "town": "槙"
  },
  "9491313": {
    "zipcode": "9491313",
    "prefectureCode": "15",
    "prefectureNumber": 15,
    "prefecture": "新潟県",
    "city": "糸魚川市",
    "town": "下倉"
  },
  "9491314": {
    "zipcode": "9491314",
    "prefectureCode": "15",
    "prefectureNumber": 15,
    "prefecture": "新潟県",
    "city": "糸魚川市",
    "town": "中野口"
  },
  "9491315": {
    "zipcode": "9491315",
    "prefectureCode": "15",
    "prefectureNumber": 15,
    "prefecture": "新潟県",
    "city": "糸魚川市",
    "town": "指塩"
  },
  "9491316": {
    "zipcode": "9491316",
    "prefectureCode": "15",
    "prefectureNumber": 15,
    "prefecture": "新潟県",
    "city": "糸魚川市",
    "town": "柱道"
  },
  "9491317": {
    "zipcode": "9491317",
    "prefectureCode": "15",
    "prefectureNumber": 15,
    "prefecture": "新潟県",
    "city": "糸魚川市",
    "town": "大道寺"
  },
  "9491318": {
    "zipcode": "9491318",
    "prefectureCode": "15",
    "prefectureNumber": 15,
    "prefecture": "新潟県",
    "city": "糸魚川市",
    "town": "鷲尾"
  },
  "9491319": {
    "zipcode": "9491319",
    "prefectureCode": "15",
    "prefectureNumber": 15,
    "prefecture": "新潟県",
    "city": "糸魚川市",
    "town": "大王"
  },
  "9491321": {
    "zipcode": "9491321",
    "prefectureCode": "15",
    "prefectureNumber": 15,
    "prefecture": "新潟県",
    "city": "糸魚川市",
    "town": "東谷内"
  },
  "9491322": {
    "zipcode": "9491322",
    "prefectureCode": "15",
    "prefectureNumber": 15,
    "prefecture": "新潟県",
    "city": "糸魚川市",
    "town": "西飛山"
  },
  "9491323": {
    "zipcode": "9491323",
    "prefectureCode": "15",
    "prefectureNumber": 15,
    "prefecture": "新潟県",
    "city": "糸魚川市",
    "town": "田麦平"
  },
  "9491324": {
    "zipcode": "9491324",
    "prefectureCode": "15",
    "prefectureNumber": 15,
    "prefecture": "新潟県",
    "city": "糸魚川市",
    "town": "柵口"
  },
  "9491325": {
    "zipcode": "9491325",
    "prefectureCode": "15",
    "prefectureNumber": 15,
    "prefecture": "新潟県",
    "city": "糸魚川市",
    "town": "崩"
  },
  "9491326": {
    "zipcode": "9491326",
    "prefectureCode": "15",
    "prefectureNumber": 15,
    "prefecture": "新潟県",
    "city": "糸魚川市",
    "town": "物出"
  },
  "9491327": {
    "zipcode": "9491327",
    "prefectureCode": "15",
    "prefectureNumber": 15,
    "prefecture": "新潟県",
    "city": "糸魚川市",
    "town": "須川"
  },
  "9491328": {
    "zipcode": "9491328",
    "prefectureCode": "15",
    "prefectureNumber": 15,
    "prefecture": "新潟県",
    "city": "糸魚川市",
    "town": "溝尾"
  },
  "9491329": {
    "zipcode": "9491329",
    "prefectureCode": "15",
    "prefectureNumber": 15,
    "prefecture": "新潟県",
    "city": "糸魚川市",
    "town": "川詰"
  },
  "9491331": {
    "zipcode": "9491331",
    "prefectureCode": "15",
    "prefectureNumber": 15,
    "prefecture": "新潟県",
    "city": "糸魚川市",
    "town": "大沢"
  },
  "9491332": {
    "zipcode": "9491332",
    "prefectureCode": "15",
    "prefectureNumber": 15,
    "prefecture": "新潟県",
    "city": "糸魚川市",
    "town": "藤後"
  },
  "9491333": {
    "zipcode": "9491333",
    "prefectureCode": "15",
    "prefectureNumber": 15,
    "prefecture": "新潟県",
    "city": "糸魚川市",
    "town": "島道"
  },
  "9491334": {
    "zipcode": "9491334",
    "prefectureCode": "15",
    "prefectureNumber": 15,
    "prefecture": "新潟県",
    "city": "糸魚川市",
    "town": "平"
  },
  "9491335": {
    "zipcode": "9491335",
    "prefectureCode": "15",
    "prefectureNumber": 15,
    "prefecture": "新潟県",
    "city": "糸魚川市",
    "town": "小見"
  },
  "9491336": {
    "zipcode": "9491336",
    "prefectureCode": "15",
    "prefectureNumber": 15,
    "prefecture": "新潟県",
    "city": "糸魚川市",
    "town": "鶉石"
  },
  "9491337": {
    "zipcode": "9491337",
    "prefectureCode": "15",
    "prefectureNumber": 15,
    "prefecture": "新潟県",
    "city": "糸魚川市",
    "town": "桂"
  },
  "9491338": {
    "zipcode": "9491338",
    "prefectureCode": "15",
    "prefectureNumber": 15,
    "prefecture": "新潟県",
    "city": "糸魚川市",
    "town": "寺山"
  },
  "9491341": {
    "zipcode": "9491341",
    "prefectureCode": "15",
    "prefectureNumber": 15,
    "prefecture": "新潟県",
    "city": "糸魚川市",
    "town": "大平寺"
  },
  "9491342": {
    "zipcode": "9491342",
    "prefectureCode": "15",
    "prefectureNumber": 15,
    "prefecture": "新潟県",
    "city": "糸魚川市",
    "town": "木浦"
  },
  "9491343": {
    "zipcode": "9491343",
    "prefectureCode": "15",
    "prefectureNumber": 15,
    "prefecture": "新潟県",
    "city": "糸魚川市",
    "town": "鬼伏"
  },
  "9491344": {
    "zipcode": "9491344",
    "prefectureCode": "15",
    "prefectureNumber": 15,
    "prefecture": "新潟県",
    "city": "糸魚川市",
    "town": "鬼舞"
  },
  "9491351": {
    "zipcode": "9491351",
    "prefectureCode": "15",
    "prefectureNumber": 15,
    "prefecture": "新潟県",
    "city": "糸魚川市",
    "town": "能生小泊"
  },
  "9491352": {
    "zipcode": "9491352",
    "prefectureCode": "15",
    "prefectureNumber": 15,
    "prefecture": "新潟県",
    "city": "糸魚川市",
    "town": "能生"
  },
  "9491353": {
    "zipcode": "9491353",
    "prefectureCode": "15",
    "prefectureNumber": 15,
    "prefecture": "新潟県",
    "city": "糸魚川市",
    "town": "栄"
  },
  "9491354": {
    "zipcode": "9491354",
    "prefectureCode": "15",
    "prefectureNumber": 15,
    "prefecture": "新潟県",
    "city": "糸魚川市",
    "town": "桜木"
  },
  "9491601": {
    "zipcode": "9491601",
    "prefectureCode": "15",
    "prefectureNumber": 15,
    "prefecture": "新潟県",
    "city": "上越市",
    "town": "名立区名立小泊"
  },
  "9491602": {
    "zipcode": "9491602",
    "prefectureCode": "15",
    "prefectureNumber": 15,
    "prefecture": "新潟県",
    "city": "上越市",
    "town": "名立区名立大町"
  },
  "9491603": {
    "zipcode": "9491603",
    "prefectureCode": "15",
    "prefectureNumber": 15,
    "prefecture": "新潟県",
    "city": "上越市",
    "town": "名立区坪山"
  },
  "9491604": {
    "zipcode": "9491604",
    "prefectureCode": "15",
    "prefectureNumber": 15,
    "prefecture": "新潟県",
    "city": "上越市",
    "town": "名立区赤野俣"
  },
  "9491605": {
    "zipcode": "9491605",
    "prefectureCode": "15",
    "prefectureNumber": 15,
    "prefecture": "新潟県",
    "city": "上越市",
    "town": "名立区大菅"
  },
  "9491606": {
    "zipcode": "9491606",
    "prefectureCode": "15",
    "prefectureNumber": 15,
    "prefecture": "新潟県",
    "city": "上越市",
    "town": "名立区谷口"
  },
  "9491607": {
    "zipcode": "9491607",
    "prefectureCode": "15",
    "prefectureNumber": 15,
    "prefecture": "新潟県",
    "city": "上越市",
    "town": "名立区車路"
  },
  "9491608": {
    "zipcode": "9491608",
    "prefectureCode": "15",
    "prefectureNumber": 15,
    "prefecture": "新潟県",
    "city": "上越市",
    "town": "名立区躰畑"
  },
  "9491609": {
    "zipcode": "9491609",
    "prefectureCode": "15",
    "prefectureNumber": 15,
    "prefecture": "新潟県",
    "city": "上越市",
    "town": "名立区田野上"
  },
  "9491611": {
    "zipcode": "9491611",
    "prefectureCode": "15",
    "prefectureNumber": 15,
    "prefecture": "新潟県",
    "city": "上越市",
    "town": "名立区杉野瀬"
  },
  "9491612": {
    "zipcode": "9491612",
    "prefectureCode": "15",
    "prefectureNumber": 15,
    "prefecture": "新潟県",
    "city": "上越市",
    "town": "名立区丸田"
  },
  "9491613": {
    "zipcode": "9491613",
    "prefectureCode": "15",
    "prefectureNumber": 15,
    "prefecture": "新潟県",
    "city": "上越市",
    "town": "名立区濁沢"
  },
  "9491614": {
    "zipcode": "9491614",
    "prefectureCode": "15",
    "prefectureNumber": 15,
    "prefecture": "新潟県",
    "city": "上越市",
    "town": "名立区折居"
  },
  "9491615": {
    "zipcode": "9491615",
    "prefectureCode": "15",
    "prefectureNumber": 15,
    "prefecture": "新潟県",
    "city": "上越市",
    "town": "名立区峠"
  },
  "9491616": {
    "zipcode": "9491616",
    "prefectureCode": "15",
    "prefectureNumber": 15,
    "prefecture": "新潟県",
    "city": "上越市",
    "town": "名立区池田"
  },
  "9491617": {
    "zipcode": "9491617",
    "prefectureCode": "15",
    "prefectureNumber": 15,
    "prefecture": "新潟県",
    "city": "上越市",
    "town": "名立区森"
  },
  "9491618": {
    "zipcode": "9491618",
    "prefectureCode": "15",
    "prefectureNumber": 15,
    "prefecture": "新潟県",
    "city": "上越市",
    "town": "名立区桂谷"
  },
  "9491619": {
    "zipcode": "9491619",
    "prefectureCode": "15",
    "prefectureNumber": 15,
    "prefecture": "新潟県",
    "city": "上越市",
    "town": "名立区平谷"
  },
  "9491621": {
    "zipcode": "9491621",
    "prefectureCode": "15",
    "prefectureNumber": 15,
    "prefecture": "新潟県",
    "city": "上越市",
    "town": "名立区折戸"
  },
  "9491622": {
    "zipcode": "9491622",
    "prefectureCode": "15",
    "prefectureNumber": 15,
    "prefecture": "新潟県",
    "city": "上越市",
    "town": "名立区小田島"
  },
  "9491623": {
    "zipcode": "9491623",
    "prefectureCode": "15",
    "prefectureNumber": 15,
    "prefecture": "新潟県",
    "city": "上越市",
    "town": "名立区東蒲生田"
  },
  "9491624": {
    "zipcode": "9491624",
    "prefectureCode": "15",
    "prefectureNumber": 15,
    "prefecture": "新潟県",
    "city": "上越市",
    "town": "名立区西蒲生田"
  },
  "9491625": {
    "zipcode": "9491625",
    "prefectureCode": "15",
    "prefectureNumber": 15,
    "prefecture": "新潟県",
    "city": "上越市",
    "town": "名立区瀬戸"
  },
  "9491626": {
    "zipcode": "9491626",
    "prefectureCode": "15",
    "prefectureNumber": 15,
    "prefecture": "新潟県",
    "city": "上越市",
    "town": "名立区東飛山"
  },
  "9491701": {
    "zipcode": "9491701",
    "prefectureCode": "15",
    "prefectureNumber": 15,
    "prefecture": "新潟県",
    "city": "上越市",
    "town": "長浜"
  },
  "9491702": {
    "zipcode": "9491702",
    "prefectureCode": "15",
    "prefectureNumber": 15,
    "prefecture": "新潟県",
    "city": "上越市",
    "town": "有間川"
  },
  "9491703": {
    "zipcode": "9491703",
    "prefectureCode": "15",
    "prefectureNumber": 15,
    "prefecture": "新潟県",
    "city": "上越市",
    "town": "丹原"
  },
  "9491704": {
    "zipcode": "9491704",
    "prefectureCode": "15",
    "prefectureNumber": 15,
    "prefecture": "新潟県",
    "city": "上越市",
    "town": "鍋ケ浦"
  },
  "9491705": {
    "zipcode": "9491705",
    "prefectureCode": "15",
    "prefectureNumber": 15,
    "prefecture": "新潟県",
    "city": "上越市",
    "town": "吉浦"
  },
  "9491706": {
    "zipcode": "9491706",
    "prefectureCode": "15",
    "prefectureNumber": 15,
    "prefecture": "新潟県",
    "city": "上越市",
    "town": "茶屋ケ原"
  },
  "9491711": {
    "zipcode": "9491711",
    "prefectureCode": "15",
    "prefectureNumber": 15,
    "prefecture": "新潟県",
    "city": "上越市",
    "town": "西戸野"
  },
  "9491712": {
    "zipcode": "9491712",
    "prefectureCode": "15",
    "prefectureNumber": 15,
    "prefecture": "新潟県",
    "city": "上越市",
    "town": "鍛冶免分"
  },
  "9491713": {
    "zipcode": "9491713",
    "prefectureCode": "15",
    "prefectureNumber": 15,
    "prefecture": "新潟県",
    "city": "上越市",
    "town": "花立"
  },
  "9491714": {
    "zipcode": "9491714",
    "prefectureCode": "15",
    "prefectureNumber": 15,
    "prefecture": "新潟県",
    "city": "上越市",
    "town": "三伝"
  },
  "9491715": {
    "zipcode": "9491715",
    "prefectureCode": "15",
    "prefectureNumber": 15,
    "prefecture": "新潟県",
    "city": "上越市",
    "town": "中桑取"
  },
  "9491716": {
    "zipcode": "9491716",
    "prefectureCode": "15",
    "prefectureNumber": 15,
    "prefecture": "新潟県",
    "city": "上越市",
    "town": "高住"
  },
  "9491721": {
    "zipcode": "9491721",
    "prefectureCode": "15",
    "prefectureNumber": 15,
    "prefecture": "新潟県",
    "city": "上越市",
    "town": "下綱子"
  },
  "9491722": {
    "zipcode": "9491722",
    "prefectureCode": "15",
    "prefectureNumber": 15,
    "prefecture": "新潟県",
    "city": "上越市",
    "town": "西山寺"
  },
  "9491723": {
    "zipcode": "9491723",
    "prefectureCode": "15",
    "prefectureNumber": 15,
    "prefecture": "新潟県",
    "city": "上越市",
    "town": "小池"
  },
  "9491724": {
    "zipcode": "9491724",
    "prefectureCode": "15",
    "prefectureNumber": 15,
    "prefecture": "新潟県",
    "city": "上越市",
    "town": "小池新田"
  },
  "9491725": {
    "zipcode": "9491725",
    "prefectureCode": "15",
    "prefectureNumber": 15,
    "prefecture": "新潟県",
    "city": "上越市",
    "town": "西鳥越"
  },
  "9491726": {
    "zipcode": "9491726",
    "prefectureCode": "15",
    "prefectureNumber": 15,
    "prefecture": "新潟県",
    "city": "上越市",
    "town": "諏訪分"
  },
  "9491727": {
    "zipcode": "9491727",
    "prefectureCode": "15",
    "prefectureNumber": 15,
    "prefecture": "新潟県",
    "city": "上越市",
    "town": "西横山"
  },
  "9491731": {
    "zipcode": "9491731",
    "prefectureCode": "15",
    "prefectureNumber": 15,
    "prefecture": "新潟県",
    "city": "上越市",
    "town": "西吉尾"
  },
  "9491732": {
    "zipcode": "9491732",
    "prefectureCode": "15",
    "prefectureNumber": 15,
    "prefecture": "新潟県",
    "city": "上越市",
    "town": "東吉尾"
  },
  "9491733": {
    "zipcode": "9491733",
    "prefectureCode": "15",
    "prefectureNumber": 15,
    "prefecture": "新潟県",
    "city": "上越市",
    "town": "大渕"
  },
  "9491734": {
    "zipcode": "9491734",
    "prefectureCode": "15",
    "prefectureNumber": 15,
    "prefecture": "新潟県",
    "city": "上越市",
    "town": "増沢"
  },
  "9491735": {
    "zipcode": "9491735",
    "prefectureCode": "15",
    "prefectureNumber": 15,
    "prefecture": "新潟県",
    "city": "上越市",
    "town": "土口"
  },
  "9491736": {
    "zipcode": "9491736",
    "prefectureCode": "15",
    "prefectureNumber": 15,
    "prefecture": "新潟県",
    "city": "上越市",
    "town": "北谷"
  },
  "9491737": {
    "zipcode": "9491737",
    "prefectureCode": "15",
    "prefectureNumber": 15,
    "prefecture": "新潟県",
    "city": "上越市",
    "town": "西谷内"
  },
  "9491738": {
    "zipcode": "9491738",
    "prefectureCode": "15",
    "prefectureNumber": 15,
    "prefecture": "新潟県",
    "city": "上越市",
    "town": "皆口"
  },
  "9491739": {
    "zipcode": "9491739",
    "prefectureCode": "15",
    "prefectureNumber": 15,
    "prefecture": "新潟県",
    "city": "上越市",
    "town": "横畑"
  },
  "9491741": {
    "zipcode": "9491741",
    "prefectureCode": "15",
    "prefectureNumber": 15,
    "prefecture": "新潟県",
    "city": "上越市",
    "town": "上綱子"
  },
  "9491742": {
    "zipcode": "9491742",
    "prefectureCode": "15",
    "prefectureNumber": 15,
    "prefecture": "新潟県",
    "city": "上越市",
    "town": "中ノ俣"
  },
  "9492101": {
    "zipcode": "9492101",
    "prefectureCode": "15",
    "prefectureNumber": 15,
    "prefecture": "新潟県",
    "city": "妙高市",
    "town": "二俣"
  },
  "9492102": {
    "zipcode": "9492102",
    "prefectureCode": "15",
    "prefectureNumber": 15,
    "prefecture": "新潟県",
    "city": "妙高市",
    "town": "田切"
  },
  "9492103": {
    "zipcode": "9492103",
    "prefectureCode": "15",
    "prefectureNumber": 15,
    "prefecture": "新潟県",
    "city": "妙高市",
    "town": "蔵々"
  },
  "9492104": {
    "zipcode": "9492104",
    "prefectureCode": "15",
    "prefectureNumber": 15,
    "prefecture": "新潟県",
    "city": "妙高市",
    "town": "兼俣"
  },
  "9492105": {
    "zipcode": "9492105",
    "prefectureCode": "15",
    "prefectureNumber": 15,
    "prefecture": "新潟県",
    "city": "妙高市",
    "town": "毛祝坂"
  },
  "9492106": {
    "zipcode": "9492106",
    "prefectureCode": "15",
    "prefectureNumber": 15,
    "prefecture": "新潟県",
    "city": "妙高市",
    "town": "田口"
  },
  "9492111": {
    "zipcode": "9492111",
    "prefectureCode": "15",
    "prefectureNumber": 15,
    "prefecture": "新潟県",
    "city": "妙高市",
    "town": "赤倉"
  },
  "9492112": {
    "zipcode": "9492112",
    "prefectureCode": "15",
    "prefectureNumber": 15,
    "prefecture": "新潟県",
    "city": "妙高市",
    "town": "関川"
  },
  "9492113": {
    "zipcode": "9492113",
    "prefectureCode": "15",
    "prefectureNumber": 15,
    "prefecture": "新潟県",
    "city": "妙高市",
    "town": "杉野沢"
  },
  "9492141": {
    "zipcode": "9492141",
    "prefectureCode": "15",
    "prefectureNumber": 15,
    "prefecture": "新潟県",
    "city": "妙高市",
    "town": "関山（熊堂山、妙高山国有林第２８班）"
  },
  "9492201": {
    "zipcode": "9492201",
    "prefectureCode": "15",
    "prefectureNumber": 15,
    "prefecture": "新潟県",
    "city": "妙高市",
    "town": "寺尾"
  },
  "9492202": {
    "zipcode": "9492202",
    "prefectureCode": "15",
    "prefectureNumber": 15,
    "prefecture": "新潟県",
    "city": "妙高市",
    "town": "坂下新田"
  },
  "9492203": {
    "zipcode": "9492203",
    "prefectureCode": "15",
    "prefectureNumber": 15,
    "prefecture": "新潟県",
    "city": "妙高市",
    "town": "北田屋新田"
  },
  "9492204": {
    "zipcode": "9492204",
    "prefectureCode": "15",
    "prefectureNumber": 15,
    "prefecture": "新潟県",
    "city": "妙高市",
    "town": "中原新田"
  },
  "9492205": {
    "zipcode": "9492205",
    "prefectureCode": "15",
    "prefectureNumber": 15,
    "prefecture": "新潟県",
    "city": "妙高市",
    "town": "上大塚新田"
  },
  "9492206": {
    "zipcode": "9492206",
    "prefectureCode": "15",
    "prefectureNumber": 15,
    "prefecture": "新潟県",
    "city": "妙高市",
    "town": "西田屋新田"
  },
  "9492207": {
    "zipcode": "9492207",
    "prefectureCode": "15",
    "prefectureNumber": 15,
    "prefecture": "新潟県",
    "city": "妙高市",
    "town": "窪田新田"
  },
  "9492208": {
    "zipcode": "9492208",
    "prefectureCode": "15",
    "prefectureNumber": 15,
    "prefecture": "新潟県",
    "city": "妙高市",
    "town": "今府"
  },
  "9492209": {
    "zipcode": "9492209",
    "prefectureCode": "15",
    "prefectureNumber": 15,
    "prefecture": "新潟県",
    "city": "妙高市",
    "town": "祖父竹"
  },
  "9492211": {
    "zipcode": "9492211",
    "prefectureCode": "15",
    "prefectureNumber": 15,
    "prefecture": "新潟県",
    "city": "妙高市",
    "town": "田中村新田"
  },
  "9492212": {
    "zipcode": "9492212",
    "prefectureCode": "15",
    "prefectureNumber": 15,
    "prefecture": "新潟県",
    "city": "妙高市",
    "town": "岡新田"
  },
  "9492213": {
    "zipcode": "9492213",
    "prefectureCode": "15",
    "prefectureNumber": 15,
    "prefecture": "新潟県",
    "city": "妙高市",
    "town": "東田屋新田"
  },
  "9492214": {
    "zipcode": "9492214",
    "prefectureCode": "15",
    "prefectureNumber": 15,
    "prefecture": "新潟県",
    "city": "妙高市",
    "town": "中島新田"
  },
  "9492215": {
    "zipcode": "9492215",
    "prefectureCode": "15",
    "prefectureNumber": 15,
    "prefecture": "新潟県",
    "city": "妙高市",
    "town": "橋本新田"
  },
  "9492216": {
    "zipcode": "9492216",
    "prefectureCode": "15",
    "prefectureNumber": 15,
    "prefecture": "新潟県",
    "city": "妙高市",
    "town": "東四ツ屋新田"
  },
  "9492217": {
    "zipcode": "9492217",
    "prefectureCode": "15",
    "prefectureNumber": 15,
    "prefecture": "新潟県",
    "city": "妙高市",
    "town": "東福田新田"
  },
  "9492218": {
    "zipcode": "9492218",
    "prefectureCode": "15",
    "prefectureNumber": 15,
    "prefecture": "新潟県",
    "city": "妙高市",
    "town": "花房"
  },
  "9492219": {
    "zipcode": "9492219",
    "prefectureCode": "15",
    "prefectureNumber": 15,
    "prefecture": "新潟県",
    "city": "妙高市",
    "town": "原通"
  },
  "9492221": {
    "zipcode": "9492221",
    "prefectureCode": "15",
    "prefectureNumber": 15,
    "prefecture": "新潟県",
    "city": "妙高市",
    "town": "大鹿"
  },
  "9492222": {
    "zipcode": "9492222",
    "prefectureCode": "15",
    "prefectureNumber": 15,
    "prefecture": "新潟県",
    "city": "妙高市",
    "town": "土路"
  },
  "9492223": {
    "zipcode": "9492223",
    "prefectureCode": "15",
    "prefectureNumber": 15,
    "prefecture": "新潟県",
    "city": "妙高市",
    "town": "樽本（その他）"
  },
  "9492224": {
    "zipcode": "9492224",
    "prefectureCode": "15",
    "prefectureNumber": 15,
    "prefecture": "新潟県",
    "city": "妙高市",
    "town": "桶海"
  },
  "9492225": {
    "zipcode": "9492225",
    "prefectureCode": "15",
    "prefectureNumber": 15,
    "prefecture": "新潟県",
    "city": "妙高市",
    "town": "大谷"
  },
  "9492226": {
    "zipcode": "9492226",
    "prefectureCode": "15",
    "prefectureNumber": 15,
    "prefecture": "新潟県",
    "city": "妙高市",
    "town": "住吉"
  },
  "9492231": {
    "zipcode": "9492231",
    "prefectureCode": "15",
    "prefectureNumber": 15,
    "prefecture": "新潟県",
    "city": "妙高市",
    "town": "米島新田"
  },
  "9492232": {
    "zipcode": "9492232",
    "prefectureCode": "15",
    "prefectureNumber": 15,
    "prefecture": "新潟県",
    "city": "妙高市",
    "town": "葎生"
  },
  "9492233": {
    "zipcode": "9492233",
    "prefectureCode": "15",
    "prefectureNumber": 15,
    "prefecture": "新潟県",
    "city": "妙高市",
    "town": "上中村新田"
  },
  "9492234": {
    "zipcode": "9492234",
    "prefectureCode": "15",
    "prefectureNumber": 15,
    "prefecture": "新潟県",
    "city": "妙高市",
    "town": "坂口新田"
  },
  "9492235": {
    "zipcode": "9492235",
    "prefectureCode": "15",
    "prefectureNumber": 15,
    "prefecture": "新潟県",
    "city": "妙高市",
    "town": "関山（その他）"
  },
  "9492301": {
    "zipcode": "9492301",
    "prefectureCode": "15",
    "prefectureNumber": 15,
    "prefecture": "新潟県",
    "city": "上越市",
    "town": "中郷区板橋"
  },
  "9492302": {
    "zipcode": "9492302",
    "prefectureCode": "15",
    "prefectureNumber": 15,
    "prefecture": "新潟県",
    "city": "上越市",
    "town": "中郷区藤沢"
  },
  "9492303": {
    "zipcode": "9492303",
    "prefectureCode": "15",
    "prefectureNumber": 15,
    "prefecture": "新潟県",
    "city": "上越市",
    "town": "中郷区坂本"
  },
  "9492304": {
    "zipcode": "9492304",
    "prefectureCode": "15",
    "prefectureNumber": 15,
    "prefecture": "新潟県",
    "city": "上越市",
    "town": "中郷区二本木"
  },
  "9492305": {
    "zipcode": "9492305",
    "prefectureCode": "15",
    "prefectureNumber": 15,
    "prefecture": "新潟県",
    "city": "上越市",
    "town": "中郷区四ツ屋"
  },
  "9492306": {
    "zipcode": "9492306",
    "prefectureCode": "15",
    "prefectureNumber": 15,
    "prefecture": "新潟県",
    "city": "上越市",
    "town": "中郷区八斗蒔"
  },
  "9492311": {
    "zipcode": "9492311",
    "prefectureCode": "15",
    "prefectureNumber": 15,
    "prefecture": "新潟県",
    "city": "上越市",
    "town": "中郷区松崎"
  },
  "9492312": {
    "zipcode": "9492312",
    "prefectureCode": "15",
    "prefectureNumber": 15,
    "prefecture": "新潟県",
    "city": "上越市",
    "town": "中郷区片貝"
  },
  "9492313": {
    "zipcode": "9492313",
    "prefectureCode": "15",
    "prefectureNumber": 15,
    "prefecture": "新潟県",
    "city": "上越市",
    "town": "中郷区福崎"
  },
  "9492314": {
    "zipcode": "9492314",
    "prefectureCode": "15",
    "prefectureNumber": 15,
    "prefecture": "新潟県",
    "city": "上越市",
    "town": "中郷区宮野原"
  },
  "9492315": {
    "zipcode": "9492315",
    "prefectureCode": "15",
    "prefectureNumber": 15,
    "prefecture": "新潟県",
    "city": "上越市",
    "town": "中郷区稲荷山"
  },
  "9492316": {
    "zipcode": "9492316",
    "prefectureCode": "15",
    "prefectureNumber": 15,
    "prefecture": "新潟県",
    "city": "上越市",
    "town": "中郷区江口"
  },
  "9492317": {
    "zipcode": "9492317",
    "prefectureCode": "15",
    "prefectureNumber": 15,
    "prefecture": "新潟県",
    "city": "上越市",
    "town": "中郷区市屋"
  },
  "9492318": {
    "zipcode": "9492318",
    "prefectureCode": "15",
    "prefectureNumber": 15,
    "prefecture": "新潟県",
    "city": "上越市",
    "town": "中郷区岡川"
  },
  "9492321": {
    "zipcode": "9492321",
    "prefectureCode": "15",
    "prefectureNumber": 15,
    "prefecture": "新潟県",
    "city": "上越市",
    "town": "中郷区福田"
  },
  "9492322": {
    "zipcode": "9492322",
    "prefectureCode": "15",
    "prefectureNumber": 15,
    "prefecture": "新潟県",
    "city": "上越市",
    "town": "中郷区岡沢"
  },
  "9493101": {
    "zipcode": "9493101",
    "prefectureCode": "15",
    "prefectureNumber": 15,
    "prefecture": "新潟県",
    "city": "上越市",
    "town": "大潟区雁子浜"
  },
  "9493102": {
    "zipcode": "9493102",
    "prefectureCode": "15",
    "prefectureNumber": 15,
    "prefecture": "新潟県",
    "city": "上越市",
    "town": "大潟区九戸浜"
  },
  "9493103": {
    "zipcode": "9493103",
    "prefectureCode": "15",
    "prefectureNumber": 15,
    "prefecture": "新潟県",
    "city": "上越市",
    "town": "大潟区潟町"
  },
  "9493111": {
    "zipcode": "9493111",
    "prefectureCode": "15",
    "prefectureNumber": 15,
    "prefecture": "新潟県",
    "city": "上越市",
    "town": "大潟区四ツ屋浜"
  },
  "9493112": {
    "zipcode": "9493112",
    "prefectureCode": "15",
    "prefectureNumber": 15,
    "prefecture": "新潟県",
    "city": "上越市",
    "town": "大潟区土底浜"
  },
  "9493113": {
    "zipcode": "9493113",
    "prefectureCode": "15",
    "prefectureNumber": 15,
    "prefecture": "新潟県",
    "city": "上越市",
    "town": "大潟区下小船津浜"
  },
  "9493114": {
    "zipcode": "9493114",
    "prefectureCode": "15",
    "prefectureNumber": 15,
    "prefecture": "新潟県",
    "city": "上越市",
    "town": "大潟区上小船津浜"
  },
  "9493115": {
    "zipcode": "9493115",
    "prefectureCode": "15",
    "prefectureNumber": 15,
    "prefecture": "新潟県",
    "city": "上越市",
    "town": "大潟区渋柿浜"
  },
  "9493116": {
    "zipcode": "9493116",
    "prefectureCode": "15",
    "prefectureNumber": 15,
    "prefecture": "新潟県",
    "city": "上越市",
    "town": "大潟区犀潟"
  },
  "9493117": {
    "zipcode": "9493117",
    "prefectureCode": "15",
    "prefectureNumber": 15,
    "prefecture": "新潟県",
    "city": "上越市",
    "town": "大潟区蜘ケ池"
  },
  "9493121": {
    "zipcode": "9493121",
    "prefectureCode": "15",
    "prefectureNumber": 15,
    "prefecture": "新潟県",
    "city": "上越市",
    "town": "大潟区潟田"
  },
  "9493122": {
    "zipcode": "9493122",
    "prefectureCode": "15",
    "prefectureNumber": 15,
    "prefecture": "新潟県",
    "city": "上越市",
    "town": "大潟区岩野古新田"
  },
  "9493123": {
    "zipcode": "9493123",
    "prefectureCode": "15",
    "prefectureNumber": 15,
    "prefecture": "新潟県",
    "city": "上越市",
    "town": "大潟区長崎"
  },
  "9493124": {
    "zipcode": "9493124",
    "prefectureCode": "15",
    "prefectureNumber": 15,
    "prefecture": "新潟県",
    "city": "上越市",
    "town": "大潟区吉崎新田"
  },
  "9493125": {
    "zipcode": "9493125",
    "prefectureCode": "15",
    "prefectureNumber": 15,
    "prefecture": "新潟県",
    "city": "上越市",
    "town": "大潟区山鵜島新田"
  },
  "9493131": {
    "zipcode": "9493131",
    "prefectureCode": "15",
    "prefectureNumber": 15,
    "prefecture": "新潟県",
    "city": "上越市",
    "town": "大潟区里鵜島新田"
  },
  "9493132": {
    "zipcode": "9493132",
    "prefectureCode": "15",
    "prefectureNumber": 15,
    "prefecture": "新潟県",
    "city": "上越市",
    "town": "大潟区米倉新田"
  },
  "9493133": {
    "zipcode": "9493133",
    "prefectureCode": "15",
    "prefectureNumber": 15,
    "prefecture": "新潟県",
    "city": "上越市",
    "town": "大潟区高橋新田"
  },
  "9493134": {
    "zipcode": "9493134",
    "prefectureCode": "15",
    "prefectureNumber": 15,
    "prefecture": "新潟県",
    "city": "上越市",
    "town": "大潟区和泉新田"
  },
  "9493135": {
    "zipcode": "9493135",
    "prefectureCode": "15",
    "prefectureNumber": 15,
    "prefecture": "新潟県",
    "city": "上越市",
    "town": "大潟区内雁子"
  },
  "9493136": {
    "zipcode": "9493136",
    "prefectureCode": "15",
    "prefectureNumber": 15,
    "prefecture": "新潟県",
    "city": "上越市",
    "town": "大潟区内雁子新田"
  },
  "9493137": {
    "zipcode": "9493137",
    "prefectureCode": "15",
    "prefectureNumber": 15,
    "prefecture": "新潟県",
    "city": "上越市",
    "town": "大潟区潟守新田（その他）"
  },
  "9493201": {
    "zipcode": "9493201",
    "prefectureCode": "15",
    "prefectureNumber": 15,
    "prefecture": "新潟県",
    "city": "上越市",
    "town": "柿崎区竹鼻"
  },
  "9493211": {
    "zipcode": "9493211",
    "prefectureCode": "15",
    "prefectureNumber": 15,
    "prefecture": "新潟県",
    "city": "上越市",
    "town": "柿崎区法音寺"
  },
  "9493212": {
    "zipcode": "9493212",
    "prefectureCode": "15",
    "prefectureNumber": 15,
    "prefecture": "新潟県",
    "city": "上越市",
    "town": "柿崎区山谷"
  },
  "9493213": {
    "zipcode": "9493213",
    "prefectureCode": "15",
    "prefectureNumber": 15,
    "prefecture": "新潟県",
    "city": "上越市",
    "town": "柿崎区川井"
  },
  "9493214": {
    "zipcode": "9493214",
    "prefectureCode": "15",
    "prefectureNumber": 15,
    "prefecture": "新潟県",
    "city": "上越市",
    "town": "柿崎区馬正面"
  },
  "9493215": {
    "zipcode": "9493215",
    "prefectureCode": "15",
    "prefectureNumber": 15,
    "prefecture": "新潟県",
    "city": "上越市",
    "town": "柿崎区直海浜"
  },
  "9493216": {
    "zipcode": "9493216",
    "prefectureCode": "15",
    "prefectureNumber": 15,
    "prefecture": "新潟県",
    "city": "上越市",
    "town": "柿崎区柿崎"
  },
  "9493221": {
    "zipcode": "9493221",
    "prefectureCode": "15",
    "prefectureNumber": 15,
    "prefecture": "新潟県",
    "city": "上越市",
    "town": "柿崎区小萱"
  },
  "9493222": {
    "zipcode": "9493222",
    "prefectureCode": "15",
    "prefectureNumber": 15,
    "prefecture": "新潟県",
    "city": "上越市",
    "town": "柿崎区栃窪"
  },
  "9493223": {
    "zipcode": "9493223",
    "prefectureCode": "15",
    "prefectureNumber": 15,
    "prefecture": "新潟県",
    "city": "上越市",
    "town": "柿崎区雁海"
  },
  "9493224": {
    "zipcode": "9493224",
    "prefectureCode": "15",
    "prefectureNumber": 15,
    "prefecture": "新潟県",
    "city": "上越市",
    "town": "柿崎区東谷内"
  },
  "9493225": {
    "zipcode": "9493225",
    "prefectureCode": "15",
    "prefectureNumber": 15,
    "prefecture": "新潟県",
    "city": "上越市",
    "town": "柿崎区金谷"
  },
  "9493226": {
    "zipcode": "9493226",
    "prefectureCode": "15",
    "prefectureNumber": 15,
    "prefecture": "新潟県",
    "city": "上越市",
    "town": "柿崎区下中山"
  },
  "9493231": {
    "zipcode": "9493231",
    "prefectureCode": "15",
    "prefectureNumber": 15,
    "prefecture": "新潟県",
    "city": "上越市",
    "town": "柿崎区上小野"
  },
  "9493232": {
    "zipcode": "9493232",
    "prefectureCode": "15",
    "prefectureNumber": 15,
    "prefecture": "新潟県",
    "city": "上越市",
    "town": "柿崎区下小野"
  },
  "9493233": {
    "zipcode": "9493233",
    "prefectureCode": "15",
    "prefectureNumber": 15,
    "prefecture": "新潟県",
    "city": "上越市",
    "town": "柿崎区柳ケ崎"
  },
  "9493234": {
    "zipcode": "9493234",
    "prefectureCode": "15",
    "prefectureNumber": 15,
    "prefecture": "新潟県",
    "city": "上越市",
    "town": "柿崎区高寺"
  },
  "9493235": {
    "zipcode": "9493235",
    "prefectureCode": "15",
    "prefectureNumber": 15,
    "prefecture": "新潟県",
    "city": "上越市",
    "town": "柿崎区荻谷"
  },
  "9493236": {
    "zipcode": "9493236",
    "prefectureCode": "15",
    "prefectureNumber": 15,
    "prefecture": "新潟県",
    "city": "上越市",
    "town": "柿崎区阿弥陀瀬"
  },
  "9493237": {
    "zipcode": "9493237",
    "prefectureCode": "15",
    "prefectureNumber": 15,
    "prefecture": "新潟県",
    "city": "上越市",
    "town": "柿崎区川田"
  },
  "9493241": {
    "zipcode": "9493241",
    "prefectureCode": "15",
    "prefectureNumber": 15,
    "prefecture": "新潟県",
    "city": "上越市",
    "town": "柿崎区百木"
  },
  "9493242": {
    "zipcode": "9493242",
    "prefectureCode": "15",
    "prefectureNumber": 15,
    "prefecture": "新潟県",
    "city": "上越市",
    "town": "柿崎区桜町新田"
  },
  "9493243": {
    "zipcode": "9493243",
    "prefectureCode": "15",
    "prefectureNumber": 15,
    "prefecture": "新潟県",
    "city": "上越市",
    "town": "柿崎区上金原"
  },
  "9493244": {
    "zipcode": "9493244",
    "prefectureCode": "15",
    "prefectureNumber": 15,
    "prefecture": "新潟県",
    "city": "上越市",
    "town": "柿崎区下金原"
  },
  "9493245": {
    "zipcode": "9493245",
    "prefectureCode": "15",
    "prefectureNumber": 15,
    "prefecture": "新潟県",
    "city": "上越市",
    "town": "柿崎区行法"
  },
  "9493246": {
    "zipcode": "9493246",
    "prefectureCode": "15",
    "prefectureNumber": 15,
    "prefecture": "新潟県",
    "city": "上越市",
    "town": "柿崎区落合"
  },
  "9493247": {
    "zipcode": "9493247",
    "prefectureCode": "15",
    "prefectureNumber": 15,
    "prefecture": "新潟県",
    "city": "上越市",
    "town": "柿崎区角取"
  },
  "9493251": {
    "zipcode": "9493251",
    "prefectureCode": "15",
    "prefectureNumber": 15,
    "prefecture": "新潟県",
    "city": "上越市",
    "town": "柿崎区下条"
  },
  "9493252": {
    "zipcode": "9493252",
    "prefectureCode": "15",
    "prefectureNumber": 15,
    "prefecture": "新潟県",
    "city": "上越市",
    "town": "柿崎区上直海"
  },
  "9493253": {
    "zipcode": "9493253",
    "prefectureCode": "15",
    "prefectureNumber": 15,
    "prefecture": "新潟県",
    "city": "上越市",
    "town": "柿崎区江島新田"
  },
  "9493254": {
    "zipcode": "9493254",
    "prefectureCode": "15",
    "prefectureNumber": 15,
    "prefecture": "新潟県",
    "city": "上越市",
    "town": "柿崎区坂田新田"
  },
  "9493255": {
    "zipcode": "9493255",
    "prefectureCode": "15",
    "prefectureNumber": 15,
    "prefecture": "新潟県",
    "city": "上越市",
    "town": "柿崎区上下浜"
  },
  "9493256": {
    "zipcode": "9493256",
    "prefectureCode": "15",
    "prefectureNumber": 15,
    "prefecture": "新潟県",
    "city": "上越市",
    "town": "柿崎区三ツ屋浜"
  },
  "9493361": {
    "zipcode": "9493361",
    "prefectureCode": "15",
    "prefectureNumber": 15,
    "prefecture": "新潟県",
    "city": "上越市",
    "town": "柿崎区城腰"
  },
  "9493362": {
    "zipcode": "9493362",
    "prefectureCode": "15",
    "prefectureNumber": 15,
    "prefecture": "新潟県",
    "city": "上越市",
    "town": "柿崎区黒岩"
  },
  "9493363": {
    "zipcode": "9493363",
    "prefectureCode": "15",
    "prefectureNumber": 15,
    "prefecture": "新潟県",
    "city": "上越市",
    "town": "柿崎区旭平"
  },
  "9493364": {
    "zipcode": "9493364",
    "prefectureCode": "15",
    "prefectureNumber": 15,
    "prefecture": "新潟県",
    "city": "上越市",
    "town": "柿崎区東横山"
  },
  "9493365": {
    "zipcode": "9493365",
    "prefectureCode": "15",
    "prefectureNumber": 15,
    "prefecture": "新潟県",
    "city": "上越市",
    "town": "柿崎区松留"
  },
  "9493366": {
    "zipcode": "9493366",
    "prefectureCode": "15",
    "prefectureNumber": 15,
    "prefecture": "新潟県",
    "city": "上越市",
    "town": "柿崎区上中山"
  },
  "9493367": {
    "zipcode": "9493367",
    "prefectureCode": "15",
    "prefectureNumber": 15,
    "prefecture": "新潟県",
    "city": "上越市",
    "town": "柿崎区猿毛"
  },
  "9493371": {
    "zipcode": "9493371",
    "prefectureCode": "15",
    "prefectureNumber": 15,
    "prefecture": "新潟県",
    "city": "上越市",
    "town": "柿崎区下牧"
  },
  "9493372": {
    "zipcode": "9493372",
    "prefectureCode": "15",
    "prefectureNumber": 15,
    "prefecture": "新潟県",
    "city": "上越市",
    "town": "柿崎区水野"
  },
  "9493373": {
    "zipcode": "9493373",
    "prefectureCode": "15",
    "prefectureNumber": 15,
    "prefecture": "新潟県",
    "city": "上越市",
    "town": "柿崎区米山寺"
  },
  "9493374": {
    "zipcode": "9493374",
    "prefectureCode": "15",
    "prefectureNumber": 15,
    "prefecture": "新潟県",
    "city": "上越市",
    "town": "柿崎区芋島"
  },
  "9493375": {
    "zipcode": "9493375",
    "prefectureCode": "15",
    "prefectureNumber": 15,
    "prefecture": "新潟県",
    "city": "上越市",
    "town": "柿崎区下灰庭新田"
  },
  "9493376": {
    "zipcode": "9493376",
    "prefectureCode": "15",
    "prefectureNumber": 15,
    "prefecture": "新潟県",
    "city": "上越市",
    "town": "柿崎区岩手"
  },
  "9493377": {
    "zipcode": "9493377",
    "prefectureCode": "15",
    "prefectureNumber": 15,
    "prefecture": "新潟県",
    "city": "上越市",
    "town": "柿崎区高畑"
  },
  "9493378": {
    "zipcode": "9493378",
    "prefectureCode": "15",
    "prefectureNumber": 15,
    "prefecture": "新潟県",
    "city": "上越市",
    "town": "柿崎区岩野"
  },
  "9493379": {
    "zipcode": "9493379",
    "prefectureCode": "15",
    "prefectureNumber": 15,
    "prefecture": "新潟県",
    "city": "上越市",
    "town": "柿崎区平沢"
  },
  "9493401": {
    "zipcode": "9493401",
    "prefectureCode": "15",
    "prefectureNumber": 15,
    "prefecture": "新潟県",
    "city": "上越市",
    "town": "吉川区後生寺"
  },
  "9493402": {
    "zipcode": "9493402",
    "prefectureCode": "15",
    "prefectureNumber": 15,
    "prefecture": "新潟県",
    "city": "上越市",
    "town": "吉川区伯母ケ沢"
  },
  "9493403": {
    "zipcode": "9493403",
    "prefectureCode": "15",
    "prefectureNumber": 15,
    "prefecture": "新潟県",
    "city": "上越市",
    "town": "吉川区平等寺"
  },
  "9493404": {
    "zipcode": "9493404",
    "prefectureCode": "15",
    "prefectureNumber": 15,
    "prefecture": "新潟県",
    "city": "上越市",
    "town": "吉川区東寺"
  },
  "9493405": {
    "zipcode": "9493405",
    "prefectureCode": "15",
    "prefectureNumber": 15,
    "prefecture": "新潟県",
    "city": "上越市",
    "town": "吉川区吉井"
  },
  "9493406": {
    "zipcode": "9493406",
    "prefectureCode": "15",
    "prefectureNumber": 15,
    "prefecture": "新潟県",
    "city": "上越市",
    "town": "吉川区下小沢"
  },
  "9493407": {
    "zipcode": "9493407",
    "prefectureCode": "15",
    "prefectureNumber": 15,
    "prefecture": "新潟県",
    "city": "上越市",
    "town": "吉川区下中条"
  },
  "9493408": {
    "zipcode": "9493408",
    "prefectureCode": "15",
    "prefectureNumber": 15,
    "prefecture": "新潟県",
    "city": "上越市",
    "town": "吉川区赤沢"
  },
  "9493409": {
    "zipcode": "9493409",
    "prefectureCode": "15",
    "prefectureNumber": 15,
    "prefecture": "新潟県",
    "city": "上越市",
    "town": "吉川区泉"
  },
  "9493411": {
    "zipcode": "9493411",
    "prefectureCode": "15",
    "prefectureNumber": 15,
    "prefecture": "新潟県",
    "city": "上越市",
    "town": "吉川区川崎"
  },
  "9493412": {
    "zipcode": "9493412",
    "prefectureCode": "15",
    "prefectureNumber": 15,
    "prefecture": "新潟県",
    "city": "上越市",
    "town": "吉川区泉谷"
  },
  "9493413": {
    "zipcode": "9493413",
    "prefectureCode": "15",
    "prefectureNumber": 15,
    "prefecture": "新潟県",
    "city": "上越市",
    "town": "吉川区土尻"
  },
  "9493414": {
    "zipcode": "9493414",
    "prefectureCode": "15",
    "prefectureNumber": 15,
    "prefecture": "新潟県",
    "city": "上越市",
    "town": "吉川区天林寺"
  },
  "9493415": {
    "zipcode": "9493415",
    "prefectureCode": "15",
    "prefectureNumber": 15,
    "prefecture": "新潟県",
    "city": "上越市",
    "town": "吉川区山口"
  },
  "9493416": {
    "zipcode": "9493416",
    "prefectureCode": "15",
    "prefectureNumber": 15,
    "prefecture": "新潟県",
    "city": "上越市",
    "town": "吉川区中谷内"
  },
  "9493417": {
    "zipcode": "9493417",
    "prefectureCode": "15",
    "prefectureNumber": 15,
    "prefecture": "新潟県",
    "city": "上越市",
    "town": "吉川区下深沢"
  },
  "9493418": {
    "zipcode": "9493418",
    "prefectureCode": "15",
    "prefectureNumber": 15,
    "prefecture": "新潟県",
    "city": "上越市",
    "town": "吉川区片田"
  },
  "9493419": {
    "zipcode": "9493419",
    "prefectureCode": "15",
    "prefectureNumber": 15,
    "prefecture": "新潟県",
    "city": "上越市",
    "town": "吉川区東鳥越"
  },
  "9493421": {
    "zipcode": "9493421",
    "prefectureCode": "15",
    "prefectureNumber": 15,
    "prefecture": "新潟県",
    "city": "上越市",
    "town": "吉川区入河沢"
  },
  "9493422": {
    "zipcode": "9493422",
    "prefectureCode": "15",
    "prefectureNumber": 15,
    "prefecture": "新潟県",
    "city": "上越市",
    "town": "吉川区国田"
  },
  "9493423": {
    "zipcode": "9493423",
    "prefectureCode": "15",
    "prefectureNumber": 15,
    "prefecture": "新潟県",
    "city": "上越市",
    "town": "吉川区東田中"
  },
  "9493424": {
    "zipcode": "9493424",
    "prefectureCode": "15",
    "prefectureNumber": 15,
    "prefecture": "新潟県",
    "city": "上越市",
    "town": "吉川区福平"
  },
  "9493425": {
    "zipcode": "9493425",
    "prefectureCode": "15",
    "prefectureNumber": 15,
    "prefecture": "新潟県",
    "city": "上越市",
    "town": "吉川区長坂"
  },
  "9493426": {
    "zipcode": "9493426",
    "prefectureCode": "15",
    "prefectureNumber": 15,
    "prefecture": "新潟県",
    "city": "上越市",
    "town": "吉川区道之下"
  },
  "9493427": {
    "zipcode": "9493427",
    "prefectureCode": "15",
    "prefectureNumber": 15,
    "prefecture": "新潟県",
    "city": "上越市",
    "town": "吉川区顕法寺"
  },
  "9493428": {
    "zipcode": "9493428",
    "prefectureCode": "15",
    "prefectureNumber": 15,
    "prefecture": "新潟県",
    "city": "上越市",
    "town": "吉川区十町歩"
  },
  "9493429": {
    "zipcode": "9493429",
    "prefectureCode": "15",
    "prefectureNumber": 15,
    "prefecture": "新潟県",
    "city": "上越市",
    "town": "吉川区河沢"
  },
  "9493430": {
    "zipcode": "9493430",
    "prefectureCode": "15",
    "prefectureNumber": 15,
    "prefecture": "新潟県",
    "city": "上越市",
    "town": "吉川区大滝"
  },
  "9493431": {
    "zipcode": "9493431",
    "prefectureCode": "15",
    "prefectureNumber": 15,
    "prefecture": "新潟県",
    "city": "上越市",
    "town": "吉川区田尻"
  },
  "9493432": {
    "zipcode": "9493432",
    "prefectureCode": "15",
    "prefectureNumber": 15,
    "prefecture": "新潟県",
    "city": "上越市",
    "town": "吉川区六万部"
  },
  "9493433": {
    "zipcode": "9493433",
    "prefectureCode": "15",
    "prefectureNumber": 15,
    "prefecture": "新潟県",
    "city": "上越市",
    "town": "吉川区町田"
  },
  "9493434": {
    "zipcode": "9493434",
    "prefectureCode": "15",
    "prefectureNumber": 15,
    "prefecture": "新潟県",
    "city": "上越市",
    "town": "吉川区西野島"
  },
  "9493435": {
    "zipcode": "9493435",
    "prefectureCode": "15",
    "prefectureNumber": 15,
    "prefecture": "新潟県",
    "city": "上越市",
    "town": "吉川区下八幡"
  },
  "9493436": {
    "zipcode": "9493436",
    "prefectureCode": "15",
    "prefectureNumber": 15,
    "prefecture": "新潟県",
    "city": "上越市",
    "town": "吉川区坪野内"
  },
  "9493437": {
    "zipcode": "9493437",
    "prefectureCode": "15",
    "prefectureNumber": 15,
    "prefecture": "新潟県",
    "city": "上越市",
    "town": "吉川区梶"
  },
  "9493438": {
    "zipcode": "9493438",
    "prefectureCode": "15",
    "prefectureNumber": 15,
    "prefecture": "新潟県",
    "city": "上越市",
    "town": "吉川区神田町"
  },
  "9493439": {
    "zipcode": "9493439",
    "prefectureCode": "15",
    "prefectureNumber": 15,
    "prefecture": "新潟県",
    "city": "上越市",
    "town": "吉川区長沢"
  },
  "9493441": {
    "zipcode": "9493441",
    "prefectureCode": "15",
    "prefectureNumber": 15,
    "prefecture": "新潟県",
    "city": "上越市",
    "town": "吉川区代石"
  },
  "9493442": {
    "zipcode": "9493442",
    "prefectureCode": "15",
    "prefectureNumber": 15,
    "prefecture": "新潟県",
    "city": "上越市",
    "town": "吉川区小苗代"
  },
  "9493443": {
    "zipcode": "9493443",
    "prefectureCode": "15",
    "prefectureNumber": 15,
    "prefecture": "新潟県",
    "city": "上越市",
    "town": "吉川区下町"
  },
  "9493444": {
    "zipcode": "9493444",
    "prefectureCode": "15",
    "prefectureNumber": 15,
    "prefecture": "新潟県",
    "city": "上越市",
    "town": "吉川区大乗寺"
  },
  "9493445": {
    "zipcode": "9493445",
    "prefectureCode": "15",
    "prefectureNumber": 15,
    "prefecture": "新潟県",
    "city": "上越市",
    "town": "吉川区原之町"
  },
  "9493446": {
    "zipcode": "9493446",
    "prefectureCode": "15",
    "prefectureNumber": 15,
    "prefecture": "新潟県",
    "city": "上越市",
    "town": "吉川区山方"
  },
  "9493447": {
    "zipcode": "9493447",
    "prefectureCode": "15",
    "prefectureNumber": 15,
    "prefecture": "新潟県",
    "city": "上越市",
    "town": "吉川区竹直"
  },
  "9493448": {
    "zipcode": "9493448",
    "prefectureCode": "15",
    "prefectureNumber": 15,
    "prefecture": "新潟県",
    "city": "上越市",
    "town": "吉川区長峰"
  },
  "9493449": {
    "zipcode": "9493449",
    "prefectureCode": "15",
    "prefectureNumber": 15,
    "prefecture": "新潟県",
    "city": "上越市",
    "town": "吉川区杜氏の郷"
  },
  "9493551": {
    "zipcode": "9493551",
    "prefectureCode": "15",
    "prefectureNumber": 15,
    "prefecture": "新潟県",
    "city": "上越市",
    "town": "吉川区坪野"
  },
  "9493552": {
    "zipcode": "9493552",
    "prefectureCode": "15",
    "prefectureNumber": 15,
    "prefecture": "新潟県",
    "city": "上越市",
    "town": "吉川区尾神"
  },
  "9493553": {
    "zipcode": "9493553",
    "prefectureCode": "15",
    "prefectureNumber": 15,
    "prefecture": "新潟県",
    "city": "上越市",
    "town": "吉川区川谷"
  },
  "9493554": {
    "zipcode": "9493554",
    "prefectureCode": "15",
    "prefectureNumber": 15,
    "prefecture": "新潟県",
    "city": "上越市",
    "town": "吉川区石谷"
  },
  "9493555": {
    "zipcode": "9493555",
    "prefectureCode": "15",
    "prefectureNumber": 15,
    "prefecture": "新潟県",
    "city": "上越市",
    "town": "吉川区上名木"
  },
  "9493556": {
    "zipcode": "9493556",
    "prefectureCode": "15",
    "prefectureNumber": 15,
    "prefecture": "新潟県",
    "city": "上越市",
    "town": "吉川区名木山"
  },
  "9493557": {
    "zipcode": "9493557",
    "prefectureCode": "15",
    "prefectureNumber": 15,
    "prefecture": "新潟県",
    "city": "上越市",
    "town": "吉川区高沢入"
  },
  "9493561": {
    "zipcode": "9493561",
    "prefectureCode": "15",
    "prefectureNumber": 15,
    "prefecture": "新潟県",
    "city": "上越市",
    "town": "吉川区山中"
  },
  "9493562": {
    "zipcode": "9493562",
    "prefectureCode": "15",
    "prefectureNumber": 15,
    "prefecture": "新潟県",
    "city": "上越市",
    "town": "吉川区山直海"
  },
  "9493563": {
    "zipcode": "9493563",
    "prefectureCode": "15",
    "prefectureNumber": 15,
    "prefecture": "新潟県",
    "city": "上越市",
    "town": "吉川区大賀"
  },
  "9493564": {
    "zipcode": "9493564",
    "prefectureCode": "15",
    "prefectureNumber": 15,
    "prefecture": "新潟県",
    "city": "上越市",
    "town": "吉川区岩沢"
  },
  "9493565": {
    "zipcode": "9493565",
    "prefectureCode": "15",
    "prefectureNumber": 15,
    "prefecture": "新潟県",
    "city": "上越市",
    "town": "吉川区米山"
  },
  "9493661": {
    "zipcode": "9493661",
    "prefectureCode": "15",
    "prefectureNumber": 15,
    "prefecture": "新潟県",
    "city": "柏崎市",
    "town": "青海川"
  },
  "9493662": {
    "zipcode": "9493662",
    "prefectureCode": "15",
    "prefectureNumber": 15,
    "prefecture": "新潟県",
    "city": "柏崎市",
    "town": "笠島"
  },
  "9493663": {
    "zipcode": "9493663",
    "prefectureCode": "15",
    "prefectureNumber": 15,
    "prefecture": "新潟県",
    "city": "柏崎市",
    "town": "上輪新田"
  },
  "9493664": {
    "zipcode": "9493664",
    "prefectureCode": "15",
    "prefectureNumber": 15,
    "prefecture": "新潟県",
    "city": "柏崎市",
    "town": "上輪"
  },
  "9493671": {
    "zipcode": "9493671",
    "prefectureCode": "15",
    "prefectureNumber": 15,
    "prefecture": "新潟県",
    "city": "柏崎市",
    "town": "蕨野"
  },
  "9493672": {
    "zipcode": "9493672",
    "prefectureCode": "15",
    "prefectureNumber": 15,
    "prefecture": "新潟県",
    "city": "柏崎市",
    "town": "大平"
  },
  "9493673": {
    "zipcode": "9493673",
    "prefectureCode": "15",
    "prefectureNumber": 15,
    "prefecture": "新潟県",
    "city": "柏崎市",
    "town": "高畔"
  },
  "9493674": {
    "zipcode": "9493674",
    "prefectureCode": "15",
    "prefectureNumber": 15,
    "prefecture": "新潟県",
    "city": "柏崎市",
    "town": "大清水"
  },
  "9493675": {
    "zipcode": "9493675",
    "prefectureCode": "15",
    "prefectureNumber": 15,
    "prefecture": "新潟県",
    "city": "柏崎市",
    "town": "米山町"
  },
  "9493721": {
    "zipcode": "9493721",
    "prefectureCode": "15",
    "prefectureNumber": 15,
    "prefecture": "新潟県",
    "city": "柏崎市",
    "town": "吉井黒川"
  },
  "9493722": {
    "zipcode": "9493722",
    "prefectureCode": "15",
    "prefectureNumber": 15,
    "prefecture": "新潟県",
    "city": "柏崎市",
    "town": "東長鳥"
  },
  "9493723": {
    "zipcode": "9493723",
    "prefectureCode": "15",
    "prefectureNumber": 15,
    "prefecture": "新潟県",
    "city": "柏崎市",
    "town": "西長鳥"
  },
  "9493724": {
    "zipcode": "9493724",
    "prefectureCode": "15",
    "prefectureNumber": 15,
    "prefecture": "新潟県",
    "city": "柏崎市",
    "town": "大広田"
  },
  "9493725": {
    "zipcode": "9493725",
    "prefectureCode": "15",
    "prefectureNumber": 15,
    "prefecture": "新潟県",
    "city": "柏崎市",
    "town": "旧広田"
  },
  "9493726": {
    "zipcode": "9493726",
    "prefectureCode": "15",
    "prefectureNumber": 15,
    "prefecture": "新潟県",
    "city": "柏崎市",
    "town": "山澗"
  },
  "9493731": {
    "zipcode": "9493731",
    "prefectureCode": "15",
    "prefectureNumber": 15,
    "prefecture": "新潟県",
    "city": "柏崎市",
    "town": "東条"
  },
  "9493732": {
    "zipcode": "9493732",
    "prefectureCode": "15",
    "prefectureNumber": 15,
    "prefecture": "新潟県",
    "city": "柏崎市",
    "town": "北条"
  },
  "9493733": {
    "zipcode": "9493733",
    "prefectureCode": "15",
    "prefectureNumber": 15,
    "prefecture": "新潟県",
    "city": "柏崎市",
    "town": "本条"
  },
  "9493734": {
    "zipcode": "9493734",
    "prefectureCode": "15",
    "prefectureNumber": 15,
    "prefecture": "新潟県",
    "city": "柏崎市",
    "town": "南条"
  },
  "9493735": {
    "zipcode": "9493735",
    "prefectureCode": "15",
    "prefectureNumber": 15,
    "prefecture": "新潟県",
    "city": "柏崎市",
    "town": "小島"
  },
  "9494111": {
    "zipcode": "9494111",
    "prefectureCode": "15",
    "prefectureNumber": 15,
    "prefecture": "新潟県",
    "city": "柏崎市",
    "town": "西山町別山"
  },
  "9494112": {
    "zipcode": "9494112",
    "prefectureCode": "15",
    "prefectureNumber": 15,
    "prefecture": "新潟県",
    "city": "柏崎市",
    "town": "西山町尾野内"
  },
  "9494113": {
    "zipcode": "9494113",
    "prefectureCode": "15",
    "prefectureNumber": 15,
    "prefecture": "新潟県",
    "city": "柏崎市",
    "town": "西山町上山田"
  },
  "9494114": {
    "zipcode": "9494114",
    "prefectureCode": "15",
    "prefectureNumber": 15,
    "prefecture": "新潟県",
    "city": "柏崎市",
    "town": "西山町灰爪"
  },
  "9494121": {
    "zipcode": "9494121",
    "prefectureCode": "15",
    "prefectureNumber": 15,
    "prefecture": "新潟県",
    "city": "柏崎市",
    "town": "西山町田沢"
  },
  "9494122": {
    "zipcode": "9494122",
    "prefectureCode": "15",
    "prefectureNumber": 15,
    "prefecture": "新潟県",
    "city": "柏崎市",
    "town": "西山町藤掛"
  },
  "9494123": {
    "zipcode": "9494123",
    "prefectureCode": "15",
    "prefectureNumber": 15,
    "prefecture": "新潟県",
    "city": "柏崎市",
    "town": "西山町池浦"
  },
  "9494124": {
    "zipcode": "9494124",
    "prefectureCode": "15",
    "prefectureNumber": 15,
    "prefecture": "新潟県",
    "city": "柏崎市",
    "town": "西山町礼拝"
  },
  "9494125": {
    "zipcode": "9494125",
    "prefectureCode": "15",
    "prefectureNumber": 15,
    "prefecture": "新潟県",
    "city": "柏崎市",
    "town": "西山町中央台"
  },
  "9494126": {
    "zipcode": "9494126",
    "prefectureCode": "15",
    "prefectureNumber": 15,
    "prefecture": "新潟県",
    "city": "柏崎市",
    "town": "西山町下山田"
  },
  "9494127": {
    "zipcode": "9494127",
    "prefectureCode": "15",
    "prefectureNumber": 15,
    "prefecture": "新潟県",
    "city": "柏崎市",
    "town": "西山町鎌田"
  },
  "9494128": {
    "zipcode": "9494128",
    "prefectureCode": "15",
    "prefectureNumber": 15,
    "prefecture": "新潟県",
    "city": "柏崎市",
    "town": "西山町伊毛"
  },
  "9494131": {
    "zipcode": "9494131",
    "prefectureCode": "15",
    "prefectureNumber": 15,
    "prefecture": "新潟県",
    "city": "柏崎市",
    "town": "西山町後谷"
  },
  "9494132": {
    "zipcode": "9494132",
    "prefectureCode": "15",
    "prefectureNumber": 15,
    "prefecture": "新潟県",
    "city": "柏崎市",
    "town": "西山町長嶺"
  },
  "9494133": {
    "zipcode": "9494133",
    "prefectureCode": "15",
    "prefectureNumber": 15,
    "prefecture": "新潟県",
    "city": "柏崎市",
    "town": "西山町鬼王"
  },
  "9494134": {
    "zipcode": "9494134",
    "prefectureCode": "15",
    "prefectureNumber": 15,
    "prefecture": "新潟県",
    "city": "柏崎市",
    "town": "西山町二田"
  },
  "9494135": {
    "zipcode": "9494135",
    "prefectureCode": "15",
    "prefectureNumber": 15,
    "prefecture": "新潟県",
    "city": "柏崎市",
    "town": "西山町坂田"
  },
  "9494136": {
    "zipcode": "9494136",
    "prefectureCode": "15",
    "prefectureNumber": 15,
    "prefecture": "新潟県",
    "city": "柏崎市",
    "town": "西山町緑が丘"
  },
  "9494141": {
    "zipcode": "9494141",
    "prefectureCode": "15",
    "prefectureNumber": 15,
    "prefecture": "新潟県",
    "city": "柏崎市",
    "town": "西山町西山"
  },
  "9494142": {
    "zipcode": "9494142",
    "prefectureCode": "15",
    "prefectureNumber": 15,
    "prefecture": "新潟県",
    "city": "柏崎市",
    "town": "西山町黒部"
  },
  "9494143": {
    "zipcode": "9494143",
    "prefectureCode": "15",
    "prefectureNumber": 15,
    "prefecture": "新潟県",
    "city": "柏崎市",
    "town": "西山町和田"
  },
  "9494144": {
    "zipcode": "9494144",
    "prefectureCode": "15",
    "prefectureNumber": 15,
    "prefecture": "新潟県",
    "city": "柏崎市",
    "town": "西山町新保"
  },
  "9494145": {
    "zipcode": "9494145",
    "prefectureCode": "15",
    "prefectureNumber": 15,
    "prefecture": "新潟県",
    "city": "柏崎市",
    "town": "西山町北野"
  },
  "9494146": {
    "zipcode": "9494146",
    "prefectureCode": "15",
    "prefectureNumber": 15,
    "prefecture": "新潟県",
    "city": "柏崎市",
    "town": "西山町妙法寺"
  },
  "9494147": {
    "zipcode": "9494147",
    "prefectureCode": "15",
    "prefectureNumber": 15,
    "prefecture": "新潟県",
    "city": "柏崎市",
    "town": "西山町大坪"
  },
  "9494148": {
    "zipcode": "9494148",
    "prefectureCode": "15",
    "prefectureNumber": 15,
    "prefecture": "新潟県",
    "city": "柏崎市",
    "town": "西山町内方"
  },
  "9494149": {
    "zipcode": "9494149",
    "prefectureCode": "15",
    "prefectureNumber": 15,
    "prefecture": "新潟県",
    "city": "柏崎市",
    "town": "西山町五日市"
  },
  "9494201": {
    "zipcode": "9494201",
    "prefectureCode": "15",
    "prefectureNumber": 15,
    "prefecture": "新潟県",
    "city": "柏崎市",
    "town": "西山町石地"
  },
  "9494202": {
    "zipcode": "9494202",
    "prefectureCode": "15",
    "prefectureNumber": 15,
    "prefecture": "新潟県",
    "city": "柏崎市",
    "town": "西山町尾町"
  },
  "9494203": {
    "zipcode": "9494203",
    "prefectureCode": "15",
    "prefectureNumber": 15,
    "prefecture": "新潟県",
    "city": "柏崎市",
    "town": "西山町大津"
  },
  "9494204": {
    "zipcode": "9494204",
    "prefectureCode": "15",
    "prefectureNumber": 15,
    "prefecture": "新潟県",
    "city": "柏崎市",
    "town": "西山町大崎"
  },
  "9494205": {
    "zipcode": "9494205",
    "prefectureCode": "15",
    "prefectureNumber": 15,
    "prefecture": "新潟県",
    "city": "柏崎市",
    "town": "西山町浜忠"
  },
  "9494206": {
    "zipcode": "9494206",
    "prefectureCode": "15",
    "prefectureNumber": 15,
    "prefecture": "新潟県",
    "city": "柏崎市",
    "town": "西山町甲田"
  },
  "9494300": {
    "zipcode": "9494300",
    "prefectureCode": "15",
    "prefectureNumber": 15,
    "prefecture": "新潟県",
    "city": "三島郡出雲崎町",
    "town": "以下に掲載がない場合"
  },
  "9494301": {
    "zipcode": "9494301",
    "prefectureCode": "15",
    "prefectureNumber": 15,
    "prefecture": "新潟県",
    "city": "三島郡出雲崎町",
    "town": "久田"
  },
  "9494302": {
    "zipcode": "9494302",
    "prefectureCode": "15",
    "prefectureNumber": 15,
    "prefecture": "新潟県",
    "city": "三島郡出雲崎町",
    "town": "井鼻"
  },
  "9494303": {
    "zipcode": "9494303",
    "prefectureCode": "15",
    "prefectureNumber": 15,
    "prefecture": "新潟県",
    "city": "三島郡出雲崎町",
    "town": "木折町"
  },
  "9494304": {
    "zipcode": "9494304",
    "prefectureCode": "15",
    "prefectureNumber": 15,
    "prefecture": "新潟県",
    "city": "三島郡出雲崎町",
    "town": "鳴滝町"
  },
  "9494305": {
    "zipcode": "9494305",
    "prefectureCode": "15",
    "prefectureNumber": 15,
    "prefecture": "新潟県",
    "city": "三島郡出雲崎町",
    "town": "羽黒町"
  },
  "9494306": {
    "zipcode": "9494306",
    "prefectureCode": "15",
    "prefectureNumber": 15,
    "prefecture": "新潟県",
    "city": "三島郡出雲崎町",
    "town": "石井町"
  },
  "9494307": {
    "zipcode": "9494307",
    "prefectureCode": "15",
    "prefectureNumber": 15,
    "prefecture": "新潟県",
    "city": "三島郡出雲崎町",
    "town": "住吉町"
  },
  "9494308": {
    "zipcode": "9494308",
    "prefectureCode": "15",
    "prefectureNumber": 15,
    "prefecture": "新潟県",
    "city": "三島郡出雲崎町",
    "town": "尼瀬"
  },
  "9494309": {
    "zipcode": "9494309",
    "prefectureCode": "15",
    "prefectureNumber": 15,
    "prefecture": "新潟県",
    "city": "三島郡出雲崎町",
    "town": "勝見"
  },
  "9494311": {
    "zipcode": "9494311",
    "prefectureCode": "15",
    "prefectureNumber": 15,
    "prefecture": "新潟県",
    "city": "三島郡出雲崎町",
    "town": "乙茂"
  },
  "9494312": {
    "zipcode": "9494312",
    "prefectureCode": "15",
    "prefectureNumber": 15,
    "prefecture": "新潟県",
    "city": "三島郡出雲崎町",
    "town": "大寺"
  },
  "9494313": {
    "zipcode": "9494313",
    "prefectureCode": "15",
    "prefectureNumber": 15,
    "prefecture": "新潟県",
    "city": "三島郡出雲崎町",
    "town": "馬草"
  },
  "9494314": {
    "zipcode": "9494314",
    "prefectureCode": "15",
    "prefectureNumber": 15,
    "prefecture": "新潟県",
    "city": "三島郡出雲崎町",
    "town": "藤巻"
  },
  "9494315": {
    "zipcode": "9494315",
    "prefectureCode": "15",
    "prefectureNumber": 15,
    "prefecture": "新潟県",
    "city": "三島郡出雲崎町",
    "town": "柿木"
  },
  "9494316": {
    "zipcode": "9494316",
    "prefectureCode": "15",
    "prefectureNumber": 15,
    "prefecture": "新潟県",
    "city": "三島郡出雲崎町",
    "town": "滝谷"
  },
  "9494317": {
    "zipcode": "9494317",
    "prefectureCode": "15",
    "prefectureNumber": 15,
    "prefecture": "新潟県",
    "city": "三島郡出雲崎町",
    "town": "吉川"
  },
  "9494318": {
    "zipcode": "9494318",
    "prefectureCode": "15",
    "prefectureNumber": 15,
    "prefecture": "新潟県",
    "city": "三島郡出雲崎町",
    "town": "神条"
  },
  "9494321": {
    "zipcode": "9494321",
    "prefectureCode": "15",
    "prefectureNumber": 15,
    "prefecture": "新潟県",
    "city": "三島郡出雲崎町",
    "town": "松本"
  },
  "9494322": {
    "zipcode": "9494322",
    "prefectureCode": "15",
    "prefectureNumber": 15,
    "prefecture": "新潟県",
    "city": "三島郡出雲崎町",
    "town": "小釜谷"
  },
  "9494323": {
    "zipcode": "9494323",
    "prefectureCode": "15",
    "prefectureNumber": 15,
    "prefecture": "新潟県",
    "city": "三島郡出雲崎町",
    "town": "大釜谷"
  },
  "9494324": {
    "zipcode": "9494324",
    "prefectureCode": "15",
    "prefectureNumber": 15,
    "prefecture": "新潟県",
    "city": "三島郡出雲崎町",
    "town": "吉水"
  },
  "9494325": {
    "zipcode": "9494325",
    "prefectureCode": "15",
    "prefectureNumber": 15,
    "prefecture": "新潟県",
    "city": "三島郡出雲崎町",
    "town": "相田"
  },
  "9494326": {
    "zipcode": "9494326",
    "prefectureCode": "15",
    "prefectureNumber": 15,
    "prefecture": "新潟県",
    "city": "三島郡出雲崎町",
    "town": "桂沢"
  },
  "9494327": {
    "zipcode": "9494327",
    "prefectureCode": "15",
    "prefectureNumber": 15,
    "prefecture": "新潟県",
    "city": "三島郡出雲崎町",
    "town": "別ケ谷"
  },
  "9494328": {
    "zipcode": "9494328",
    "prefectureCode": "15",
    "prefectureNumber": 15,
    "prefecture": "新潟県",
    "city": "三島郡出雲崎町",
    "town": "山谷"
  },
  "9494331": {
    "zipcode": "9494331",
    "prefectureCode": "15",
    "prefectureNumber": 15,
    "prefecture": "新潟県",
    "city": "三島郡出雲崎町",
    "town": "稲川"
  },
  "9494332": {
    "zipcode": "9494332",
    "prefectureCode": "15",
    "prefectureNumber": 15,
    "prefecture": "新潟県",
    "city": "三島郡出雲崎町",
    "town": "小木"
  },
  "9494333": {
    "zipcode": "9494333",
    "prefectureCode": "15",
    "prefectureNumber": 15,
    "prefecture": "新潟県",
    "city": "三島郡出雲崎町",
    "town": "常楽寺"
  },
  "9494334": {
    "zipcode": "9494334",
    "prefectureCode": "15",
    "prefectureNumber": 15,
    "prefecture": "新潟県",
    "city": "三島郡出雲崎町",
    "town": "豊橋"
  },
  "9494335": {
    "zipcode": "9494335",
    "prefectureCode": "15",
    "prefectureNumber": 15,
    "prefecture": "新潟県",
    "city": "三島郡出雲崎町",
    "town": "市野坪"
  },
  "9494336": {
    "zipcode": "9494336",
    "prefectureCode": "15",
    "prefectureNumber": 15,
    "prefecture": "新潟県",
    "city": "三島郡出雲崎町",
    "town": "船橋"
  },
  "9494337": {
    "zipcode": "9494337",
    "prefectureCode": "15",
    "prefectureNumber": 15,
    "prefecture": "新潟県",
    "city": "三島郡出雲崎町",
    "town": "田中"
  },
  "9494341": {
    "zipcode": "9494341",
    "prefectureCode": "15",
    "prefectureNumber": 15,
    "prefecture": "新潟県",
    "city": "三島郡出雲崎町",
    "town": "上中条"
  },
  "9494342": {
    "zipcode": "9494342",
    "prefectureCode": "15",
    "prefectureNumber": 15,
    "prefecture": "新潟県",
    "city": "三島郡出雲崎町",
    "town": "米田"
  },
  "9494343": {
    "zipcode": "9494343",
    "prefectureCode": "15",
    "prefectureNumber": 15,
    "prefecture": "新潟県",
    "city": "三島郡出雲崎町",
    "town": "立石"
  },
  "9494344": {
    "zipcode": "9494344",
    "prefectureCode": "15",
    "prefectureNumber": 15,
    "prefecture": "新潟県",
    "city": "三島郡出雲崎町",
    "town": "小竹"
  },
  "9494345": {
    "zipcode": "9494345",
    "prefectureCode": "15",
    "prefectureNumber": 15,
    "prefecture": "新潟県",
    "city": "三島郡出雲崎町",
    "town": "中山"
  },
  "9494346": {
    "zipcode": "9494346",
    "prefectureCode": "15",
    "prefectureNumber": 15,
    "prefecture": "新潟県",
    "city": "三島郡出雲崎町",
    "town": "上野山"
  },
  "9494351": {
    "zipcode": "9494351",
    "prefectureCode": "15",
    "prefectureNumber": 15,
    "prefecture": "新潟県",
    "city": "三島郡出雲崎町",
    "town": "沢田"
  },
  "9494352": {
    "zipcode": "9494352",
    "prefectureCode": "15",
    "prefectureNumber": 15,
    "prefecture": "新潟県",
    "city": "三島郡出雲崎町",
    "town": "大門"
  },
  "9494353": {
    "zipcode": "9494353",
    "prefectureCode": "15",
    "prefectureNumber": 15,
    "prefecture": "新潟県",
    "city": "三島郡出雲崎町",
    "town": "川西"
  },
  "9494501": {
    "zipcode": "9494501",
    "prefectureCode": "15",
    "prefectureNumber": 15,
    "prefecture": "新潟県",
    "city": "長岡市",
    "town": "上桐"
  },
  "9494502": {
    "zipcode": "9494502",
    "prefectureCode": "15",
    "prefectureNumber": 15,
    "prefecture": "新潟県",
    "city": "長岡市",
    "town": "黒坂"
  },
  "9494503": {
    "zipcode": "9494503",
    "prefectureCode": "15",
    "prefectureNumber": 15,
    "prefecture": "新潟県",
    "city": "長岡市",
    "town": "和島北野"
  },
  "9494504": {
    "zipcode": "9494504",
    "prefectureCode": "15",
    "prefectureNumber": 15,
    "prefecture": "新潟県",
    "city": "長岡市",
    "town": "三瀬ケ谷"
  },
  "9494505": {
    "zipcode": "9494505",
    "prefectureCode": "15",
    "prefectureNumber": 15,
    "prefecture": "新潟県",
    "city": "長岡市",
    "town": "根小屋"
  },
  "9494506": {
    "zipcode": "9494506",
    "prefectureCode": "15",
    "prefectureNumber": 15,
    "prefecture": "新潟県",
    "city": "長岡市",
    "town": "荒巻"
  },
  "9494507": {
    "zipcode": "9494507",
    "prefectureCode": "15",
    "prefectureNumber": 15,
    "prefecture": "新潟県",
    "city": "長岡市",
    "town": "下富岡"
  },
  "9494511": {
    "zipcode": "9494511",
    "prefectureCode": "15",
    "prefectureNumber": 15,
    "prefecture": "新潟県",
    "city": "長岡市",
    "town": "小島谷"
  },
  "9494512": {
    "zipcode": "9494512",
    "prefectureCode": "15",
    "prefectureNumber": 15,
    "prefecture": "新潟県",
    "city": "長岡市",
    "town": "若野浦"
  },
  "9494513": {
    "zipcode": "9494513",
    "prefectureCode": "15",
    "prefectureNumber": 15,
    "prefecture": "新潟県",
    "city": "長岡市",
    "town": "阿弥陀瀬"
  },
  "9494514": {
    "zipcode": "9494514",
    "prefectureCode": "15",
    "prefectureNumber": 15,
    "prefecture": "新潟県",
    "city": "長岡市",
    "town": "日野浦"
  },
  "9494515": {
    "zipcode": "9494515",
    "prefectureCode": "15",
    "prefectureNumber": 15,
    "prefecture": "新潟県",
    "city": "長岡市",
    "town": "和島高畑"
  },
  "9494516": {
    "zipcode": "9494516",
    "prefectureCode": "15",
    "prefectureNumber": 15,
    "prefecture": "新潟県",
    "city": "長岡市",
    "town": "和島中沢"
  },
  "9494517": {
    "zipcode": "9494517",
    "prefectureCode": "15",
    "prefectureNumber": 15,
    "prefecture": "新潟県",
    "city": "長岡市",
    "town": "梅田"
  },
  "9494521": {
    "zipcode": "9494521",
    "prefectureCode": "15",
    "prefectureNumber": 15,
    "prefecture": "新潟県",
    "city": "長岡市",
    "town": "東保内"
  },
  "9494522": {
    "zipcode": "9494522",
    "prefectureCode": "15",
    "prefectureNumber": 15,
    "prefecture": "新潟県",
    "city": "長岡市",
    "town": "村田"
  },
  "9494523": {
    "zipcode": "9494523",
    "prefectureCode": "15",
    "prefectureNumber": 15,
    "prefecture": "新潟県",
    "city": "長岡市",
    "town": "城之丘"
  },
  "9494524": {
    "zipcode": "9494524",
    "prefectureCode": "15",
    "prefectureNumber": 15,
    "prefecture": "新潟県",
    "city": "長岡市",
    "town": "両高"
  },
  "9494525": {
    "zipcode": "9494525",
    "prefectureCode": "15",
    "prefectureNumber": 15,
    "prefecture": "新潟県",
    "city": "長岡市",
    "town": "島崎"
  },
  "9495121": {
    "zipcode": "9495121",
    "prefectureCode": "15",
    "prefectureNumber": 15,
    "prefecture": "新潟県",
    "city": "長岡市",
    "town": "西谷"
  },
  "9495122": {
    "zipcode": "9495122",
    "prefectureCode": "15",
    "prefectureNumber": 15,
    "prefecture": "新潟県",
    "city": "長岡市",
    "town": "東谷"
  },
  "9495123": {
    "zipcode": "9495123",
    "prefectureCode": "15",
    "prefectureNumber": 15,
    "prefecture": "新潟県",
    "city": "長岡市",
    "town": "塚野山"
  },
  "9495124": {
    "zipcode": "9495124",
    "prefectureCode": "15",
    "prefectureNumber": 15,
    "prefecture": "新潟県",
    "city": "長岡市",
    "town": "千谷沢"
  },
  "9495201": {
    "zipcode": "9495201",
    "prefectureCode": "15",
    "prefectureNumber": 15,
    "prefecture": "新潟県",
    "city": "長岡市",
    "town": "小国町千谷沢"
  },
  "9495211": {
    "zipcode": "9495211",
    "prefectureCode": "15",
    "prefectureNumber": 15,
    "prefecture": "新潟県",
    "city": "長岡市",
    "town": "小国町七日町"
  },
  "9495212": {
    "zipcode": "9495212",
    "prefectureCode": "15",
    "prefectureNumber": 15,
    "prefecture": "新潟県",
    "city": "長岡市",
    "town": "小国町桐沢"
  },
  "9495213": {
    "zipcode": "9495213",
    "prefectureCode": "15",
    "prefectureNumber": 15,
    "prefecture": "新潟県",
    "city": "長岡市",
    "town": "小国町法坂"
  },
  "9495214": {
    "zipcode": "9495214",
    "prefectureCode": "15",
    "prefectureNumber": 15,
    "prefecture": "新潟県",
    "city": "長岡市",
    "town": "小国町上谷内新田"
  },
  "9495215": {
    "zipcode": "9495215",
    "prefectureCode": "15",
    "prefectureNumber": 15,
    "prefecture": "新潟県",
    "city": "長岡市",
    "town": "小国町新町"
  },
  "9495216": {
    "zipcode": "9495216",
    "prefectureCode": "15",
    "prefectureNumber": 15,
    "prefecture": "新潟県",
    "city": "長岡市",
    "town": "小国町相野原"
  },
  "9495217": {
    "zipcode": "9495217",
    "prefectureCode": "15",
    "prefectureNumber": 15,
    "prefecture": "新潟県",
    "city": "長岡市",
    "town": "小国町二本柳"
  },
  "9495221": {
    "zipcode": "9495221",
    "prefectureCode": "15",
    "prefectureNumber": 15,
    "prefecture": "新潟県",
    "city": "長岡市",
    "town": "小国町武石"
  },
  "9495222": {
    "zipcode": "9495222",
    "prefectureCode": "15",
    "prefectureNumber": 15,
    "prefecture": "新潟県",
    "city": "長岡市",
    "town": "小国町横沢"
  },
  "9495223": {
    "zipcode": "9495223",
    "prefectureCode": "15",
    "prefectureNumber": 15,
    "prefecture": "新潟県",
    "city": "長岡市",
    "town": "小国町八王子"
  },
  "9495331": {
    "zipcode": "9495331",
    "prefectureCode": "15",
    "prefectureNumber": 15,
    "prefecture": "新潟県",
    "city": "長岡市",
    "town": "小国町楢沢"
  },
  "9495332": {
    "zipcode": "9495332",
    "prefectureCode": "15",
    "prefectureNumber": 15,
    "prefecture": "新潟県",
    "city": "長岡市",
    "town": "小国町上岩田"
  },
  "9495333": {
    "zipcode": "9495333",
    "prefectureCode": "15",
    "prefectureNumber": 15,
    "prefecture": "新潟県",
    "city": "長岡市",
    "town": "小国町小国沢"
  },
  "9495334": {
    "zipcode": "9495334",
    "prefectureCode": "15",
    "prefectureNumber": 15,
    "prefecture": "新潟県",
    "city": "長岡市",
    "town": "小国町法末"
  },
  "9495335": {
    "zipcode": "9495335",
    "prefectureCode": "15",
    "prefectureNumber": 15,
    "prefecture": "新潟県",
    "city": "長岡市",
    "town": "小国町太郎丸"
  },
  "9495336": {
    "zipcode": "9495336",
    "prefectureCode": "15",
    "prefectureNumber": 15,
    "prefecture": "新潟県",
    "city": "長岡市",
    "town": "小国町諏訪井"
  },
  "9495341": {
    "zipcode": "9495341",
    "prefectureCode": "15",
    "prefectureNumber": 15,
    "prefecture": "新潟県",
    "city": "長岡市",
    "town": "小国町小栗山"
  },
  "9495342": {
    "zipcode": "9495342",
    "prefectureCode": "15",
    "prefectureNumber": 15,
    "prefecture": "新潟県",
    "city": "長岡市",
    "town": "小国町森光"
  },
  "9495343": {
    "zipcode": "9495343",
    "prefectureCode": "15",
    "prefectureNumber": 15,
    "prefecture": "新潟県",
    "city": "長岡市",
    "town": "小国町原"
  },
  "9495344": {
    "zipcode": "9495344",
    "prefectureCode": "15",
    "prefectureNumber": 15,
    "prefecture": "新潟県",
    "city": "長岡市",
    "town": "小国町苔野島"
  },
  "9495345": {
    "zipcode": "9495345",
    "prefectureCode": "15",
    "prefectureNumber": 15,
    "prefecture": "新潟県",
    "city": "長岡市",
    "town": "小国町三桶"
  },
  "9495346": {
    "zipcode": "9495346",
    "prefectureCode": "15",
    "prefectureNumber": 15,
    "prefecture": "新潟県",
    "city": "長岡市",
    "town": "小国町大貝"
  },
  "9495347": {
    "zipcode": "9495347",
    "prefectureCode": "15",
    "prefectureNumber": 15,
    "prefecture": "新潟県",
    "city": "長岡市",
    "town": "小国町山野田"
  },
  "9495401": {
    "zipcode": "9495401",
    "prefectureCode": "15",
    "prefectureNumber": 15,
    "prefecture": "新潟県",
    "city": "長岡市",
    "town": "飯島"
  },
  "9495402": {
    "zipcode": "9495402",
    "prefectureCode": "15",
    "prefectureNumber": 15,
    "prefecture": "新潟県",
    "city": "長岡市",
    "town": "篠花"
  },
  "9495403": {
    "zipcode": "9495403",
    "prefectureCode": "15",
    "prefectureNumber": 15,
    "prefecture": "新潟県",
    "city": "長岡市",
    "town": "越路中島"
  },
  "9495404": {
    "zipcode": "9495404",
    "prefectureCode": "15",
    "prefectureNumber": 15,
    "prefecture": "新潟県",
    "city": "長岡市",
    "town": "釜ケ島（その他）"
  },
  "9495405": {
    "zipcode": "9495405",
    "prefectureCode": "15",
    "prefectureNumber": 15,
    "prefecture": "新潟県",
    "city": "長岡市",
    "town": "岩野（その他）"
  },
  "9495406": {
    "zipcode": "9495406",
    "prefectureCode": "15",
    "prefectureNumber": 15,
    "prefecture": "新潟県",
    "city": "長岡市",
    "town": "浦"
  },
  "9495407": {
    "zipcode": "9495407",
    "prefectureCode": "15",
    "prefectureNumber": 15,
    "prefecture": "新潟県",
    "city": "長岡市",
    "town": "神谷"
  },
  "9495408": {
    "zipcode": "9495408",
    "prefectureCode": "15",
    "prefectureNumber": 15,
    "prefecture": "新潟県",
    "city": "長岡市",
    "town": "越路中沢"
  },
  "9495409": {
    "zipcode": "9495409",
    "prefectureCode": "15",
    "prefectureNumber": 15,
    "prefecture": "新潟県",
    "city": "長岡市",
    "town": "西野"
  },
  "9495411": {
    "zipcode": "9495411",
    "prefectureCode": "15",
    "prefectureNumber": 15,
    "prefecture": "新潟県",
    "city": "長岡市",
    "town": "来迎寺"
  },
  "9495412": {
    "zipcode": "9495412",
    "prefectureCode": "15",
    "prefectureNumber": 15,
    "prefecture": "新潟県",
    "city": "長岡市",
    "town": "朝日"
  },
  "9495413": {
    "zipcode": "9495413",
    "prefectureCode": "15",
    "prefectureNumber": 15,
    "prefecture": "新潟県",
    "city": "長岡市",
    "town": "沢下条"
  },
  "9495414": {
    "zipcode": "9495414",
    "prefectureCode": "15",
    "prefectureNumber": 15,
    "prefecture": "新潟県",
    "city": "長岡市",
    "town": "飯塚"
  },
  "9495415": {
    "zipcode": "9495415",
    "prefectureCode": "15",
    "prefectureNumber": 15,
    "prefecture": "新潟県",
    "city": "長岡市",
    "town": "岩田"
  },
  "9495416": {
    "zipcode": "9495416",
    "prefectureCode": "15",
    "prefectureNumber": 15,
    "prefecture": "新潟県",
    "city": "長岡市",
    "town": "不動沢"
  },
  "9496100": {
    "zipcode": "9496100",
    "prefectureCode": "15",
    "prefectureNumber": 15,
    "prefecture": "新潟県",
    "city": "南魚沼郡湯沢町",
    "town": "以下に掲載がない場合"
  },
  "9496101": {
    "zipcode": "9496101",
    "prefectureCode": "15",
    "prefectureNumber": 15,
    "prefecture": "新潟県",
    "city": "南魚沼郡湯沢町",
    "town": "湯沢"
  },
  "9496102": {
    "zipcode": "9496102",
    "prefectureCode": "15",
    "prefectureNumber": 15,
    "prefecture": "新潟県",
    "city": "南魚沼郡湯沢町",
    "town": "神立"
  },
  "9496103": {
    "zipcode": "9496103",
    "prefectureCode": "15",
    "prefectureNumber": 15,
    "prefecture": "新潟県",
    "city": "南魚沼郡湯沢町",
    "town": "土樽"
  },
  "9496211": {
    "zipcode": "9496211",
    "prefectureCode": "15",
    "prefectureNumber": 15,
    "prefecture": "新潟県",
    "city": "南魚沼郡湯沢町",
    "town": "三俣"
  },
  "9496212": {
    "zipcode": "9496212",
    "prefectureCode": "15",
    "prefectureNumber": 15,
    "prefecture": "新潟県",
    "city": "南魚沼郡湯沢町",
    "town": "三国"
  },
  "9496361": {
    "zipcode": "9496361",
    "prefectureCode": "15",
    "prefectureNumber": 15,
    "prefecture": "新潟県",
    "city": "南魚沼市",
    "town": "大沢"
  },
  "9496362": {
    "zipcode": "9496362",
    "prefectureCode": "15",
    "prefectureNumber": 15,
    "prefecture": "新潟県",
    "city": "南魚沼市",
    "town": "南田中"
  },
  "9496363": {
    "zipcode": "9496363",
    "prefectureCode": "15",
    "prefectureNumber": 15,
    "prefecture": "新潟県",
    "city": "南魚沼市",
    "town": "下一日市"
  },
  "9496364": {
    "zipcode": "9496364",
    "prefectureCode": "15",
    "prefectureNumber": 15,
    "prefecture": "新潟県",
    "city": "南魚沼市",
    "town": "上一日市"
  },
  "9496365": {
    "zipcode": "9496365",
    "prefectureCode": "15",
    "prefectureNumber": 15,
    "prefecture": "新潟県",
    "city": "南魚沼市",
    "town": "宮野下"
  },
  "9496366": {
    "zipcode": "9496366",
    "prefectureCode": "15",
    "prefectureNumber": 15,
    "prefecture": "新潟県",
    "city": "南魚沼市",
    "town": "君沢"
  },
  "9496371": {
    "zipcode": "9496371",
    "prefectureCode": "15",
    "prefectureNumber": 15,
    "prefecture": "新潟県",
    "city": "南魚沼市",
    "town": "関"
  },
  "9496372": {
    "zipcode": "9496372",
    "prefectureCode": "15",
    "prefectureNumber": 15,
    "prefecture": "新潟県",
    "city": "南魚沼市",
    "town": "石打"
  },
  "9496373": {
    "zipcode": "9496373",
    "prefectureCode": "15",
    "prefectureNumber": 15,
    "prefecture": "新潟県",
    "city": "南魚沼市",
    "town": "上野"
  },
  "9496401": {
    "zipcode": "9496401",
    "prefectureCode": "15",
    "prefectureNumber": 15,
    "prefecture": "新潟県",
    "city": "南魚沼市",
    "town": "栃窪"
  },
  "9496402": {
    "zipcode": "9496402",
    "prefectureCode": "15",
    "prefectureNumber": 15,
    "prefecture": "新潟県",
    "city": "南魚沼市",
    "town": "吉里"
  },
  "9496403": {
    "zipcode": "9496403",
    "prefectureCode": "15",
    "prefectureNumber": 15,
    "prefecture": "新潟県",
    "city": "南魚沼市",
    "town": "思川"
  },
  "9496404": {
    "zipcode": "9496404",
    "prefectureCode": "15",
    "prefectureNumber": 15,
    "prefecture": "新潟県",
    "city": "南魚沼市",
    "town": "片田"
  },
  "9496405": {
    "zipcode": "9496405",
    "prefectureCode": "15",
    "prefectureNumber": 15,
    "prefecture": "新潟県",
    "city": "南魚沼市",
    "town": "竹俣"
  },
  "9496406": {
    "zipcode": "9496406",
    "prefectureCode": "15",
    "prefectureNumber": 15,
    "prefecture": "新潟県",
    "city": "南魚沼市",
    "town": "竹俣新田"
  },
  "9496407": {
    "zipcode": "9496407",
    "prefectureCode": "15",
    "prefectureNumber": 15,
    "prefecture": "新潟県",
    "city": "南魚沼市",
    "town": "島新田"
  },
  "9496408": {
    "zipcode": "9496408",
    "prefectureCode": "15",
    "prefectureNumber": 15,
    "prefecture": "新潟県",
    "city": "南魚沼市",
    "town": "塩沢"
  },
  "9496411": {
    "zipcode": "9496411",
    "prefectureCode": "15",
    "prefectureNumber": 15,
    "prefecture": "新潟県",
    "city": "南魚沼市",
    "town": "上十日町"
  },
  "9496412": {
    "zipcode": "9496412",
    "prefectureCode": "15",
    "prefectureNumber": 15,
    "prefecture": "新潟県",
    "city": "南魚沼市",
    "town": "大里"
  },
  "9496413": {
    "zipcode": "9496413",
    "prefectureCode": "15",
    "prefectureNumber": 15,
    "prefecture": "新潟県",
    "city": "南魚沼市",
    "town": "小木六"
  },
  "9496414": {
    "zipcode": "9496414",
    "prefectureCode": "15",
    "prefectureNumber": 15,
    "prefecture": "新潟県",
    "city": "南魚沼市",
    "town": "八竜新田"
  },
  "9496415": {
    "zipcode": "9496415",
    "prefectureCode": "15",
    "prefectureNumber": 15,
    "prefecture": "新潟県",
    "city": "南魚沼市",
    "town": "小杉新田"
  },
  "9496416": {
    "zipcode": "9496416",
    "prefectureCode": "15",
    "prefectureNumber": 15,
    "prefecture": "新潟県",
    "city": "南魚沼市",
    "town": "大木六"
  },
  "9496417": {
    "zipcode": "9496417",
    "prefectureCode": "15",
    "prefectureNumber": 15,
    "prefecture": "新潟県",
    "city": "南魚沼市",
    "town": "吉山新田"
  },
  "9496418": {
    "zipcode": "9496418",
    "prefectureCode": "15",
    "prefectureNumber": 15,
    "prefecture": "新潟県",
    "city": "南魚沼市",
    "town": "仙石"
  },
  "9496421": {
    "zipcode": "9496421",
    "prefectureCode": "15",
    "prefectureNumber": 15,
    "prefecture": "新潟県",
    "city": "南魚沼市",
    "town": "中子新田甲"
  },
  "9496422": {
    "zipcode": "9496422",
    "prefectureCode": "15",
    "prefectureNumber": 15,
    "prefecture": "新潟県",
    "city": "南魚沼市",
    "town": "徳田新田"
  },
  "9496423": {
    "zipcode": "9496423",
    "prefectureCode": "15",
    "prefectureNumber": 15,
    "prefecture": "新潟県",
    "city": "南魚沼市",
    "town": "舞子"
  },
  "9496424": {
    "zipcode": "9496424",
    "prefectureCode": "15",
    "prefectureNumber": 15,
    "prefecture": "新潟県",
    "city": "南魚沼市",
    "town": "万条新田"
  },
  "9496425": {
    "zipcode": "9496425",
    "prefectureCode": "15",
    "prefectureNumber": 15,
    "prefecture": "新潟県",
    "city": "南魚沼市",
    "town": "姥島新田"
  },
  "9496426": {
    "zipcode": "9496426",
    "prefectureCode": "15",
    "prefectureNumber": 15,
    "prefecture": "新潟県",
    "city": "南魚沼市",
    "town": "丸池新田"
  },
  "9496427": {
    "zipcode": "9496427",
    "prefectureCode": "15",
    "prefectureNumber": 15,
    "prefecture": "新潟県",
    "city": "南魚沼市",
    "town": "中子新田乙"
  },
  "9496428": {
    "zipcode": "9496428",
    "prefectureCode": "15",
    "prefectureNumber": 15,
    "prefecture": "新潟県",
    "city": "南魚沼市",
    "town": "五郎丸"
  },
  "9496431": {
    "zipcode": "9496431",
    "prefectureCode": "15",
    "prefectureNumber": 15,
    "prefecture": "新潟県",
    "city": "南魚沼市",
    "town": "樺野沢"
  },
  "9496432": {
    "zipcode": "9496432",
    "prefectureCode": "15",
    "prefectureNumber": 15,
    "prefecture": "新潟県",
    "city": "南魚沼市",
    "town": "樺野沢新田"
  },
  "9496433": {
    "zipcode": "9496433",
    "prefectureCode": "15",
    "prefectureNumber": 15,
    "prefecture": "新潟県",
    "city": "南魚沼市",
    "town": "泉盛寺"
  },
  "9496434": {
    "zipcode": "9496434",
    "prefectureCode": "15",
    "prefectureNumber": 15,
    "prefecture": "新潟県",
    "city": "南魚沼市",
    "town": "天野沢"
  },
  "9496435": {
    "zipcode": "9496435",
    "prefectureCode": "15",
    "prefectureNumber": 15,
    "prefecture": "新潟県",
    "city": "南魚沼市",
    "town": "目来田"
  },
  "9496436": {
    "zipcode": "9496436",
    "prefectureCode": "15",
    "prefectureNumber": 15,
    "prefecture": "新潟県",
    "city": "南魚沼市",
    "town": "中"
  },
  "9496437": {
    "zipcode": "9496437",
    "prefectureCode": "15",
    "prefectureNumber": 15,
    "prefecture": "新潟県",
    "city": "南魚沼市",
    "town": "中野"
  },
  "9496438": {
    "zipcode": "9496438",
    "prefectureCode": "15",
    "prefectureNumber": 15,
    "prefecture": "新潟県",
    "city": "南魚沼市",
    "town": "大木六新田"
  },
  "9496541": {
    "zipcode": "9496541",
    "prefectureCode": "15",
    "prefectureNumber": 15,
    "prefecture": "新潟県",
    "city": "南魚沼市",
    "town": "三郎丸"
  },
  "9496542": {
    "zipcode": "9496542",
    "prefectureCode": "15",
    "prefectureNumber": 15,
    "prefecture": "新潟県",
    "city": "南魚沼市",
    "town": "雲洞"
  },
  "9496543": {
    "zipcode": "9496543",
    "prefectureCode": "15",
    "prefectureNumber": 15,
    "prefecture": "新潟県",
    "city": "南魚沼市",
    "town": "早川"
  },
  "9496544": {
    "zipcode": "9496544",
    "prefectureCode": "15",
    "prefectureNumber": 15,
    "prefecture": "新潟県",
    "city": "南魚沼市",
    "town": "枝吉"
  },
  "9496545": {
    "zipcode": "9496545",
    "prefectureCode": "15",
    "prefectureNumber": 15,
    "prefecture": "新潟県",
    "city": "南魚沼市",
    "town": "長崎"
  },
  "9496551": {
    "zipcode": "9496551",
    "prefectureCode": "15",
    "prefectureNumber": 15,
    "prefecture": "新潟県",
    "city": "南魚沼市",
    "town": "姥沢新田"
  },
  "9496552": {
    "zipcode": "9496552",
    "prefectureCode": "15",
    "prefectureNumber": 15,
    "prefecture": "新潟県",
    "city": "南魚沼市",
    "town": "蟹沢新田"
  },
  "9496553": {
    "zipcode": "9496553",
    "prefectureCode": "15",
    "prefectureNumber": 15,
    "prefecture": "新潟県",
    "city": "南魚沼市",
    "town": "清水"
  },
  "9496554": {
    "zipcode": "9496554",
    "prefectureCode": "15",
    "prefectureNumber": 15,
    "prefecture": "新潟県",
    "city": "南魚沼市",
    "town": "一之沢"
  },
  "9496555": {
    "zipcode": "9496555",
    "prefectureCode": "15",
    "prefectureNumber": 15,
    "prefecture": "新潟県",
    "city": "南魚沼市",
    "town": "滝谷"
  },
  "9496556": {
    "zipcode": "9496556",
    "prefectureCode": "15",
    "prefectureNumber": 15,
    "prefecture": "新潟県",
    "city": "南魚沼市",
    "town": "小松沢"
  },
  "9496557": {
    "zipcode": "9496557",
    "prefectureCode": "15",
    "prefectureNumber": 15,
    "prefecture": "新潟県",
    "city": "南魚沼市",
    "town": "台上"
  },
  "9496600": {
    "zipcode": "9496600",
    "prefectureCode": "15",
    "prefectureNumber": 15,
    "prefecture": "新潟県",
    "city": "南魚沼市",
    "town": "以下に掲載がない場合"
  },
  "9496601": {
    "zipcode": "9496601",
    "prefectureCode": "15",
    "prefectureNumber": 15,
    "prefecture": "新潟県",
    "city": "南魚沼市",
    "town": "君帰"
  },
  "9496602": {
    "zipcode": "9496602",
    "prefectureCode": "15",
    "prefectureNumber": 15,
    "prefecture": "新潟県",
    "city": "南魚沼市",
    "town": "欠之上"
  },
  "9496603": {
    "zipcode": "9496603",
    "prefectureCode": "15",
    "prefectureNumber": 15,
    "prefecture": "新潟県",
    "city": "南魚沼市",
    "town": "川窪"
  },
  "9496605": {
    "zipcode": "9496605",
    "prefectureCode": "15",
    "prefectureNumber": 15,
    "prefecture": "新潟県",
    "city": "南魚沼市",
    "town": "青木新田（６９５、７２９、９９２〜１０７４番地）"
  },
  "9496607": {
    "zipcode": "9496607",
    "prefectureCode": "15",
    "prefectureNumber": 15,
    "prefecture": "新潟県",
    "city": "南魚沼市",
    "town": "宇津野新田（７１７、７１８番地）"
  },
  "9496608": {
    "zipcode": "9496608",
    "prefectureCode": "15",
    "prefectureNumber": 15,
    "prefecture": "新潟県",
    "city": "南魚沼市",
    "town": "美佐島"
  },
  "9496609": {
    "zipcode": "9496609",
    "prefectureCode": "15",
    "prefectureNumber": 15,
    "prefecture": "新潟県",
    "city": "南魚沼市",
    "town": "八幡"
  },
  "9496611": {
    "zipcode": "9496611",
    "prefectureCode": "15",
    "prefectureNumber": 15,
    "prefecture": "新潟県",
    "city": "南魚沼市",
    "town": "坂戸"
  },
  "9496612": {
    "zipcode": "9496612",
    "prefectureCode": "15",
    "prefectureNumber": 15,
    "prefecture": "新潟県",
    "city": "南魚沼市",
    "town": "東泉田"
  },
  "9496615": {
    "zipcode": "9496615",
    "prefectureCode": "15",
    "prefectureNumber": 15,
    "prefecture": "新潟県",
    "city": "南魚沼市",
    "town": "西泉田"
  },
  "9496636": {
    "zipcode": "9496636",
    "prefectureCode": "15",
    "prefectureNumber": 15,
    "prefecture": "新潟県",
    "city": "南魚沼市",
    "town": "小栗山"
  },
  "9496680": {
    "zipcode": "9496680",
    "prefectureCode": "15",
    "prefectureNumber": 15,
    "prefecture": "新潟県",
    "city": "南魚沼市",
    "town": "六日町"
  },
  "9496681": {
    "zipcode": "9496681",
    "prefectureCode": "15",
    "prefectureNumber": 15,
    "prefecture": "新潟県",
    "city": "南魚沼市",
    "town": "余川"
  },
  "9496682": {
    "zipcode": "9496682",
    "prefectureCode": "15",
    "prefectureNumber": 15,
    "prefecture": "新潟県",
    "city": "南魚沼市",
    "town": "大月"
  },
  "9496741": {
    "zipcode": "9496741",
    "prefectureCode": "15",
    "prefectureNumber": 15,
    "prefecture": "新潟県",
    "city": "南魚沼市",
    "town": "清水瀬"
  },
  "9496742": {
    "zipcode": "9496742",
    "prefectureCode": "15",
    "prefectureNumber": 15,
    "prefecture": "新潟県",
    "city": "南魚沼市",
    "town": "野中"
  },
  "9496743": {
    "zipcode": "9496743",
    "prefectureCode": "15",
    "prefectureNumber": 15,
    "prefecture": "新潟県",
    "city": "南魚沼市",
    "town": "舞台"
  },
  "9496744": {
    "zipcode": "9496744",
    "prefectureCode": "15",
    "prefectureNumber": 15,
    "prefecture": "新潟県",
    "city": "南魚沼市",
    "town": "土沢"
  },
  "9496745": {
    "zipcode": "9496745",
    "prefectureCode": "15",
    "prefectureNumber": 15,
    "prefecture": "新潟県",
    "city": "南魚沼市",
    "town": "小川"
  },
  "9496746": {
    "zipcode": "9496746",
    "prefectureCode": "15",
    "prefectureNumber": 15,
    "prefecture": "新潟県",
    "city": "南魚沼市",
    "town": "畔地"
  },
  "9496751": {
    "zipcode": "9496751",
    "prefectureCode": "15",
    "prefectureNumber": 15,
    "prefecture": "新潟県",
    "city": "南魚沼市",
    "town": "畔地新田"
  },
  "9496753": {
    "zipcode": "9496753",
    "prefectureCode": "15",
    "prefectureNumber": 15,
    "prefecture": "新潟県",
    "city": "南魚沼市",
    "town": "蛭窪"
  },
  "9496754": {
    "zipcode": "9496754",
    "prefectureCode": "15",
    "prefectureNumber": 15,
    "prefecture": "新潟県",
    "city": "南魚沼市",
    "town": "永松"
  },
  "9496755": {
    "zipcode": "9496755",
    "prefectureCode": "15",
    "prefectureNumber": 15,
    "prefecture": "新潟県",
    "city": "南魚沼市",
    "town": "原"
  },
  "9496756": {
    "zipcode": "9496756",
    "prefectureCode": "15",
    "prefectureNumber": 15,
    "prefecture": "新潟県",
    "city": "南魚沼市",
    "town": "京岡"
  },
  "9496757": {
    "zipcode": "9496757",
    "prefectureCode": "15",
    "prefectureNumber": 15,
    "prefecture": "新潟県",
    "city": "南魚沼市",
    "town": "京岡新田"
  },
  "9496761": {
    "zipcode": "9496761",
    "prefectureCode": "15",
    "prefectureNumber": 15,
    "prefecture": "新潟県",
    "city": "南魚沼市",
    "town": "中川"
  },
  "9496762": {
    "zipcode": "9496762",
    "prefectureCode": "15",
    "prefectureNumber": 15,
    "prefecture": "新潟県",
    "city": "南魚沼市",
    "town": "中川新田"
  },
  "9496763": {
    "zipcode": "9496763",
    "prefectureCode": "15",
    "prefectureNumber": 15,
    "prefecture": "新潟県",
    "city": "南魚沼市",
    "town": "山谷"
  },
  "9496764": {
    "zipcode": "9496764",
    "prefectureCode": "15",
    "prefectureNumber": 15,
    "prefecture": "新潟県",
    "city": "南魚沼市",
    "town": "宮村下新田"
  },
  "9496765": {
    "zipcode": "9496765",
    "prefectureCode": "15",
    "prefectureNumber": 15,
    "prefecture": "新潟県",
    "city": "南魚沼市",
    "town": "岩崎"
  },
  "9496766": {
    "zipcode": "9496766",
    "prefectureCode": "15",
    "prefectureNumber": 15,
    "prefecture": "新潟県",
    "city": "南魚沼市",
    "town": "津久野上新田"
  },
  "9496771": {
    "zipcode": "9496771",
    "prefectureCode": "15",
    "prefectureNumber": 15,
    "prefecture": "新潟県",
    "city": "南魚沼市",
    "town": "津久野"
  },
  "9496772": {
    "zipcode": "9496772",
    "prefectureCode": "15",
    "prefectureNumber": 15,
    "prefecture": "新潟県",
    "city": "南魚沼市",
    "town": "二日町"
  },
  "9496773": {
    "zipcode": "9496773",
    "prefectureCode": "15",
    "prefectureNumber": 15,
    "prefecture": "新潟県",
    "city": "南魚沼市",
    "town": "津久野下新田"
  },
  "9496774": {
    "zipcode": "9496774",
    "prefectureCode": "15",
    "prefectureNumber": 15,
    "prefecture": "新潟県",
    "city": "南魚沼市",
    "town": "深沢"
  },
  "9496775": {
    "zipcode": "9496775",
    "prefectureCode": "15",
    "prefectureNumber": 15,
    "prefecture": "新潟県",
    "city": "南魚沼市",
    "town": "宮"
  },
  "9497101": {
    "zipcode": "9497101",
    "prefectureCode": "15",
    "prefectureNumber": 15,
    "prefecture": "新潟県",
    "city": "南魚沼市",
    "town": "五日町"
  },
  "9497102": {
    "zipcode": "9497102",
    "prefectureCode": "15",
    "prefectureNumber": 15,
    "prefecture": "新潟県",
    "city": "南魚沼市",
    "town": "奥"
  },
  "9497103": {
    "zipcode": "9497103",
    "prefectureCode": "15",
    "prefectureNumber": 15,
    "prefecture": "新潟県",
    "city": "南魚沼市",
    "town": "大杉新田"
  },
  "9497104": {
    "zipcode": "9497104",
    "prefectureCode": "15",
    "prefectureNumber": 15,
    "prefecture": "新潟県",
    "city": "南魚沼市",
    "town": "寺尾"
  },
  "9497111": {
    "zipcode": "9497111",
    "prefectureCode": "15",
    "prefectureNumber": 15,
    "prefecture": "新潟県",
    "city": "南魚沼市",
    "town": "麓"
  },
  "9497112": {
    "zipcode": "9497112",
    "prefectureCode": "15",
    "prefectureNumber": 15,
    "prefecture": "新潟県",
    "city": "南魚沼市",
    "town": "長森"
  },
  "9497113": {
    "zipcode": "9497113",
    "prefectureCode": "15",
    "prefectureNumber": 15,
    "prefecture": "新潟県",
    "city": "南魚沼市",
    "town": "下原"
  },
  "9497114": {
    "zipcode": "9497114",
    "prefectureCode": "15",
    "prefectureNumber": 15,
    "prefecture": "新潟県",
    "city": "南魚沼市",
    "town": "泉"
  },
  "9497115": {
    "zipcode": "9497115",
    "prefectureCode": "15",
    "prefectureNumber": 15,
    "prefecture": "新潟県",
    "city": "南魚沼市",
    "town": "泉新田"
  },
  "9497116": {
    "zipcode": "9497116",
    "prefectureCode": "15",
    "prefectureNumber": 15,
    "prefecture": "新潟県",
    "city": "南魚沼市",
    "town": "下原新田"
  },
  "9497117": {
    "zipcode": "9497117",
    "prefectureCode": "15",
    "prefectureNumber": 15,
    "prefecture": "新潟県",
    "city": "南魚沼市",
    "town": "長森新田"
  },
  "9497121": {
    "zipcode": "9497121",
    "prefectureCode": "15",
    "prefectureNumber": 15,
    "prefecture": "新潟県",
    "city": "南魚沼市",
    "town": "山口"
  },
  "9497122": {
    "zipcode": "9497122",
    "prefectureCode": "15",
    "prefectureNumber": 15,
    "prefecture": "新潟県",
    "city": "南魚沼市",
    "town": "岡"
  },
  "9497123": {
    "zipcode": "9497123",
    "prefectureCode": "15",
    "prefectureNumber": 15,
    "prefecture": "新潟県",
    "city": "南魚沼市",
    "town": "妙音寺"
  },
  "9497124": {
    "zipcode": "9497124",
    "prefectureCode": "15",
    "prefectureNumber": 15,
    "prefecture": "新潟県",
    "city": "南魚沼市",
    "town": "上薬師堂"
  },
  "9497125": {
    "zipcode": "9497125",
    "prefectureCode": "15",
    "prefectureNumber": 15,
    "prefecture": "新潟県",
    "city": "南魚沼市",
    "town": "下薬師堂"
  },
  "9497126": {
    "zipcode": "9497126",
    "prefectureCode": "15",
    "prefectureNumber": 15,
    "prefecture": "新潟県",
    "city": "南魚沼市",
    "town": "上出浦"
  },
  "9497127": {
    "zipcode": "9497127",
    "prefectureCode": "15",
    "prefectureNumber": 15,
    "prefecture": "新潟県",
    "city": "南魚沼市",
    "town": "下出浦"
  },
  "9497131": {
    "zipcode": "9497131",
    "prefectureCode": "15",
    "prefectureNumber": 15,
    "prefecture": "新潟県",
    "city": "南魚沼市",
    "town": "野際"
  },
  "9497132": {
    "zipcode": "9497132",
    "prefectureCode": "15",
    "prefectureNumber": 15,
    "prefecture": "新潟県",
    "city": "南魚沼市",
    "town": "藤原"
  },
  "9497133": {
    "zipcode": "9497133",
    "prefectureCode": "15",
    "prefectureNumber": 15,
    "prefecture": "新潟県",
    "city": "南魚沼市",
    "town": "法音寺"
  },
  "9497134": {
    "zipcode": "9497134",
    "prefectureCode": "15",
    "prefectureNumber": 15,
    "prefecture": "新潟県",
    "city": "南魚沼市",
    "town": "田崎"
  },
  "9497135": {
    "zipcode": "9497135",
    "prefectureCode": "15",
    "prefectureNumber": 15,
    "prefecture": "新潟県",
    "city": "南魚沼市",
    "town": "新堀新田"
  },
  "9497136": {
    "zipcode": "9497136",
    "prefectureCode": "15",
    "prefectureNumber": 15,
    "prefecture": "新潟県",
    "city": "南魚沼市",
    "town": "新堀"
  },
  "9497137": {
    "zipcode": "9497137",
    "prefectureCode": "15",
    "prefectureNumber": 15,
    "prefecture": "新潟県",
    "city": "南魚沼市",
    "town": "上原"
  },
  "9497138": {
    "zipcode": "9497138",
    "prefectureCode": "15",
    "prefectureNumber": 15,
    "prefecture": "新潟県",
    "city": "南魚沼市",
    "town": "上原新田"
  },
  "9497141": {
    "zipcode": "9497141",
    "prefectureCode": "15",
    "prefectureNumber": 15,
    "prefecture": "新潟県",
    "city": "南魚沼市",
    "town": "青木新田（その他）"
  },
  "9497142": {
    "zipcode": "9497142",
    "prefectureCode": "15",
    "prefectureNumber": 15,
    "prefecture": "新潟県",
    "city": "南魚沼市",
    "town": "宇津野新田（その他）"
  },
  "9497143": {
    "zipcode": "9497143",
    "prefectureCode": "15",
    "prefectureNumber": 15,
    "prefecture": "新潟県",
    "city": "南魚沼市",
    "town": "北田中"
  },
  "9497144": {
    "zipcode": "9497144",
    "prefectureCode": "15",
    "prefectureNumber": 15,
    "prefecture": "新潟県",
    "city": "南魚沼市",
    "town": "野田"
  },
  "9497145": {
    "zipcode": "9497145",
    "prefectureCode": "15",
    "prefectureNumber": 15,
    "prefecture": "新潟県",
    "city": "南魚沼市",
    "town": "四十日"
  },
  "9497221": {
    "zipcode": "9497221",
    "prefectureCode": "15",
    "prefectureNumber": 15,
    "prefecture": "新潟県",
    "city": "南魚沼市",
    "town": "湯谷"
  },
  "9497222": {
    "zipcode": "9497222",
    "prefectureCode": "15",
    "prefectureNumber": 15,
    "prefecture": "新潟県",
    "city": "南魚沼市",
    "town": "芋赤"
  },
  "9497223": {
    "zipcode": "9497223",
    "prefectureCode": "15",
    "prefectureNumber": 15,
    "prefecture": "新潟県",
    "city": "南魚沼市",
    "town": "門前"
  },
  "9497224": {
    "zipcode": "9497224",
    "prefectureCode": "15",
    "prefectureNumber": 15,
    "prefecture": "新潟県",
    "city": "南魚沼市",
    "town": "大桑原"
  },
  "9497225": {
    "zipcode": "9497225",
    "prefectureCode": "15",
    "prefectureNumber": 15,
    "prefecture": "新潟県",
    "city": "南魚沼市",
    "town": "山崎"
  },
  "9497226": {
    "zipcode": "9497226",
    "prefectureCode": "15",
    "prefectureNumber": 15,
    "prefecture": "新潟県",
    "city": "南魚沼市",
    "town": "山崎新田"
  },
  "9497227": {
    "zipcode": "9497227",
    "prefectureCode": "15",
    "prefectureNumber": 15,
    "prefecture": "新潟県",
    "city": "南魚沼市",
    "town": "雷土新田"
  },
  "9497228": {
    "zipcode": "9497228",
    "prefectureCode": "15",
    "prefectureNumber": 15,
    "prefecture": "新潟県",
    "city": "南魚沼市",
    "town": "雷土"
  },
  "9497229": {
    "zipcode": "9497229",
    "prefectureCode": "15",
    "prefectureNumber": 15,
    "prefecture": "新潟県",
    "city": "南魚沼市",
    "town": "前原町"
  },
  "9497231": {
    "zipcode": "9497231",
    "prefectureCode": "15",
    "prefectureNumber": 15,
    "prefecture": "新潟県",
    "city": "南魚沼市",
    "town": "茗荷沢"
  },
  "9497232": {
    "zipcode": "9497232",
    "prefectureCode": "15",
    "prefectureNumber": 15,
    "prefecture": "新潟県",
    "city": "南魚沼市",
    "town": "堂島新田"
  },
  "9497233": {
    "zipcode": "9497233",
    "prefectureCode": "15",
    "prefectureNumber": 15,
    "prefecture": "新潟県",
    "city": "南魚沼市",
    "town": "桐沢"
  },
  "9497234": {
    "zipcode": "9497234",
    "prefectureCode": "15",
    "prefectureNumber": 15,
    "prefecture": "新潟県",
    "city": "南魚沼市",
    "town": "荒山"
  },
  "9497235": {
    "zipcode": "9497235",
    "prefectureCode": "15",
    "prefectureNumber": 15,
    "prefecture": "新潟県",
    "city": "南魚沼市",
    "town": "荒金"
  },
  "9497236": {
    "zipcode": "9497236",
    "prefectureCode": "15",
    "prefectureNumber": 15,
    "prefecture": "新潟県",
    "city": "南魚沼市",
    "town": "茗荷沢新田"
  },
  "9497241": {
    "zipcode": "9497241",
    "prefectureCode": "15",
    "prefectureNumber": 15,
    "prefecture": "新潟県",
    "city": "南魚沼市",
    "town": "黒土新田"
  },
  "9497242": {
    "zipcode": "9497242",
    "prefectureCode": "15",
    "prefectureNumber": 15,
    "prefecture": "新潟県",
    "city": "南魚沼市",
    "town": "黒土"
  },
  "9497243": {
    "zipcode": "9497243",
    "prefectureCode": "15",
    "prefectureNumber": 15,
    "prefecture": "新潟県",
    "city": "南魚沼市",
    "town": "大倉"
  },
  "9497244": {
    "zipcode": "9497244",
    "prefectureCode": "15",
    "prefectureNumber": 15,
    "prefecture": "新潟県",
    "city": "南魚沼市",
    "town": "船ケ沢新田"
  },
  "9497245": {
    "zipcode": "9497245",
    "prefectureCode": "15",
    "prefectureNumber": 15,
    "prefecture": "新潟県",
    "city": "南魚沼市",
    "town": "穴地"
  },
  "9497246": {
    "zipcode": "9497246",
    "prefectureCode": "15",
    "prefectureNumber": 15,
    "prefecture": "新潟県",
    "city": "南魚沼市",
    "town": "穴地新田"
  },
  "9497247": {
    "zipcode": "9497247",
    "prefectureCode": "15",
    "prefectureNumber": 15,
    "prefecture": "新潟県",
    "city": "南魚沼市",
    "town": "八色原"
  },
  "9497248": {
    "zipcode": "9497248",
    "prefectureCode": "15",
    "prefectureNumber": 15,
    "prefecture": "新潟県",
    "city": "南魚沼市",
    "town": "国際町"
  },
  "9497251": {
    "zipcode": "9497251",
    "prefectureCode": "15",
    "prefectureNumber": 15,
    "prefecture": "新潟県",
    "city": "南魚沼市",
    "town": "大崎"
  },
  "9497252": {
    "zipcode": "9497252",
    "prefectureCode": "15",
    "prefectureNumber": 15,
    "prefecture": "新潟県",
    "city": "南魚沼市",
    "town": "水尾"
  },
  "9497253": {
    "zipcode": "9497253",
    "prefectureCode": "15",
    "prefectureNumber": 15,
    "prefecture": "新潟県",
    "city": "南魚沼市",
    "town": "水尾新田"
  },
  "9497254": {
    "zipcode": "9497254",
    "prefectureCode": "15",
    "prefectureNumber": 15,
    "prefecture": "新潟県",
    "city": "南魚沼市",
    "town": "今町新田"
  },
  "9497255": {
    "zipcode": "9497255",
    "prefectureCode": "15",
    "prefectureNumber": 15,
    "prefecture": "新潟県",
    "city": "南魚沼市",
    "town": "柳古新田"
  },
  "9497256": {
    "zipcode": "9497256",
    "prefectureCode": "15",
    "prefectureNumber": 15,
    "prefecture": "新潟県",
    "city": "南魚沼市",
    "town": "海士ケ島新田"
  },
  "9497301": {
    "zipcode": "9497301",
    "prefectureCode": "15",
    "prefectureNumber": 15,
    "prefecture": "新潟県",
    "city": "南魚沼市",
    "town": "五箇"
  },
  "9497302": {
    "zipcode": "9497302",
    "prefectureCode": "15",
    "prefectureNumber": 15,
    "prefecture": "新潟県",
    "city": "南魚沼市",
    "town": "浦佐"
  },
  "9497311": {
    "zipcode": "9497311",
    "prefectureCode": "15",
    "prefectureNumber": 15,
    "prefecture": "新潟県",
    "city": "南魚沼市",
    "town": "芹田"
  },
  "9497312": {
    "zipcode": "9497312",
    "prefectureCode": "15",
    "prefectureNumber": 15,
    "prefecture": "新潟県",
    "city": "南魚沼市",
    "town": "九日町"
  },
  "9497313": {
    "zipcode": "9497313",
    "prefectureCode": "15",
    "prefectureNumber": 15,
    "prefecture": "新潟県",
    "city": "南魚沼市",
    "town": "今町"
  },
  "9497314": {
    "zipcode": "9497314",
    "prefectureCode": "15",
    "prefectureNumber": 15,
    "prefecture": "新潟県",
    "city": "南魚沼市",
    "town": "城山新田"
  },
  "9497315": {
    "zipcode": "9497315",
    "prefectureCode": "15",
    "prefectureNumber": 15,
    "prefecture": "新潟県",
    "city": "南魚沼市",
    "town": "名木沢"
  },
  "9497316": {
    "zipcode": "9497316",
    "prefectureCode": "15",
    "prefectureNumber": 15,
    "prefecture": "新潟県",
    "city": "南魚沼市",
    "town": "一村尾"
  },
  "9497317": {
    "zipcode": "9497317",
    "prefectureCode": "15",
    "prefectureNumber": 15,
    "prefecture": "新潟県",
    "city": "南魚沼市",
    "town": "市野江甲"
  },
  "9497318": {
    "zipcode": "9497318",
    "prefectureCode": "15",
    "prefectureNumber": 15,
    "prefecture": "新潟県",
    "city": "南魚沼市",
    "town": "市野江乙（後山）"
  },
  "9497319": {
    "zipcode": "9497319",
    "prefectureCode": "15",
    "prefectureNumber": 15,
    "prefecture": "新潟県",
    "city": "南魚沼市",
    "town": "市野江丙（辻又）"
  },
  "9497401": {
    "zipcode": "9497401",
    "prefectureCode": "15",
    "prefectureNumber": 15,
    "prefecture": "新潟県",
    "city": "魚沼市",
    "town": "下倉"
  },
  "9497402": {
    "zipcode": "9497402",
    "prefectureCode": "15",
    "prefectureNumber": 15,
    "prefecture": "新潟県",
    "city": "魚沼市",
    "town": "田戸"
  },
  "9497403": {
    "zipcode": "9497403",
    "prefectureCode": "15",
    "prefectureNumber": 15,
    "prefecture": "新潟県",
    "city": "魚沼市",
    "town": "根小屋"
  },
  "9497404": {
    "zipcode": "9497404",
    "prefectureCode": "15",
    "prefectureNumber": 15,
    "prefecture": "新潟県",
    "city": "魚沼市",
    "town": "竜光"
  },
  "9497405": {
    "zipcode": "9497405",
    "prefectureCode": "15",
    "prefectureNumber": 15,
    "prefecture": "新潟県",
    "city": "魚沼市",
    "town": "新道島"
  },
  "9497411": {
    "zipcode": "9497411",
    "prefectureCode": "15",
    "prefectureNumber": 15,
    "prefecture": "新潟県",
    "city": "魚沼市",
    "town": "大石"
  },
  "9497412": {
    "zipcode": "9497412",
    "prefectureCode": "15",
    "prefectureNumber": 15,
    "prefecture": "新潟県",
    "city": "魚沼市",
    "town": "与五郎新田"
  },
  "9497413": {
    "zipcode": "9497413",
    "prefectureCode": "15",
    "prefectureNumber": 15,
    "prefecture": "新潟県",
    "city": "魚沼市",
    "town": "堀之内"
  },
  "9497414": {
    "zipcode": "9497414",
    "prefectureCode": "15",
    "prefectureNumber": 15,
    "prefecture": "新潟県",
    "city": "魚沼市",
    "town": "和長島"
  },
  "9497415": {
    "zipcode": "9497415",
    "prefectureCode": "15",
    "prefectureNumber": 15,
    "prefecture": "新潟県",
    "city": "魚沼市",
    "town": "田川"
  },
  "9497416": {
    "zipcode": "9497416",
    "prefectureCode": "15",
    "prefectureNumber": 15,
    "prefecture": "新潟県",
    "city": "魚沼市",
    "town": "下島"
  },
  "9497417": {
    "zipcode": "9497417",
    "prefectureCode": "15",
    "prefectureNumber": 15,
    "prefecture": "新潟県",
    "city": "魚沼市",
    "town": "下新田"
  },
  "9497418": {
    "zipcode": "9497418",
    "prefectureCode": "15",
    "prefectureNumber": 15,
    "prefecture": "新潟県",
    "city": "魚沼市",
    "town": "徳田"
  },
  "9497421": {
    "zipcode": "9497421",
    "prefectureCode": "15",
    "prefectureNumber": 15,
    "prefecture": "新潟県",
    "city": "魚沼市",
    "town": "吉水"
  },
  "9497422": {
    "zipcode": "9497422",
    "prefectureCode": "15",
    "prefectureNumber": 15,
    "prefecture": "新潟県",
    "city": "魚沼市",
    "town": "原"
  },
  "9497423": {
    "zipcode": "9497423",
    "prefectureCode": "15",
    "prefectureNumber": 15,
    "prefecture": "新潟県",
    "city": "魚沼市",
    "town": "魚野地"
  },
  "9497424": {
    "zipcode": "9497424",
    "prefectureCode": "15",
    "prefectureNumber": 15,
    "prefecture": "新潟県",
    "city": "魚沼市",
    "town": "明神"
  },
  "9497501": {
    "zipcode": "9497501",
    "prefectureCode": "15",
    "prefectureNumber": 15,
    "prefecture": "新潟県",
    "city": "長岡市",
    "town": "川口峠"
  },
  "9497502": {
    "zipcode": "9497502",
    "prefectureCode": "15",
    "prefectureNumber": 15,
    "prefecture": "新潟県",
    "city": "長岡市",
    "town": "川口木沢"
  },
  "9497503": {
    "zipcode": "9497503",
    "prefectureCode": "15",
    "prefectureNumber": 15,
    "prefecture": "新潟県",
    "city": "長岡市",
    "town": "川口中山"
  },
  "9497504": {
    "zipcode": "9497504",
    "prefectureCode": "15",
    "prefectureNumber": 15,
    "prefecture": "新潟県",
    "city": "長岡市",
    "town": "東川口"
  },
  "9497505": {
    "zipcode": "9497505",
    "prefectureCode": "15",
    "prefectureNumber": 15,
    "prefecture": "新潟県",
    "city": "長岡市",
    "town": "川口牛ケ島（その他）"
  },
  "9497506": {
    "zipcode": "9497506",
    "prefectureCode": "15",
    "prefectureNumber": 15,
    "prefecture": "新潟県",
    "city": "長岡市",
    "town": "川口武道窪"
  },
  "9497507": {
    "zipcode": "9497507",
    "prefectureCode": "15",
    "prefectureNumber": 15,
    "prefecture": "新潟県",
    "city": "長岡市",
    "town": "川口相川"
  },
  "9497508": {
    "zipcode": "9497508",
    "prefectureCode": "15",
    "prefectureNumber": 15,
    "prefecture": "新潟県",
    "city": "長岡市",
    "town": "川口荒谷"
  },
  "9497511": {
    "zipcode": "9497511",
    "prefectureCode": "15",
    "prefectureNumber": 15,
    "prefecture": "新潟県",
    "city": "長岡市",
    "town": "川口和南津"
  },
  "9497512": {
    "zipcode": "9497512",
    "prefectureCode": "15",
    "prefectureNumber": 15,
    "prefecture": "新潟県",
    "city": "長岡市",
    "town": "川口田麦山"
  },
  "9497513": {
    "zipcode": "9497513",
    "prefectureCode": "15",
    "prefectureNumber": 15,
    "prefecture": "新潟県",
    "city": "長岡市",
    "town": "西川口"
  },
  "9498121": {
    "zipcode": "9498121",
    "prefectureCode": "15",
    "prefectureNumber": 15,
    "prefecture": "新潟県",
    "city": "中魚沼郡津南町",
    "town": "上郷上田乙（３２４４〜３７５０番地）"
  },
  "9498122": {
    "zipcode": "9498122",
    "prefectureCode": "15",
    "prefectureNumber": 15,
    "prefecture": "新潟県",
    "city": "中魚沼郡津南町",
    "town": "上郷上田甲"
  },
  "9498123": {
    "zipcode": "9498123",
    "prefectureCode": "15",
    "prefectureNumber": 15,
    "prefecture": "新潟県",
    "city": "中魚沼郡津南町",
    "town": "上郷大井平"
  },
  "9498124": {
    "zipcode": "9498124",
    "prefectureCode": "15",
    "prefectureNumber": 15,
    "prefecture": "新潟県",
    "city": "中魚沼郡津南町",
    "town": "上郷子種新田"
  },
  "9498125": {
    "zipcode": "9498125",
    "prefectureCode": "15",
    "prefectureNumber": 15,
    "prefecture": "新潟県",
    "city": "中魚沼郡津南町",
    "town": "上郷宮野原"
  },
  "9498126": {
    "zipcode": "9498126",
    "prefectureCode": "15",
    "prefectureNumber": 15,
    "prefecture": "新潟県",
    "city": "中魚沼郡津南町",
    "town": "上郷寺石"
  },
  "9498127": {
    "zipcode": "9498127",
    "prefectureCode": "15",
    "prefectureNumber": 15,
    "prefecture": "新潟県",
    "city": "中魚沼郡津南町",
    "town": "結東（その他）"
  },
  "9498200": {
    "zipcode": "9498200",
    "prefectureCode": "15",
    "prefectureNumber": 15,
    "prefecture": "新潟県",
    "city": "中魚沼郡津南町",
    "town": "以下に掲載がない場合"
  },
  "9498201": {
    "zipcode": "9498201",
    "prefectureCode": "15",
    "prefectureNumber": 15,
    "prefecture": "新潟県",
    "city": "中魚沼郡津南町",
    "town": "下船渡"
  },
  "9498202": {
    "zipcode": "9498202",
    "prefectureCode": "15",
    "prefectureNumber": 15,
    "prefecture": "新潟県",
    "city": "中魚沼郡津南町",
    "town": "芦ケ崎（その他）"
  },
  "9498203": {
    "zipcode": "9498203",
    "prefectureCode": "15",
    "prefectureNumber": 15,
    "prefecture": "新潟県",
    "city": "中魚沼郡津南町",
    "town": "赤沢"
  },
  "9498204": {
    "zipcode": "9498204",
    "prefectureCode": "15",
    "prefectureNumber": 15,
    "prefecture": "新潟県",
    "city": "中魚沼郡津南町",
    "town": "谷内"
  },
  "9498205": {
    "zipcode": "9498205",
    "prefectureCode": "15",
    "prefectureNumber": 15,
    "prefecture": "新潟県",
    "city": "中魚沼郡津南町",
    "town": "上郷上田乙（その他）"
  },
  "9498206": {
    "zipcode": "9498206",
    "prefectureCode": "15",
    "prefectureNumber": 15,
    "prefecture": "新潟県",
    "city": "中魚沼郡津南町",
    "town": "外丸"
  },
  "9498207": {
    "zipcode": "9498207",
    "prefectureCode": "15",
    "prefectureNumber": 15,
    "prefecture": "新潟県",
    "city": "中魚沼郡津南町",
    "town": "三箇"
  },
  "9498311": {
    "zipcode": "9498311",
    "prefectureCode": "15",
    "prefectureNumber": 15,
    "prefecture": "新潟県",
    "city": "中魚沼郡津南町",
    "town": "中深見"
  },
  "9498312": {
    "zipcode": "9498312",
    "prefectureCode": "15",
    "prefectureNumber": 15,
    "prefecture": "新潟県",
    "city": "中魚沼郡津南町",
    "town": "米原"
  },
  "9498313": {
    "zipcode": "9498313",
    "prefectureCode": "15",
    "prefectureNumber": 15,
    "prefecture": "新潟県",
    "city": "中魚沼郡津南町",
    "town": "秋成"
  },
  "9498314": {
    "zipcode": "9498314",
    "prefectureCode": "15",
    "prefectureNumber": 15,
    "prefecture": "新潟県",
    "city": "中魚沼郡津南町",
    "town": "芦ケ崎（石坂）"
  },
  "9498315": {
    "zipcode": "9498315",
    "prefectureCode": "15",
    "prefectureNumber": 15,
    "prefecture": "新潟県",
    "city": "中魚沼郡津南町",
    "town": "穴藤"
  },
  "9498316": {
    "zipcode": "9498316",
    "prefectureCode": "15",
    "prefectureNumber": 15,
    "prefecture": "新潟県",
    "city": "中魚沼郡津南町",
    "town": "結東（逆巻・前倉・結東）"
  },
  "9498317": {
    "zipcode": "9498317",
    "prefectureCode": "15",
    "prefectureNumber": 15,
    "prefecture": "新潟県",
    "city": "中魚沼郡津南町",
    "town": "大赤沢"
  },
  "9498321": {
    "zipcode": "9498321",
    "prefectureCode": "20",
    "prefectureNumber": 20,
    "prefecture": "長野県",
    "city": "下水内郡栄村",
    "town": "堺（１７５００〜１８５６０番地）"
  },
  "9498401": {
    "zipcode": "9498401",
    "prefectureCode": "15",
    "prefectureNumber": 15,
    "prefecture": "新潟県",
    "city": "十日町市",
    "town": "上山"
  },
  "9498402": {
    "zipcode": "9498402",
    "prefectureCode": "15",
    "prefectureNumber": 15,
    "prefecture": "新潟県",
    "city": "十日町市",
    "town": "桂"
  },
  "9498403": {
    "zipcode": "9498403",
    "prefectureCode": "15",
    "prefectureNumber": 15,
    "prefecture": "新潟県",
    "city": "十日町市",
    "town": "田沢本村"
  },
  "9498404": {
    "zipcode": "9498404",
    "prefectureCode": "15",
    "prefectureNumber": 15,
    "prefecture": "新潟県",
    "city": "十日町市",
    "town": "如来寺"
  },
  "9498405": {
    "zipcode": "9498405",
    "prefectureCode": "15",
    "prefectureNumber": 15,
    "prefecture": "新潟県",
    "city": "十日町市",
    "town": "芋沢"
  },
  "9498406": {
    "zipcode": "9498406",
    "prefectureCode": "15",
    "prefectureNumber": 15,
    "prefecture": "新潟県",
    "city": "十日町市",
    "town": "山崎"
  },
  "9498407": {
    "zipcode": "9498407",
    "prefectureCode": "15",
    "prefectureNumber": 15,
    "prefecture": "新潟県",
    "city": "十日町市",
    "town": "田中"
  },
  "9498408": {
    "zipcode": "9498408",
    "prefectureCode": "15",
    "prefectureNumber": 15,
    "prefecture": "新潟県",
    "city": "十日町市",
    "town": "干溝"
  },
  "9498409": {
    "zipcode": "9498409",
    "prefectureCode": "15",
    "prefectureNumber": 15,
    "prefecture": "新潟県",
    "city": "十日町市",
    "town": "小原"
  },
  "9498412": {
    "zipcode": "9498412",
    "prefectureCode": "15",
    "prefectureNumber": 15,
    "prefecture": "新潟県",
    "city": "十日町市",
    "town": "倉俣"
  },
  "9498413": {
    "zipcode": "9498413",
    "prefectureCode": "15",
    "prefectureNumber": 15,
    "prefecture": "新潟県",
    "city": "十日町市",
    "town": "田代"
  },
  "9498414": {
    "zipcode": "9498414",
    "prefectureCode": "15",
    "prefectureNumber": 15,
    "prefecture": "新潟県",
    "city": "十日町市",
    "town": "荒屋"
  },
  "9498415": {
    "zipcode": "9498415",
    "prefectureCode": "15",
    "prefectureNumber": 15,
    "prefecture": "新潟県",
    "city": "十日町市",
    "town": "通り山"
  },
  "9498416": {
    "zipcode": "9498416",
    "prefectureCode": "15",
    "prefectureNumber": 15,
    "prefecture": "新潟県",
    "city": "十日町市",
    "town": "高道山"
  },
  "9498417": {
    "zipcode": "9498417",
    "prefectureCode": "15",
    "prefectureNumber": 15,
    "prefecture": "新潟県",
    "city": "十日町市",
    "town": "朴木沢"
  },
  "9498418": {
    "zipcode": "9498418",
    "prefectureCode": "15",
    "prefectureNumber": 15,
    "prefecture": "新潟県",
    "city": "十日町市",
    "town": "宮沢"
  },
  "9498419": {
    "zipcode": "9498419",
    "prefectureCode": "15",
    "prefectureNumber": 15,
    "prefecture": "新潟県",
    "city": "十日町市",
    "town": "桔梗原"
  },
  "9498421": {
    "zipcode": "9498421",
    "prefectureCode": "15",
    "prefectureNumber": 15,
    "prefecture": "新潟県",
    "city": "十日町市",
    "town": "芋川新田"
  },
  "9498422": {
    "zipcode": "9498422",
    "prefectureCode": "15",
    "prefectureNumber": 15,
    "prefecture": "新潟県",
    "city": "十日町市",
    "town": "市之越"
  },
  "9498423": {
    "zipcode": "9498423",
    "prefectureCode": "15",
    "prefectureNumber": 15,
    "prefecture": "新潟県",
    "city": "十日町市",
    "town": "鷹羽"
  },
  "9498424": {
    "zipcode": "9498424",
    "prefectureCode": "15",
    "prefectureNumber": 15,
    "prefecture": "新潟県",
    "city": "十日町市",
    "town": "東田沢"
  },
  "9498425": {
    "zipcode": "9498425",
    "prefectureCode": "15",
    "prefectureNumber": 15,
    "prefecture": "新潟県",
    "city": "十日町市",
    "town": "東田尻"
  },
  "9498426": {
    "zipcode": "9498426",
    "prefectureCode": "15",
    "prefectureNumber": 15,
    "prefecture": "新潟県",
    "city": "十日町市",
    "town": "程島"
  },
  "9498427": {
    "zipcode": "9498427",
    "prefectureCode": "15",
    "prefectureNumber": 15,
    "prefecture": "新潟県",
    "city": "十日町市",
    "town": "白羽毛"
  },
  "9498431": {
    "zipcode": "9498431",
    "prefectureCode": "15",
    "prefectureNumber": 15,
    "prefecture": "新潟県",
    "city": "十日町市",
    "town": "土倉"
  },
  "9498432": {
    "zipcode": "9498432",
    "prefectureCode": "15",
    "prefectureNumber": 15,
    "prefecture": "新潟県",
    "city": "十日町市",
    "town": "倉下"
  },
  "9498433": {
    "zipcode": "9498433",
    "prefectureCode": "15",
    "prefectureNumber": 15,
    "prefecture": "新潟県",
    "city": "十日町市",
    "town": "小出"
  },
  "9498434": {
    "zipcode": "9498434",
    "prefectureCode": "15",
    "prefectureNumber": 15,
    "prefecture": "新潟県",
    "city": "十日町市",
    "town": "葎沢"
  },
  "9498435": {
    "zipcode": "9498435",
    "prefectureCode": "15",
    "prefectureNumber": 15,
    "prefecture": "新潟県",
    "city": "十日町市",
    "town": "角間"
  },
  "9498436": {
    "zipcode": "9498436",
    "prefectureCode": "15",
    "prefectureNumber": 15,
    "prefecture": "新潟県",
    "city": "十日町市",
    "town": "西方"
  },
  "9498437": {
    "zipcode": "9498437",
    "prefectureCode": "15",
    "prefectureNumber": 15,
    "prefecture": "新潟県",
    "city": "十日町市",
    "town": "西田尻"
  },
  "9498441": {
    "zipcode": "9498441",
    "prefectureCode": "15",
    "prefectureNumber": 15,
    "prefecture": "新潟県",
    "city": "十日町市",
    "town": "芋川"
  },
  "9498442": {
    "zipcode": "9498442",
    "prefectureCode": "15",
    "prefectureNumber": 15,
    "prefecture": "新潟県",
    "city": "十日町市",
    "town": "重地"
  },
  "9498443": {
    "zipcode": "9498443",
    "prefectureCode": "15",
    "prefectureNumber": 15,
    "prefecture": "新潟県",
    "city": "十日町市",
    "town": "中里下山"
  },
  "9498444": {
    "zipcode": "9498444",
    "prefectureCode": "15",
    "prefectureNumber": 15,
    "prefecture": "新潟県",
    "city": "十日町市",
    "town": "清田山"
  },
  "9498445": {
    "zipcode": "9498445",
    "prefectureCode": "15",
    "prefectureNumber": 15,
    "prefecture": "新潟県",
    "city": "十日町市",
    "town": "新里"
  },
  "9498446": {
    "zipcode": "9498446",
    "prefectureCode": "15",
    "prefectureNumber": 15,
    "prefecture": "新潟県",
    "city": "十日町市",
    "town": "原町"
  },
  "9498502": {
    "zipcode": "9498502",
    "prefectureCode": "15",
    "prefectureNumber": 15,
    "prefecture": "新潟県",
    "city": "十日町市",
    "town": "新屋敷"
  },
  "9498503": {
    "zipcode": "9498503",
    "prefectureCode": "15",
    "prefectureNumber": 15,
    "prefecture": "新潟県",
    "city": "十日町市",
    "town": "本屋敷"
  },
  "9498504": {
    "zipcode": "9498504",
    "prefectureCode": "15",
    "prefectureNumber": 15,
    "prefecture": "新潟県",
    "city": "十日町市",
    "town": "堀之内"
  },
  "9498505": {
    "zipcode": "9498505",
    "prefectureCode": "15",
    "prefectureNumber": 15,
    "prefecture": "新潟県",
    "city": "十日町市",
    "town": "宮中"
  },
  "9498521": {
    "zipcode": "9498521",
    "prefectureCode": "15",
    "prefectureNumber": 15,
    "prefecture": "新潟県",
    "city": "十日町市",
    "town": "大黒沢"
  },
  "9498522": {
    "zipcode": "9498522",
    "prefectureCode": "15",
    "prefectureNumber": 15,
    "prefecture": "新潟県",
    "city": "十日町市",
    "town": "伊達"
  },
  "9498523": {
    "zipcode": "9498523",
    "prefectureCode": "15",
    "prefectureNumber": 15,
    "prefecture": "新潟県",
    "city": "十日町市",
    "town": "土市"
  },
  "9498524": {
    "zipcode": "9498524",
    "prefectureCode": "15",
    "prefectureNumber": 15,
    "prefecture": "新潟県",
    "city": "十日町市",
    "town": "太田島"
  },
  "9498525": {
    "zipcode": "9498525",
    "prefectureCode": "15",
    "prefectureNumber": 15,
    "prefecture": "新潟県",
    "city": "十日町市",
    "town": "幸町"
  },
  "9498526": {
    "zipcode": "9498526",
    "prefectureCode": "15",
    "prefectureNumber": 15,
    "prefecture": "新潟県",
    "city": "十日町市",
    "town": "新宮"
  },
  "9498527": {
    "zipcode": "9498527",
    "prefectureCode": "15",
    "prefectureNumber": 15,
    "prefecture": "新潟県",
    "city": "十日町市",
    "town": "小黒沢"
  },
  "9498531": {
    "zipcode": "9498531",
    "prefectureCode": "15",
    "prefectureNumber": 15,
    "prefecture": "新潟県",
    "city": "十日町市",
    "town": "天池"
  },
  "9498532": {
    "zipcode": "9498532",
    "prefectureCode": "15",
    "prefectureNumber": 15,
    "prefecture": "新潟県",
    "city": "十日町市",
    "town": "池之尻"
  },
  "9498533": {
    "zipcode": "9498533",
    "prefectureCode": "15",
    "prefectureNumber": 15,
    "prefecture": "新潟県",
    "city": "十日町市",
    "town": "漆島"
  },
  "9498534": {
    "zipcode": "9498534",
    "prefectureCode": "15",
    "prefectureNumber": 15,
    "prefecture": "新潟県",
    "city": "十日町市",
    "town": "細尾"
  },
  "9498541": {
    "zipcode": "9498541",
    "prefectureCode": "15",
    "prefectureNumber": 15,
    "prefecture": "新潟県",
    "city": "十日町市",
    "town": "池沢"
  },
  "9498542": {
    "zipcode": "9498542",
    "prefectureCode": "15",
    "prefectureNumber": 15,
    "prefecture": "新潟県",
    "city": "十日町市",
    "town": "源田"
  },
  "9498543": {
    "zipcode": "9498543",
    "prefectureCode": "15",
    "prefectureNumber": 15,
    "prefecture": "新潟県",
    "city": "十日町市",
    "town": "鍬柄沢"
  },
  "9498544": {
    "zipcode": "9498544",
    "prefectureCode": "15",
    "prefectureNumber": 15,
    "prefecture": "新潟県",
    "city": "十日町市",
    "town": "当間"
  },
  "9498545": {
    "zipcode": "9498545",
    "prefectureCode": "15",
    "prefectureNumber": 15,
    "prefecture": "新潟県",
    "city": "十日町市",
    "town": "野中"
  },
  "9498551": {
    "zipcode": "9498551",
    "prefectureCode": "15",
    "prefectureNumber": 15,
    "prefecture": "新潟県",
    "city": "十日町市",
    "town": "馬場"
  },
  "9498552": {
    "zipcode": "9498552",
    "prefectureCode": "15",
    "prefectureNumber": 15,
    "prefecture": "新潟県",
    "city": "十日町市",
    "town": "中在家"
  },
  "9498554": {
    "zipcode": "9498554",
    "prefectureCode": "15",
    "prefectureNumber": 15,
    "prefecture": "新潟県",
    "city": "十日町市",
    "town": "南雲"
  },
  "9498555": {
    "zipcode": "9498555",
    "prefectureCode": "15",
    "prefectureNumber": 15,
    "prefecture": "新潟県",
    "city": "十日町市",
    "town": "大石"
  },
  "9498556": {
    "zipcode": "9498556",
    "prefectureCode": "15",
    "prefectureNumber": 15,
    "prefecture": "新潟県",
    "city": "十日町市",
    "town": "珠川"
  },
  "9498557": {
    "zipcode": "9498557",
    "prefectureCode": "15",
    "prefectureNumber": 15,
    "prefecture": "新潟県",
    "city": "十日町市",
    "town": "水沢市之沢"
  },
  "9498558": {
    "zipcode": "9498558",
    "prefectureCode": "15",
    "prefectureNumber": 15,
    "prefecture": "新潟県",
    "city": "十日町市",
    "town": "水沢"
  },
  "9498561": {
    "zipcode": "9498561",
    "prefectureCode": "15",
    "prefectureNumber": 15,
    "prefecture": "新潟県",
    "city": "十日町市",
    "town": "姿"
  },
  "9498562": {
    "zipcode": "9498562",
    "prefectureCode": "15",
    "prefectureNumber": 15,
    "prefecture": "新潟県",
    "city": "十日町市",
    "town": "安養寺"
  },
  "9498601": {
    "zipcode": "9498601",
    "prefectureCode": "15",
    "prefectureNumber": 15,
    "prefecture": "新潟県",
    "city": "十日町市",
    "town": "東下組"
  },
  "9498602": {
    "zipcode": "9498602",
    "prefectureCode": "15",
    "prefectureNumber": 15,
    "prefecture": "新潟県",
    "city": "十日町市",
    "town": "上組"
  },
  "9498603": {
    "zipcode": "9498603",
    "prefectureCode": "15",
    "prefectureNumber": 15,
    "prefecture": "新潟県",
    "city": "十日町市",
    "town": "下条"
  },
  "9498604": {
    "zipcode": "9498604",
    "prefectureCode": "15",
    "prefectureNumber": 15,
    "prefecture": "新潟県",
    "city": "十日町市",
    "town": "下組"
  },
  "9498611": {
    "zipcode": "9498611",
    "prefectureCode": "15",
    "prefectureNumber": 15,
    "prefecture": "新潟県",
    "city": "十日町市",
    "town": "中条丁"
  },
  "9498612": {
    "zipcode": "9498612",
    "prefectureCode": "15",
    "prefectureNumber": 15,
    "prefecture": "新潟県",
    "city": "十日町市",
    "town": "新座乙"
  },
  "9498613": {
    "zipcode": "9498613",
    "prefectureCode": "15",
    "prefectureNumber": 15,
    "prefecture": "新潟県",
    "city": "十日町市",
    "town": "中条庚"
  },
  "9498614": {
    "zipcode": "9498614",
    "prefectureCode": "15",
    "prefectureNumber": 15,
    "prefecture": "新潟県",
    "city": "十日町市",
    "town": "中条丙"
  },
  "9498615": {
    "zipcode": "9498615",
    "prefectureCode": "15",
    "prefectureNumber": 15,
    "prefecture": "新潟県",
    "city": "十日町市",
    "town": "中条甲"
  },
  "9498616": {
    "zipcode": "9498616",
    "prefectureCode": "15",
    "prefectureNumber": 15,
    "prefecture": "新潟県",
    "city": "十日町市",
    "town": "中条乙"
  },
  "9498617": {
    "zipcode": "9498617",
    "prefectureCode": "15",
    "prefectureNumber": 15,
    "prefecture": "新潟県",
    "city": "十日町市",
    "town": "中条己"
  },
  "9498618": {
    "zipcode": "9498618",
    "prefectureCode": "15",
    "prefectureNumber": 15,
    "prefecture": "新潟県",
    "city": "十日町市",
    "town": "中条戊"
  },
  "9498721": {
    "zipcode": "9498721",
    "prefectureCode": "15",
    "prefectureNumber": 15,
    "prefecture": "新潟県",
    "city": "小千谷市",
    "town": "塩殿"
  },
  "9498722": {
    "zipcode": "9498722",
    "prefectureCode": "15",
    "prefectureNumber": 15,
    "prefecture": "新潟県",
    "city": "小千谷市",
    "town": "川井"
  },
  "9498723": {
    "zipcode": "9498723",
    "prefectureCode": "15",
    "prefectureNumber": 15,
    "prefecture": "新潟県",
    "city": "小千谷市",
    "town": "川井新田"
  },
  "9498724": {
    "zipcode": "9498724",
    "prefectureCode": "15",
    "prefectureNumber": 15,
    "prefecture": "新潟県",
    "city": "小千谷市",
    "town": "岩沢"
  },
  "9498725": {
    "zipcode": "9498725",
    "prefectureCode": "15",
    "prefectureNumber": 15,
    "prefecture": "新潟県",
    "city": "小千谷市",
    "town": "豊久新田"
  },
  "9498726": {
    "zipcode": "9498726",
    "prefectureCode": "15",
    "prefectureNumber": 15,
    "prefecture": "新潟県",
    "city": "小千谷市",
    "town": "真人町"
  },
  "9498727": {
    "zipcode": "9498727",
    "prefectureCode": "15",
    "prefectureNumber": 15,
    "prefecture": "新潟県",
    "city": "小千谷市",
    "town": "池中新田"
  },
  "9498728": {
    "zipcode": "9498728",
    "prefectureCode": "15",
    "prefectureNumber": 15,
    "prefecture": "新潟県",
    "city": "小千谷市",
    "town": "池ケ原"
  },
  "9498731": {
    "zipcode": "9498731",
    "prefectureCode": "15",
    "prefectureNumber": 15,
    "prefecture": "新潟県",
    "city": "長岡市",
    "town": "川口牛ケ島（鷲巣）"
  }
}
