{
  "9520000": {
    "zipcode": "9520000",
    "prefectureCode": "15",
    "prefectureNumber": 15,
    "prefecture": "新潟県",
    "city": "佐渡市",
    "town": "以下に掲載がない場合"
  },
  "9520001": {
    "zipcode": "9520001",
    "prefectureCode": "15",
    "prefectureNumber": 15,
    "prefecture": "新潟県",
    "city": "佐渡市",
    "town": "白瀬"
  },
  "9520002": {
    "zipcode": "9520002",
    "prefectureCode": "15",
    "prefectureNumber": 15,
    "prefecture": "新潟県",
    "city": "佐渡市",
    "town": "北五十里"
  },
  "9520003": {
    "zipcode": "9520003",
    "prefectureCode": "15",
    "prefectureNumber": 15,
    "prefecture": "新潟県",
    "city": "佐渡市",
    "town": "椿"
  },
  "9520004": {
    "zipcode": "9520004",
    "prefectureCode": "15",
    "prefectureNumber": 15,
    "prefecture": "新潟県",
    "city": "佐渡市",
    "town": "羽吉"
  },
  "9520005": {
    "zipcode": "9520005",
    "prefectureCode": "15",
    "prefectureNumber": 15,
    "prefecture": "新潟県",
    "city": "佐渡市",
    "town": "梅津"
  },
  "9520006": {
    "zipcode": "9520006",
    "prefectureCode": "15",
    "prefectureNumber": 15,
    "prefecture": "新潟県",
    "city": "佐渡市",
    "town": "春日"
  },
  "9520007": {
    "zipcode": "9520007",
    "prefectureCode": "15",
    "prefectureNumber": 15,
    "prefecture": "新潟県",
    "city": "佐渡市",
    "town": "浜田"
  },
  "9520011": {
    "zipcode": "9520011",
    "prefectureCode": "15",
    "prefectureNumber": 15,
    "prefecture": "新潟県",
    "city": "佐渡市",
    "town": "両津夷"
  },
  "9520012": {
    "zipcode": "9520012",
    "prefectureCode": "15",
    "prefectureNumber": 15,
    "prefecture": "新潟県",
    "city": "佐渡市",
    "town": "両津夷新"
  },
  "9520013": {
    "zipcode": "9520013",
    "prefectureCode": "15",
    "prefectureNumber": 15,
    "prefecture": "新潟県",
    "city": "佐渡市",
    "town": "両津福浦"
  },
  "9520014": {
    "zipcode": "9520014",
    "prefectureCode": "15",
    "prefectureNumber": 15,
    "prefecture": "新潟県",
    "city": "佐渡市",
    "town": "両津湊"
  },
  "9520015": {
    "zipcode": "9520015",
    "prefectureCode": "15",
    "prefectureNumber": 15,
    "prefecture": "新潟県",
    "city": "佐渡市",
    "town": "住吉"
  },
  "9520016": {
    "zipcode": "9520016",
    "prefectureCode": "15",
    "prefectureNumber": 15,
    "prefecture": "新潟県",
    "city": "佐渡市",
    "town": "原黒"
  },
  "9520021": {
    "zipcode": "9520021",
    "prefectureCode": "15",
    "prefectureNumber": 15,
    "prefecture": "新潟県",
    "city": "佐渡市",
    "town": "秋津"
  },
  "9520022": {
    "zipcode": "9520022",
    "prefectureCode": "15",
    "prefectureNumber": 15,
    "prefecture": "新潟県",
    "city": "佐渡市",
    "town": "旭"
  },
  "9520023": {
    "zipcode": "9520023",
    "prefectureCode": "15",
    "prefectureNumber": 15,
    "prefecture": "新潟県",
    "city": "佐渡市",
    "town": "潟端"
  },
  "9520024": {
    "zipcode": "9520024",
    "prefectureCode": "15",
    "prefectureNumber": 15,
    "prefecture": "新潟県",
    "city": "佐渡市",
    "town": "上横山"
  },
  "9520025": {
    "zipcode": "9520025",
    "prefectureCode": "15",
    "prefectureNumber": 15,
    "prefecture": "新潟県",
    "city": "佐渡市",
    "town": "下横山"
  },
  "9520026": {
    "zipcode": "9520026",
    "prefectureCode": "15",
    "prefectureNumber": 15,
    "prefecture": "新潟県",
    "city": "佐渡市",
    "town": "立野"
  },
  "9520027": {
    "zipcode": "9520027",
    "prefectureCode": "15",
    "prefectureNumber": 15,
    "prefecture": "新潟県",
    "city": "佐渡市",
    "town": "長江"
  },
  "9520028": {
    "zipcode": "9520028",
    "prefectureCode": "15",
    "prefectureNumber": 15,
    "prefecture": "新潟県",
    "city": "佐渡市",
    "town": "加茂歌代"
  },
  "9520101": {
    "zipcode": "9520101",
    "prefectureCode": "15",
    "prefectureNumber": 15,
    "prefecture": "新潟県",
    "city": "佐渡市",
    "town": "新穂長畝"
  },
  "9520102": {
    "zipcode": "9520102",
    "prefectureCode": "15",
    "prefectureNumber": 15,
    "prefecture": "新潟県",
    "city": "佐渡市",
    "town": "新穂青木"
  },
  "9520103": {
    "zipcode": "9520103",
    "prefectureCode": "15",
    "prefectureNumber": 15,
    "prefecture": "新潟県",
    "city": "佐渡市",
    "town": "新穂潟上"
  },
  "9520104": {
    "zipcode": "9520104",
    "prefectureCode": "15",
    "prefectureNumber": 15,
    "prefecture": "新潟県",
    "city": "佐渡市",
    "town": "新穂田野沢"
  },
  "9520105": {
    "zipcode": "9520105",
    "prefectureCode": "15",
    "prefectureNumber": 15,
    "prefecture": "新潟県",
    "city": "佐渡市",
    "town": "新穂正明寺"
  },
  "9520106": {
    "zipcode": "9520106",
    "prefectureCode": "15",
    "prefectureNumber": 15,
    "prefecture": "新潟県",
    "city": "佐渡市",
    "town": "新穂瓜生屋"
  },
  "9520107": {
    "zipcode": "9520107",
    "prefectureCode": "15",
    "prefectureNumber": 15,
    "prefecture": "新潟県",
    "city": "佐渡市",
    "town": "新穂井内"
  },
  "9520108": {
    "zipcode": "9520108",
    "prefectureCode": "15",
    "prefectureNumber": 15,
    "prefecture": "新潟県",
    "city": "佐渡市",
    "town": "上新穂"
  },
  "9520109": {
    "zipcode": "9520109",
    "prefectureCode": "15",
    "prefectureNumber": 15,
    "prefecture": "新潟県",
    "city": "佐渡市",
    "town": "新穂大野"
  },
  "9520111": {
    "zipcode": "9520111",
    "prefectureCode": "15",
    "prefectureNumber": 15,
    "prefecture": "新潟県",
    "city": "佐渡市",
    "town": "新穂武井"
  },
  "9520112": {
    "zipcode": "9520112",
    "prefectureCode": "15",
    "prefectureNumber": 15,
    "prefecture": "新潟県",
    "city": "佐渡市",
    "town": "新穂舟下"
  },
  "9520113": {
    "zipcode": "9520113",
    "prefectureCode": "15",
    "prefectureNumber": 15,
    "prefecture": "新潟県",
    "city": "佐渡市",
    "town": "新穂皆川"
  },
  "9520114": {
    "zipcode": "9520114",
    "prefectureCode": "15",
    "prefectureNumber": 15,
    "prefecture": "新潟県",
    "city": "佐渡市",
    "town": "下新穂"
  },
  "9520115": {
    "zipcode": "9520115",
    "prefectureCode": "15",
    "prefectureNumber": 15,
    "prefecture": "新潟県",
    "city": "佐渡市",
    "town": "新穂北方"
  },
  "9520116": {
    "zipcode": "9520116",
    "prefectureCode": "15",
    "prefectureNumber": 15,
    "prefecture": "新潟県",
    "city": "佐渡市",
    "town": "新穂"
  },
  "9520201": {
    "zipcode": "9520201",
    "prefectureCode": "15",
    "prefectureNumber": 15,
    "prefecture": "新潟県",
    "city": "佐渡市",
    "town": "目黒町"
  },
  "9520202": {
    "zipcode": "9520202",
    "prefectureCode": "15",
    "prefectureNumber": 15,
    "prefecture": "新潟県",
    "city": "佐渡市",
    "town": "栗野江"
  },
  "9520203": {
    "zipcode": "9520203",
    "prefectureCode": "15",
    "prefectureNumber": 15,
    "prefecture": "新潟県",
    "city": "佐渡市",
    "town": "坊ケ浦"
  },
  "9520204": {
    "zipcode": "9520204",
    "prefectureCode": "15",
    "prefectureNumber": 15,
    "prefecture": "新潟県",
    "city": "佐渡市",
    "town": "長谷"
  },
  "9520205": {
    "zipcode": "9520205",
    "prefectureCode": "15",
    "prefectureNumber": 15,
    "prefecture": "新潟県",
    "city": "佐渡市",
    "town": "小倉"
  },
  "9520206": {
    "zipcode": "9520206",
    "prefectureCode": "15",
    "prefectureNumber": 15,
    "prefecture": "新潟県",
    "city": "佐渡市",
    "town": "畑野"
  },
  "9520207": {
    "zipcode": "9520207",
    "prefectureCode": "15",
    "prefectureNumber": 15,
    "prefecture": "新潟県",
    "city": "佐渡市",
    "town": "寺田"
  },
  "9520211": {
    "zipcode": "9520211",
    "prefectureCode": "15",
    "prefectureNumber": 15,
    "prefecture": "新潟県",
    "city": "佐渡市",
    "town": "畉田"
  },
  "9520212": {
    "zipcode": "9520212",
    "prefectureCode": "15",
    "prefectureNumber": 15,
    "prefecture": "新潟県",
    "city": "佐渡市",
    "town": "宮川"
  },
  "9520213": {
    "zipcode": "9520213",
    "prefectureCode": "15",
    "prefectureNumber": 15,
    "prefecture": "新潟県",
    "city": "佐渡市",
    "town": "飯持"
  },
  "9520214": {
    "zipcode": "9520214",
    "prefectureCode": "15",
    "prefectureNumber": 15,
    "prefecture": "新潟県",
    "city": "佐渡市",
    "town": "大久保"
  },
  "9520215": {
    "zipcode": "9520215",
    "prefectureCode": "15",
    "prefectureNumber": 15,
    "prefecture": "新潟県",
    "city": "佐渡市",
    "town": "猿八"
  },
  "9520216": {
    "zipcode": "9520216",
    "prefectureCode": "15",
    "prefectureNumber": 15,
    "prefecture": "新潟県",
    "city": "佐渡市",
    "town": "三宮"
  },
  "9520301": {
    "zipcode": "9520301",
    "prefectureCode": "15",
    "prefectureNumber": 15,
    "prefecture": "新潟県",
    "city": "佐渡市",
    "town": "真野大川"
  },
  "9520302": {
    "zipcode": "9520302",
    "prefectureCode": "15",
    "prefectureNumber": 15,
    "prefecture": "新潟県",
    "city": "佐渡市",
    "town": "竹田"
  },
  "9520303": {
    "zipcode": "9520303",
    "prefectureCode": "15",
    "prefectureNumber": 15,
    "prefecture": "新潟県",
    "city": "佐渡市",
    "town": "阿仏坊"
  },
  "9520304": {
    "zipcode": "9520304",
    "prefectureCode": "15",
    "prefectureNumber": 15,
    "prefecture": "新潟県",
    "city": "佐渡市",
    "town": "国分寺"
  },
  "9520305": {
    "zipcode": "9520305",
    "prefectureCode": "15",
    "prefectureNumber": 15,
    "prefecture": "新潟県",
    "city": "佐渡市",
    "town": "長石"
  },
  "9520306": {
    "zipcode": "9520306",
    "prefectureCode": "15",
    "prefectureNumber": 15,
    "prefecture": "新潟県",
    "city": "佐渡市",
    "town": "四日町"
  },
  "9520307": {
    "zipcode": "9520307",
    "prefectureCode": "15",
    "prefectureNumber": 15,
    "prefecture": "新潟県",
    "city": "佐渡市",
    "town": "金丸"
  },
  "9520311": {
    "zipcode": "9520311",
    "prefectureCode": "15",
    "prefectureNumber": 15,
    "prefecture": "新潟県",
    "city": "佐渡市",
    "town": "名古屋"
  },
  "9520312": {
    "zipcode": "9520312",
    "prefectureCode": "15",
    "prefectureNumber": 15,
    "prefecture": "新潟県",
    "city": "佐渡市",
    "town": "吉岡"
  },
  "9520313": {
    "zipcode": "9520313",
    "prefectureCode": "15",
    "prefectureNumber": 15,
    "prefecture": "新潟県",
    "city": "佐渡市",
    "town": "真野"
  },
  "9520314": {
    "zipcode": "9520314",
    "prefectureCode": "15",
    "prefectureNumber": 15,
    "prefecture": "新潟県",
    "city": "佐渡市",
    "town": "滝脇"
  },
  "9520315": {
    "zipcode": "9520315",
    "prefectureCode": "15",
    "prefectureNumber": 15,
    "prefecture": "新潟県",
    "city": "佐渡市",
    "town": "大須"
  },
  "9520316": {
    "zipcode": "9520316",
    "prefectureCode": "15",
    "prefectureNumber": 15,
    "prefecture": "新潟県",
    "city": "佐渡市",
    "town": "背合"
  },
  "9520317": {
    "zipcode": "9520317",
    "prefectureCode": "15",
    "prefectureNumber": 15,
    "prefecture": "新潟県",
    "city": "佐渡市",
    "town": "豊田"
  },
  "9520318": {
    "zipcode": "9520318",
    "prefectureCode": "15",
    "prefectureNumber": 15,
    "prefecture": "新潟県",
    "city": "佐渡市",
    "town": "真野新町"
  },
  "9520321": {
    "zipcode": "9520321",
    "prefectureCode": "15",
    "prefectureNumber": 15,
    "prefecture": "新潟県",
    "city": "佐渡市",
    "town": "静平"
  },
  "9520322": {
    "zipcode": "9520322",
    "prefectureCode": "15",
    "prefectureNumber": 15,
    "prefecture": "新潟県",
    "city": "佐渡市",
    "town": "下黒山"
  },
  "9520421": {
    "zipcode": "9520421",
    "prefectureCode": "15",
    "prefectureNumber": 15,
    "prefecture": "新潟県",
    "city": "佐渡市",
    "town": "羽茂小泊（１〜１６９９番地）"
  },
  "9520422": {
    "zipcode": "9520422",
    "prefectureCode": "15",
    "prefectureNumber": 15,
    "prefecture": "新潟県",
    "city": "佐渡市",
    "town": "羽茂亀脇"
  },
  "9520431": {
    "zipcode": "9520431",
    "prefectureCode": "15",
    "prefectureNumber": 15,
    "prefecture": "新潟県",
    "city": "佐渡市",
    "town": "大小"
  },
  "9520432": {
    "zipcode": "9520432",
    "prefectureCode": "15",
    "prefectureNumber": 15,
    "prefecture": "新潟県",
    "city": "佐渡市",
    "town": "大倉谷"
  },
  "9520433": {
    "zipcode": "9520433",
    "prefectureCode": "15",
    "prefectureNumber": 15,
    "prefecture": "新潟県",
    "city": "佐渡市",
    "town": "田切須"
  },
  "9520434": {
    "zipcode": "9520434",
    "prefectureCode": "15",
    "prefectureNumber": 15,
    "prefecture": "新潟県",
    "city": "佐渡市",
    "town": "西三川"
  },
  "9520435": {
    "zipcode": "9520435",
    "prefectureCode": "15",
    "prefectureNumber": 15,
    "prefecture": "新潟県",
    "city": "佐渡市",
    "town": "椿尾"
  },
  "9520501": {
    "zipcode": "9520501",
    "prefectureCode": "15",
    "prefectureNumber": 15,
    "prefecture": "新潟県",
    "city": "佐渡市",
    "town": "羽茂滝平"
  },
  "9520502": {
    "zipcode": "9520502",
    "prefectureCode": "15",
    "prefectureNumber": 15,
    "prefecture": "新潟県",
    "city": "佐渡市",
    "town": "羽茂大崎"
  },
  "9520503": {
    "zipcode": "9520503",
    "prefectureCode": "15",
    "prefectureNumber": 15,
    "prefecture": "新潟県",
    "city": "佐渡市",
    "town": "羽茂飯岡"
  },
  "9520504": {
    "zipcode": "9520504",
    "prefectureCode": "15",
    "prefectureNumber": 15,
    "prefecture": "新潟県",
    "city": "佐渡市",
    "town": "羽茂本郷"
  },
  "9520505": {
    "zipcode": "9520505",
    "prefectureCode": "15",
    "prefectureNumber": 15,
    "prefecture": "新潟県",
    "city": "佐渡市",
    "town": "羽茂三瀬"
  },
  "9520511": {
    "zipcode": "9520511",
    "prefectureCode": "15",
    "prefectureNumber": 15,
    "prefecture": "新潟県",
    "city": "佐渡市",
    "town": "羽茂大石"
  },
  "9520512": {
    "zipcode": "9520512",
    "prefectureCode": "15",
    "prefectureNumber": 15,
    "prefecture": "新潟県",
    "city": "佐渡市",
    "town": "羽茂大橋"
  },
  "9520513": {
    "zipcode": "9520513",
    "prefectureCode": "15",
    "prefectureNumber": 15,
    "prefecture": "新潟県",
    "city": "佐渡市",
    "town": "羽茂村山"
  },
  "9520514": {
    "zipcode": "9520514",
    "prefectureCode": "15",
    "prefectureNumber": 15,
    "prefecture": "新潟県",
    "city": "佐渡市",
    "town": "羽茂小泊（その他）"
  },
  "9520515": {
    "zipcode": "9520515",
    "prefectureCode": "15",
    "prefectureNumber": 15,
    "prefecture": "新潟県",
    "city": "佐渡市",
    "town": "羽茂上山田"
  },
  "9520601": {
    "zipcode": "9520601",
    "prefectureCode": "15",
    "prefectureNumber": 15,
    "prefecture": "新潟県",
    "city": "佐渡市",
    "town": "小木堂釜"
  },
  "9520602": {
    "zipcode": "9520602",
    "prefectureCode": "15",
    "prefectureNumber": 15,
    "prefecture": "新潟県",
    "city": "佐渡市",
    "town": "小比叡"
  },
  "9520603": {
    "zipcode": "9520603",
    "prefectureCode": "15",
    "prefectureNumber": 15,
    "prefecture": "新潟県",
    "city": "佐渡市",
    "town": "小木木野浦"
  },
  "9520604": {
    "zipcode": "9520604",
    "prefectureCode": "15",
    "prefectureNumber": 15,
    "prefecture": "新潟県",
    "city": "佐渡市",
    "town": "小木町"
  },
  "9520605": {
    "zipcode": "9520605",
    "prefectureCode": "15",
    "prefectureNumber": 15,
    "prefecture": "新潟県",
    "city": "佐渡市",
    "town": "小木"
  },
  "9520606": {
    "zipcode": "9520606",
    "prefectureCode": "15",
    "prefectureNumber": 15,
    "prefecture": "新潟県",
    "city": "佐渡市",
    "town": "琴浦"
  },
  "9520611": {
    "zipcode": "9520611",
    "prefectureCode": "15",
    "prefectureNumber": 15,
    "prefecture": "新潟県",
    "city": "佐渡市",
    "town": "小木金田新田"
  },
  "9520612": {
    "zipcode": "9520612",
    "prefectureCode": "15",
    "prefectureNumber": 15,
    "prefecture": "新潟県",
    "city": "佐渡市",
    "town": "宿根木"
  },
  "9520613": {
    "zipcode": "9520613",
    "prefectureCode": "15",
    "prefectureNumber": 15,
    "prefecture": "新潟県",
    "city": "佐渡市",
    "town": "小木強清水"
  },
  "9520614": {
    "zipcode": "9520614",
    "prefectureCode": "15",
    "prefectureNumber": 15,
    "prefecture": "新潟県",
    "city": "佐渡市",
    "town": "犬神平"
  },
  "9520615": {
    "zipcode": "9520615",
    "prefectureCode": "15",
    "prefectureNumber": 15,
    "prefecture": "新潟県",
    "city": "佐渡市",
    "town": "深浦"
  },
  "9520621": {
    "zipcode": "9520621",
    "prefectureCode": "15",
    "prefectureNumber": 15,
    "prefecture": "新潟県",
    "city": "佐渡市",
    "town": "沢崎"
  },
  "9520622": {
    "zipcode": "9520622",
    "prefectureCode": "15",
    "prefectureNumber": 15,
    "prefecture": "新潟県",
    "city": "佐渡市",
    "town": "江積"
  },
  "9520623": {
    "zipcode": "9520623",
    "prefectureCode": "15",
    "prefectureNumber": 15,
    "prefecture": "新潟県",
    "city": "佐渡市",
    "town": "田野浦"
  },
  "9520624": {
    "zipcode": "9520624",
    "prefectureCode": "15",
    "prefectureNumber": 15,
    "prefecture": "新潟県",
    "city": "佐渡市",
    "town": "木流"
  },
  "9520625": {
    "zipcode": "9520625",
    "prefectureCode": "15",
    "prefectureNumber": 15,
    "prefecture": "新潟県",
    "city": "佐渡市",
    "town": "小木大浦"
  },
  "9520626": {
    "zipcode": "9520626",
    "prefectureCode": "15",
    "prefectureNumber": 15,
    "prefecture": "新潟県",
    "city": "佐渡市",
    "town": "井坪"
  },
  "9520701": {
    "zipcode": "9520701",
    "prefectureCode": "15",
    "prefectureNumber": 15,
    "prefecture": "新潟県",
    "city": "佐渡市",
    "town": "下川茂"
  },
  "9520702": {
    "zipcode": "9520702",
    "prefectureCode": "15",
    "prefectureNumber": 15,
    "prefecture": "新潟県",
    "city": "佐渡市",
    "town": "上川茂"
  },
  "9520703": {
    "zipcode": "9520703",
    "prefectureCode": "15",
    "prefectureNumber": 15,
    "prefecture": "新潟県",
    "city": "佐渡市",
    "town": "外山"
  },
  "9520704": {
    "zipcode": "9520704",
    "prefectureCode": "15",
    "prefectureNumber": 15,
    "prefecture": "新潟県",
    "city": "佐渡市",
    "town": "莚場"
  },
  "9520705": {
    "zipcode": "9520705",
    "prefectureCode": "15",
    "prefectureNumber": 15,
    "prefecture": "新潟県",
    "city": "佐渡市",
    "town": "三川"
  },
  "9520706": {
    "zipcode": "9520706",
    "prefectureCode": "15",
    "prefectureNumber": 15,
    "prefecture": "新潟県",
    "city": "佐渡市",
    "town": "徳和"
  },
  "9520711": {
    "zipcode": "9520711",
    "prefectureCode": "15",
    "prefectureNumber": 15,
    "prefecture": "新潟県",
    "city": "佐渡市",
    "town": "赤泊"
  },
  "9520712": {
    "zipcode": "9520712",
    "prefectureCode": "15",
    "prefectureNumber": 15,
    "prefecture": "新潟県",
    "city": "佐渡市",
    "town": "真浦"
  },
  "9520713": {
    "zipcode": "9520713",
    "prefectureCode": "15",
    "prefectureNumber": 15,
    "prefecture": "新潟県",
    "city": "佐渡市",
    "town": "柳沢"
  },
  "9520714": {
    "zipcode": "9520714",
    "prefectureCode": "15",
    "prefectureNumber": 15,
    "prefecture": "新潟県",
    "city": "佐渡市",
    "town": "南新保"
  },
  "9520715": {
    "zipcode": "9520715",
    "prefectureCode": "15",
    "prefectureNumber": 15,
    "prefecture": "新潟県",
    "city": "佐渡市",
    "town": "杉野浦"
  },
  "9520716": {
    "zipcode": "9520716",
    "prefectureCode": "15",
    "prefectureNumber": 15,
    "prefecture": "新潟県",
    "city": "佐渡市",
    "town": "大杉"
  },
  "9520821": {
    "zipcode": "9520821",
    "prefectureCode": "15",
    "prefectureNumber": 15,
    "prefecture": "新潟県",
    "city": "佐渡市",
    "town": "松ケ崎"
  },
  "9520822": {
    "zipcode": "9520822",
    "prefectureCode": "15",
    "prefectureNumber": 15,
    "prefecture": "新潟県",
    "city": "佐渡市",
    "town": "多田"
  },
  "9520823": {
    "zipcode": "9520823",
    "prefectureCode": "15",
    "prefectureNumber": 15,
    "prefecture": "新潟県",
    "city": "佐渡市",
    "town": "浜河内"
  },
  "9520824": {
    "zipcode": "9520824",
    "prefectureCode": "15",
    "prefectureNumber": 15,
    "prefecture": "新潟県",
    "city": "佐渡市",
    "town": "丸山"
  },
  "9520851": {
    "zipcode": "9520851",
    "prefectureCode": "15",
    "prefectureNumber": 15,
    "prefecture": "新潟県",
    "city": "佐渡市",
    "town": "蚫"
  },
  "9520852": {
    "zipcode": "9520852",
    "prefectureCode": "15",
    "prefectureNumber": 15,
    "prefecture": "新潟県",
    "city": "佐渡市",
    "town": "赤玉"
  },
  "9520853": {
    "zipcode": "9520853",
    "prefectureCode": "15",
    "prefectureNumber": 15,
    "prefecture": "新潟県",
    "city": "佐渡市",
    "town": "立間"
  },
  "9520854": {
    "zipcode": "9520854",
    "prefectureCode": "15",
    "prefectureNumber": 15,
    "prefecture": "新潟県",
    "city": "佐渡市",
    "town": "豊岡"
  },
  "9520855": {
    "zipcode": "9520855",
    "prefectureCode": "15",
    "prefectureNumber": 15,
    "prefecture": "新潟県",
    "city": "佐渡市",
    "town": "柿野浦"
  },
  "9520856": {
    "zipcode": "9520856",
    "prefectureCode": "15",
    "prefectureNumber": 15,
    "prefecture": "新潟県",
    "city": "佐渡市",
    "town": "東鵜島"
  },
  "9520857": {
    "zipcode": "9520857",
    "prefectureCode": "15",
    "prefectureNumber": 15,
    "prefecture": "新潟県",
    "city": "佐渡市",
    "town": "岩首"
  },
  "9521201": {
    "zipcode": "9521201",
    "prefectureCode": "15",
    "prefectureNumber": 15,
    "prefecture": "新潟県",
    "city": "佐渡市",
    "town": "安養寺"
  },
  "9521202": {
    "zipcode": "9521202",
    "prefectureCode": "15",
    "prefectureNumber": 15,
    "prefecture": "新潟県",
    "city": "佐渡市",
    "town": "吉井本郷"
  },
  "9521203": {
    "zipcode": "9521203",
    "prefectureCode": "15",
    "prefectureNumber": 15,
    "prefecture": "新潟県",
    "city": "佐渡市",
    "town": "吉井"
  },
  "9521204": {
    "zipcode": "9521204",
    "prefectureCode": "15",
    "prefectureNumber": 15,
    "prefecture": "新潟県",
    "city": "佐渡市",
    "town": "三瀬川"
  },
  "9521205": {
    "zipcode": "9521205",
    "prefectureCode": "15",
    "prefectureNumber": 15,
    "prefecture": "新潟県",
    "city": "佐渡市",
    "town": "水渡田"
  },
  "9521206": {
    "zipcode": "9521206",
    "prefectureCode": "15",
    "prefectureNumber": 15,
    "prefecture": "新潟県",
    "city": "佐渡市",
    "town": "大和"
  },
  "9521207": {
    "zipcode": "9521207",
    "prefectureCode": "15",
    "prefectureNumber": 15,
    "prefecture": "新潟県",
    "city": "佐渡市",
    "town": "貝塚"
  },
  "9521208": {
    "zipcode": "9521208",
    "prefectureCode": "15",
    "prefectureNumber": 15,
    "prefecture": "新潟県",
    "city": "佐渡市",
    "town": "金井新保"
  },
  "9521209": {
    "zipcode": "9521209",
    "prefectureCode": "15",
    "prefectureNumber": 15,
    "prefecture": "新潟県",
    "city": "佐渡市",
    "town": "千種"
  },
  "9521211": {
    "zipcode": "9521211",
    "prefectureCode": "15",
    "prefectureNumber": 15,
    "prefecture": "新潟県",
    "city": "佐渡市",
    "town": "中興"
  },
  "9521212": {
    "zipcode": "9521212",
    "prefectureCode": "15",
    "prefectureNumber": 15,
    "prefecture": "新潟県",
    "city": "佐渡市",
    "town": "泉"
  },
  "9521213": {
    "zipcode": "9521213",
    "prefectureCode": "15",
    "prefectureNumber": 15,
    "prefecture": "新潟県",
    "city": "佐渡市",
    "town": "平清水"
  },
  "9521301": {
    "zipcode": "9521301",
    "prefectureCode": "15",
    "prefectureNumber": 15,
    "prefecture": "新潟県",
    "city": "佐渡市",
    "town": "真光寺"
  },
  "9521302": {
    "zipcode": "9521302",
    "prefectureCode": "15",
    "prefectureNumber": 15,
    "prefecture": "新潟県",
    "city": "佐渡市",
    "town": "市野沢"
  },
  "9521303": {
    "zipcode": "9521303",
    "prefectureCode": "15",
    "prefectureNumber": 15,
    "prefecture": "新潟県",
    "city": "佐渡市",
    "town": "上矢馳"
  },
  "9521304": {
    "zipcode": "9521304",
    "prefectureCode": "15",
    "prefectureNumber": 15,
    "prefecture": "新潟県",
    "city": "佐渡市",
    "town": "下長木"
  },
  "9521305": {
    "zipcode": "9521305",
    "prefectureCode": "15",
    "prefectureNumber": 15,
    "prefecture": "新潟県",
    "city": "佐渡市",
    "town": "上長木"
  },
  "9521306": {
    "zipcode": "9521306",
    "prefectureCode": "15",
    "prefectureNumber": 15,
    "prefecture": "新潟県",
    "city": "佐渡市",
    "town": "長木"
  },
  "9521307": {
    "zipcode": "9521307",
    "prefectureCode": "15",
    "prefectureNumber": 15,
    "prefecture": "新潟県",
    "city": "佐渡市",
    "town": "東大通"
  },
  "9521308": {
    "zipcode": "9521308",
    "prefectureCode": "15",
    "prefectureNumber": 15,
    "prefecture": "新潟県",
    "city": "佐渡市",
    "town": "二宮"
  },
  "9521311": {
    "zipcode": "9521311",
    "prefectureCode": "15",
    "prefectureNumber": 15,
    "prefecture": "新潟県",
    "city": "佐渡市",
    "town": "八幡"
  },
  "9521312": {
    "zipcode": "9521312",
    "prefectureCode": "15",
    "prefectureNumber": 15,
    "prefecture": "新潟県",
    "city": "佐渡市",
    "town": "八幡新町"
  },
  "9521313": {
    "zipcode": "9521313",
    "prefectureCode": "15",
    "prefectureNumber": 15,
    "prefecture": "新潟県",
    "city": "佐渡市",
    "town": "八幡町"
  },
  "9521314": {
    "zipcode": "9521314",
    "prefectureCode": "15",
    "prefectureNumber": 15,
    "prefecture": "新潟県",
    "city": "佐渡市",
    "town": "河原田本町"
  },
  "9521315": {
    "zipcode": "9521315",
    "prefectureCode": "15",
    "prefectureNumber": 15,
    "prefecture": "新潟県",
    "city": "佐渡市",
    "town": "河原田諏訪町"
  },
  "9521321": {
    "zipcode": "9521321",
    "prefectureCode": "15",
    "prefectureNumber": 15,
    "prefecture": "新潟県",
    "city": "佐渡市",
    "town": "山田"
  },
  "9521322": {
    "zipcode": "9521322",
    "prefectureCode": "15",
    "prefectureNumber": 15,
    "prefecture": "新潟県",
    "city": "佐渡市",
    "town": "石田"
  },
  "9521323": {
    "zipcode": "9521323",
    "prefectureCode": "15",
    "prefectureNumber": 15,
    "prefecture": "新潟県",
    "city": "佐渡市",
    "town": "鍛冶町"
  },
  "9521324": {
    "zipcode": "9521324",
    "prefectureCode": "15",
    "prefectureNumber": 15,
    "prefecture": "新潟県",
    "city": "佐渡市",
    "town": "中原"
  },
  "9521325": {
    "zipcode": "9521325",
    "prefectureCode": "15",
    "prefectureNumber": 15,
    "prefecture": "新潟県",
    "city": "佐渡市",
    "town": "窪田"
  },
  "9521326": {
    "zipcode": "9521326",
    "prefectureCode": "15",
    "prefectureNumber": 15,
    "prefecture": "新潟県",
    "city": "佐渡市",
    "town": "青野"
  },
  "9521431": {
    "zipcode": "9521431",
    "prefectureCode": "15",
    "prefectureNumber": 15,
    "prefecture": "新潟県",
    "city": "佐渡市",
    "town": "沢根炭屋町"
  },
  "9521432": {
    "zipcode": "9521432",
    "prefectureCode": "15",
    "prefectureNumber": 15,
    "prefecture": "新潟県",
    "city": "佐渡市",
    "town": "沢根五十里"
  },
  "9521433": {
    "zipcode": "9521433",
    "prefectureCode": "15",
    "prefectureNumber": 15,
    "prefecture": "新潟県",
    "city": "佐渡市",
    "town": "沢根篭町"
  },
  "9521434": {
    "zipcode": "9521434",
    "prefectureCode": "15",
    "prefectureNumber": 15,
    "prefecture": "新潟県",
    "city": "佐渡市",
    "town": "沢根町"
  },
  "9521435": {
    "zipcode": "9521435",
    "prefectureCode": "15",
    "prefectureNumber": 15,
    "prefecture": "新潟県",
    "city": "佐渡市",
    "town": "沢根"
  },
  "9521501": {
    "zipcode": "9521501",
    "prefectureCode": "15",
    "prefectureNumber": 15,
    "prefecture": "新潟県",
    "city": "佐渡市",
    "town": "下相川"
  },
  "9521502": {
    "zipcode": "9521502",
    "prefectureCode": "15",
    "prefectureNumber": 15,
    "prefecture": "新潟県",
    "city": "佐渡市",
    "town": "相川水金町"
  },
  "9521503": {
    "zipcode": "9521503",
    "prefectureCode": "15",
    "prefectureNumber": 15,
    "prefecture": "新潟県",
    "city": "佐渡市",
    "town": "相川柴町"
  },
  "9521504": {
    "zipcode": "9521504",
    "prefectureCode": "15",
    "prefectureNumber": 15,
    "prefecture": "新潟県",
    "city": "佐渡市",
    "town": "相川下山之神町"
  },
  "9521505": {
    "zipcode": "9521505",
    "prefectureCode": "15",
    "prefectureNumber": 15,
    "prefecture": "新潟県",
    "city": "佐渡市",
    "town": "相川坂下町"
  },
  "9521506": {
    "zipcode": "9521506",
    "prefectureCode": "15",
    "prefectureNumber": 15,
    "prefecture": "新潟県",
    "city": "佐渡市",
    "town": "相川炭屋町"
  },
  "9521507": {
    "zipcode": "9521507",
    "prefectureCode": "15",
    "prefectureNumber": 15,
    "prefecture": "新潟県",
    "city": "佐渡市",
    "town": "相川紙屋町"
  },
  "9521508": {
    "zipcode": "9521508",
    "prefectureCode": "15",
    "prefectureNumber": 15,
    "prefecture": "新潟県",
    "city": "佐渡市",
    "town": "相川大間町"
  },
  "9521511": {
    "zipcode": "9521511",
    "prefectureCode": "15",
    "prefectureNumber": 15,
    "prefecture": "新潟県",
    "city": "佐渡市",
    "town": "相川栄町"
  },
  "9521512": {
    "zipcode": "9521512",
    "prefectureCode": "15",
    "prefectureNumber": 15,
    "prefecture": "新潟県",
    "city": "佐渡市",
    "town": "相川板町"
  },
  "9521513": {
    "zipcode": "9521513",
    "prefectureCode": "15",
    "prefectureNumber": 15,
    "prefecture": "新潟県",
    "city": "佐渡市",
    "town": "相川濁川町"
  },
  "9521514": {
    "zipcode": "9521514",
    "prefectureCode": "15",
    "prefectureNumber": 15,
    "prefecture": "新潟県",
    "city": "佐渡市",
    "town": "相川小六町"
  },
  "9521515": {
    "zipcode": "9521515",
    "prefectureCode": "15",
    "prefectureNumber": 15,
    "prefecture": "新潟県",
    "city": "佐渡市",
    "town": "相川新西坂町"
  },
  "9521516": {
    "zipcode": "9521516",
    "prefectureCode": "15",
    "prefectureNumber": 15,
    "prefecture": "新潟県",
    "city": "佐渡市",
    "town": "相川西坂町"
  },
  "9521517": {
    "zipcode": "9521517",
    "prefectureCode": "15",
    "prefectureNumber": 15,
    "prefecture": "新潟県",
    "city": "佐渡市",
    "town": "相川石扣町"
  },
  "9521518": {
    "zipcode": "9521518",
    "prefectureCode": "15",
    "prefectureNumber": 15,
    "prefecture": "新潟県",
    "city": "佐渡市",
    "town": "相川材木町"
  },
  "9521521": {
    "zipcode": "9521521",
    "prefectureCode": "15",
    "prefectureNumber": 15,
    "prefecture": "新潟県",
    "city": "佐渡市",
    "town": "相川夕白町"
  },
  "9521522": {
    "zipcode": "9521522",
    "prefectureCode": "15",
    "prefectureNumber": 15,
    "prefecture": "新潟県",
    "city": "佐渡市",
    "town": "相川上京町"
  },
  "9521523": {
    "zipcode": "9521523",
    "prefectureCode": "15",
    "prefectureNumber": 15,
    "prefecture": "新潟県",
    "city": "佐渡市",
    "town": "相川新五郎町"
  },
  "9521524": {
    "zipcode": "9521524",
    "prefectureCode": "15",
    "prefectureNumber": 15,
    "prefecture": "新潟県",
    "city": "佐渡市",
    "town": "相川大工町"
  },
  "9521525": {
    "zipcode": "9521525",
    "prefectureCode": "15",
    "prefectureNumber": 15,
    "prefecture": "新潟県",
    "city": "佐渡市",
    "town": "相川諏訪町"
  },
  "9521526": {
    "zipcode": "9521526",
    "prefectureCode": "15",
    "prefectureNumber": 15,
    "prefecture": "新潟県",
    "city": "佐渡市",
    "town": "相川中寺町"
  },
  "9521527": {
    "zipcode": "9521527",
    "prefectureCode": "15",
    "prefectureNumber": 15,
    "prefecture": "新潟県",
    "city": "佐渡市",
    "town": "相川左門町"
  },
  "9521528": {
    "zipcode": "9521528",
    "prefectureCode": "15",
    "prefectureNumber": 15,
    "prefecture": "新潟県",
    "city": "佐渡市",
    "town": "相川六右衛門町"
  },
  "9521531": {
    "zipcode": "9521531",
    "prefectureCode": "15",
    "prefectureNumber": 15,
    "prefecture": "新潟県",
    "city": "佐渡市",
    "town": "相川広間町"
  },
  "9521532": {
    "zipcode": "9521532",
    "prefectureCode": "15",
    "prefectureNumber": 15,
    "prefecture": "新潟県",
    "city": "佐渡市",
    "town": "相川弥十郎町"
  },
  "9521533": {
    "zipcode": "9521533",
    "prefectureCode": "15",
    "prefectureNumber": 15,
    "prefecture": "新潟県",
    "city": "佐渡市",
    "town": "相川米屋町"
  },
  "9521534": {
    "zipcode": "9521534",
    "prefectureCode": "15",
    "prefectureNumber": 15,
    "prefecture": "新潟県",
    "city": "佐渡市",
    "town": "相川大床屋町"
  },
  "9521535": {
    "zipcode": "9521535",
    "prefectureCode": "15",
    "prefectureNumber": 15,
    "prefecture": "新潟県",
    "city": "佐渡市",
    "town": "相川中京町"
  },
  "9521536": {
    "zipcode": "9521536",
    "prefectureCode": "15",
    "prefectureNumber": 15,
    "prefecture": "新潟県",
    "city": "佐渡市",
    "town": "相川下京町"
  },
  "9521537": {
    "zipcode": "9521537",
    "prefectureCode": "15",
    "prefectureNumber": 15,
    "prefecture": "新潟県",
    "city": "佐渡市",
    "town": "相川会津町"
  },
  "9521538": {
    "zipcode": "9521538",
    "prefectureCode": "15",
    "prefectureNumber": 15,
    "prefecture": "新潟県",
    "city": "佐渡市",
    "town": "相川四十物町"
  },
  "9521539": {
    "zipcode": "9521539",
    "prefectureCode": "15",
    "prefectureNumber": 15,
    "prefecture": "新潟県",
    "city": "佐渡市",
    "town": "相川北沢町"
  },
  "9521541": {
    "zipcode": "9521541",
    "prefectureCode": "15",
    "prefectureNumber": 15,
    "prefecture": "新潟県",
    "city": "佐渡市",
    "town": "相川新材木町"
  },
  "9521542": {
    "zipcode": "9521542",
    "prefectureCode": "15",
    "prefectureNumber": 15,
    "prefecture": "新潟県",
    "city": "佐渡市",
    "town": "相川塩屋町"
  },
  "9521543": {
    "zipcode": "9521543",
    "prefectureCode": "15",
    "prefectureNumber": 15,
    "prefecture": "新潟県",
    "city": "佐渡市",
    "town": "相川長坂町"
  },
  "9521544": {
    "zipcode": "9521544",
    "prefectureCode": "15",
    "prefectureNumber": 15,
    "prefecture": "新潟県",
    "city": "佐渡市",
    "town": "相川味噌屋町"
  },
  "9521545": {
    "zipcode": "9521545",
    "prefectureCode": "15",
    "prefectureNumber": 15,
    "prefecture": "新潟県",
    "city": "佐渡市",
    "town": "相川八百屋町"
  },
  "9521546": {
    "zipcode": "9521546",
    "prefectureCode": "15",
    "prefectureNumber": 15,
    "prefecture": "新潟県",
    "city": "佐渡市",
    "town": "相川南沢町"
  },
  "9521547": {
    "zipcode": "9521547",
    "prefectureCode": "15",
    "prefectureNumber": 15,
    "prefecture": "新潟県",
    "city": "佐渡市",
    "town": "相川江戸沢町"
  },
  "9521548": {
    "zipcode": "9521548",
    "prefectureCode": "15",
    "prefectureNumber": 15,
    "prefecture": "新潟県",
    "city": "佐渡市",
    "town": "相川羽田町"
  },
  "9521551": {
    "zipcode": "9521551",
    "prefectureCode": "15",
    "prefectureNumber": 15,
    "prefecture": "新潟県",
    "city": "佐渡市",
    "town": "相川下寺町"
  },
  "9521552": {
    "zipcode": "9521552",
    "prefectureCode": "15",
    "prefectureNumber": 15,
    "prefecture": "新潟県",
    "city": "佐渡市",
    "town": "相川一町目裏町"
  },
  "9521553": {
    "zipcode": "9521553",
    "prefectureCode": "15",
    "prefectureNumber": 15,
    "prefecture": "新潟県",
    "city": "佐渡市",
    "town": "相川五郎左衛門町"
  },
  "9521554": {
    "zipcode": "9521554",
    "prefectureCode": "15",
    "prefectureNumber": 15,
    "prefecture": "新潟県",
    "city": "佐渡市",
    "town": "相川二町目新浜町"
  },
  "9521555": {
    "zipcode": "9521555",
    "prefectureCode": "15",
    "prefectureNumber": 15,
    "prefecture": "新潟県",
    "city": "佐渡市",
    "town": "相川二町目浜町"
  },
  "9521556": {
    "zipcode": "9521556",
    "prefectureCode": "15",
    "prefectureNumber": 15,
    "prefecture": "新潟県",
    "city": "佐渡市",
    "town": "相川一町目浜町"
  },
  "9521557": {
    "zipcode": "9521557",
    "prefectureCode": "15",
    "prefectureNumber": 15,
    "prefecture": "新潟県",
    "city": "佐渡市",
    "town": "相川一町目"
  },
  "9521558": {
    "zipcode": "9521558",
    "prefectureCode": "15",
    "prefectureNumber": 15,
    "prefecture": "新潟県",
    "city": "佐渡市",
    "town": "相川二町目"
  },
  "9521561": {
    "zipcode": "9521561",
    "prefectureCode": "15",
    "prefectureNumber": 15,
    "prefecture": "新潟県",
    "city": "佐渡市",
    "town": "相川三町目新浜町"
  },
  "9521562": {
    "zipcode": "9521562",
    "prefectureCode": "15",
    "prefectureNumber": 15,
    "prefecture": "新潟県",
    "city": "佐渡市",
    "town": "相川三町目浜町"
  },
  "9521563": {
    "zipcode": "9521563",
    "prefectureCode": "15",
    "prefectureNumber": 15,
    "prefecture": "新潟県",
    "city": "佐渡市",
    "town": "相川三町目"
  },
  "9521564": {
    "zipcode": "9521564",
    "prefectureCode": "15",
    "prefectureNumber": 15,
    "prefecture": "新潟県",
    "city": "佐渡市",
    "town": "相川四町目"
  },
  "9521565": {
    "zipcode": "9521565",
    "prefectureCode": "15",
    "prefectureNumber": 15,
    "prefecture": "新潟県",
    "city": "佐渡市",
    "town": "相川馬町"
  },
  "9521566": {
    "zipcode": "9521566",
    "prefectureCode": "15",
    "prefectureNumber": 15,
    "prefecture": "新潟県",
    "city": "佐渡市",
    "town": "相川市町"
  },
  "9521567": {
    "zipcode": "9521567",
    "prefectureCode": "15",
    "prefectureNumber": 15,
    "prefecture": "新潟県",
    "city": "佐渡市",
    "town": "相川四町目浜町"
  },
  "9521568": {
    "zipcode": "9521568",
    "prefectureCode": "15",
    "prefectureNumber": 15,
    "prefecture": "新潟県",
    "city": "佐渡市",
    "town": "相川新浜町"
  },
  "9521571": {
    "zipcode": "9521571",
    "prefectureCode": "15",
    "prefectureNumber": 15,
    "prefecture": "新潟県",
    "city": "佐渡市",
    "town": "相川下戸浜町"
  },
  "9521572": {
    "zipcode": "9521572",
    "prefectureCode": "15",
    "prefectureNumber": 15,
    "prefecture": "新潟県",
    "city": "佐渡市",
    "town": "相川羽田村"
  },
  "9521573": {
    "zipcode": "9521573",
    "prefectureCode": "15",
    "prefectureNumber": 15,
    "prefecture": "新潟県",
    "city": "佐渡市",
    "town": "相川下戸炭屋裏町"
  },
  "9521574": {
    "zipcode": "9521574",
    "prefectureCode": "15",
    "prefectureNumber": 15,
    "prefecture": "新潟県",
    "city": "佐渡市",
    "town": "相川海士町"
  },
  "9521575": {
    "zipcode": "9521575",
    "prefectureCode": "15",
    "prefectureNumber": 15,
    "prefecture": "新潟県",
    "city": "佐渡市",
    "town": "相川下戸町"
  },
  "9521581": {
    "zipcode": "9521581",
    "prefectureCode": "15",
    "prefectureNumber": 15,
    "prefecture": "新潟県",
    "city": "佐渡市",
    "town": "相川下戸炭屋町"
  },
  "9521582": {
    "zipcode": "9521582",
    "prefectureCode": "15",
    "prefectureNumber": 15,
    "prefecture": "新潟県",
    "city": "佐渡市",
    "town": "相川下戸村"
  },
  "9521583": {
    "zipcode": "9521583",
    "prefectureCode": "15",
    "prefectureNumber": 15,
    "prefecture": "新潟県",
    "city": "佐渡市",
    "town": "相川鹿伏"
  },
  "9521584": {
    "zipcode": "9521584",
    "prefectureCode": "15",
    "prefectureNumber": 15,
    "prefecture": "新潟県",
    "city": "佐渡市",
    "town": "相川下戸炭屋浜町"
  },
  "9521641": {
    "zipcode": "9521641",
    "prefectureCode": "15",
    "prefectureNumber": 15,
    "prefecture": "新潟県",
    "city": "佐渡市",
    "town": "二見"
  },
  "9521642": {
    "zipcode": "9521642",
    "prefectureCode": "15",
    "prefectureNumber": 15,
    "prefecture": "新潟県",
    "city": "佐渡市",
    "town": "米郷"
  },
  "9521643": {
    "zipcode": "9521643",
    "prefectureCode": "15",
    "prefectureNumber": 15,
    "prefecture": "新潟県",
    "city": "佐渡市",
    "town": "稲鯨"
  },
  "9521644": {
    "zipcode": "9521644",
    "prefectureCode": "15",
    "prefectureNumber": 15,
    "prefecture": "新潟県",
    "city": "佐渡市",
    "town": "橘"
  },
  "9521645": {
    "zipcode": "9521645",
    "prefectureCode": "15",
    "prefectureNumber": 15,
    "prefecture": "新潟県",
    "city": "佐渡市",
    "town": "高瀬"
  },
  "9521646": {
    "zipcode": "9521646",
    "prefectureCode": "15",
    "prefectureNumber": 15,
    "prefecture": "新潟県",
    "city": "佐渡市",
    "town": "相川大浦"
  },
  "9522131": {
    "zipcode": "9522131",
    "prefectureCode": "15",
    "prefectureNumber": 15,
    "prefecture": "新潟県",
    "city": "佐渡市",
    "town": "戸中"
  },
  "9522132": {
    "zipcode": "9522132",
    "prefectureCode": "15",
    "prefectureNumber": 15,
    "prefecture": "新潟県",
    "city": "佐渡市",
    "town": "戸地"
  },
  "9522133": {
    "zipcode": "9522133",
    "prefectureCode": "15",
    "prefectureNumber": 15,
    "prefecture": "新潟県",
    "city": "佐渡市",
    "town": "北狄"
  },
  "9522134": {
    "zipcode": "9522134",
    "prefectureCode": "15",
    "prefectureNumber": 15,
    "prefecture": "新潟県",
    "city": "佐渡市",
    "town": "姫津"
  },
  "9522135": {
    "zipcode": "9522135",
    "prefectureCode": "15",
    "prefectureNumber": 15,
    "prefecture": "新潟県",
    "city": "佐渡市",
    "town": "達者"
  },
  "9522136": {
    "zipcode": "9522136",
    "prefectureCode": "15",
    "prefectureNumber": 15,
    "prefecture": "新潟県",
    "city": "佐渡市",
    "town": "小川"
  },
  "9522201": {
    "zipcode": "9522201",
    "prefectureCode": "15",
    "prefectureNumber": 15,
    "prefecture": "新潟県",
    "city": "佐渡市",
    "town": "岩谷口"
  },
  "9522202": {
    "zipcode": "9522202",
    "prefectureCode": "15",
    "prefectureNumber": 15,
    "prefecture": "新潟県",
    "city": "佐渡市",
    "town": "五十浦"
  },
  "9522203": {
    "zipcode": "9522203",
    "prefectureCode": "15",
    "prefectureNumber": 15,
    "prefecture": "新潟県",
    "city": "佐渡市",
    "town": "関"
  },
  "9522204": {
    "zipcode": "9522204",
    "prefectureCode": "15",
    "prefectureNumber": 15,
    "prefecture": "新潟県",
    "city": "佐渡市",
    "town": "矢柄"
  },
  "9522205": {
    "zipcode": "9522205",
    "prefectureCode": "15",
    "prefectureNumber": 15,
    "prefecture": "新潟県",
    "city": "佐渡市",
    "town": "大倉"
  },
  "9522206": {
    "zipcode": "9522206",
    "prefectureCode": "15",
    "prefectureNumber": 15,
    "prefecture": "新潟県",
    "city": "佐渡市",
    "town": "小田"
  },
  "9522211": {
    "zipcode": "9522211",
    "prefectureCode": "15",
    "prefectureNumber": 15,
    "prefecture": "新潟県",
    "city": "佐渡市",
    "town": "石名"
  },
  "9522212": {
    "zipcode": "9522212",
    "prefectureCode": "15",
    "prefectureNumber": 15,
    "prefecture": "新潟県",
    "city": "佐渡市",
    "town": "小野見"
  },
  "9522213": {
    "zipcode": "9522213",
    "prefectureCode": "15",
    "prefectureNumber": 15,
    "prefecture": "新潟県",
    "city": "佐渡市",
    "town": "北田野浦"
  },
  "9522214": {
    "zipcode": "9522214",
    "prefectureCode": "15",
    "prefectureNumber": 15,
    "prefecture": "新潟県",
    "city": "佐渡市",
    "town": "高千"
  },
  "9522215": {
    "zipcode": "9522215",
    "prefectureCode": "15",
    "prefectureNumber": 15,
    "prefecture": "新潟県",
    "city": "佐渡市",
    "town": "入川"
  },
  "9522221": {
    "zipcode": "9522221",
    "prefectureCode": "15",
    "prefectureNumber": 15,
    "prefecture": "新潟県",
    "city": "佐渡市",
    "town": "北立島"
  },
  "9522222": {
    "zipcode": "9522222",
    "prefectureCode": "15",
    "prefectureNumber": 15,
    "prefecture": "新潟県",
    "city": "佐渡市",
    "town": "北川内"
  },
  "9522223": {
    "zipcode": "9522223",
    "prefectureCode": "15",
    "prefectureNumber": 15,
    "prefecture": "新潟県",
    "city": "佐渡市",
    "town": "後尾"
  },
  "9522224": {
    "zipcode": "9522224",
    "prefectureCode": "15",
    "prefectureNumber": 15,
    "prefecture": "新潟県",
    "city": "佐渡市",
    "town": "石花"
  },
  "9522225": {
    "zipcode": "9522225",
    "prefectureCode": "15",
    "prefectureNumber": 15,
    "prefecture": "新潟県",
    "city": "佐渡市",
    "town": "北片辺"
  },
  "9522226": {
    "zipcode": "9522226",
    "prefectureCode": "15",
    "prefectureNumber": 15,
    "prefecture": "新潟県",
    "city": "佐渡市",
    "town": "南片辺"
  },
  "9523111": {
    "zipcode": "9523111",
    "prefectureCode": "15",
    "prefectureNumber": 15,
    "prefecture": "新潟県",
    "city": "佐渡市",
    "town": "虫崎"
  },
  "9523112": {
    "zipcode": "9523112",
    "prefectureCode": "15",
    "prefectureNumber": 15,
    "prefecture": "新潟県",
    "city": "佐渡市",
    "town": "黒姫"
  },
  "9523113": {
    "zipcode": "9523113",
    "prefectureCode": "15",
    "prefectureNumber": 15,
    "prefecture": "新潟県",
    "city": "佐渡市",
    "town": "歌見"
  },
  "9523114": {
    "zipcode": "9523114",
    "prefectureCode": "15",
    "prefectureNumber": 15,
    "prefecture": "新潟県",
    "city": "佐渡市",
    "town": "浦川"
  },
  "9523115": {
    "zipcode": "9523115",
    "prefectureCode": "15",
    "prefectureNumber": 15,
    "prefecture": "新潟県",
    "city": "佐渡市",
    "town": "平松"
  },
  "9523116": {
    "zipcode": "9523116",
    "prefectureCode": "15",
    "prefectureNumber": 15,
    "prefecture": "新潟県",
    "city": "佐渡市",
    "town": "北松ケ崎"
  },
  "9523117": {
    "zipcode": "9523117",
    "prefectureCode": "15",
    "prefectureNumber": 15,
    "prefecture": "新潟県",
    "city": "佐渡市",
    "town": "馬首"
  },
  "9523118": {
    "zipcode": "9523118",
    "prefectureCode": "15",
    "prefectureNumber": 15,
    "prefecture": "新潟県",
    "city": "佐渡市",
    "town": "和木"
  },
  "9523119": {
    "zipcode": "9523119",
    "prefectureCode": "15",
    "prefectureNumber": 15,
    "prefecture": "新潟県",
    "city": "佐渡市",
    "town": "玉崎"
  },
  "9523201": {
    "zipcode": "9523201",
    "prefectureCode": "15",
    "prefectureNumber": 15,
    "prefecture": "新潟県",
    "city": "佐渡市",
    "town": "真更川"
  },
  "9523202": {
    "zipcode": "9523202",
    "prefectureCode": "15",
    "prefectureNumber": 15,
    "prefecture": "新潟県",
    "city": "佐渡市",
    "town": "北鵜島"
  },
  "9523203": {
    "zipcode": "9523203",
    "prefectureCode": "15",
    "prefectureNumber": 15,
    "prefecture": "新潟県",
    "city": "佐渡市",
    "town": "願"
  },
  "9523204": {
    "zipcode": "9523204",
    "prefectureCode": "15",
    "prefectureNumber": 15,
    "prefecture": "新潟県",
    "city": "佐渡市",
    "town": "藻浦"
  },
  "9523205": {
    "zipcode": "9523205",
    "prefectureCode": "15",
    "prefectureNumber": 15,
    "prefecture": "新潟県",
    "city": "佐渡市",
    "town": "鷲崎"
  },
  "9523206": {
    "zipcode": "9523206",
    "prefectureCode": "15",
    "prefectureNumber": 15,
    "prefecture": "新潟県",
    "city": "佐渡市",
    "town": "見立"
  },
  "9523207": {
    "zipcode": "9523207",
    "prefectureCode": "15",
    "prefectureNumber": 15,
    "prefecture": "新潟県",
    "city": "佐渡市",
    "town": "北小浦"
  },
  "9523421": {
    "zipcode": "9523421",
    "prefectureCode": "15",
    "prefectureNumber": 15,
    "prefecture": "新潟県",
    "city": "佐渡市",
    "town": "吾潟"
  },
  "9523422": {
    "zipcode": "9523422",
    "prefectureCode": "15",
    "prefectureNumber": 15,
    "prefecture": "新潟県",
    "city": "佐渡市",
    "town": "城腰"
  },
  "9523423": {
    "zipcode": "9523423",
    "prefectureCode": "15",
    "prefectureNumber": 15,
    "prefecture": "新潟県",
    "city": "佐渡市",
    "town": "久知河内"
  },
  "9523424": {
    "zipcode": "9523424",
    "prefectureCode": "15",
    "prefectureNumber": 15,
    "prefecture": "新潟県",
    "city": "佐渡市",
    "town": "下久知"
  },
  "9523425": {
    "zipcode": "9523425",
    "prefectureCode": "15",
    "prefectureNumber": 15,
    "prefecture": "新潟県",
    "city": "佐渡市",
    "town": "河崎"
  },
  "9523431": {
    "zipcode": "9523431",
    "prefectureCode": "15",
    "prefectureNumber": 15,
    "prefecture": "新潟県",
    "city": "佐渡市",
    "town": "真木"
  },
  "9523432": {
    "zipcode": "9523432",
    "prefectureCode": "15",
    "prefectureNumber": 15,
    "prefecture": "新潟県",
    "city": "佐渡市",
    "town": "椎泊"
  },
  "9523433": {
    "zipcode": "9523433",
    "prefectureCode": "15",
    "prefectureNumber": 15,
    "prefecture": "新潟県",
    "city": "佐渡市",
    "town": "両尾"
  },
  "9523434": {
    "zipcode": "9523434",
    "prefectureCode": "15",
    "prefectureNumber": 15,
    "prefecture": "新潟県",
    "city": "佐渡市",
    "town": "羽二生"
  },
  "9523435": {
    "zipcode": "9523435",
    "prefectureCode": "15",
    "prefectureNumber": 15,
    "prefecture": "新潟県",
    "city": "佐渡市",
    "town": "両津大川"
  },
  "9523541": {
    "zipcode": "9523541",
    "prefectureCode": "15",
    "prefectureNumber": 15,
    "prefecture": "新潟県",
    "city": "佐渡市",
    "town": "水津"
  },
  "9523542": {
    "zipcode": "9523542",
    "prefectureCode": "15",
    "prefectureNumber": 15,
    "prefecture": "新潟県",
    "city": "佐渡市",
    "town": "片野尾"
  },
  "9523543": {
    "zipcode": "9523543",
    "prefectureCode": "15",
    "prefectureNumber": 15,
    "prefecture": "新潟県",
    "city": "佐渡市",
    "town": "月布施"
  },
  "9523544": {
    "zipcode": "9523544",
    "prefectureCode": "15",
    "prefectureNumber": 15,
    "prefecture": "新潟県",
    "city": "佐渡市",
    "town": "野浦"
  },
  "9523545": {
    "zipcode": "9523545",
    "prefectureCode": "15",
    "prefectureNumber": 15,
    "prefecture": "新潟県",
    "city": "佐渡市",
    "town": "東強清水"
  },
  "9523546": {
    "zipcode": "9523546",
    "prefectureCode": "15",
    "prefectureNumber": 15,
    "prefecture": "新潟県",
    "city": "佐渡市",
    "town": "東立島"
  }
}
