{
  "9550000": {
    "zipcode": "9550000",
    "prefectureCode": "15",
    "prefectureNumber": 15,
    "prefecture": "新潟県",
    "city": "三条市",
    "town": "以下に掲載がない場合"
  },
  "9550001": {
    "zipcode": "9550001",
    "prefectureCode": "15",
    "prefectureNumber": 15,
    "prefecture": "新潟県",
    "city": "三条市",
    "town": "三貫地新田"
  },
  "9550002": {
    "zipcode": "9550002",
    "prefectureCode": "15",
    "prefectureNumber": 15,
    "prefecture": "新潟県",
    "city": "三条市",
    "town": "柳川新田"
  },
  "9550003": {
    "zipcode": "9550003",
    "prefectureCode": "15",
    "prefectureNumber": 15,
    "prefecture": "新潟県",
    "city": "三条市",
    "town": "柳場新田"
  },
  "9550004": {
    "zipcode": "9550004",
    "prefectureCode": "15",
    "prefectureNumber": 15,
    "prefecture": "新潟県",
    "city": "三条市",
    "town": "須戸新田"
  },
  "9550011": {
    "zipcode": "9550011",
    "prefectureCode": "15",
    "prefectureNumber": 15,
    "prefecture": "新潟県",
    "city": "三条市",
    "town": "白山新田"
  },
  "9550012": {
    "zipcode": "9550012",
    "prefectureCode": "15",
    "prefectureNumber": 15,
    "prefecture": "新潟県",
    "city": "三条市",
    "town": "北野新田"
  },
  "9550013": {
    "zipcode": "9550013",
    "prefectureCode": "15",
    "prefectureNumber": 15,
    "prefecture": "新潟県",
    "city": "三条市",
    "town": "井栗"
  },
  "9550014": {
    "zipcode": "9550014",
    "prefectureCode": "15",
    "prefectureNumber": 15,
    "prefecture": "新潟県",
    "city": "三条市",
    "town": "西潟"
  },
  "9550015": {
    "zipcode": "9550015",
    "prefectureCode": "15",
    "prefectureNumber": 15,
    "prefecture": "新潟県",
    "city": "三条市",
    "town": "三柳"
  },
  "9550016": {
    "zipcode": "9550016",
    "prefectureCode": "15",
    "prefectureNumber": 15,
    "prefecture": "新潟県",
    "city": "三条市",
    "town": "牛ケ島"
  },
  "9550021": {
    "zipcode": "9550021",
    "prefectureCode": "15",
    "prefectureNumber": 15,
    "prefecture": "新潟県",
    "city": "三条市",
    "town": "下保内"
  },
  "9550022": {
    "zipcode": "9550022",
    "prefectureCode": "15",
    "prefectureNumber": 15,
    "prefecture": "新潟県",
    "city": "三条市",
    "town": "みずほ"
  },
  "9550024": {
    "zipcode": "9550024",
    "prefectureCode": "15",
    "prefectureNumber": 15,
    "prefecture": "新潟県",
    "city": "三条市",
    "town": "柳沢"
  },
  "9550025": {
    "zipcode": "9550025",
    "prefectureCode": "15",
    "prefectureNumber": 15,
    "prefecture": "新潟県",
    "city": "三条市",
    "town": "上野原"
  },
  "9550031": {
    "zipcode": "9550031",
    "prefectureCode": "15",
    "prefectureNumber": 15,
    "prefecture": "新潟県",
    "city": "三条市",
    "town": "松ノ木町"
  },
  "9550032": {
    "zipcode": "9550032",
    "prefectureCode": "15",
    "prefectureNumber": 15,
    "prefecture": "新潟県",
    "city": "三条市",
    "town": "東大崎"
  },
  "9550033": {
    "zipcode": "9550033",
    "prefectureCode": "15",
    "prefectureNumber": 15,
    "prefecture": "新潟県",
    "city": "三条市",
    "town": "西大崎"
  },
  "9550034": {
    "zipcode": "9550034",
    "prefectureCode": "15",
    "prefectureNumber": 15,
    "prefecture": "新潟県",
    "city": "三条市",
    "town": "麻布"
  },
  "9550035": {
    "zipcode": "9550035",
    "prefectureCode": "15",
    "prefectureNumber": 15,
    "prefecture": "新潟県",
    "city": "三条市",
    "town": "中新"
  },
  "9550036": {
    "zipcode": "9550036",
    "prefectureCode": "15",
    "prefectureNumber": 15,
    "prefecture": "新潟県",
    "city": "三条市",
    "town": "篭場"
  },
  "9550041": {
    "zipcode": "9550041",
    "prefectureCode": "15",
    "prefectureNumber": 15,
    "prefecture": "新潟県",
    "city": "三条市",
    "town": "三竹"
  },
  "9550042": {
    "zipcode": "9550042",
    "prefectureCode": "15",
    "prefectureNumber": 15,
    "prefecture": "新潟県",
    "city": "三条市",
    "town": "下坂井"
  },
  "9550043": {
    "zipcode": "9550043",
    "prefectureCode": "15",
    "prefectureNumber": 15,
    "prefecture": "新潟県",
    "city": "三条市",
    "town": "北中"
  },
  "9550044": {
    "zipcode": "9550044",
    "prefectureCode": "15",
    "prefectureNumber": 15,
    "prefecture": "新潟県",
    "city": "三条市",
    "town": "田島"
  },
  "9550045": {
    "zipcode": "9550045",
    "prefectureCode": "15",
    "prefectureNumber": 15,
    "prefecture": "新潟県",
    "city": "三条市",
    "town": "一ノ門"
  },
  "9550046": {
    "zipcode": "9550046",
    "prefectureCode": "15",
    "prefectureNumber": 15,
    "prefecture": "新潟県",
    "city": "三条市",
    "town": "興野"
  },
  "9550047": {
    "zipcode": "9550047",
    "prefectureCode": "15",
    "prefectureNumber": 15,
    "prefecture": "新潟県",
    "city": "三条市",
    "town": "東三条"
  },
  "9550051": {
    "zipcode": "9550051",
    "prefectureCode": "15",
    "prefectureNumber": 15,
    "prefecture": "新潟県",
    "city": "三条市",
    "town": "鶴田"
  },
  "9550053": {
    "zipcode": "9550053",
    "prefectureCode": "15",
    "prefectureNumber": 15,
    "prefecture": "新潟県",
    "city": "三条市",
    "town": "北入蔵"
  },
  "9550054": {
    "zipcode": "9550054",
    "prefectureCode": "15",
    "prefectureNumber": 15,
    "prefecture": "新潟県",
    "city": "三条市",
    "town": "大宮新田"
  },
  "9550055": {
    "zipcode": "9550055",
    "prefectureCode": "15",
    "prefectureNumber": 15,
    "prefecture": "新潟県",
    "city": "三条市",
    "town": "塚野目"
  },
  "9550056": {
    "zipcode": "9550056",
    "prefectureCode": "15",
    "prefectureNumber": 15,
    "prefecture": "新潟県",
    "city": "三条市",
    "town": "嘉坪川"
  },
  "9550057": {
    "zipcode": "9550057",
    "prefectureCode": "15",
    "prefectureNumber": 15,
    "prefecture": "新潟県",
    "city": "三条市",
    "town": "新光町"
  },
  "9550061": {
    "zipcode": "9550061",
    "prefectureCode": "15",
    "prefectureNumber": 15,
    "prefecture": "新潟県",
    "city": "三条市",
    "town": "林町"
  },
  "9550062": {
    "zipcode": "9550062",
    "prefectureCode": "15",
    "prefectureNumber": 15,
    "prefecture": "新潟県",
    "city": "三条市",
    "town": "仲之町"
  },
  "9550063": {
    "zipcode": "9550063",
    "prefectureCode": "15",
    "prefectureNumber": 15,
    "prefecture": "新潟県",
    "city": "三条市",
    "town": "神明町"
  },
  "9550064": {
    "zipcode": "9550064",
    "prefectureCode": "15",
    "prefectureNumber": 15,
    "prefecture": "新潟県",
    "city": "三条市",
    "town": "横町"
  },
  "9550065": {
    "zipcode": "9550065",
    "prefectureCode": "15",
    "prefectureNumber": 15,
    "prefecture": "新潟県",
    "city": "三条市",
    "town": "旭町"
  },
  "9550066": {
    "zipcode": "9550066",
    "prefectureCode": "15",
    "prefectureNumber": 15,
    "prefecture": "新潟県",
    "city": "三条市",
    "town": "居島"
  },
  "9550071": {
    "zipcode": "9550071",
    "prefectureCode": "15",
    "prefectureNumber": 15,
    "prefecture": "新潟県",
    "city": "三条市",
    "town": "本町"
  },
  "9550072": {
    "zipcode": "9550072",
    "prefectureCode": "15",
    "prefectureNumber": 15,
    "prefecture": "新潟県",
    "city": "三条市",
    "town": "元町"
  },
  "9550073": {
    "zipcode": "9550073",
    "prefectureCode": "15",
    "prefectureNumber": 15,
    "prefecture": "新潟県",
    "city": "三条市",
    "town": "八幡町"
  },
  "9550081": {
    "zipcode": "9550081",
    "prefectureCode": "15",
    "prefectureNumber": 15,
    "prefecture": "新潟県",
    "city": "三条市",
    "town": "東裏館"
  },
  "9550082": {
    "zipcode": "9550082",
    "prefectureCode": "15",
    "prefectureNumber": 15,
    "prefecture": "新潟県",
    "city": "三条市",
    "town": "西裏館"
  },
  "9550083": {
    "zipcode": "9550083",
    "prefectureCode": "15",
    "prefectureNumber": 15,
    "prefecture": "新潟県",
    "city": "三条市",
    "town": "荒町"
  },
  "9550084": {
    "zipcode": "9550084",
    "prefectureCode": "15",
    "prefectureNumber": 15,
    "prefecture": "新潟県",
    "city": "三条市",
    "town": "石上"
  },
  "9550085": {
    "zipcode": "9550085",
    "prefectureCode": "15",
    "prefectureNumber": 15,
    "prefecture": "新潟県",
    "city": "三条市",
    "town": "栗林"
  },
  "9550091": {
    "zipcode": "9550091",
    "prefectureCode": "15",
    "prefectureNumber": 15,
    "prefecture": "新潟県",
    "city": "三条市",
    "town": "上須頃"
  },
  "9550092": {
    "zipcode": "9550092",
    "prefectureCode": "15",
    "prefectureNumber": 15,
    "prefecture": "新潟県",
    "city": "三条市",
    "town": "須頃"
  },
  "9550093": {
    "zipcode": "9550093",
    "prefectureCode": "15",
    "prefectureNumber": 15,
    "prefecture": "新潟県",
    "city": "三条市",
    "town": "下須頃"
  },
  "9550094": {
    "zipcode": "9550094",
    "prefectureCode": "15",
    "prefectureNumber": 15,
    "prefecture": "新潟県",
    "city": "三条市",
    "town": "大島"
  },
  "9550095": {
    "zipcode": "9550095",
    "prefectureCode": "15",
    "prefectureNumber": 15,
    "prefecture": "新潟県",
    "city": "三条市",
    "town": "代官島"
  },
  "9550096": {
    "zipcode": "9550096",
    "prefectureCode": "15",
    "prefectureNumber": 15,
    "prefecture": "新潟県",
    "city": "三条市",
    "town": "井戸場"
  },
  "9550097": {
    "zipcode": "9550097",
    "prefectureCode": "15",
    "prefectureNumber": 15,
    "prefecture": "新潟県",
    "city": "三条市",
    "town": "荻島"
  },
  "9550101": {
    "zipcode": "9550101",
    "prefectureCode": "15",
    "prefectureNumber": 15,
    "prefecture": "新潟県",
    "city": "三条市",
    "town": "曲谷"
  },
  "9550102": {
    "zipcode": "9550102",
    "prefectureCode": "15",
    "prefectureNumber": 15,
    "prefecture": "新潟県",
    "city": "三条市",
    "town": "牛ケ首"
  },
  "9550103": {
    "zipcode": "9550103",
    "prefectureCode": "15",
    "prefectureNumber": 15,
    "prefecture": "新潟県",
    "city": "三条市",
    "town": "落合"
  },
  "9550104": {
    "zipcode": "9550104",
    "prefectureCode": "15",
    "prefectureNumber": 15,
    "prefecture": "新潟県",
    "city": "三条市",
    "town": "江口"
  },
  "9550105": {
    "zipcode": "9550105",
    "prefectureCode": "15",
    "prefectureNumber": 15,
    "prefecture": "新潟県",
    "city": "三条市",
    "town": "島川原"
  },
  "9550106": {
    "zipcode": "9550106",
    "prefectureCode": "15",
    "prefectureNumber": 15,
    "prefecture": "新潟県",
    "city": "三条市",
    "town": "南中"
  },
  "9550107": {
    "zipcode": "9550107",
    "prefectureCode": "15",
    "prefectureNumber": 15,
    "prefecture": "新潟県",
    "city": "三条市",
    "town": "飯田"
  },
  "9550108": {
    "zipcode": "9550108",
    "prefectureCode": "15",
    "prefectureNumber": 15,
    "prefecture": "新潟県",
    "city": "三条市",
    "town": "鹿峠"
  },
  "9550111": {
    "zipcode": "9550111",
    "prefectureCode": "15",
    "prefectureNumber": 15,
    "prefecture": "新潟県",
    "city": "三条市",
    "town": "上谷地"
  },
  "9550112": {
    "zipcode": "9550112",
    "prefectureCode": "15",
    "prefectureNumber": 15,
    "prefecture": "新潟県",
    "city": "三条市",
    "town": "蝶名林"
  },
  "9550113": {
    "zipcode": "9550113",
    "prefectureCode": "15",
    "prefectureNumber": 15,
    "prefecture": "新潟県",
    "city": "三条市",
    "town": "中浦"
  },
  "9550114": {
    "zipcode": "9550114",
    "prefectureCode": "15",
    "prefectureNumber": 15,
    "prefecture": "新潟県",
    "city": "三条市",
    "town": "鹿熊"
  },
  "9550115": {
    "zipcode": "9550115",
    "prefectureCode": "15",
    "prefectureNumber": 15,
    "prefecture": "新潟県",
    "city": "三条市",
    "town": "院内"
  },
  "9550116": {
    "zipcode": "9550116",
    "prefectureCode": "15",
    "prefectureNumber": 15,
    "prefecture": "新潟県",
    "city": "三条市",
    "town": "森町"
  },
  "9550117": {
    "zipcode": "9550117",
    "prefectureCode": "15",
    "prefectureNumber": 15,
    "prefecture": "新潟県",
    "city": "三条市",
    "town": "田屋"
  },
  "9550118": {
    "zipcode": "9550118",
    "prefectureCode": "15",
    "prefectureNumber": 15,
    "prefecture": "新潟県",
    "city": "三条市",
    "town": "新屋"
  },
  "9550121": {
    "zipcode": "9550121",
    "prefectureCode": "15",
    "prefectureNumber": 15,
    "prefecture": "新潟県",
    "city": "三条市",
    "town": "北五百川"
  },
  "9550122": {
    "zipcode": "9550122",
    "prefectureCode": "15",
    "prefectureNumber": 15,
    "prefecture": "新潟県",
    "city": "三条市",
    "town": "大谷地"
  },
  "9550123": {
    "zipcode": "9550123",
    "prefectureCode": "15",
    "prefectureNumber": 15,
    "prefecture": "新潟県",
    "city": "三条市",
    "town": "笠堀"
  },
  "9550124": {
    "zipcode": "9550124",
    "prefectureCode": "15",
    "prefectureNumber": 15,
    "prefecture": "新潟県",
    "city": "三条市",
    "town": "大谷"
  },
  "9550125": {
    "zipcode": "9550125",
    "prefectureCode": "15",
    "prefectureNumber": 15,
    "prefecture": "新潟県",
    "city": "三条市",
    "town": "塩野渕"
  },
  "9550126": {
    "zipcode": "9550126",
    "prefectureCode": "15",
    "prefectureNumber": 15,
    "prefecture": "新潟県",
    "city": "三条市",
    "town": "栗山"
  },
  "9550127": {
    "zipcode": "9550127",
    "prefectureCode": "15",
    "prefectureNumber": 15,
    "prefecture": "新潟県",
    "city": "三条市",
    "town": "名下"
  },
  "9550128": {
    "zipcode": "9550128",
    "prefectureCode": "15",
    "prefectureNumber": 15,
    "prefecture": "新潟県",
    "city": "三条市",
    "town": "南五百川"
  },
  "9550131": {
    "zipcode": "9550131",
    "prefectureCode": "15",
    "prefectureNumber": 15,
    "prefecture": "新潟県",
    "city": "三条市",
    "town": "庭月"
  },
  "9550132": {
    "zipcode": "9550132",
    "prefectureCode": "15",
    "prefectureNumber": 15,
    "prefecture": "新潟県",
    "city": "三条市",
    "town": "長野"
  },
  "9550133": {
    "zipcode": "9550133",
    "prefectureCode": "15",
    "prefectureNumber": 15,
    "prefecture": "新潟県",
    "city": "三条市",
    "town": "牛野尾"
  },
  "9550134": {
    "zipcode": "9550134",
    "prefectureCode": "15",
    "prefectureNumber": 15,
    "prefecture": "新潟県",
    "city": "三条市",
    "town": "濁沢"
  },
  "9550135": {
    "zipcode": "9550135",
    "prefectureCode": "15",
    "prefectureNumber": 15,
    "prefecture": "新潟県",
    "city": "三条市",
    "town": "早水"
  },
  "9550136": {
    "zipcode": "9550136",
    "prefectureCode": "15",
    "prefectureNumber": 15,
    "prefecture": "新潟県",
    "city": "三条市",
    "town": "葎谷"
  },
  "9550137": {
    "zipcode": "9550137",
    "prefectureCode": "15",
    "prefectureNumber": 15,
    "prefecture": "新潟県",
    "city": "三条市",
    "town": "遅場"
  },
  "9550141": {
    "zipcode": "9550141",
    "prefectureCode": "15",
    "prefectureNumber": 15,
    "prefecture": "新潟県",
    "city": "三条市",
    "town": "荒沢"
  },
  "9550142": {
    "zipcode": "9550142",
    "prefectureCode": "15",
    "prefectureNumber": 15,
    "prefecture": "新潟県",
    "city": "三条市",
    "town": "小長沢"
  },
  "9550143": {
    "zipcode": "9550143",
    "prefectureCode": "15",
    "prefectureNumber": 15,
    "prefecture": "新潟県",
    "city": "三条市",
    "town": "棚鱗"
  },
  "9550144": {
    "zipcode": "9550144",
    "prefectureCode": "15",
    "prefectureNumber": 15,
    "prefecture": "新潟県",
    "city": "三条市",
    "town": "楢山"
  },
  "9550145": {
    "zipcode": "9550145",
    "prefectureCode": "15",
    "prefectureNumber": 15,
    "prefecture": "新潟県",
    "city": "三条市",
    "town": "大沢"
  },
  "9550146": {
    "zipcode": "9550146",
    "prefectureCode": "15",
    "prefectureNumber": 15,
    "prefecture": "新潟県",
    "city": "三条市",
    "town": "笹巻"
  },
  "9550147": {
    "zipcode": "9550147",
    "prefectureCode": "15",
    "prefectureNumber": 15,
    "prefecture": "新潟県",
    "city": "三条市",
    "town": "中野原"
  },
  "9550148": {
    "zipcode": "9550148",
    "prefectureCode": "15",
    "prefectureNumber": 15,
    "prefecture": "新潟県",
    "city": "三条市",
    "town": "花渕"
  },
  "9550151": {
    "zipcode": "9550151",
    "prefectureCode": "15",
    "prefectureNumber": 15,
    "prefecture": "新潟県",
    "city": "三条市",
    "town": "荻堀"
  },
  "9550152": {
    "zipcode": "9550152",
    "prefectureCode": "15",
    "prefectureNumber": 15,
    "prefecture": "新潟県",
    "city": "三条市",
    "town": "笹岡"
  },
  "9550153": {
    "zipcode": "9550153",
    "prefectureCode": "15",
    "prefectureNumber": 15,
    "prefecture": "新潟県",
    "city": "三条市",
    "town": "桑切"
  },
  "9550154": {
    "zipcode": "9550154",
    "prefectureCode": "15",
    "prefectureNumber": 15,
    "prefecture": "新潟県",
    "city": "三条市",
    "town": "大平"
  },
  "9550155": {
    "zipcode": "9550155",
    "prefectureCode": "15",
    "prefectureNumber": 15,
    "prefecture": "新潟県",
    "city": "三条市",
    "town": "広手"
  },
  "9550156": {
    "zipcode": "9550156",
    "prefectureCode": "15",
    "prefectureNumber": 15,
    "prefecture": "新潟県",
    "city": "三条市",
    "town": "駒込"
  },
  "9550157": {
    "zipcode": "9550157",
    "prefectureCode": "15",
    "prefectureNumber": 15,
    "prefecture": "新潟県",
    "city": "三条市",
    "town": "長沢"
  },
  "9550158": {
    "zipcode": "9550158",
    "prefectureCode": "15",
    "prefectureNumber": 15,
    "prefecture": "新潟県",
    "city": "三条市",
    "town": "原"
  },
  "9550161": {
    "zipcode": "9550161",
    "prefectureCode": "15",
    "prefectureNumber": 15,
    "prefecture": "新潟県",
    "city": "三条市",
    "town": "高岡"
  },
  "9550162": {
    "zipcode": "9550162",
    "prefectureCode": "15",
    "prefectureNumber": 15,
    "prefecture": "新潟県",
    "city": "三条市",
    "town": "福岡"
  },
  "9550163": {
    "zipcode": "9550163",
    "prefectureCode": "15",
    "prefectureNumber": 15,
    "prefecture": "新潟県",
    "city": "三条市",
    "town": "島潟"
  },
  "9550164": {
    "zipcode": "9550164",
    "prefectureCode": "15",
    "prefectureNumber": 15,
    "prefecture": "新潟県",
    "city": "三条市",
    "town": "滝谷"
  },
  "9550165": {
    "zipcode": "9550165",
    "prefectureCode": "15",
    "prefectureNumber": 15,
    "prefecture": "新潟県",
    "city": "三条市",
    "town": "高屋敷"
  },
  "9550166": {
    "zipcode": "9550166",
    "prefectureCode": "15",
    "prefectureNumber": 15,
    "prefecture": "新潟県",
    "city": "三条市",
    "town": "上大浦"
  },
  "9550167": {
    "zipcode": "9550167",
    "prefectureCode": "15",
    "prefectureNumber": 15,
    "prefecture": "新潟県",
    "city": "三条市",
    "town": "馬場"
  },
  "9550168": {
    "zipcode": "9550168",
    "prefectureCode": "15",
    "prefectureNumber": 15,
    "prefecture": "新潟県",
    "city": "三条市",
    "town": "下大浦"
  },
  "9550801": {
    "zipcode": "9550801",
    "prefectureCode": "15",
    "prefectureNumber": 15,
    "prefecture": "新潟県",
    "city": "三条市",
    "town": "諏訪"
  },
  "9550803": {
    "zipcode": "9550803",
    "prefectureCode": "15",
    "prefectureNumber": 15,
    "prefecture": "新潟県",
    "city": "三条市",
    "town": "月岡"
  },
  "9550804": {
    "zipcode": "9550804",
    "prefectureCode": "15",
    "prefectureNumber": 15,
    "prefecture": "新潟県",
    "city": "三条市",
    "town": "如法寺"
  },
  "9550805": {
    "zipcode": "9550805",
    "prefectureCode": "15",
    "prefectureNumber": 15,
    "prefecture": "新潟県",
    "city": "三条市",
    "town": "吉田"
  },
  "9550806": {
    "zipcode": "9550806",
    "prefectureCode": "15",
    "prefectureNumber": 15,
    "prefecture": "新潟県",
    "city": "三条市",
    "town": "長嶺"
  },
  "9550807": {
    "zipcode": "9550807",
    "prefectureCode": "15",
    "prefectureNumber": 15,
    "prefecture": "新潟県",
    "city": "三条市",
    "town": "片口"
  },
  "9550808": {
    "zipcode": "9550808",
    "prefectureCode": "15",
    "prefectureNumber": 15,
    "prefecture": "新潟県",
    "city": "三条市",
    "town": "新保"
  },
  "9550811": {
    "zipcode": "9550811",
    "prefectureCode": "15",
    "prefectureNumber": 15,
    "prefecture": "新潟県",
    "city": "三条市",
    "town": "南入蔵"
  },
  "9550812": {
    "zipcode": "9550812",
    "prefectureCode": "15",
    "prefectureNumber": 15,
    "prefecture": "新潟県",
    "city": "三条市",
    "town": "入蔵新田"
  },
  "9550813": {
    "zipcode": "9550813",
    "prefectureCode": "15",
    "prefectureNumber": 15,
    "prefecture": "新潟県",
    "city": "三条市",
    "town": "袋"
  },
  "9550814": {
    "zipcode": "9550814",
    "prefectureCode": "15",
    "prefectureNumber": 15,
    "prefecture": "新潟県",
    "city": "三条市",
    "town": "金子新田"
  },
  "9550815": {
    "zipcode": "9550815",
    "prefectureCode": "15",
    "prefectureNumber": 15,
    "prefecture": "新潟県",
    "city": "三条市",
    "town": "西鱈田"
  },
  "9550816": {
    "zipcode": "9550816",
    "prefectureCode": "15",
    "prefectureNumber": 15,
    "prefecture": "新潟県",
    "city": "三条市",
    "town": "東鱈田"
  },
  "9550818": {
    "zipcode": "9550818",
    "prefectureCode": "15",
    "prefectureNumber": 15,
    "prefecture": "新潟県",
    "city": "三条市",
    "town": "枝郷"
  },
  "9550821": {
    "zipcode": "9550821",
    "prefectureCode": "15",
    "prefectureNumber": 15,
    "prefecture": "新潟県",
    "city": "三条市",
    "town": "五明"
  },
  "9550822": {
    "zipcode": "9550822",
    "prefectureCode": "15",
    "prefectureNumber": 15,
    "prefecture": "新潟県",
    "city": "三条市",
    "town": "西中"
  },
  "9550823": {
    "zipcode": "9550823",
    "prefectureCode": "15",
    "prefectureNumber": 15,
    "prefecture": "新潟県",
    "city": "三条市",
    "town": "東本成寺"
  },
  "9550824": {
    "zipcode": "9550824",
    "prefectureCode": "15",
    "prefectureNumber": 15,
    "prefecture": "新潟県",
    "city": "三条市",
    "town": "下新田"
  },
  "9550831": {
    "zipcode": "9550831",
    "prefectureCode": "15",
    "prefectureNumber": 15,
    "prefecture": "新潟県",
    "city": "三条市",
    "town": "土場"
  },
  "9550832": {
    "zipcode": "9550832",
    "prefectureCode": "15",
    "prefectureNumber": 15,
    "prefecture": "新潟県",
    "city": "三条市",
    "town": "直江町"
  },
  "9550833": {
    "zipcode": "9550833",
    "prefectureCode": "15",
    "prefectureNumber": 15,
    "prefecture": "新潟県",
    "city": "三条市",
    "town": "大野畑"
  },
  "9550841": {
    "zipcode": "9550841",
    "prefectureCode": "15",
    "prefectureNumber": 15,
    "prefecture": "新潟県",
    "city": "三条市",
    "town": "由利"
  },
  "9550842": {
    "zipcode": "9550842",
    "prefectureCode": "15",
    "prefectureNumber": 15,
    "prefecture": "新潟県",
    "city": "三条市",
    "town": "島田"
  },
  "9550843": {
    "zipcode": "9550843",
    "prefectureCode": "15",
    "prefectureNumber": 15,
    "prefecture": "新潟県",
    "city": "三条市",
    "town": "条南町"
  },
  "9550844": {
    "zipcode": "9550844",
    "prefectureCode": "15",
    "prefectureNumber": 15,
    "prefecture": "新潟県",
    "city": "三条市",
    "town": "桜木町"
  },
  "9550845": {
    "zipcode": "9550845",
    "prefectureCode": "15",
    "prefectureNumber": 15,
    "prefecture": "新潟県",
    "city": "三条市",
    "town": "緑ケ丘"
  },
  "9550851": {
    "zipcode": "9550851",
    "prefectureCode": "15",
    "prefectureNumber": 15,
    "prefecture": "新潟県",
    "city": "三条市",
    "town": "西四日町"
  },
  "9550852": {
    "zipcode": "9550852",
    "prefectureCode": "15",
    "prefectureNumber": 15,
    "prefecture": "新潟県",
    "city": "三条市",
    "town": "南四日町"
  },
  "9550853": {
    "zipcode": "9550853",
    "prefectureCode": "15",
    "prefectureNumber": 15,
    "prefecture": "新潟県",
    "city": "三条市",
    "town": "北四日町"
  },
  "9550854": {
    "zipcode": "9550854",
    "prefectureCode": "15",
    "prefectureNumber": 15,
    "prefecture": "新潟県",
    "city": "三条市",
    "town": "四日町"
  },
  "9550861": {
    "zipcode": "9550861",
    "prefectureCode": "15",
    "prefectureNumber": 15,
    "prefecture": "新潟県",
    "city": "三条市",
    "town": "北新保"
  },
  "9550862": {
    "zipcode": "9550862",
    "prefectureCode": "15",
    "prefectureNumber": 15,
    "prefecture": "新潟県",
    "city": "三条市",
    "town": "南新保"
  },
  "9550863": {
    "zipcode": "9550863",
    "prefectureCode": "15",
    "prefectureNumber": 15,
    "prefecture": "新潟県",
    "city": "三条市",
    "town": "東新保"
  },
  "9550864": {
    "zipcode": "9550864",
    "prefectureCode": "15",
    "prefectureNumber": 15,
    "prefecture": "新潟県",
    "city": "三条市",
    "town": "曲渕"
  }
}
