{
  "9570000": {
    "zipcode": "9570000",
    "prefectureCode": "15",
    "prefectureNumber": 15,
    "prefecture": "新潟県",
    "city": "新発田市",
    "town": "以下に掲載がない場合"
  },
  "9570001": {
    "zipcode": "9570001",
    "prefectureCode": "15",
    "prefectureNumber": 15,
    "prefecture": "新潟県",
    "city": "新発田市",
    "town": "道賀"
  },
  "9570002": {
    "zipcode": "9570002",
    "prefectureCode": "15",
    "prefectureNumber": 15,
    "prefecture": "新潟県",
    "city": "新発田市",
    "town": "中谷内"
  },
  "9570003": {
    "zipcode": "9570003",
    "prefectureCode": "15",
    "prefectureNumber": 15,
    "prefecture": "新潟県",
    "city": "新発田市",
    "town": "桑ノ口"
  },
  "9570004": {
    "zipcode": "9570004",
    "prefectureCode": "15",
    "prefectureNumber": 15,
    "prefecture": "新潟県",
    "city": "新発田市",
    "town": "西名柄"
  },
  "9570005": {
    "zipcode": "9570005",
    "prefectureCode": "15",
    "prefectureNumber": 15,
    "prefecture": "新潟県",
    "city": "新発田市",
    "town": "長畑"
  },
  "9570006": {
    "zipcode": "9570006",
    "prefectureCode": "15",
    "prefectureNumber": 15,
    "prefecture": "新潟県",
    "city": "新発田市",
    "town": "中田町"
  },
  "9570007": {
    "zipcode": "9570007",
    "prefectureCode": "15",
    "prefectureNumber": 15,
    "prefecture": "新潟県",
    "city": "新発田市",
    "town": "小舟町"
  },
  "9570011": {
    "zipcode": "9570011",
    "prefectureCode": "15",
    "prefectureNumber": 15,
    "prefecture": "新潟県",
    "city": "新発田市",
    "town": "島潟"
  },
  "9570012": {
    "zipcode": "9570012",
    "prefectureCode": "15",
    "prefectureNumber": 15,
    "prefecture": "新潟県",
    "city": "新発田市",
    "town": "東塚ノ目"
  },
  "9570013": {
    "zipcode": "9570013",
    "prefectureCode": "15",
    "prefectureNumber": 15,
    "prefecture": "新潟県",
    "city": "新発田市",
    "town": "板敷"
  },
  "9570014": {
    "zipcode": "9570014",
    "prefectureCode": "15",
    "prefectureNumber": 15,
    "prefecture": "新潟県",
    "city": "新発田市",
    "town": "金谷"
  },
  "9570015": {
    "zipcode": "9570015",
    "prefectureCode": "15",
    "prefectureNumber": 15,
    "prefecture": "新潟県",
    "city": "新発田市",
    "town": "東新町"
  },
  "9570016": {
    "zipcode": "9570016",
    "prefectureCode": "15",
    "prefectureNumber": 15,
    "prefecture": "新潟県",
    "city": "新発田市",
    "town": "豊町"
  },
  "9570017": {
    "zipcode": "9570017",
    "prefectureCode": "15",
    "prefectureNumber": 15,
    "prefecture": "新潟県",
    "city": "新発田市",
    "town": "新富町"
  },
  "9570018": {
    "zipcode": "9570018",
    "prefectureCode": "15",
    "prefectureNumber": 15,
    "prefecture": "新潟県",
    "city": "新発田市",
    "town": "緑町"
  },
  "9570021": {
    "zipcode": "9570021",
    "prefectureCode": "15",
    "prefectureNumber": 15,
    "prefecture": "新潟県",
    "city": "新発田市",
    "town": "五十公野"
  },
  "9570022": {
    "zipcode": "9570022",
    "prefectureCode": "15",
    "prefectureNumber": 15,
    "prefecture": "新潟県",
    "city": "新発田市",
    "town": "古寺"
  },
  "9570023": {
    "zipcode": "9570023",
    "prefectureCode": "15",
    "prefectureNumber": 15,
    "prefecture": "新潟県",
    "city": "新発田市",
    "town": "下新保"
  },
  "9570024": {
    "zipcode": "9570024",
    "prefectureCode": "15",
    "prefectureNumber": 15,
    "prefecture": "新潟県",
    "city": "新発田市",
    "town": "上新保"
  },
  "9570025": {
    "zipcode": "9570025",
    "prefectureCode": "15",
    "prefectureNumber": 15,
    "prefecture": "新潟県",
    "city": "新発田市",
    "town": "上内竹"
  },
  "9570026": {
    "zipcode": "9570026",
    "prefectureCode": "15",
    "prefectureNumber": 15,
    "prefecture": "新潟県",
    "city": "新発田市",
    "town": "下内竹"
  },
  "9570027": {
    "zipcode": "9570027",
    "prefectureCode": "15",
    "prefectureNumber": 15,
    "prefecture": "新潟県",
    "city": "新発田市",
    "town": "六日町"
  },
  "9570028": {
    "zipcode": "9570028",
    "prefectureCode": "15",
    "prefectureNumber": 15,
    "prefecture": "新潟県",
    "city": "新発田市",
    "town": "山崎"
  },
  "9570031": {
    "zipcode": "9570031",
    "prefectureCode": "15",
    "prefectureNumber": 15,
    "prefecture": "新潟県",
    "city": "新発田市",
    "town": "小友"
  },
  "9570032": {
    "zipcode": "9570032",
    "prefectureCode": "15",
    "prefectureNumber": 15,
    "prefecture": "新潟県",
    "city": "新発田市",
    "town": "八幡新田"
  },
  "9570033": {
    "zipcode": "9570033",
    "prefectureCode": "15",
    "prefectureNumber": 15,
    "prefecture": "新潟県",
    "city": "新発田市",
    "town": "八幡"
  },
  "9570034": {
    "zipcode": "9570034",
    "prefectureCode": "15",
    "prefectureNumber": 15,
    "prefecture": "新潟県",
    "city": "新発田市",
    "town": "小見"
  },
  "9570035": {
    "zipcode": "9570035",
    "prefectureCode": "15",
    "prefectureNumber": 15,
    "prefecture": "新潟県",
    "city": "新発田市",
    "town": "丑首"
  },
  "9570036": {
    "zipcode": "9570036",
    "prefectureCode": "15",
    "prefectureNumber": 15,
    "prefecture": "新潟県",
    "city": "新発田市",
    "town": "米倉"
  },
  "9570037": {
    "zipcode": "9570037",
    "prefectureCode": "15",
    "prefectureNumber": 15,
    "prefecture": "新潟県",
    "city": "新発田市",
    "town": "江口"
  },
  "9570041": {
    "zipcode": "9570041",
    "prefectureCode": "15",
    "prefectureNumber": 15,
    "prefecture": "新潟県",
    "city": "新発田市",
    "town": "浦新田"
  },
  "9570042": {
    "zipcode": "9570042",
    "prefectureCode": "15",
    "prefectureNumber": 15,
    "prefecture": "新潟県",
    "city": "新発田市",
    "town": "浦"
  },
  "9570043": {
    "zipcode": "9570043",
    "prefectureCode": "15",
    "prefectureNumber": 15,
    "prefecture": "新潟県",
    "city": "新発田市",
    "town": "大崎"
  },
  "9570044": {
    "zipcode": "9570044",
    "prefectureCode": "15",
    "prefectureNumber": 15,
    "prefecture": "新潟県",
    "city": "新発田市",
    "town": "松岡"
  },
  "9570045": {
    "zipcode": "9570045",
    "prefectureCode": "15",
    "prefectureNumber": 15,
    "prefecture": "新潟県",
    "city": "新発田市",
    "town": "荒川"
  },
  "9570046": {
    "zipcode": "9570046",
    "prefectureCode": "15",
    "prefectureNumber": 15,
    "prefecture": "新潟県",
    "city": "新発田市",
    "town": "上中山"
  },
  "9570047": {
    "zipcode": "9570047",
    "prefectureCode": "15",
    "prefectureNumber": 15,
    "prefecture": "新潟県",
    "city": "新発田市",
    "town": "法正橋"
  },
  "9570048": {
    "zipcode": "9570048",
    "prefectureCode": "15",
    "prefectureNumber": 15,
    "prefecture": "新潟県",
    "city": "新発田市",
    "town": "瑞波"
  },
  "9570051": {
    "zipcode": "9570051",
    "prefectureCode": "15",
    "prefectureNumber": 15,
    "prefecture": "新潟県",
    "city": "新発田市",
    "town": "城北町"
  },
  "9570052": {
    "zipcode": "9570052",
    "prefectureCode": "15",
    "prefectureNumber": 15,
    "prefecture": "新潟県",
    "city": "新発田市",
    "town": "大手町"
  },
  "9570053": {
    "zipcode": "9570053",
    "prefectureCode": "15",
    "prefectureNumber": 15,
    "prefecture": "新潟県",
    "city": "新発田市",
    "town": "中央町"
  },
  "9570054": {
    "zipcode": "9570054",
    "prefectureCode": "15",
    "prefectureNumber": 15,
    "prefecture": "新潟県",
    "city": "新発田市",
    "town": "本町"
  },
  "9570055": {
    "zipcode": "9570055",
    "prefectureCode": "15",
    "prefectureNumber": 15,
    "prefecture": "新潟県",
    "city": "新発田市",
    "town": "諏訪町"
  },
  "9570056": {
    "zipcode": "9570056",
    "prefectureCode": "15",
    "prefectureNumber": 15,
    "prefecture": "新潟県",
    "city": "新発田市",
    "town": "大栄町"
  },
  "9570057": {
    "zipcode": "9570057",
    "prefectureCode": "15",
    "prefectureNumber": 15,
    "prefecture": "新潟県",
    "city": "新発田市",
    "town": "御幸町"
  },
  "9570058": {
    "zipcode": "9570058",
    "prefectureCode": "15",
    "prefectureNumber": 15,
    "prefecture": "新潟県",
    "city": "新発田市",
    "town": "西園町"
  },
  "9570061": {
    "zipcode": "9570061",
    "prefectureCode": "15",
    "prefectureNumber": 15,
    "prefecture": "新潟県",
    "city": "新発田市",
    "town": "住吉町"
  },
  "9570062": {
    "zipcode": "9570062",
    "prefectureCode": "15",
    "prefectureNumber": 15,
    "prefecture": "新潟県",
    "city": "新発田市",
    "town": "富塚町"
  },
  "9570063": {
    "zipcode": "9570063",
    "prefectureCode": "15",
    "prefectureNumber": 15,
    "prefecture": "新潟県",
    "city": "新発田市",
    "town": "新栄町"
  },
  "9570064": {
    "zipcode": "9570064",
    "prefectureCode": "15",
    "prefectureNumber": 15,
    "prefecture": "新潟県",
    "city": "新発田市",
    "town": "奥山新保"
  },
  "9570065": {
    "zipcode": "9570065",
    "prefectureCode": "15",
    "prefectureNumber": 15,
    "prefecture": "新潟県",
    "city": "新発田市",
    "town": "舟入町"
  },
  "9570066": {
    "zipcode": "9570066",
    "prefectureCode": "15",
    "prefectureNumber": 15,
    "prefecture": "新潟県",
    "city": "新発田市",
    "town": "舟入"
  },
  "9570067": {
    "zipcode": "9570067",
    "prefectureCode": "15",
    "prefectureNumber": 15,
    "prefecture": "新潟県",
    "city": "新発田市",
    "town": "中曽根町"
  },
  "9570071": {
    "zipcode": "9570071",
    "prefectureCode": "15",
    "prefectureNumber": 15,
    "prefecture": "新潟県",
    "city": "新発田市",
    "town": "曽根"
  },
  "9570072": {
    "zipcode": "9570072",
    "prefectureCode": "15",
    "prefectureNumber": 15,
    "prefecture": "新潟県",
    "city": "新発田市",
    "town": "日渡"
  },
  "9570073": {
    "zipcode": "9570073",
    "prefectureCode": "15",
    "prefectureNumber": 15,
    "prefecture": "新潟県",
    "city": "新発田市",
    "town": "弓越"
  },
  "9570074": {
    "zipcode": "9570074",
    "prefectureCode": "15",
    "prefectureNumber": 15,
    "prefecture": "新潟県",
    "city": "新発田市",
    "town": "北蓑口"
  },
  "9570075": {
    "zipcode": "9570075",
    "prefectureCode": "15",
    "prefectureNumber": 15,
    "prefecture": "新潟県",
    "city": "新発田市",
    "town": "西蓑口"
  },
  "9570076": {
    "zipcode": "9570076",
    "prefectureCode": "15",
    "prefectureNumber": 15,
    "prefecture": "新潟県",
    "city": "新発田市",
    "town": "西宮内"
  },
  "9570077": {
    "zipcode": "9570077",
    "prefectureCode": "15",
    "prefectureNumber": 15,
    "prefecture": "新潟県",
    "city": "新発田市",
    "town": "則清"
  },
  "9570078": {
    "zipcode": "9570078",
    "prefectureCode": "15",
    "prefectureNumber": 15,
    "prefecture": "新潟県",
    "city": "新発田市",
    "town": "則清新田"
  },
  "9570081": {
    "zipcode": "9570081",
    "prefectureCode": "15",
    "prefectureNumber": 15,
    "prefecture": "新潟県",
    "city": "新発田市",
    "town": "上中沢"
  },
  "9570082": {
    "zipcode": "9570082",
    "prefectureCode": "15",
    "prefectureNumber": 15,
    "prefecture": "新潟県",
    "city": "新発田市",
    "town": "佐々木"
  },
  "9570083": {
    "zipcode": "9570083",
    "prefectureCode": "15",
    "prefectureNumber": 15,
    "prefecture": "新潟県",
    "city": "新発田市",
    "town": "下興野"
  },
  "9570084": {
    "zipcode": "9570084",
    "prefectureCode": "15",
    "prefectureNumber": 15,
    "prefecture": "新潟県",
    "city": "新発田市",
    "town": "飯島甲"
  },
  "9570085": {
    "zipcode": "9570085",
    "prefectureCode": "15",
    "prefectureNumber": 15,
    "prefecture": "新潟県",
    "city": "新発田市",
    "town": "飯島乙"
  },
  "9570086": {
    "zipcode": "9570086",
    "prefectureCode": "15",
    "prefectureNumber": 15,
    "prefecture": "新潟県",
    "city": "新発田市",
    "town": "飯島新田"
  },
  "9570087": {
    "zipcode": "9570087",
    "prefectureCode": "15",
    "prefectureNumber": 15,
    "prefecture": "新潟県",
    "city": "新発田市",
    "town": "砂山"
  },
  "9570091": {
    "zipcode": "9570091",
    "prefectureCode": "15",
    "prefectureNumber": 15,
    "prefecture": "新潟県",
    "city": "新発田市",
    "town": "太田新田"
  },
  "9570092": {
    "zipcode": "9570092",
    "prefectureCode": "15",
    "prefectureNumber": 15,
    "prefecture": "新潟県",
    "city": "新発田市",
    "town": "鳥穴"
  },
  "9570100": {
    "zipcode": "9570100",
    "prefectureCode": "15",
    "prefectureNumber": 15,
    "prefecture": "新潟県",
    "city": "北蒲原郡聖籠町",
    "town": "以下に掲載がない場合"
  },
  "9570101": {
    "zipcode": "9570101",
    "prefectureCode": "15",
    "prefectureNumber": 15,
    "prefecture": "新潟県",
    "city": "北蒲原郡聖籠町",
    "town": "東港"
  },
  "9570102": {
    "zipcode": "9570102",
    "prefectureCode": "15",
    "prefectureNumber": 15,
    "prefecture": "新潟県",
    "city": "北蒲原郡聖籠町",
    "town": "位守町"
  },
  "9570103": {
    "zipcode": "9570103",
    "prefectureCode": "15",
    "prefectureNumber": 15,
    "prefecture": "新潟県",
    "city": "北蒲原郡聖籠町",
    "town": "網代浜"
  },
  "9570104": {
    "zipcode": "9570104",
    "prefectureCode": "15",
    "prefectureNumber": 15,
    "prefecture": "新潟県",
    "city": "北蒲原郡聖籠町",
    "town": "亀塚"
  },
  "9570105": {
    "zipcode": "9570105",
    "prefectureCode": "15",
    "prefectureNumber": 15,
    "prefecture": "新潟県",
    "city": "北蒲原郡聖籠町",
    "town": "次第浜"
  },
  "9570106": {
    "zipcode": "9570106",
    "prefectureCode": "15",
    "prefectureNumber": 15,
    "prefecture": "新潟県",
    "city": "北蒲原郡聖籠町",
    "town": "蓮潟"
  },
  "9570111": {
    "zipcode": "9570111",
    "prefectureCode": "15",
    "prefectureNumber": 15,
    "prefecture": "新潟県",
    "city": "北蒲原郡聖籠町",
    "town": "真野"
  },
  "9570112": {
    "zipcode": "9570112",
    "prefectureCode": "15",
    "prefectureNumber": 15,
    "prefecture": "新潟県",
    "city": "北蒲原郡聖籠町",
    "town": "道賀新田"
  },
  "9570113": {
    "zipcode": "9570113",
    "prefectureCode": "15",
    "prefectureNumber": 15,
    "prefecture": "新潟県",
    "city": "北蒲原郡聖籠町",
    "town": "上大谷内"
  },
  "9570114": {
    "zipcode": "9570114",
    "prefectureCode": "15",
    "prefectureNumber": 15,
    "prefecture": "新潟県",
    "city": "北蒲原郡聖籠町",
    "town": "丸潟"
  },
  "9570115": {
    "zipcode": "9570115",
    "prefectureCode": "15",
    "prefectureNumber": 15,
    "prefecture": "新潟県",
    "city": "北蒲原郡聖籠町",
    "town": "桃山"
  },
  "9570116": {
    "zipcode": "9570116",
    "prefectureCode": "15",
    "prefectureNumber": 15,
    "prefecture": "新潟県",
    "city": "北蒲原郡聖籠町",
    "town": "山倉"
  },
  "9570117": {
    "zipcode": "9570117",
    "prefectureCode": "15",
    "prefectureNumber": 15,
    "prefecture": "新潟県",
    "city": "北蒲原郡聖籠町",
    "town": "諏訪山"
  },
  "9570121": {
    "zipcode": "9570121",
    "prefectureCode": "15",
    "prefectureNumber": 15,
    "prefecture": "新潟県",
    "city": "北蒲原郡聖籠町",
    "town": "大夫"
  },
  "9570122": {
    "zipcode": "9570122",
    "prefectureCode": "15",
    "prefectureNumber": 15,
    "prefecture": "新潟県",
    "city": "北蒲原郡聖籠町",
    "town": "三賀"
  },
  "9570123": {
    "zipcode": "9570123",
    "prefectureCode": "15",
    "prefectureNumber": 15,
    "prefecture": "新潟県",
    "city": "北蒲原郡聖籠町",
    "town": "二本松"
  },
  "9570124": {
    "zipcode": "9570124",
    "prefectureCode": "15",
    "prefectureNumber": 15,
    "prefecture": "新潟県",
    "city": "北蒲原郡聖籠町",
    "town": "蓮野"
  },
  "9570125": {
    "zipcode": "9570125",
    "prefectureCode": "15",
    "prefectureNumber": 15,
    "prefecture": "新潟県",
    "city": "北蒲原郡聖籠町",
    "town": "別條"
  },
  "9570126": {
    "zipcode": "9570126",
    "prefectureCode": "15",
    "prefectureNumber": 15,
    "prefecture": "新潟県",
    "city": "北蒲原郡聖籠町",
    "town": "大夫興野"
  },
  "9570127": {
    "zipcode": "9570127",
    "prefectureCode": "15",
    "prefectureNumber": 15,
    "prefecture": "新潟県",
    "city": "北蒲原郡聖籠町",
    "town": "藤寄"
  },
  "9570201": {
    "zipcode": "9570201",
    "prefectureCode": "15",
    "prefectureNumber": 15,
    "prefecture": "新潟県",
    "city": "新発田市",
    "town": "真中"
  },
  "9570202": {
    "zipcode": "9570202",
    "prefectureCode": "15",
    "prefectureNumber": 15,
    "prefecture": "新潟県",
    "city": "新発田市",
    "town": "古田"
  },
  "9570203": {
    "zipcode": "9570203",
    "prefectureCode": "15",
    "prefectureNumber": 15,
    "prefecture": "新潟県",
    "city": "新発田市",
    "town": "下中沢"
  },
  "9570204": {
    "zipcode": "9570204",
    "prefectureCode": "15",
    "prefectureNumber": 15,
    "prefecture": "新潟県",
    "city": "新発田市",
    "town": "稲荷岡"
  },
  "9570205": {
    "zipcode": "9570205",
    "prefectureCode": "15",
    "prefectureNumber": 15,
    "prefecture": "新潟県",
    "city": "新発田市",
    "town": "関井"
  },
  "9570206": {
    "zipcode": "9570206",
    "prefectureCode": "15",
    "prefectureNumber": 15,
    "prefecture": "新潟県",
    "city": "新発田市",
    "town": "福岡"
  },
  "9570207": {
    "zipcode": "9570207",
    "prefectureCode": "15",
    "prefectureNumber": 15,
    "prefecture": "新潟県",
    "city": "新発田市",
    "town": "富島"
  },
  "9570212": {
    "zipcode": "9570212",
    "prefectureCode": "15",
    "prefectureNumber": 15,
    "prefecture": "新潟県",
    "city": "新発田市",
    "town": "片桐"
  },
  "9570213": {
    "zipcode": "9570213",
    "prefectureCode": "15",
    "prefectureNumber": 15,
    "prefecture": "新潟県",
    "city": "新発田市",
    "town": "高島"
  },
  "9570214": {
    "zipcode": "9570214",
    "prefectureCode": "15",
    "prefectureNumber": 15,
    "prefecture": "新潟県",
    "city": "新発田市",
    "town": "中島"
  },
  "9570215": {
    "zipcode": "9570215",
    "prefectureCode": "15",
    "prefectureNumber": 15,
    "prefecture": "新潟県",
    "city": "新発田市",
    "town": "住吉"
  },
  "9570216": {
    "zipcode": "9570216",
    "prefectureCode": "15",
    "prefectureNumber": 15,
    "prefecture": "新潟県",
    "city": "新発田市",
    "town": "南成田"
  },
  "9570217": {
    "zipcode": "9570217",
    "prefectureCode": "15",
    "prefectureNumber": 15,
    "prefecture": "新潟県",
    "city": "新発田市",
    "town": "大中島"
  },
  "9570221": {
    "zipcode": "9570221",
    "prefectureCode": "15",
    "prefectureNumber": 15,
    "prefecture": "新潟県",
    "city": "新発田市",
    "town": "長者館"
  },
  "9570222": {
    "zipcode": "9570222",
    "prefectureCode": "15",
    "prefectureNumber": 15,
    "prefecture": "新潟県",
    "city": "新発田市",
    "town": "中野"
  },
  "9570223": {
    "zipcode": "9570223",
    "prefectureCode": "15",
    "prefectureNumber": 15,
    "prefecture": "新潟県",
    "city": "新発田市",
    "town": "長島"
  },
  "9570224": {
    "zipcode": "9570224",
    "prefectureCode": "15",
    "prefectureNumber": 15,
    "prefecture": "新潟県",
    "city": "新発田市",
    "town": "小川"
  },
  "9570225": {
    "zipcode": "9570225",
    "prefectureCode": "15",
    "prefectureNumber": 15,
    "prefecture": "新潟県",
    "city": "新発田市",
    "town": "米子"
  },
  "9570226": {
    "zipcode": "9570226",
    "prefectureCode": "15",
    "prefectureNumber": 15,
    "prefecture": "新潟県",
    "city": "新発田市",
    "town": "宮吉"
  },
  "9570231": {
    "zipcode": "9570231",
    "prefectureCode": "15",
    "prefectureNumber": 15,
    "prefecture": "新潟県",
    "city": "新発田市",
    "town": "藤塚浜"
  },
  "9570232": {
    "zipcode": "9570232",
    "prefectureCode": "15",
    "prefectureNumber": 15,
    "prefecture": "新潟県",
    "city": "新発田市",
    "town": "真野原外"
  },
  "9570233": {
    "zipcode": "9570233",
    "prefectureCode": "15",
    "prefectureNumber": 15,
    "prefecture": "新潟県",
    "city": "新発田市",
    "town": "真野原"
  },
  "9570234": {
    "zipcode": "9570234",
    "prefectureCode": "15",
    "prefectureNumber": 15,
    "prefecture": "新潟県",
    "city": "新発田市",
    "town": "二ツ山"
  },
  "9570235": {
    "zipcode": "9570235",
    "prefectureCode": "15",
    "prefectureNumber": 15,
    "prefecture": "新潟県",
    "city": "新発田市",
    "town": "人橋"
  },
  "9570236": {
    "zipcode": "9570236",
    "prefectureCode": "15",
    "prefectureNumber": 15,
    "prefecture": "新潟県",
    "city": "新発田市",
    "town": "元郷"
  },
  "9570331": {
    "zipcode": "9570331",
    "prefectureCode": "15",
    "prefectureNumber": 15,
    "prefecture": "新潟県",
    "city": "新発田市",
    "town": "上三光"
  },
  "9570332": {
    "zipcode": "9570332",
    "prefectureCode": "15",
    "prefectureNumber": 15,
    "prefecture": "新潟県",
    "city": "新発田市",
    "town": "虎丸"
  },
  "9570333": {
    "zipcode": "9570333",
    "prefectureCode": "15",
    "prefectureNumber": 15,
    "prefecture": "新潟県",
    "city": "新発田市",
    "town": "田貝"
  },
  "9570334": {
    "zipcode": "9570334",
    "prefectureCode": "15",
    "prefectureNumber": 15,
    "prefecture": "新潟県",
    "city": "新発田市",
    "town": "上楠川"
  },
  "9570335": {
    "zipcode": "9570335",
    "prefectureCode": "15",
    "prefectureNumber": 15,
    "prefecture": "新潟県",
    "city": "新発田市",
    "town": "下楠川"
  },
  "9570336": {
    "zipcode": "9570336",
    "prefectureCode": "15",
    "prefectureNumber": 15,
    "prefecture": "新潟県",
    "city": "新発田市",
    "town": "下三光"
  },
  "9570341": {
    "zipcode": "9570341",
    "prefectureCode": "15",
    "prefectureNumber": 15,
    "prefecture": "新潟県",
    "city": "新発田市",
    "town": "下羽津"
  },
  "9570342": {
    "zipcode": "9570342",
    "prefectureCode": "15",
    "prefectureNumber": 15,
    "prefecture": "新潟県",
    "city": "新発田市",
    "town": "本間新田"
  },
  "9570343": {
    "zipcode": "9570343",
    "prefectureCode": "15",
    "prefectureNumber": 15,
    "prefecture": "新潟県",
    "city": "新発田市",
    "town": "上羽津"
  },
  "9570344": {
    "zipcode": "9570344",
    "prefectureCode": "15",
    "prefectureNumber": 15,
    "prefecture": "新潟県",
    "city": "新発田市",
    "town": "板山"
  },
  "9570345": {
    "zipcode": "9570345",
    "prefectureCode": "15",
    "prefectureNumber": 15,
    "prefecture": "新潟県",
    "city": "新発田市",
    "town": "小戸"
  },
  "9570346": {
    "zipcode": "9570346",
    "prefectureCode": "15",
    "prefectureNumber": 15,
    "prefecture": "新潟県",
    "city": "新発田市",
    "town": "宮古木"
  },
  "9570347": {
    "zipcode": "9570347",
    "prefectureCode": "15",
    "prefectureNumber": 15,
    "prefecture": "新潟県",
    "city": "新発田市",
    "town": "大友"
  },
  "9570351": {
    "zipcode": "9570351",
    "prefectureCode": "15",
    "prefectureNumber": 15,
    "prefecture": "新潟県",
    "city": "新発田市",
    "town": "東姫田"
  },
  "9570352": {
    "zipcode": "9570352",
    "prefectureCode": "15",
    "prefectureNumber": 15,
    "prefecture": "新潟県",
    "city": "新発田市",
    "town": "南楯"
  },
  "9570353": {
    "zipcode": "9570353",
    "prefectureCode": "15",
    "prefectureNumber": 15,
    "prefecture": "新潟県",
    "city": "新発田市",
    "town": "石喜"
  },
  "9570354": {
    "zipcode": "9570354",
    "prefectureCode": "15",
    "prefectureNumber": 15,
    "prefecture": "新潟県",
    "city": "新発田市",
    "town": "下高関"
  },
  "9570355": {
    "zipcode": "9570355",
    "prefectureCode": "15",
    "prefectureNumber": 15,
    "prefecture": "新潟県",
    "city": "新発田市",
    "town": "敦賀"
  },
  "9570356": {
    "zipcode": "9570356",
    "prefectureCode": "15",
    "prefectureNumber": 15,
    "prefecture": "新潟県",
    "city": "新発田市",
    "town": "岡田"
  },
  "9570357": {
    "zipcode": "9570357",
    "prefectureCode": "15",
    "prefectureNumber": 15,
    "prefecture": "新潟県",
    "city": "新発田市",
    "town": "西姫田"
  },
  "9570461": {
    "zipcode": "9570461",
    "prefectureCode": "15",
    "prefectureNumber": 15,
    "prefecture": "新潟県",
    "city": "新発田市",
    "town": "中々山"
  },
  "9570462": {
    "zipcode": "9570462",
    "prefectureCode": "15",
    "prefectureNumber": 15,
    "prefecture": "新潟県",
    "city": "新発田市",
    "town": "滝谷"
  },
  "9570463": {
    "zipcode": "9570463",
    "prefectureCode": "15",
    "prefectureNumber": 15,
    "prefecture": "新潟県",
    "city": "新発田市",
    "town": "東赤谷"
  },
  "9570464": {
    "zipcode": "9570464",
    "prefectureCode": "15",
    "prefectureNumber": 15,
    "prefecture": "新潟県",
    "city": "新発田市",
    "town": "上赤谷"
  },
  "9570465": {
    "zipcode": "9570465",
    "prefectureCode": "15",
    "prefectureNumber": 15,
    "prefecture": "新潟県",
    "city": "新発田市",
    "town": "大槻"
  },
  "9570466": {
    "zipcode": "9570466",
    "prefectureCode": "15",
    "prefectureNumber": 15,
    "prefecture": "新潟県",
    "city": "新発田市",
    "town": "山内"
  }
}
