{
  "9590101": {
    "zipcode": "9590101",
    "prefectureCode": "15",
    "prefectureNumber": 15,
    "prefecture": "新潟県",
    "city": "燕市",
    "town": "佐善"
  },
  "9590102": {
    "zipcode": "9590102",
    "prefectureCode": "15",
    "prefectureNumber": 15,
    "prefecture": "新潟県",
    "city": "燕市",
    "town": "牧ケ花"
  },
  "9590103": {
    "zipcode": "9590103",
    "prefectureCode": "15",
    "prefectureNumber": 15,
    "prefecture": "新潟県",
    "city": "燕市",
    "town": "砂子塚"
  },
  "9590104": {
    "zipcode": "9590104",
    "prefectureCode": "15",
    "prefectureNumber": 15,
    "prefecture": "新潟県",
    "city": "燕市",
    "town": "分水弥生町"
  },
  "9590105": {
    "zipcode": "9590105",
    "prefectureCode": "15",
    "prefectureNumber": 15,
    "prefecture": "新潟県",
    "city": "燕市",
    "town": "中島"
  },
  "9590106": {
    "zipcode": "9590106",
    "prefectureCode": "15",
    "prefectureNumber": 15,
    "prefecture": "新潟県",
    "city": "燕市",
    "town": "分水東学校町"
  },
  "9590107": {
    "zipcode": "9590107",
    "prefectureCode": "15",
    "prefectureNumber": 15,
    "prefecture": "新潟県",
    "city": "燕市",
    "town": "分水旭町"
  },
  "9590108": {
    "zipcode": "9590108",
    "prefectureCode": "15",
    "prefectureNumber": 15,
    "prefecture": "新潟県",
    "city": "燕市",
    "town": "太田"
  },
  "9590109": {
    "zipcode": "9590109",
    "prefectureCode": "15",
    "prefectureNumber": 15,
    "prefecture": "新潟県",
    "city": "燕市",
    "town": "分水向陽"
  },
  "9590111": {
    "zipcode": "9590111",
    "prefectureCode": "15",
    "prefectureNumber": 15,
    "prefecture": "新潟県",
    "city": "燕市",
    "town": "横田"
  },
  "9590112": {
    "zipcode": "9590112",
    "prefectureCode": "15",
    "prefectureNumber": 15,
    "prefecture": "新潟県",
    "city": "燕市",
    "town": "熊森"
  },
  "9590113": {
    "zipcode": "9590113",
    "prefectureCode": "15",
    "prefectureNumber": 15,
    "prefecture": "新潟県",
    "city": "燕市",
    "town": "笈ケ島"
  },
  "9590114": {
    "zipcode": "9590114",
    "prefectureCode": "15",
    "prefectureNumber": 15,
    "prefecture": "新潟県",
    "city": "燕市",
    "town": "一ノ山"
  },
  "9590115": {
    "zipcode": "9590115",
    "prefectureCode": "15",
    "prefectureNumber": 15,
    "prefecture": "新潟県",
    "city": "燕市",
    "town": "分水学校町"
  },
  "9590116": {
    "zipcode": "9590116",
    "prefectureCode": "15",
    "prefectureNumber": 15,
    "prefecture": "新潟県",
    "city": "燕市",
    "town": "新興野"
  },
  "9590117": {
    "zipcode": "9590117",
    "prefectureCode": "15",
    "prefectureNumber": 15,
    "prefecture": "新潟県",
    "city": "燕市",
    "town": "笹曲"
  },
  "9590118": {
    "zipcode": "9590118",
    "prefectureCode": "15",
    "prefectureNumber": 15,
    "prefecture": "新潟県",
    "city": "燕市",
    "town": "分水向山"
  },
  "9590119": {
    "zipcode": "9590119",
    "prefectureCode": "15",
    "prefectureNumber": 15,
    "prefecture": "新潟県",
    "city": "燕市",
    "town": "分水大武"
  },
  "9590120": {
    "zipcode": "9590120",
    "prefectureCode": "15",
    "prefectureNumber": 15,
    "prefecture": "新潟県",
    "city": "燕市",
    "town": "分水栄町"
  },
  "9590121": {
    "zipcode": "9590121",
    "prefectureCode": "15",
    "prefectureNumber": 15,
    "prefecture": "新潟県",
    "city": "燕市",
    "town": "地蔵堂"
  },
  "9590122": {
    "zipcode": "9590122",
    "prefectureCode": "15",
    "prefectureNumber": 15,
    "prefecture": "新潟県",
    "city": "燕市",
    "town": "大武新田"
  },
  "9590123": {
    "zipcode": "9590123",
    "prefectureCode": "15",
    "prefectureNumber": 15,
    "prefecture": "新潟県",
    "city": "燕市",
    "town": "大川津"
  },
  "9590124": {
    "zipcode": "9590124",
    "prefectureCode": "15",
    "prefectureNumber": 15,
    "prefecture": "新潟県",
    "city": "燕市",
    "town": "五千石荒川"
  },
  "9590125": {
    "zipcode": "9590125",
    "prefectureCode": "15",
    "prefectureNumber": 15,
    "prefecture": "新潟県",
    "city": "燕市",
    "town": "新長"
  },
  "9590126": {
    "zipcode": "9590126",
    "prefectureCode": "15",
    "prefectureNumber": 15,
    "prefecture": "新潟県",
    "city": "燕市",
    "town": "野中才"
  },
  "9590127": {
    "zipcode": "9590127",
    "prefectureCode": "15",
    "prefectureNumber": 15,
    "prefecture": "新潟県",
    "city": "燕市",
    "town": "分水文京町"
  },
  "9590128": {
    "zipcode": "9590128",
    "prefectureCode": "15",
    "prefectureNumber": 15,
    "prefecture": "新潟県",
    "city": "燕市",
    "town": "分水新町"
  },
  "9590129": {
    "zipcode": "9590129",
    "prefectureCode": "15",
    "prefectureNumber": 15,
    "prefecture": "新潟県",
    "city": "燕市",
    "town": "地蔵堂本町"
  },
  "9590130": {
    "zipcode": "9590130",
    "prefectureCode": "15",
    "prefectureNumber": 15,
    "prefecture": "新潟県",
    "city": "燕市",
    "town": "分水桜町"
  },
  "9590131": {
    "zipcode": "9590131",
    "prefectureCode": "15",
    "prefectureNumber": 15,
    "prefecture": "新潟県",
    "city": "燕市",
    "town": "泉新"
  },
  "9590132": {
    "zipcode": "9590132",
    "prefectureCode": "15",
    "prefectureNumber": 15,
    "prefecture": "新潟県",
    "city": "燕市",
    "town": "分水あけぼの"
  },
  "9590133": {
    "zipcode": "9590133",
    "prefectureCode": "15",
    "prefectureNumber": 15,
    "prefecture": "新潟県",
    "city": "燕市",
    "town": "新堀"
  },
  "9590134": {
    "zipcode": "9590134",
    "prefectureCode": "15",
    "prefectureNumber": 15,
    "prefecture": "新潟県",
    "city": "燕市",
    "town": "真木山"
  },
  "9590135": {
    "zipcode": "9590135",
    "prefectureCode": "15",
    "prefectureNumber": 15,
    "prefecture": "新潟県",
    "city": "燕市",
    "town": "渡部"
  },
  "9590136": {
    "zipcode": "9590136",
    "prefectureCode": "15",
    "prefectureNumber": 15,
    "prefecture": "新潟県",
    "city": "燕市",
    "town": "国上"
  },
  "9590137": {
    "zipcode": "9590137",
    "prefectureCode": "15",
    "prefectureNumber": 15,
    "prefecture": "新潟県",
    "city": "燕市",
    "town": "源八新田"
  },
  "9590138": {
    "zipcode": "9590138",
    "prefectureCode": "15",
    "prefectureNumber": 15,
    "prefecture": "新潟県",
    "city": "燕市",
    "town": "幕島"
  },
  "9590139": {
    "zipcode": "9590139",
    "prefectureCode": "15",
    "prefectureNumber": 15,
    "prefecture": "新潟県",
    "city": "燕市",
    "town": "長辰"
  },
  "9590141": {
    "zipcode": "9590141",
    "prefectureCode": "15",
    "prefectureNumber": 15,
    "prefecture": "新潟県",
    "city": "長岡市",
    "town": "寺泊敦ケ曽根"
  },
  "9590142": {
    "zipcode": "9590142",
    "prefectureCode": "15",
    "prefectureNumber": 15,
    "prefecture": "新潟県",
    "city": "長岡市",
    "town": "寺泊万善寺"
  },
  "9590143": {
    "zipcode": "9590143",
    "prefectureCode": "15",
    "prefectureNumber": 15,
    "prefecture": "新潟県",
    "city": "長岡市",
    "town": "寺泊高内"
  },
  "9590144": {
    "zipcode": "9590144",
    "prefectureCode": "15",
    "prefectureNumber": 15,
    "prefecture": "新潟県",
    "city": "長岡市",
    "town": "寺泊町軽井"
  },
  "9590145": {
    "zipcode": "9590145",
    "prefectureCode": "15",
    "prefectureNumber": 15,
    "prefecture": "新潟県",
    "city": "長岡市",
    "town": "寺泊平野新村新田"
  },
  "9590146": {
    "zipcode": "9590146",
    "prefectureCode": "15",
    "prefectureNumber": 15,
    "prefecture": "新潟県",
    "city": "長岡市",
    "town": "寺泊田尻"
  },
  "9590147": {
    "zipcode": "9590147",
    "prefectureCode": "15",
    "prefectureNumber": 15,
    "prefecture": "新潟県",
    "city": "長岡市",
    "town": "寺泊岩方"
  },
  "9590148": {
    "zipcode": "9590148",
    "prefectureCode": "15",
    "prefectureNumber": 15,
    "prefecture": "新潟県",
    "city": "長岡市",
    "town": "寺泊矢田"
  },
  "9590149": {
    "zipcode": "9590149",
    "prefectureCode": "15",
    "prefectureNumber": 15,
    "prefecture": "新潟県",
    "city": "長岡市",
    "town": "寺泊入軽井"
  },
  "9590151": {
    "zipcode": "9590151",
    "prefectureCode": "15",
    "prefectureNumber": 15,
    "prefecture": "新潟県",
    "city": "長岡市",
    "town": "寺泊求草"
  },
  "9590152": {
    "zipcode": "9590152",
    "prefectureCode": "15",
    "prefectureNumber": 15,
    "prefecture": "新潟県",
    "city": "長岡市",
    "town": "寺泊下桐"
  },
  "9590153": {
    "zipcode": "9590153",
    "prefectureCode": "15",
    "prefectureNumber": 15,
    "prefecture": "新潟県",
    "city": "長岡市",
    "town": "寺泊硲田"
  },
  "9590154": {
    "zipcode": "9590154",
    "prefectureCode": "15",
    "prefectureNumber": 15,
    "prefecture": "新潟県",
    "city": "長岡市",
    "town": "寺泊五分一"
  },
  "9590155": {
    "zipcode": "9590155",
    "prefectureCode": "15",
    "prefectureNumber": 15,
    "prefecture": "新潟県",
    "city": "長岡市",
    "town": "寺泊有信"
  },
  "9590156": {
    "zipcode": "9590156",
    "prefectureCode": "15",
    "prefectureNumber": 15,
    "prefecture": "新潟県",
    "city": "長岡市",
    "town": "寺泊木島"
  },
  "9590157": {
    "zipcode": "9590157",
    "prefectureCode": "15",
    "prefectureNumber": 15,
    "prefecture": "新潟県",
    "city": "長岡市",
    "town": "寺泊鰐口"
  },
  "9590161": {
    "zipcode": "9590161",
    "prefectureCode": "15",
    "prefectureNumber": 15,
    "prefecture": "新潟県",
    "city": "長岡市",
    "town": "寺泊竹森"
  },
  "9590162": {
    "zipcode": "9590162",
    "prefectureCode": "15",
    "prefectureNumber": 15,
    "prefecture": "新潟県",
    "city": "長岡市",
    "town": "寺泊小豆曽根"
  },
  "9590163": {
    "zipcode": "9590163",
    "prefectureCode": "15",
    "prefectureNumber": 15,
    "prefecture": "新潟県",
    "city": "長岡市",
    "town": "寺泊新長"
  },
  "9590164": {
    "zipcode": "9590164",
    "prefectureCode": "15",
    "prefectureNumber": 15,
    "prefecture": "新潟県",
    "city": "長岡市",
    "town": "寺泊下中条"
  },
  "9590165": {
    "zipcode": "9590165",
    "prefectureCode": "15",
    "prefectureNumber": 15,
    "prefecture": "新潟県",
    "city": "長岡市",
    "town": "寺泊北曽根"
  },
  "9590171": {
    "zipcode": "9590171",
    "prefectureCode": "15",
    "prefectureNumber": 15,
    "prefecture": "新潟県",
    "city": "燕市",
    "town": "溝古新"
  },
  "9590172": {
    "zipcode": "9590172",
    "prefectureCode": "15",
    "prefectureNumber": 15,
    "prefecture": "新潟県",
    "city": "燕市",
    "town": "溝"
  },
  "9590181": {
    "zipcode": "9590181",
    "prefectureCode": "15",
    "prefectureNumber": 15,
    "prefecture": "新潟県",
    "city": "燕市",
    "town": "上諏訪"
  },
  "9590182": {
    "zipcode": "9590182",
    "prefectureCode": "15",
    "prefectureNumber": 15,
    "prefecture": "新潟県",
    "city": "燕市",
    "town": "中諏訪"
  },
  "9590183": {
    "zipcode": "9590183",
    "prefectureCode": "15",
    "prefectureNumber": 15,
    "prefecture": "新潟県",
    "city": "燕市",
    "town": "下諏訪"
  },
  "9590201": {
    "zipcode": "9590201",
    "prefectureCode": "15",
    "prefectureNumber": 15,
    "prefecture": "新潟県",
    "city": "燕市",
    "town": "西槇"
  },
  "9590202": {
    "zipcode": "9590202",
    "prefectureCode": "15",
    "prefectureNumber": 15,
    "prefecture": "新潟県",
    "city": "燕市",
    "town": "佐渡山"
  },
  "9590203": {
    "zipcode": "9590203",
    "prefectureCode": "15",
    "prefectureNumber": 15,
    "prefecture": "新潟県",
    "city": "燕市",
    "town": "小島"
  },
  "9590205": {
    "zipcode": "9590205",
    "prefectureCode": "15",
    "prefectureNumber": 15,
    "prefecture": "新潟県",
    "city": "燕市",
    "town": "雀森"
  },
  "9590206": {
    "zipcode": "9590206",
    "prefectureCode": "15",
    "prefectureNumber": 15,
    "prefecture": "新潟県",
    "city": "燕市",
    "town": "米納津"
  },
  "9590207": {
    "zipcode": "9590207",
    "prefectureCode": "15",
    "prefectureNumber": 15,
    "prefecture": "新潟県",
    "city": "燕市",
    "town": "庚塚"
  },
  "9590208": {
    "zipcode": "9590208",
    "prefectureCode": "15",
    "prefectureNumber": 15,
    "prefecture": "新潟県",
    "city": "燕市",
    "town": "大保"
  },
  "9590211": {
    "zipcode": "9590211",
    "prefectureCode": "15",
    "prefectureNumber": 15,
    "prefecture": "新潟県",
    "city": "燕市",
    "town": "富永"
  },
  "9590212": {
    "zipcode": "9590212",
    "prefectureCode": "15",
    "prefectureNumber": 15,
    "prefecture": "新潟県",
    "city": "燕市",
    "town": "富永十兵衛新田"
  },
  "9590213": {
    "zipcode": "9590213",
    "prefectureCode": "15",
    "prefectureNumber": 15,
    "prefecture": "新潟県",
    "city": "燕市",
    "town": "吉田吉栄"
  },
  "9590214": {
    "zipcode": "9590214",
    "prefectureCode": "15",
    "prefectureNumber": 15,
    "prefecture": "新潟県",
    "city": "燕市",
    "town": "吉田法花堂"
  },
  "9590215": {
    "zipcode": "9590215",
    "prefectureCode": "15",
    "prefectureNumber": 15,
    "prefecture": "新潟県",
    "city": "燕市",
    "town": "吉田下中野"
  },
  "9590216": {
    "zipcode": "9590216",
    "prefectureCode": "15",
    "prefectureNumber": 15,
    "prefecture": "新潟県",
    "city": "燕市",
    "town": "吉田春日町"
  },
  "9590217": {
    "zipcode": "9590217",
    "prefectureCode": "15",
    "prefectureNumber": 15,
    "prefecture": "新潟県",
    "city": "燕市",
    "town": "吉田曙町"
  },
  "9590221": {
    "zipcode": "9590221",
    "prefectureCode": "15",
    "prefectureNumber": 15,
    "prefecture": "新潟県",
    "city": "燕市",
    "town": "吉田西太田"
  },
  "9590222": {
    "zipcode": "9590222",
    "prefectureCode": "15",
    "prefectureNumber": 15,
    "prefecture": "新潟県",
    "city": "燕市",
    "town": "下粟生津"
  },
  "9590223": {
    "zipcode": "9590223",
    "prefectureCode": "15",
    "prefectureNumber": 15,
    "prefecture": "新潟県",
    "city": "燕市",
    "town": "田中新"
  },
  "9590224": {
    "zipcode": "9590224",
    "prefectureCode": "15",
    "prefectureNumber": 15,
    "prefecture": "新潟県",
    "city": "燕市",
    "town": "野本"
  },
  "9590225": {
    "zipcode": "9590225",
    "prefectureCode": "15",
    "prefectureNumber": 15,
    "prefecture": "新潟県",
    "city": "燕市",
    "town": "上河原"
  },
  "9590227": {
    "zipcode": "9590227",
    "prefectureCode": "15",
    "prefectureNumber": 15,
    "prefecture": "新潟県",
    "city": "燕市",
    "town": "粟生津"
  },
  "9590228": {
    "zipcode": "9590228",
    "prefectureCode": "15",
    "prefectureNumber": 15,
    "prefecture": "新潟県",
    "city": "燕市",
    "town": "高木"
  },
  "9590231": {
    "zipcode": "9590231",
    "prefectureCode": "15",
    "prefectureNumber": 15,
    "prefecture": "新潟県",
    "city": "燕市",
    "town": "吉田日之出町"
  },
  "9590232": {
    "zipcode": "9590232",
    "prefectureCode": "15",
    "prefectureNumber": 15,
    "prefecture": "新潟県",
    "city": "燕市",
    "town": "吉田東栄町"
  },
  "9590233": {
    "zipcode": "9590233",
    "prefectureCode": "15",
    "prefectureNumber": 15,
    "prefecture": "新潟県",
    "city": "燕市",
    "town": "吉田栄町"
  },
  "9590234": {
    "zipcode": "9590234",
    "prefectureCode": "15",
    "prefectureNumber": 15,
    "prefecture": "新潟県",
    "city": "燕市",
    "town": "吉田水道町"
  },
  "9590235": {
    "zipcode": "9590235",
    "prefectureCode": "15",
    "prefectureNumber": 15,
    "prefecture": "新潟県",
    "city": "燕市",
    "town": "吉田旭町"
  },
  "9590236": {
    "zipcode": "9590236",
    "prefectureCode": "15",
    "prefectureNumber": 15,
    "prefecture": "新潟県",
    "city": "燕市",
    "town": "吉田松岡町"
  },
  "9590237": {
    "zipcode": "9590237",
    "prefectureCode": "15",
    "prefectureNumber": 15,
    "prefecture": "新潟県",
    "city": "燕市",
    "town": "吉田堤町"
  },
  "9590241": {
    "zipcode": "9590241",
    "prefectureCode": "15",
    "prefectureNumber": 15,
    "prefecture": "新潟県",
    "city": "燕市",
    "town": "吉田神田町"
  },
  "9590242": {
    "zipcode": "9590242",
    "prefectureCode": "15",
    "prefectureNumber": 15,
    "prefecture": "新潟県",
    "city": "燕市",
    "town": "吉田大保町"
  },
  "9590243": {
    "zipcode": "9590243",
    "prefectureCode": "15",
    "prefectureNumber": 15,
    "prefecture": "新潟県",
    "city": "燕市",
    "town": "吉田松岡新田"
  },
  "9590244": {
    "zipcode": "9590244",
    "prefectureCode": "15",
    "prefectureNumber": 15,
    "prefecture": "新潟県",
    "city": "燕市",
    "town": "吉田中町"
  },
  "9590245": {
    "zipcode": "9590245",
    "prefectureCode": "15",
    "prefectureNumber": 15,
    "prefecture": "新潟県",
    "city": "燕市",
    "town": "吉田上町"
  },
  "9590246": {
    "zipcode": "9590246",
    "prefectureCode": "15",
    "prefectureNumber": 15,
    "prefecture": "新潟県",
    "city": "燕市",
    "town": "吉田新町"
  },
  "9590247": {
    "zipcode": "9590247",
    "prefectureCode": "15",
    "prefectureNumber": 15,
    "prefecture": "新潟県",
    "city": "燕市",
    "town": "吉田新田町"
  },
  "9590248": {
    "zipcode": "9590248",
    "prefectureCode": "15",
    "prefectureNumber": 15,
    "prefecture": "新潟県",
    "city": "燕市",
    "town": "吉田浜首町"
  },
  "9590250": {
    "zipcode": "9590250",
    "prefectureCode": "15",
    "prefectureNumber": 15,
    "prefecture": "新潟県",
    "city": "燕市",
    "town": "吉田矢作"
  },
  "9590251": {
    "zipcode": "9590251",
    "prefectureCode": "15",
    "prefectureNumber": 15,
    "prefecture": "新潟県",
    "city": "燕市",
    "town": "吉田本所"
  },
  "9590252": {
    "zipcode": "9590252",
    "prefectureCode": "15",
    "prefectureNumber": 15,
    "prefecture": "新潟県",
    "city": "燕市",
    "town": "吉田学校町"
  },
  "9590253": {
    "zipcode": "9590253",
    "prefectureCode": "15",
    "prefectureNumber": 15,
    "prefecture": "新潟県",
    "city": "燕市",
    "town": "吉田下町"
  },
  "9590254": {
    "zipcode": "9590254",
    "prefectureCode": "15",
    "prefectureNumber": 15,
    "prefecture": "新潟県",
    "city": "燕市",
    "town": "吉田神明町"
  },
  "9590255": {
    "zipcode": "9590255",
    "prefectureCode": "15",
    "prefectureNumber": 15,
    "prefecture": "新潟県",
    "city": "燕市",
    "town": "吉田弥生町"
  },
  "9590256": {
    "zipcode": "9590256",
    "prefectureCode": "15",
    "prefectureNumber": 15,
    "prefecture": "新潟県",
    "city": "燕市",
    "town": "吉田寿町"
  },
  "9590257": {
    "zipcode": "9590257",
    "prefectureCode": "15",
    "prefectureNumber": 15,
    "prefecture": "新潟県",
    "city": "燕市",
    "town": "吉田幸町"
  },
  "9590261": {
    "zipcode": "9590261",
    "prefectureCode": "15",
    "prefectureNumber": 15,
    "prefecture": "新潟県",
    "city": "燕市",
    "town": "吉田鴻巣"
  },
  "9590262": {
    "zipcode": "9590262",
    "prefectureCode": "15",
    "prefectureNumber": 15,
    "prefecture": "新潟県",
    "city": "燕市",
    "town": "吉田若生町"
  },
  "9590263": {
    "zipcode": "9590263",
    "prefectureCode": "15",
    "prefectureNumber": 15,
    "prefecture": "新潟県",
    "city": "燕市",
    "town": "吉田（吉田桃山町）"
  },
  "9590264": {
    "zipcode": "9590264",
    "prefectureCode": "15",
    "prefectureNumber": 15,
    "prefecture": "新潟県",
    "city": "燕市",
    "town": "吉田（その他）"
  },
  "9590265": {
    "zipcode": "9590265",
    "prefectureCode": "15",
    "prefectureNumber": 15,
    "prefecture": "新潟県",
    "city": "燕市",
    "town": "吉田東町"
  },
  "9590266": {
    "zipcode": "9590266",
    "prefectureCode": "15",
    "prefectureNumber": 15,
    "prefecture": "新潟県",
    "city": "燕市",
    "town": "吉田文京町"
  },
  "9590267": {
    "zipcode": "9590267",
    "prefectureCode": "15",
    "prefectureNumber": 15,
    "prefecture": "新潟県",
    "city": "燕市",
    "town": "吉田宮小路"
  },
  "9590268": {
    "zipcode": "9590268",
    "prefectureCode": "15",
    "prefectureNumber": 15,
    "prefecture": "新潟県",
    "city": "燕市",
    "town": "吉田本町"
  },
  "9590300": {
    "zipcode": "9590300",
    "prefectureCode": "15",
    "prefectureNumber": 15,
    "prefecture": "新潟県",
    "city": "西蒲原郡弥彦村",
    "town": "以下に掲載がない場合"
  },
  "9590301": {
    "zipcode": "9590301",
    "prefectureCode": "15",
    "prefectureNumber": 15,
    "prefecture": "新潟県",
    "city": "西蒲原郡弥彦村",
    "town": "えび穴"
  },
  "9590302": {
    "zipcode": "9590302",
    "prefectureCode": "15",
    "prefectureNumber": 15,
    "prefecture": "新潟県",
    "city": "西蒲原郡弥彦村",
    "town": "田中新田"
  },
  "9590303": {
    "zipcode": "9590303",
    "prefectureCode": "15",
    "prefectureNumber": 15,
    "prefecture": "新潟県",
    "city": "西蒲原郡弥彦村",
    "town": "平野"
  },
  "9590304": {
    "zipcode": "9590304",
    "prefectureCode": "15",
    "prefectureNumber": 15,
    "prefecture": "新潟県",
    "city": "西蒲原郡弥彦村",
    "town": "荻野"
  },
  "9590305": {
    "zipcode": "9590305",
    "prefectureCode": "15",
    "prefectureNumber": 15,
    "prefecture": "新潟県",
    "city": "西蒲原郡弥彦村",
    "town": "矢作"
  },
  "9590306": {
    "zipcode": "9590306",
    "prefectureCode": "15",
    "prefectureNumber": 15,
    "prefecture": "新潟県",
    "city": "西蒲原郡弥彦村",
    "town": "浜首"
  },
  "9590307": {
    "zipcode": "9590307",
    "prefectureCode": "15",
    "prefectureNumber": 15,
    "prefecture": "新潟県",
    "city": "西蒲原郡弥彦村",
    "town": "川崎"
  },
  "9590308": {
    "zipcode": "9590308",
    "prefectureCode": "15",
    "prefectureNumber": 15,
    "prefecture": "新潟県",
    "city": "西蒲原郡弥彦村",
    "town": "大戸"
  },
  "9590309": {
    "zipcode": "9590309",
    "prefectureCode": "15",
    "prefectureNumber": 15,
    "prefecture": "新潟県",
    "city": "西蒲原郡弥彦村",
    "town": "峰見"
  },
  "9590310": {
    "zipcode": "9590310",
    "prefectureCode": "15",
    "prefectureNumber": 15,
    "prefecture": "新潟県",
    "city": "西蒲原郡弥彦村",
    "town": "美山"
  },
  "9590311": {
    "zipcode": "9590311",
    "prefectureCode": "15",
    "prefectureNumber": 15,
    "prefecture": "新潟県",
    "city": "西蒲原郡弥彦村",
    "town": "井田"
  },
  "9590312": {
    "zipcode": "9590312",
    "prefectureCode": "15",
    "prefectureNumber": 15,
    "prefecture": "新潟県",
    "city": "西蒲原郡弥彦村",
    "town": "中山"
  },
  "9590313": {
    "zipcode": "9590313",
    "prefectureCode": "15",
    "prefectureNumber": 15,
    "prefecture": "新潟県",
    "city": "西蒲原郡弥彦村",
    "town": "山崎"
  },
  "9590314": {
    "zipcode": "9590314",
    "prefectureCode": "15",
    "prefectureNumber": 15,
    "prefecture": "新潟県",
    "city": "西蒲原郡弥彦村",
    "town": "山岸"
  },
  "9590315": {
    "zipcode": "9590315",
    "prefectureCode": "15",
    "prefectureNumber": 15,
    "prefecture": "新潟県",
    "city": "西蒲原郡弥彦村",
    "town": "麓村新田"
  },
  "9590316": {
    "zipcode": "9590316",
    "prefectureCode": "15",
    "prefectureNumber": 15,
    "prefecture": "新潟県",
    "city": "西蒲原郡弥彦村",
    "town": "村山"
  },
  "9590317": {
    "zipcode": "9590317",
    "prefectureCode": "15",
    "prefectureNumber": 15,
    "prefecture": "新潟県",
    "city": "西蒲原郡弥彦村",
    "town": "境江"
  },
  "9590318": {
    "zipcode": "9590318",
    "prefectureCode": "15",
    "prefectureNumber": 15,
    "prefecture": "新潟県",
    "city": "西蒲原郡弥彦村",
    "town": "麓"
  },
  "9590319": {
    "zipcode": "9590319",
    "prefectureCode": "15",
    "prefectureNumber": 15,
    "prefecture": "新潟県",
    "city": "西蒲原郡弥彦村",
    "town": "観音寺"
  },
  "9590321": {
    "zipcode": "9590321",
    "prefectureCode": "15",
    "prefectureNumber": 15,
    "prefecture": "新潟県",
    "city": "西蒲原郡弥彦村",
    "town": "上泉"
  },
  "9590322": {
    "zipcode": "9590322",
    "prefectureCode": "15",
    "prefectureNumber": 15,
    "prefecture": "新潟県",
    "city": "西蒲原郡弥彦村",
    "town": "走出"
  },
  "9590323": {
    "zipcode": "9590323",
    "prefectureCode": "15",
    "prefectureNumber": 15,
    "prefecture": "新潟県",
    "city": "西蒲原郡弥彦村",
    "town": "弥彦"
  },
  "9590401": {
    "zipcode": "9590401",
    "prefectureCode": "15",
    "prefectureNumber": 15,
    "prefecture": "新潟県",
    "city": "新潟市西蒲区",
    "town": "與兵衛野新田"
  },
  "9590402": {
    "zipcode": "9590402",
    "prefectureCode": "15",
    "prefectureNumber": 15,
    "prefecture": "新潟県",
    "city": "新潟市西蒲区",
    "town": "三角野新田"
  },
  "9590403": {
    "zipcode": "9590403",
    "prefectureCode": "15",
    "prefectureNumber": 15,
    "prefecture": "新潟県",
    "city": "新潟市西蒲区",
    "town": "貝柄"
  },
  "9590404": {
    "zipcode": "9590404",
    "prefectureCode": "15",
    "prefectureNumber": 15,
    "prefecture": "新潟県",
    "city": "新潟市西蒲区",
    "town": "貝柄新田"
  },
  "9590405": {
    "zipcode": "9590405",
    "prefectureCode": "15",
    "prefectureNumber": 15,
    "prefecture": "新潟県",
    "city": "新潟市西蒲区",
    "town": "堀上新田"
  },
  "9590406": {
    "zipcode": "9590406",
    "prefectureCode": "15",
    "prefectureNumber": 15,
    "prefecture": "新潟県",
    "city": "新潟市西蒲区",
    "town": "善光寺村受"
  },
  "9590407": {
    "zipcode": "9590407",
    "prefectureCode": "15",
    "prefectureNumber": 15,
    "prefecture": "新潟県",
    "city": "新潟市西蒲区",
    "town": "旗屋村受"
  },
  "9590411": {
    "zipcode": "9590411",
    "prefectureCode": "15",
    "prefectureNumber": 15,
    "prefecture": "新潟県",
    "city": "新潟市西蒲区",
    "town": "善光寺"
  },
  "9590412": {
    "zipcode": "9590412",
    "prefectureCode": "15",
    "prefectureNumber": 15,
    "prefecture": "新潟県",
    "city": "新潟市西蒲区",
    "town": "桑山"
  },
  "9590413": {
    "zipcode": "9590413",
    "prefectureCode": "15",
    "prefectureNumber": 15,
    "prefecture": "新潟県",
    "city": "新潟市西蒲区",
    "town": "升潟"
  },
  "9590414": {
    "zipcode": "9590414",
    "prefectureCode": "15",
    "prefectureNumber": 15,
    "prefecture": "新潟県",
    "city": "新潟市西蒲区",
    "town": "兵右衛門新田"
  },
  "9590415": {
    "zipcode": "9590415",
    "prefectureCode": "15",
    "prefectureNumber": 15,
    "prefecture": "新潟県",
    "city": "新潟市西蒲区",
    "town": "大潟"
  },
  "9590416": {
    "zipcode": "9590416",
    "prefectureCode": "15",
    "prefectureNumber": 15,
    "prefecture": "新潟県",
    "city": "新潟市西蒲区",
    "town": "浦村"
  },
  "9590417": {
    "zipcode": "9590417",
    "prefectureCode": "15",
    "prefectureNumber": 15,
    "prefecture": "新潟県",
    "city": "新潟市西蒲区",
    "town": "大関"
  },
  "9590418": {
    "zipcode": "9590418",
    "prefectureCode": "15",
    "prefectureNumber": 15,
    "prefecture": "新潟県",
    "city": "新潟市西蒲区",
    "town": "升岡"
  },
  "9590421": {
    "zipcode": "9590421",
    "prefectureCode": "15",
    "prefectureNumber": 15,
    "prefecture": "新潟県",
    "city": "新潟市西蒲区",
    "town": "鱸"
  },
  "9590422": {
    "zipcode": "9590422",
    "prefectureCode": "15",
    "prefectureNumber": 15,
    "prefecture": "新潟県",
    "city": "新潟市西蒲区",
    "town": "曽根"
  },
  "9590423": {
    "zipcode": "9590423",
    "prefectureCode": "15",
    "prefectureNumber": 15,
    "prefecture": "新潟県",
    "city": "新潟市西蒲区",
    "town": "旗屋"
  },
  "9590424": {
    "zipcode": "9590424",
    "prefectureCode": "15",
    "prefectureNumber": 15,
    "prefecture": "新潟県",
    "city": "新潟市西蒲区",
    "town": "松崎"
  },
  "9590425": {
    "zipcode": "9590425",
    "prefectureCode": "15",
    "prefectureNumber": 15,
    "prefecture": "新潟県",
    "city": "新潟市西蒲区",
    "town": "押付"
  },
  "9590426": {
    "zipcode": "9590426",
    "prefectureCode": "15",
    "prefectureNumber": 15,
    "prefecture": "新潟県",
    "city": "新潟市西蒲区",
    "town": "矢島"
  },
  "9590431": {
    "zipcode": "9590431",
    "prefectureCode": "15",
    "prefectureNumber": 15,
    "prefecture": "新潟県",
    "city": "新潟市西蒲区",
    "town": "平野"
  },
  "9590432": {
    "zipcode": "9590432",
    "prefectureCode": "15",
    "prefectureNumber": 15,
    "prefecture": "新潟県",
    "city": "新潟市西蒲区",
    "town": "川崎"
  },
  "9590433": {
    "zipcode": "9590433",
    "prefectureCode": "15",
    "prefectureNumber": 15,
    "prefecture": "新潟県",
    "city": "新潟市西蒲区",
    "town": "槇島"
  },
  "9590434": {
    "zipcode": "9590434",
    "prefectureCode": "15",
    "prefectureNumber": 15,
    "prefecture": "新潟県",
    "city": "新潟市西蒲区",
    "town": "天竺堂"
  },
  "9590435": {
    "zipcode": "9590435",
    "prefectureCode": "15",
    "prefectureNumber": 15,
    "prefecture": "新潟県",
    "city": "新潟市西蒲区",
    "town": "真田"
  },
  "9590436": {
    "zipcode": "9590436",
    "prefectureCode": "15",
    "prefectureNumber": 15,
    "prefecture": "新潟県",
    "city": "新潟市西蒲区",
    "town": "西汰上"
  },
  "9590437": {
    "zipcode": "9590437",
    "prefectureCode": "15",
    "prefectureNumber": 15,
    "prefecture": "新潟県",
    "city": "新潟市西蒲区",
    "town": "中島"
  },
  "9590438": {
    "zipcode": "9590438",
    "prefectureCode": "15",
    "prefectureNumber": 15,
    "prefecture": "新潟県",
    "city": "新潟市西蒲区",
    "town": "下山"
  },
  "9590501": {
    "zipcode": "9590501",
    "prefectureCode": "15",
    "prefectureNumber": 15,
    "prefecture": "新潟県",
    "city": "新潟市西蒲区",
    "town": "井随"
  },
  "9590502": {
    "zipcode": "9590502",
    "prefectureCode": "15",
    "prefectureNumber": 15,
    "prefecture": "新潟県",
    "city": "新潟市西蒲区",
    "town": "熊谷"
  },
  "9590503": {
    "zipcode": "9590503",
    "prefectureCode": "15",
    "prefectureNumber": 15,
    "prefecture": "新潟県",
    "city": "新潟市西蒲区",
    "town": "山口新田"
  },
  "9590504": {
    "zipcode": "9590504",
    "prefectureCode": "15",
    "prefectureNumber": 15,
    "prefecture": "新潟県",
    "city": "新潟市西蒲区",
    "town": "横戸"
  },
  "9590505": {
    "zipcode": "9590505",
    "prefectureCode": "15",
    "prefectureNumber": 15,
    "prefecture": "新潟県",
    "city": "新潟市西蒲区",
    "town": "三方"
  },
  "9590506": {
    "zipcode": "9590506",
    "prefectureCode": "15",
    "prefectureNumber": 15,
    "prefecture": "新潟県",
    "city": "新潟市西蒲区",
    "town": "遠藤"
  },
  "9590507": {
    "zipcode": "9590507",
    "prefectureCode": "15",
    "prefectureNumber": 15,
    "prefecture": "新潟県",
    "city": "新潟市西蒲区",
    "town": "卯八郎受"
  },
  "9590508": {
    "zipcode": "9590508",
    "prefectureCode": "15",
    "prefectureNumber": 15,
    "prefecture": "新潟県",
    "city": "新潟市西蒲区",
    "town": "五之上"
  },
  "9590511": {
    "zipcode": "9590511",
    "prefectureCode": "15",
    "prefectureNumber": 15,
    "prefecture": "新潟県",
    "city": "新潟市西蒲区",
    "town": "大原"
  },
  "9590512": {
    "zipcode": "9590512",
    "prefectureCode": "15",
    "prefectureNumber": 15,
    "prefecture": "新潟県",
    "city": "新潟市西蒲区",
    "town": "番屋"
  },
  "9590513": {
    "zipcode": "9590513",
    "prefectureCode": "15",
    "prefectureNumber": 15,
    "prefecture": "新潟県",
    "city": "新潟市西蒲区",
    "town": "茨島"
  },
  "9590514": {
    "zipcode": "9590514",
    "prefectureCode": "15",
    "prefectureNumber": 15,
    "prefecture": "新潟県",
    "city": "新潟市西蒲区",
    "town": "称名"
  },
  "9590515": {
    "zipcode": "9590515",
    "prefectureCode": "15",
    "prefectureNumber": 15,
    "prefecture": "新潟県",
    "city": "新潟市西蒲区",
    "town": "今井"
  },
  "9590516": {
    "zipcode": "9590516",
    "prefectureCode": "15",
    "prefectureNumber": 15,
    "prefecture": "新潟県",
    "city": "新潟市西蒲区",
    "town": "国見"
  },
  "9590517": {
    "zipcode": "9590517",
    "prefectureCode": "15",
    "prefectureNumber": 15,
    "prefecture": "新潟県",
    "city": "新潟市西蒲区",
    "town": "大曽根"
  },
  "9590518": {
    "zipcode": "9590518",
    "prefectureCode": "15",
    "prefectureNumber": 15,
    "prefecture": "新潟県",
    "city": "新潟市西蒲区",
    "town": "南"
  },
  "9590519": {
    "zipcode": "9590519",
    "prefectureCode": "15",
    "prefectureNumber": 15,
    "prefecture": "新潟県",
    "city": "新潟市西蒲区",
    "town": "美里"
  },
  "9590521": {
    "zipcode": "9590521",
    "prefectureCode": "15",
    "prefectureNumber": 15,
    "prefecture": "新潟県",
    "city": "新潟市西蒲区",
    "town": "鎧潟"
  },
  "9591101": {
    "zipcode": "9591101",
    "prefectureCode": "15",
    "prefectureNumber": 15,
    "prefecture": "新潟県",
    "city": "三条市",
    "town": "福島新田甲"
  },
  "9591102": {
    "zipcode": "9591102",
    "prefectureCode": "15",
    "prefectureNumber": 15,
    "prefecture": "新潟県",
    "city": "三条市",
    "town": "福島新田乙"
  },
  "9591103": {
    "zipcode": "9591103",
    "prefectureCode": "15",
    "prefectureNumber": 15,
    "prefecture": "新潟県",
    "city": "三条市",
    "town": "福島新田戊"
  },
  "9591104": {
    "zipcode": "9591104",
    "prefectureCode": "15",
    "prefectureNumber": 15,
    "prefecture": "新潟県",
    "city": "三条市",
    "town": "東光寺"
  },
  "9591105": {
    "zipcode": "9591105",
    "prefectureCode": "15",
    "prefectureNumber": 15,
    "prefecture": "新潟県",
    "city": "三条市",
    "town": "若宮新田"
  },
  "9591106": {
    "zipcode": "9591106",
    "prefectureCode": "15",
    "prefectureNumber": 15,
    "prefecture": "新潟県",
    "city": "三条市",
    "town": "吉野屋"
  },
  "9591107": {
    "zipcode": "9591107",
    "prefectureCode": "15",
    "prefectureNumber": 15,
    "prefecture": "新潟県",
    "city": "三条市",
    "town": "矢田"
  },
  "9591108": {
    "zipcode": "9591108",
    "prefectureCode": "15",
    "prefectureNumber": 15,
    "prefecture": "新潟県",
    "city": "三条市",
    "town": "北潟"
  },
  "9591109": {
    "zipcode": "9591109",
    "prefectureCode": "15",
    "prefectureNumber": 15,
    "prefecture": "新潟県",
    "city": "三条市",
    "town": "蔵内"
  },
  "9591111": {
    "zipcode": "9591111",
    "prefectureCode": "15",
    "prefectureNumber": 15,
    "prefecture": "新潟県",
    "city": "三条市",
    "town": "茅原"
  },
  "9591112": {
    "zipcode": "9591112",
    "prefectureCode": "15",
    "prefectureNumber": 15,
    "prefecture": "新潟県",
    "city": "三条市",
    "town": "安代"
  },
  "9591113": {
    "zipcode": "9591113",
    "prefectureCode": "15",
    "prefectureNumber": 15,
    "prefecture": "新潟県",
    "city": "三条市",
    "town": "大面"
  },
  "9591114": {
    "zipcode": "9591114",
    "prefectureCode": "15",
    "prefectureNumber": 15,
    "prefecture": "新潟県",
    "city": "三条市",
    "town": "高安寺"
  },
  "9591115": {
    "zipcode": "9591115",
    "prefectureCode": "15",
    "prefectureNumber": 15,
    "prefecture": "新潟県",
    "city": "三条市",
    "town": "小滝"
  },
  "9591116": {
    "zipcode": "9591116",
    "prefectureCode": "15",
    "prefectureNumber": 15,
    "prefecture": "新潟県",
    "city": "三条市",
    "town": "前谷内"
  },
  "9591117": {
    "zipcode": "9591117",
    "prefectureCode": "15",
    "prefectureNumber": 15,
    "prefecture": "新潟県",
    "city": "三条市",
    "town": "帯織"
  },
  "9591118": {
    "zipcode": "9591118",
    "prefectureCode": "15",
    "prefectureNumber": 15,
    "prefecture": "新潟県",
    "city": "三条市",
    "town": "山王"
  },
  "9591119": {
    "zipcode": "9591119",
    "prefectureCode": "15",
    "prefectureNumber": 15,
    "prefecture": "新潟県",
    "city": "三条市",
    "town": "戸口"
  },
  "9591121": {
    "zipcode": "9591121",
    "prefectureCode": "15",
    "prefectureNumber": 15,
    "prefecture": "新潟県",
    "city": "三条市",
    "town": "善久寺"
  },
  "9591122": {
    "zipcode": "9591122",
    "prefectureCode": "15",
    "prefectureNumber": 15,
    "prefecture": "新潟県",
    "city": "三条市",
    "town": "栄荻島"
  },
  "9591123": {
    "zipcode": "9591123",
    "prefectureCode": "15",
    "prefectureNumber": 15,
    "prefecture": "新潟県",
    "city": "三条市",
    "town": "九之曽根"
  },
  "9591124": {
    "zipcode": "9591124",
    "prefectureCode": "15",
    "prefectureNumber": 15,
    "prefecture": "新潟県",
    "city": "三条市",
    "town": "千把野新田"
  },
  "9591125": {
    "zipcode": "9591125",
    "prefectureCode": "15",
    "prefectureNumber": 15,
    "prefecture": "新潟県",
    "city": "三条市",
    "town": "中島"
  },
  "9591126": {
    "zipcode": "9591126",
    "prefectureCode": "15",
    "prefectureNumber": 15,
    "prefecture": "新潟県",
    "city": "三条市",
    "town": "小古瀬"
  },
  "9591131": {
    "zipcode": "9591131",
    "prefectureCode": "15",
    "prefectureNumber": 15,
    "prefecture": "新潟県",
    "city": "三条市",
    "town": "芹山"
  },
  "9591132": {
    "zipcode": "9591132",
    "prefectureCode": "15",
    "prefectureNumber": 15,
    "prefecture": "新潟県",
    "city": "三条市",
    "town": "渡前"
  },
  "9591133": {
    "zipcode": "9591133",
    "prefectureCode": "15",
    "prefectureNumber": 15,
    "prefecture": "新潟県",
    "city": "三条市",
    "town": "中曽根新田"
  },
  "9591134": {
    "zipcode": "9591134",
    "prefectureCode": "15",
    "prefectureNumber": 15,
    "prefecture": "新潟県",
    "city": "三条市",
    "town": "鬼木新田"
  },
  "9591135": {
    "zipcode": "9591135",
    "prefectureCode": "15",
    "prefectureNumber": 15,
    "prefecture": "新潟県",
    "city": "三条市",
    "town": "鬼木"
  },
  "9591136": {
    "zipcode": "9591136",
    "prefectureCode": "15",
    "prefectureNumber": 15,
    "prefecture": "新潟県",
    "city": "三条市",
    "town": "川通中町"
  },
  "9591141": {
    "zipcode": "9591141",
    "prefectureCode": "15",
    "prefectureNumber": 15,
    "prefecture": "新潟県",
    "city": "三条市",
    "town": "今井"
  },
  "9591142": {
    "zipcode": "9591142",
    "prefectureCode": "15",
    "prefectureNumber": 15,
    "prefecture": "新潟県",
    "city": "三条市",
    "town": "今井野新田"
  },
  "9591143": {
    "zipcode": "9591143",
    "prefectureCode": "15",
    "prefectureNumber": 15,
    "prefecture": "新潟県",
    "city": "三条市",
    "town": "泉新田"
  },
  "9591144": {
    "zipcode": "9591144",
    "prefectureCode": "15",
    "prefectureNumber": 15,
    "prefecture": "新潟県",
    "city": "三条市",
    "town": "貝喰新田"
  },
  "9591145": {
    "zipcode": "9591145",
    "prefectureCode": "15",
    "prefectureNumber": 15,
    "prefecture": "新潟県",
    "city": "三条市",
    "town": "福島新田丙"
  },
  "9591146": {
    "zipcode": "9591146",
    "prefectureCode": "15",
    "prefectureNumber": 15,
    "prefecture": "新潟県",
    "city": "三条市",
    "town": "半ノ木"
  },
  "9591147": {
    "zipcode": "9591147",
    "prefectureCode": "15",
    "prefectureNumber": 15,
    "prefecture": "新潟県",
    "city": "三条市",
    "town": "岡野新田"
  },
  "9591148": {
    "zipcode": "9591148",
    "prefectureCode": "15",
    "prefectureNumber": 15,
    "prefecture": "新潟県",
    "city": "三条市",
    "town": "尾崎"
  },
  "9591151": {
    "zipcode": "9591151",
    "prefectureCode": "15",
    "prefectureNumber": 15,
    "prefecture": "新潟県",
    "city": "三条市",
    "town": "猪子場新田"
  },
  "9591152": {
    "zipcode": "9591152",
    "prefectureCode": "15",
    "prefectureNumber": 15,
    "prefecture": "新潟県",
    "city": "三条市",
    "town": "一ツ屋敷新田"
  },
  "9591153": {
    "zipcode": "9591153",
    "prefectureCode": "15",
    "prefectureNumber": 15,
    "prefecture": "新潟県",
    "city": "三条市",
    "town": "新堀"
  },
  "9591154": {
    "zipcode": "9591154",
    "prefectureCode": "15",
    "prefectureNumber": 15,
    "prefecture": "新潟県",
    "city": "三条市",
    "town": "岩淵"
  },
  "9591155": {
    "zipcode": "9591155",
    "prefectureCode": "15",
    "prefectureNumber": 15,
    "prefecture": "新潟県",
    "city": "三条市",
    "town": "福島新田丁"
  },
  "9591156": {
    "zipcode": "9591156",
    "prefectureCode": "15",
    "prefectureNumber": 15,
    "prefecture": "新潟県",
    "city": "三条市",
    "town": "福島新田"
  },
  "9591200": {
    "zipcode": "9591200",
    "prefectureCode": "15",
    "prefectureNumber": 15,
    "prefecture": "新潟県",
    "city": "燕市",
    "town": "以下に掲載がない場合"
  },
  "9591201": {
    "zipcode": "9591201",
    "prefectureCode": "15",
    "prefectureNumber": 15,
    "prefecture": "新潟県",
    "city": "燕市",
    "town": "灰方"
  },
  "9591202": {
    "zipcode": "9591202",
    "prefectureCode": "15",
    "prefectureNumber": 15,
    "prefecture": "新潟県",
    "city": "燕市",
    "town": "松橋"
  },
  "9591203": {
    "zipcode": "9591203",
    "prefectureCode": "15",
    "prefectureNumber": 15,
    "prefecture": "新潟県",
    "city": "燕市",
    "town": "舘野"
  },
  "9591204": {
    "zipcode": "9591204",
    "prefectureCode": "15",
    "prefectureNumber": 15,
    "prefecture": "新潟県",
    "city": "燕市",
    "town": "長所"
  },
  "9591205": {
    "zipcode": "9591205",
    "prefectureCode": "15",
    "prefectureNumber": 15,
    "prefecture": "新潟県",
    "city": "燕市",
    "town": "長渡"
  },
  "9591206": {
    "zipcode": "9591206",
    "prefectureCode": "15",
    "prefectureNumber": 15,
    "prefecture": "新潟県",
    "city": "燕市",
    "town": "関崎"
  },
  "9591207": {
    "zipcode": "9591207",
    "prefectureCode": "15",
    "prefectureNumber": 15,
    "prefecture": "新潟県",
    "city": "燕市",
    "town": "三王渕"
  },
  "9591211": {
    "zipcode": "9591211",
    "prefectureCode": "15",
    "prefectureNumber": 15,
    "prefecture": "新潟県",
    "city": "燕市",
    "town": "小中川"
  },
  "9591212": {
    "zipcode": "9591212",
    "prefectureCode": "15",
    "prefectureNumber": 15,
    "prefecture": "新潟県",
    "city": "燕市",
    "town": "大船渡"
  },
  "9591213": {
    "zipcode": "9591213",
    "prefectureCode": "15",
    "prefectureNumber": 15,
    "prefecture": "新潟県",
    "city": "燕市",
    "town": "小古津新"
  },
  "9591214": {
    "zipcode": "9591214",
    "prefectureCode": "15",
    "prefectureNumber": 15,
    "prefecture": "新潟県",
    "city": "燕市",
    "town": "新生町"
  },
  "9591215": {
    "zipcode": "9591215",
    "prefectureCode": "15",
    "prefectureNumber": 15,
    "prefecture": "新潟県",
    "city": "燕市",
    "town": "又新"
  },
  "9591216": {
    "zipcode": "9591216",
    "prefectureCode": "15",
    "prefectureNumber": 15,
    "prefecture": "新潟県",
    "city": "燕市",
    "town": "二階堂"
  },
  "9591217": {
    "zipcode": "9591217",
    "prefectureCode": "15",
    "prefectureNumber": 15,
    "prefecture": "新潟県",
    "city": "燕市",
    "town": "勘新"
  },
  "9591221": {
    "zipcode": "9591221",
    "prefectureCode": "15",
    "prefectureNumber": 15,
    "prefecture": "新潟県",
    "city": "燕市",
    "town": "花園町"
  },
  "9591222": {
    "zipcode": "9591222",
    "prefectureCode": "15",
    "prefectureNumber": 15,
    "prefecture": "新潟県",
    "city": "燕市",
    "town": "次新"
  },
  "9591223": {
    "zipcode": "9591223",
    "prefectureCode": "15",
    "prefectureNumber": 15,
    "prefecture": "新潟県",
    "city": "燕市",
    "town": "下児木"
  },
  "9591224": {
    "zipcode": "9591224",
    "prefectureCode": "15",
    "prefectureNumber": 15,
    "prefecture": "新潟県",
    "city": "燕市",
    "town": "四ツ屋"
  },
  "9591225": {
    "zipcode": "9591225",
    "prefectureCode": "15",
    "prefectureNumber": 15,
    "prefecture": "新潟県",
    "city": "燕市",
    "town": "中川"
  },
  "9591226": {
    "zipcode": "9591226",
    "prefectureCode": "15",
    "prefectureNumber": 15,
    "prefecture": "新潟県",
    "city": "燕市",
    "town": "小牧"
  },
  "9591228": {
    "zipcode": "9591228",
    "prefectureCode": "15",
    "prefectureNumber": 15,
    "prefecture": "新潟県",
    "city": "燕市",
    "town": "佐渡"
  },
  "9591232": {
    "zipcode": "9591232",
    "prefectureCode": "15",
    "prefectureNumber": 15,
    "prefecture": "新潟県",
    "city": "燕市",
    "town": "井土巻"
  },
  "9591233": {
    "zipcode": "9591233",
    "prefectureCode": "15",
    "prefectureNumber": 15,
    "prefecture": "新潟県",
    "city": "燕市",
    "town": "殿島"
  },
  "9591234": {
    "zipcode": "9591234",
    "prefectureCode": "15",
    "prefectureNumber": 15,
    "prefecture": "新潟県",
    "city": "燕市",
    "town": "南"
  },
  "9591241": {
    "zipcode": "9591241",
    "prefectureCode": "15",
    "prefectureNumber": 15,
    "prefecture": "新潟県",
    "city": "燕市",
    "town": "小高"
  },
  "9591242": {
    "zipcode": "9591242",
    "prefectureCode": "15",
    "prefectureNumber": 15,
    "prefecture": "新潟県",
    "city": "燕市",
    "town": "日之出町"
  },
  "9591244": {
    "zipcode": "9591244",
    "prefectureCode": "15",
    "prefectureNumber": 15,
    "prefecture": "新潟県",
    "city": "燕市",
    "town": "中央通"
  },
  "9591246": {
    "zipcode": "9591246",
    "prefectureCode": "15",
    "prefectureNumber": 15,
    "prefecture": "新潟県",
    "city": "燕市",
    "town": "新栄町"
  },
  "9591251": {
    "zipcode": "9591251",
    "prefectureCode": "15",
    "prefectureNumber": 15,
    "prefecture": "新潟県",
    "city": "燕市",
    "town": "白山町"
  },
  "9591252": {
    "zipcode": "9591252",
    "prefectureCode": "15",
    "prefectureNumber": 15,
    "prefecture": "新潟県",
    "city": "燕市",
    "town": "寿町"
  },
  "9591253": {
    "zipcode": "9591253",
    "prefectureCode": "15",
    "prefectureNumber": 15,
    "prefecture": "新潟県",
    "city": "燕市",
    "town": "本町"
  },
  "9591254": {
    "zipcode": "9591254",
    "prefectureCode": "15",
    "prefectureNumber": 15,
    "prefecture": "新潟県",
    "city": "燕市",
    "town": "幸町"
  },
  "9591255": {
    "zipcode": "9591255",
    "prefectureCode": "15",
    "prefectureNumber": 15,
    "prefecture": "新潟県",
    "city": "燕市",
    "town": "新町"
  },
  "9591256": {
    "zipcode": "9591256",
    "prefectureCode": "15",
    "prefectureNumber": 15,
    "prefecture": "新潟県",
    "city": "燕市",
    "town": "穀町"
  },
  "9591257": {
    "zipcode": "9591257",
    "prefectureCode": "15",
    "prefectureNumber": 15,
    "prefecture": "新潟県",
    "city": "燕市",
    "town": "宮町"
  },
  "9591258": {
    "zipcode": "9591258",
    "prefectureCode": "15",
    "prefectureNumber": 15,
    "prefecture": "新潟県",
    "city": "燕市",
    "town": "仲町"
  },
  "9591261": {
    "zipcode": "9591261",
    "prefectureCode": "15",
    "prefectureNumber": 15,
    "prefecture": "新潟県",
    "city": "燕市",
    "town": "秋葉町"
  },
  "9591262": {
    "zipcode": "9591262",
    "prefectureCode": "15",
    "prefectureNumber": 15,
    "prefecture": "新潟県",
    "city": "燕市",
    "town": "水道町"
  },
  "9591263": {
    "zipcode": "9591263",
    "prefectureCode": "15",
    "prefectureNumber": 15,
    "prefecture": "新潟県",
    "city": "燕市",
    "town": "大曲"
  },
  "9591264": {
    "zipcode": "9591264",
    "prefectureCode": "15",
    "prefectureNumber": 15,
    "prefecture": "新潟県",
    "city": "燕市",
    "town": "八王寺"
  },
  "9591265": {
    "zipcode": "9591265",
    "prefectureCode": "15",
    "prefectureNumber": 15,
    "prefecture": "新潟県",
    "city": "燕市",
    "town": "道金"
  },
  "9591271": {
    "zipcode": "9591271",
    "prefectureCode": "15",
    "prefectureNumber": 15,
    "prefecture": "新潟県",
    "city": "燕市",
    "town": "蔵関"
  },
  "9591272": {
    "zipcode": "9591272",
    "prefectureCode": "15",
    "prefectureNumber": 15,
    "prefecture": "新潟県",
    "city": "燕市",
    "town": "杉柳"
  },
  "9591273": {
    "zipcode": "9591273",
    "prefectureCode": "15",
    "prefectureNumber": 15,
    "prefecture": "新潟県",
    "city": "燕市",
    "town": "杉名"
  },
  "9591274": {
    "zipcode": "9591274",
    "prefectureCode": "15",
    "prefectureNumber": 15,
    "prefecture": "新潟県",
    "city": "燕市",
    "town": "柳山"
  },
  "9591275": {
    "zipcode": "9591275",
    "prefectureCode": "15",
    "prefectureNumber": 15,
    "prefecture": "新潟県",
    "city": "燕市",
    "town": "小池新町"
  },
  "9591276": {
    "zipcode": "9591276",
    "prefectureCode": "15",
    "prefectureNumber": 15,
    "prefecture": "新潟県",
    "city": "燕市",
    "town": "小池"
  },
  "9591277": {
    "zipcode": "9591277",
    "prefectureCode": "15",
    "prefectureNumber": 15,
    "prefecture": "新潟県",
    "city": "燕市",
    "town": "物流センター"
  },
  "9591280": {
    "zipcode": "9591280",
    "prefectureCode": "15",
    "prefectureNumber": 15,
    "prefecture": "新潟県",
    "city": "燕市",
    "town": "花見"
  },
  "9591281": {
    "zipcode": "9591281",
    "prefectureCode": "15",
    "prefectureNumber": 15,
    "prefecture": "新潟県",
    "city": "燕市",
    "town": "桜町"
  },
  "9591284": {
    "zipcode": "9591284",
    "prefectureCode": "15",
    "prefectureNumber": 15,
    "prefecture": "新潟県",
    "city": "燕市",
    "town": "杣木"
  },
  "9591286": {
    "zipcode": "9591286",
    "prefectureCode": "15",
    "prefectureNumber": 15,
    "prefecture": "新潟県",
    "city": "燕市",
    "town": "小関"
  },
  "9591287": {
    "zipcode": "9591287",
    "prefectureCode": "15",
    "prefectureNumber": 15,
    "prefecture": "新潟県",
    "city": "燕市",
    "town": "大関"
  },
  "9591288": {
    "zipcode": "9591288",
    "prefectureCode": "15",
    "prefectureNumber": 15,
    "prefecture": "新潟県",
    "city": "燕市",
    "town": "燕"
  },
  "9591289": {
    "zipcode": "9591289",
    "prefectureCode": "15",
    "prefectureNumber": 15,
    "prefecture": "新潟県",
    "city": "燕市",
    "town": "東太田"
  },
  "9591300": {
    "zipcode": "9591300",
    "prefectureCode": "15",
    "prefectureNumber": 15,
    "prefecture": "新潟県",
    "city": "加茂市",
    "town": "以下に掲載がない場合"
  },
  "9591301": {
    "zipcode": "9591301",
    "prefectureCode": "15",
    "prefectureNumber": 15,
    "prefecture": "新潟県",
    "city": "加茂市",
    "town": "北潟"
  },
  "9591302": {
    "zipcode": "9591302",
    "prefectureCode": "15",
    "prefectureNumber": 15,
    "prefecture": "新潟県",
    "city": "加茂市",
    "town": "五反田"
  },
  "9591303": {
    "zipcode": "9591303",
    "prefectureCode": "15",
    "prefectureNumber": 15,
    "prefecture": "新潟県",
    "city": "加茂市",
    "town": "後須田"
  },
  "9591304": {
    "zipcode": "9591304",
    "prefectureCode": "15",
    "prefectureNumber": 15,
    "prefecture": "新潟県",
    "city": "加茂市",
    "town": "前須田"
  },
  "9591305": {
    "zipcode": "9591305",
    "prefectureCode": "15",
    "prefectureNumber": 15,
    "prefecture": "新潟県",
    "city": "加茂市",
    "town": "砂押新田"
  },
  "9591306": {
    "zipcode": "9591306",
    "prefectureCode": "15",
    "prefectureNumber": 15,
    "prefecture": "新潟県",
    "city": "加茂市",
    "town": "鵜森"
  },
  "9591307": {
    "zipcode": "9591307",
    "prefectureCode": "15",
    "prefectureNumber": 15,
    "prefecture": "新潟県",
    "city": "加茂市",
    "town": "田中新田"
  },
  "9591311": {
    "zipcode": "9591311",
    "prefectureCode": "15",
    "prefectureNumber": 15,
    "prefecture": "新潟県",
    "city": "加茂市",
    "town": "加茂新田"
  },
  "9591312": {
    "zipcode": "9591312",
    "prefectureCode": "15",
    "prefectureNumber": 15,
    "prefecture": "新潟県",
    "city": "加茂市",
    "town": "石川"
  },
  "9591313": {
    "zipcode": "9591313",
    "prefectureCode": "15",
    "prefectureNumber": 15,
    "prefecture": "新潟県",
    "city": "加茂市",
    "town": "幸町"
  },
  "9591314": {
    "zipcode": "9591314",
    "prefectureCode": "15",
    "prefectureNumber": 15,
    "prefecture": "新潟県",
    "city": "加茂市",
    "town": "番田"
  },
  "9591315": {
    "zipcode": "9591315",
    "prefectureCode": "15",
    "prefectureNumber": 15,
    "prefecture": "新潟県",
    "city": "加茂市",
    "town": "天神林"
  },
  "9591316": {
    "zipcode": "9591316",
    "prefectureCode": "15",
    "prefectureNumber": 15,
    "prefecture": "新潟県",
    "city": "加茂市",
    "town": "山島新田"
  },
  "9591321": {
    "zipcode": "9591321",
    "prefectureCode": "15",
    "prefectureNumber": 15,
    "prefecture": "新潟県",
    "city": "加茂市",
    "town": "希望ケ丘"
  },
  "9591322": {
    "zipcode": "9591322",
    "prefectureCode": "15",
    "prefectureNumber": 15,
    "prefecture": "新潟県",
    "city": "加茂市",
    "town": "学校町"
  },
  "9591323": {
    "zipcode": "9591323",
    "prefectureCode": "15",
    "prefectureNumber": 15,
    "prefecture": "新潟県",
    "city": "加茂市",
    "town": "都ケ丘"
  },
  "9591324": {
    "zipcode": "9591324",
    "prefectureCode": "15",
    "prefectureNumber": 15,
    "prefecture": "新潟県",
    "city": "加茂市",
    "town": "赤谷"
  },
  "9591325": {
    "zipcode": "9591325",
    "prefectureCode": "15",
    "prefectureNumber": 15,
    "prefecture": "新潟県",
    "city": "加茂市",
    "town": "神明町"
  },
  "9591326": {
    "zipcode": "9591326",
    "prefectureCode": "15",
    "prefectureNumber": 15,
    "prefecture": "新潟県",
    "city": "加茂市",
    "town": "青海町"
  },
  "9591327": {
    "zipcode": "9591327",
    "prefectureCode": "15",
    "prefectureNumber": 15,
    "prefecture": "新潟県",
    "city": "加茂市",
    "town": "千刈"
  },
  "9591328": {
    "zipcode": "9591328",
    "prefectureCode": "15",
    "prefectureNumber": 15,
    "prefecture": "新潟県",
    "city": "加茂市",
    "town": "陣ケ峰"
  },
  "9591331": {
    "zipcode": "9591331",
    "prefectureCode": "15",
    "prefectureNumber": 15,
    "prefecture": "新潟県",
    "city": "加茂市",
    "town": "皆川"
  },
  "9591332": {
    "zipcode": "9591332",
    "prefectureCode": "15",
    "prefectureNumber": 15,
    "prefecture": "新潟県",
    "city": "加茂市",
    "town": "上条"
  },
  "9591333": {
    "zipcode": "9591333",
    "prefectureCode": "15",
    "prefectureNumber": 15,
    "prefecture": "新潟県",
    "city": "加茂市",
    "town": "八幡"
  },
  "9591334": {
    "zipcode": "9591334",
    "prefectureCode": "15",
    "prefectureNumber": 15,
    "prefecture": "新潟県",
    "city": "加茂市",
    "town": "狭口"
  },
  "9591335": {
    "zipcode": "9591335",
    "prefectureCode": "15",
    "prefectureNumber": 15,
    "prefecture": "新潟県",
    "city": "加茂市",
    "town": "長谷"
  },
  "9591336": {
    "zipcode": "9591336",
    "prefectureCode": "15",
    "prefectureNumber": 15,
    "prefecture": "新潟県",
    "city": "加茂市",
    "town": "黒水"
  },
  "9591337": {
    "zipcode": "9591337",
    "prefectureCode": "15",
    "prefectureNumber": 15,
    "prefecture": "新潟県",
    "city": "加茂市",
    "town": "西山"
  },
  "9591341": {
    "zipcode": "9591341",
    "prefectureCode": "15",
    "prefectureNumber": 15,
    "prefecture": "新潟県",
    "city": "加茂市",
    "town": "下土倉"
  },
  "9591342": {
    "zipcode": "9591342",
    "prefectureCode": "15",
    "prefectureNumber": 15,
    "prefecture": "新潟県",
    "city": "加茂市",
    "town": "上土倉"
  },
  "9591343": {
    "zipcode": "9591343",
    "prefectureCode": "15",
    "prefectureNumber": 15,
    "prefecture": "新潟県",
    "city": "加茂市",
    "town": "上大谷"
  },
  "9591344": {
    "zipcode": "9591344",
    "prefectureCode": "15",
    "prefectureNumber": 15,
    "prefecture": "新潟県",
    "city": "加茂市",
    "town": "下大谷"
  },
  "9591345": {
    "zipcode": "9591345",
    "prefectureCode": "15",
    "prefectureNumber": 15,
    "prefecture": "新潟県",
    "city": "加茂市",
    "town": "中大谷"
  },
  "9591346": {
    "zipcode": "9591346",
    "prefectureCode": "15",
    "prefectureNumber": 15,
    "prefecture": "新潟県",
    "city": "加茂市",
    "town": "下高柳"
  },
  "9591347": {
    "zipcode": "9591347",
    "prefectureCode": "15",
    "prefectureNumber": 15,
    "prefecture": "新潟県",
    "city": "加茂市",
    "town": "上高柳"
  },
  "9591348": {
    "zipcode": "9591348",
    "prefectureCode": "15",
    "prefectureNumber": 15,
    "prefecture": "新潟県",
    "city": "加茂市",
    "town": "宮寄上"
  },
  "9591351": {
    "zipcode": "9591351",
    "prefectureCode": "15",
    "prefectureNumber": 15,
    "prefecture": "新潟県",
    "city": "加茂市",
    "town": "仲町"
  },
  "9591352": {
    "zipcode": "9591352",
    "prefectureCode": "15",
    "prefectureNumber": 15,
    "prefecture": "新潟県",
    "city": "加茂市",
    "town": "上町"
  },
  "9591353": {
    "zipcode": "9591353",
    "prefectureCode": "15",
    "prefectureNumber": 15,
    "prefecture": "新潟県",
    "city": "加茂市",
    "town": "五番町"
  },
  "9591354": {
    "zipcode": "9591354",
    "prefectureCode": "15",
    "prefectureNumber": 15,
    "prefecture": "新潟県",
    "city": "加茂市",
    "town": "新町"
  },
  "9591355": {
    "zipcode": "9591355",
    "prefectureCode": "15",
    "prefectureNumber": 15,
    "prefecture": "新潟県",
    "city": "加茂市",
    "town": "若宮町"
  },
  "9591356": {
    "zipcode": "9591356",
    "prefectureCode": "15",
    "prefectureNumber": 15,
    "prefecture": "新潟県",
    "city": "加茂市",
    "town": "秋房"
  },
  "9591357": {
    "zipcode": "9591357",
    "prefectureCode": "15",
    "prefectureNumber": 15,
    "prefecture": "新潟県",
    "city": "加茂市",
    "town": "桜沢"
  },
  "9591361": {
    "zipcode": "9591361",
    "prefectureCode": "15",
    "prefectureNumber": 15,
    "prefecture": "新潟県",
    "city": "加茂市",
    "town": "下条"
  },
  "9591362": {
    "zipcode": "9591362",
    "prefectureCode": "15",
    "prefectureNumber": 15,
    "prefecture": "新潟県",
    "city": "加茂市",
    "town": "横江"
  },
  "9591363": {
    "zipcode": "9591363",
    "prefectureCode": "15",
    "prefectureNumber": 15,
    "prefecture": "新潟県",
    "city": "加茂市",
    "town": "芝野"
  },
  "9591371": {
    "zipcode": "9591371",
    "prefectureCode": "15",
    "prefectureNumber": 15,
    "prefecture": "新潟県",
    "city": "加茂市",
    "town": "穀町"
  },
  "9591372": {
    "zipcode": "9591372",
    "prefectureCode": "15",
    "prefectureNumber": 15,
    "prefecture": "新潟県",
    "city": "加茂市",
    "town": "本町"
  },
  "9591373": {
    "zipcode": "9591373",
    "prefectureCode": "15",
    "prefectureNumber": 15,
    "prefecture": "新潟県",
    "city": "加茂市",
    "town": "松坂町"
  },
  "9591374": {
    "zipcode": "9591374",
    "prefectureCode": "15",
    "prefectureNumber": 15,
    "prefecture": "新潟県",
    "city": "加茂市",
    "town": "矢立"
  },
  "9591375": {
    "zipcode": "9591375",
    "prefectureCode": "15",
    "prefectureNumber": 15,
    "prefecture": "新潟県",
    "city": "加茂市",
    "town": "小橋"
  },
  "9591376": {
    "zipcode": "9591376",
    "prefectureCode": "15",
    "prefectureNumber": 15,
    "prefecture": "新潟県",
    "city": "加茂市",
    "town": "中村"
  },
  "9591377": {
    "zipcode": "9591377",
    "prefectureCode": "15",
    "prefectureNumber": 15,
    "prefecture": "新潟県",
    "city": "加茂市",
    "town": "岡ノ町"
  },
  "9591378": {
    "zipcode": "9591378",
    "prefectureCode": "15",
    "prefectureNumber": 15,
    "prefecture": "新潟県",
    "city": "加茂市",
    "town": "駅前"
  },
  "9591381": {
    "zipcode": "9591381",
    "prefectureCode": "15",
    "prefectureNumber": 15,
    "prefecture": "新潟県",
    "city": "加茂市",
    "town": "新栄町"
  },
  "9591382": {
    "zipcode": "9591382",
    "prefectureCode": "15",
    "prefectureNumber": 15,
    "prefecture": "新潟県",
    "city": "加茂市",
    "town": "栄町"
  },
  "9591383": {
    "zipcode": "9591383",
    "prefectureCode": "15",
    "prefectureNumber": 15,
    "prefecture": "新潟県",
    "city": "加茂市",
    "town": "旭町"
  },
  "9591384": {
    "zipcode": "9591384",
    "prefectureCode": "15",
    "prefectureNumber": 15,
    "prefecture": "新潟県",
    "city": "加茂市",
    "town": "寿町"
  },
  "9591385": {
    "zipcode": "9591385",
    "prefectureCode": "15",
    "prefectureNumber": 15,
    "prefecture": "新潟県",
    "city": "加茂市",
    "town": "大郷町"
  },
  "9591386": {
    "zipcode": "9591386",
    "prefectureCode": "15",
    "prefectureNumber": 15,
    "prefecture": "新潟県",
    "city": "加茂市",
    "town": "柳町"
  },
  "9591387": {
    "zipcode": "9591387",
    "prefectureCode": "15",
    "prefectureNumber": 15,
    "prefecture": "新潟県",
    "city": "加茂市",
    "town": "高須町"
  },
  "9591500": {
    "zipcode": "9591500",
    "prefectureCode": "15",
    "prefectureNumber": 15,
    "prefecture": "新潟県",
    "city": "南蒲原郡田上町",
    "town": "以下に掲載がない場合"
  },
  "9591501": {
    "zipcode": "9591501",
    "prefectureCode": "15",
    "prefectureNumber": 15,
    "prefecture": "新潟県",
    "city": "南蒲原郡田上町",
    "town": "湯川"
  },
  "9591502": {
    "zipcode": "9591502",
    "prefectureCode": "15",
    "prefectureNumber": 15,
    "prefecture": "新潟県",
    "city": "南蒲原郡田上町",
    "town": "田上"
  },
  "9591503": {
    "zipcode": "9591503",
    "prefectureCode": "15",
    "prefectureNumber": 15,
    "prefecture": "新潟県",
    "city": "南蒲原郡田上町",
    "town": "原ケ崎新田"
  },
  "9591511": {
    "zipcode": "9591511",
    "prefectureCode": "15",
    "prefectureNumber": 15,
    "prefecture": "新潟県",
    "city": "南蒲原郡田上町",
    "town": "吉田新田"
  },
  "9591512": {
    "zipcode": "9591512",
    "prefectureCode": "15",
    "prefectureNumber": 15,
    "prefecture": "新潟県",
    "city": "南蒲原郡田上町",
    "town": "羽生田"
  },
  "9591513": {
    "zipcode": "9591513",
    "prefectureCode": "15",
    "prefectureNumber": 15,
    "prefecture": "新潟県",
    "city": "南蒲原郡田上町",
    "town": "川船河"
  },
  "9591514": {
    "zipcode": "9591514",
    "prefectureCode": "15",
    "prefectureNumber": 15,
    "prefecture": "新潟県",
    "city": "南蒲原郡田上町",
    "town": "坂田"
  },
  "9591521": {
    "zipcode": "9591521",
    "prefectureCode": "15",
    "prefectureNumber": 15,
    "prefecture": "新潟県",
    "city": "南蒲原郡田上町",
    "town": "石田新田"
  },
  "9591522": {
    "zipcode": "9591522",
    "prefectureCode": "15",
    "prefectureNumber": 15,
    "prefecture": "新潟県",
    "city": "南蒲原郡田上町",
    "town": "千苅新田"
  },
  "9591523": {
    "zipcode": "9591523",
    "prefectureCode": "15",
    "prefectureNumber": 15,
    "prefecture": "新潟県",
    "city": "南蒲原郡田上町",
    "town": "保明新田"
  },
  "9591524": {
    "zipcode": "9591524",
    "prefectureCode": "15",
    "prefectureNumber": 15,
    "prefecture": "新潟県",
    "city": "南蒲原郡田上町",
    "town": "横場新田"
  },
  "9591525": {
    "zipcode": "9591525",
    "prefectureCode": "15",
    "prefectureNumber": 15,
    "prefecture": "新潟県",
    "city": "南蒲原郡田上町",
    "town": "曽根新田"
  },
  "9591600": {
    "zipcode": "9591600",
    "prefectureCode": "15",
    "prefectureNumber": 15,
    "prefecture": "新潟県",
    "city": "五泉市",
    "town": "以下に掲載がない場合"
  },
  "9591601": {
    "zipcode": "9591601",
    "prefectureCode": "15",
    "prefectureNumber": 15,
    "prefecture": "新潟県",
    "city": "五泉市",
    "town": "一本杉"
  },
  "9591602": {
    "zipcode": "9591602",
    "prefectureCode": "15",
    "prefectureNumber": 15,
    "prefecture": "新潟県",
    "city": "五泉市",
    "town": "高山"
  },
  "9591603": {
    "zipcode": "9591603",
    "prefectureCode": "15",
    "prefectureNumber": 15,
    "prefecture": "新潟県",
    "city": "五泉市",
    "town": "荻野島"
  },
  "9591604": {
    "zipcode": "9591604",
    "prefectureCode": "15",
    "prefectureNumber": 15,
    "prefecture": "新潟県",
    "city": "五泉市",
    "town": "論瀬"
  },
  "9591611": {
    "zipcode": "9591611",
    "prefectureCode": "15",
    "prefectureNumber": 15,
    "prefecture": "新潟県",
    "city": "五泉市",
    "town": "笹堀"
  },
  "9591612": {
    "zipcode": "9591612",
    "prefectureCode": "15",
    "prefectureNumber": 15,
    "prefecture": "新潟県",
    "city": "五泉市",
    "town": "小搦"
  },
  "9591613": {
    "zipcode": "9591613",
    "prefectureCode": "15",
    "prefectureNumber": 15,
    "prefecture": "新潟県",
    "city": "五泉市",
    "town": "小流"
  },
  "9591614": {
    "zipcode": "9591614",
    "prefectureCode": "15",
    "prefectureNumber": 15,
    "prefecture": "新潟県",
    "city": "五泉市",
    "town": "馬下"
  },
  "9591615": {
    "zipcode": "9591615",
    "prefectureCode": "15",
    "prefectureNumber": 15,
    "prefecture": "新潟県",
    "city": "五泉市",
    "town": "佐取"
  },
  "9591621": {
    "zipcode": "9591621",
    "prefectureCode": "15",
    "prefectureNumber": 15,
    "prefecture": "新潟県",
    "city": "五泉市",
    "town": "尾白"
  },
  "9591622": {
    "zipcode": "9591622",
    "prefectureCode": "15",
    "prefectureNumber": 15,
    "prefecture": "新潟県",
    "city": "五泉市",
    "town": "小栗山"
  },
  "9591623": {
    "zipcode": "9591623",
    "prefectureCode": "15",
    "prefectureNumber": 15,
    "prefecture": "新潟県",
    "city": "五泉市",
    "town": "大谷"
  },
  "9591624": {
    "zipcode": "9591624",
    "prefectureCode": "15",
    "prefectureNumber": 15,
    "prefecture": "新潟県",
    "city": "五泉市",
    "town": "小山田"
  },
  "9591625": {
    "zipcode": "9591625",
    "prefectureCode": "15",
    "prefectureNumber": 15,
    "prefecture": "新潟県",
    "city": "五泉市",
    "town": "切畑"
  },
  "9591631": {
    "zipcode": "9591631",
    "prefectureCode": "15",
    "prefectureNumber": 15,
    "prefecture": "新潟県",
    "city": "五泉市",
    "town": "猿和田"
  },
  "9591632": {
    "zipcode": "9591632",
    "prefectureCode": "15",
    "prefectureNumber": 15,
    "prefecture": "新潟県",
    "city": "五泉市",
    "town": "中川新"
  },
  "9591633": {
    "zipcode": "9591633",
    "prefectureCode": "15",
    "prefectureNumber": 15,
    "prefecture": "新潟県",
    "city": "五泉市",
    "town": "大須郷"
  },
  "9591634": {
    "zipcode": "9591634",
    "prefectureCode": "15",
    "prefectureNumber": 15,
    "prefecture": "新潟県",
    "city": "五泉市",
    "town": "不動堂"
  },
  "9591635": {
    "zipcode": "9591635",
    "prefectureCode": "15",
    "prefectureNumber": 15,
    "prefecture": "新潟県",
    "city": "五泉市",
    "town": "柄沢"
  },
  "9591636": {
    "zipcode": "9591636",
    "prefectureCode": "15",
    "prefectureNumber": 15,
    "prefecture": "新潟県",
    "city": "五泉市",
    "town": "大蔵"
  },
  "9591637": {
    "zipcode": "9591637",
    "prefectureCode": "15",
    "prefectureNumber": 15,
    "prefecture": "新潟県",
    "city": "五泉市",
    "town": "菅出"
  },
  "9591641": {
    "zipcode": "9591641",
    "prefectureCode": "15",
    "prefectureNumber": 15,
    "prefecture": "新潟県",
    "city": "五泉市",
    "town": "赤羽"
  },
  "9591642": {
    "zipcode": "9591642",
    "prefectureCode": "15",
    "prefectureNumber": 15,
    "prefecture": "新潟県",
    "city": "五泉市",
    "town": "四ツ屋新"
  },
  "9591643": {
    "zipcode": "9591643",
    "prefectureCode": "15",
    "prefectureNumber": 15,
    "prefecture": "新潟県",
    "city": "五泉市",
    "town": "土堀"
  },
  "9591644": {
    "zipcode": "9591644",
    "prefectureCode": "15",
    "prefectureNumber": 15,
    "prefecture": "新潟県",
    "city": "五泉市",
    "town": "東四ツ屋"
  },
  "9591701": {
    "zipcode": "9591701",
    "prefectureCode": "15",
    "prefectureNumber": 15,
    "prefecture": "新潟県",
    "city": "五泉市",
    "town": "石曽根"
  },
  "9591703": {
    "zipcode": "9591703",
    "prefectureCode": "15",
    "prefectureNumber": 15,
    "prefecture": "新潟県",
    "city": "五泉市",
    "town": "矢津"
  },
  "9591704": {
    "zipcode": "9591704",
    "prefectureCode": "15",
    "prefectureNumber": 15,
    "prefecture": "新潟県",
    "city": "五泉市",
    "town": "村松甲"
  },
  "9591705": {
    "zipcode": "9591705",
    "prefectureCode": "15",
    "prefectureNumber": 15,
    "prefecture": "新潟県",
    "city": "五泉市",
    "town": "村松乙"
  },
  "9591706": {
    "zipcode": "9591706",
    "prefectureCode": "15",
    "prefectureNumber": 15,
    "prefecture": "新潟県",
    "city": "五泉市",
    "town": "村松丙"
  },
  "9591707": {
    "zipcode": "9591707",
    "prefectureCode": "15",
    "prefectureNumber": 15,
    "prefecture": "新潟県",
    "city": "五泉市",
    "town": "村松"
  },
  "9591708": {
    "zipcode": "9591708",
    "prefectureCode": "15",
    "prefectureNumber": 15,
    "prefecture": "新潟県",
    "city": "五泉市",
    "town": "上木越"
  },
  "9591709": {
    "zipcode": "9591709",
    "prefectureCode": "15",
    "prefectureNumber": 15,
    "prefecture": "新潟県",
    "city": "五泉市",
    "town": "木越荒屋"
  },
  "9591711": {
    "zipcode": "9591711",
    "prefectureCode": "15",
    "prefectureNumber": 15,
    "prefecture": "新潟県",
    "city": "五泉市",
    "town": "川内"
  },
  "9591712": {
    "zipcode": "9591712",
    "prefectureCode": "15",
    "prefectureNumber": 15,
    "prefecture": "新潟県",
    "city": "五泉市",
    "town": "土淵"
  },
  "9591713": {
    "zipcode": "9591713",
    "prefectureCode": "15",
    "prefectureNumber": 15,
    "prefecture": "新潟県",
    "city": "五泉市",
    "town": "水戸野"
  },
  "9591714": {
    "zipcode": "9591714",
    "prefectureCode": "15",
    "prefectureNumber": 15,
    "prefecture": "新潟県",
    "city": "五泉市",
    "town": "仙見谷"
  },
  "9591715": {
    "zipcode": "9591715",
    "prefectureCode": "15",
    "prefectureNumber": 15,
    "prefecture": "新潟県",
    "city": "五泉市",
    "town": "夏針"
  },
  "9591716": {
    "zipcode": "9591716",
    "prefectureCode": "15",
    "prefectureNumber": 15,
    "prefecture": "新潟県",
    "city": "五泉市",
    "town": "熊沢"
  },
  "9591717": {
    "zipcode": "9591717",
    "prefectureCode": "15",
    "prefectureNumber": 15,
    "prefecture": "新潟県",
    "city": "五泉市",
    "town": "阿弥陀瀬"
  },
  "9591718": {
    "zipcode": "9591718",
    "prefectureCode": "15",
    "prefectureNumber": 15,
    "prefecture": "新潟県",
    "city": "五泉市",
    "town": "下阿弥陀瀬"
  },
  "9591721": {
    "zipcode": "9591721",
    "prefectureCode": "15",
    "prefectureNumber": 15,
    "prefecture": "新潟県",
    "city": "五泉市",
    "town": "暮坪"
  },
  "9591722": {
    "zipcode": "9591722",
    "prefectureCode": "15",
    "prefectureNumber": 15,
    "prefecture": "新潟県",
    "city": "五泉市",
    "town": "松野"
  },
  "9591723": {
    "zipcode": "9591723",
    "prefectureCode": "15",
    "prefectureNumber": 15,
    "prefecture": "新潟県",
    "city": "五泉市",
    "town": "横渡"
  },
  "9591724": {
    "zipcode": "9591724",
    "prefectureCode": "15",
    "prefectureNumber": 15,
    "prefecture": "新潟県",
    "city": "五泉市",
    "town": "笹目"
  },
  "9591725": {
    "zipcode": "9591725",
    "prefectureCode": "15",
    "prefectureNumber": 15,
    "prefecture": "新潟県",
    "city": "五泉市",
    "town": "小面谷"
  },
  "9591726": {
    "zipcode": "9591726",
    "prefectureCode": "15",
    "prefectureNumber": 15,
    "prefecture": "新潟県",
    "city": "五泉市",
    "town": "上杉川"
  },
  "9591727": {
    "zipcode": "9591727",
    "prefectureCode": "15",
    "prefectureNumber": 15,
    "prefecture": "新潟県",
    "city": "五泉市",
    "town": "下杉川"
  },
  "9591731": {
    "zipcode": "9591731",
    "prefectureCode": "15",
    "prefectureNumber": 15,
    "prefecture": "新潟県",
    "city": "五泉市",
    "town": "大口"
  },
  "9591732": {
    "zipcode": "9591732",
    "prefectureCode": "15",
    "prefectureNumber": 15,
    "prefecture": "新潟県",
    "city": "五泉市",
    "town": "中島"
  },
  "9591733": {
    "zipcode": "9591733",
    "prefectureCode": "15",
    "prefectureNumber": 15,
    "prefecture": "新潟県",
    "city": "五泉市",
    "town": "安出"
  },
  "9591734": {
    "zipcode": "9591734",
    "prefectureCode": "15",
    "prefectureNumber": 15,
    "prefecture": "新潟県",
    "city": "五泉市",
    "town": "大原"
  },
  "9591735": {
    "zipcode": "9591735",
    "prefectureCode": "15",
    "prefectureNumber": 15,
    "prefecture": "新潟県",
    "city": "五泉市",
    "town": "蛭野"
  },
  "9591736": {
    "zipcode": "9591736",
    "prefectureCode": "15",
    "prefectureNumber": 15,
    "prefecture": "新潟県",
    "city": "五泉市",
    "town": "山谷"
  },
  "9591737": {
    "zipcode": "9591737",
    "prefectureCode": "15",
    "prefectureNumber": 15,
    "prefecture": "新潟県",
    "city": "五泉市",
    "town": "新屋"
  },
  "9591738": {
    "zipcode": "9591738",
    "prefectureCode": "15",
    "prefectureNumber": 15,
    "prefecture": "新潟県",
    "city": "五泉市",
    "town": "別所"
  },
  "9591739": {
    "zipcode": "9591739",
    "prefectureCode": "15",
    "prefectureNumber": 15,
    "prefecture": "新潟県",
    "city": "五泉市",
    "town": "村松工業団地"
  },
  "9591741": {
    "zipcode": "9591741",
    "prefectureCode": "15",
    "prefectureNumber": 15,
    "prefecture": "新潟県",
    "city": "五泉市",
    "town": "南田中"
  },
  "9591742": {
    "zipcode": "9591742",
    "prefectureCode": "15",
    "prefectureNumber": 15,
    "prefecture": "新潟県",
    "city": "五泉市",
    "town": "寺田"
  },
  "9591743": {
    "zipcode": "9591743",
    "prefectureCode": "15",
    "prefectureNumber": 15,
    "prefecture": "新潟県",
    "city": "五泉市",
    "town": "下大蒲原"
  },
  "9591744": {
    "zipcode": "9591744",
    "prefectureCode": "15",
    "prefectureNumber": 15,
    "prefecture": "新潟県",
    "city": "五泉市",
    "town": "上大蒲原"
  },
  "9591745": {
    "zipcode": "9591745",
    "prefectureCode": "15",
    "prefectureNumber": 15,
    "prefecture": "新潟県",
    "city": "五泉市",
    "town": "下戸倉"
  },
  "9591746": {
    "zipcode": "9591746",
    "prefectureCode": "15",
    "prefectureNumber": 15,
    "prefecture": "新潟県",
    "city": "五泉市",
    "town": "上戸倉"
  },
  "9591747": {
    "zipcode": "9591747",
    "prefectureCode": "15",
    "prefectureNumber": 15,
    "prefecture": "新潟県",
    "city": "五泉市",
    "town": "高松"
  },
  "9591748": {
    "zipcode": "9591748",
    "prefectureCode": "15",
    "prefectureNumber": 15,
    "prefecture": "新潟県",
    "city": "五泉市",
    "town": "牧"
  },
  "9591749": {
    "zipcode": "9591749",
    "prefectureCode": "15",
    "prefectureNumber": 15,
    "prefecture": "新潟県",
    "city": "五泉市",
    "town": "上野"
  },
  "9591751": {
    "zipcode": "9591751",
    "prefectureCode": "15",
    "prefectureNumber": 15,
    "prefecture": "新潟県",
    "city": "五泉市",
    "town": "中名沢"
  },
  "9591752": {
    "zipcode": "9591752",
    "prefectureCode": "15",
    "prefectureNumber": 15,
    "prefecture": "新潟県",
    "city": "五泉市",
    "town": "千原"
  },
  "9591753": {
    "zipcode": "9591753",
    "prefectureCode": "15",
    "prefectureNumber": 15,
    "prefecture": "新潟県",
    "city": "五泉市",
    "town": "笹野町"
  },
  "9591754": {
    "zipcode": "9591754",
    "prefectureCode": "15",
    "prefectureNumber": 15,
    "prefecture": "新潟県",
    "city": "五泉市",
    "town": "中野橋"
  },
  "9591755": {
    "zipcode": "9591755",
    "prefectureCode": "15",
    "prefectureNumber": 15,
    "prefecture": "新潟県",
    "city": "五泉市",
    "town": "青橋"
  },
  "9591756": {
    "zipcode": "9591756",
    "prefectureCode": "15",
    "prefectureNumber": 15,
    "prefecture": "新潟県",
    "city": "五泉市",
    "town": "刈羽"
  },
  "9591757": {
    "zipcode": "9591757",
    "prefectureCode": "15",
    "prefectureNumber": 15,
    "prefecture": "新潟県",
    "city": "五泉市",
    "town": "長橋"
  },
  "9591758": {
    "zipcode": "9591758",
    "prefectureCode": "15",
    "prefectureNumber": 15,
    "prefecture": "新潟県",
    "city": "五泉市",
    "town": "城下"
  },
  "9591759": {
    "zipcode": "9591759",
    "prefectureCode": "15",
    "prefectureNumber": 15,
    "prefecture": "新潟県",
    "city": "五泉市",
    "town": "美郷"
  },
  "9591761": {
    "zipcode": "9591761",
    "prefectureCode": "15",
    "prefectureNumber": 15,
    "prefecture": "新潟県",
    "city": "五泉市",
    "town": "本田屋"
  },
  "9591762": {
    "zipcode": "9591762",
    "prefectureCode": "15",
    "prefectureNumber": 15,
    "prefecture": "新潟県",
    "city": "五泉市",
    "town": "東石曽根"
  },
  "9591763": {
    "zipcode": "9591763",
    "prefectureCode": "15",
    "prefectureNumber": 15,
    "prefecture": "新潟県",
    "city": "五泉市",
    "town": "熊野堂"
  },
  "9591764": {
    "zipcode": "9591764",
    "prefectureCode": "15",
    "prefectureNumber": 15,
    "prefecture": "新潟県",
    "city": "五泉市",
    "town": "宮野下"
  },
  "9591765": {
    "zipcode": "9591765",
    "prefectureCode": "15",
    "prefectureNumber": 15,
    "prefecture": "新潟県",
    "city": "五泉市",
    "town": "愛宕"
  },
  "9591766": {
    "zipcode": "9591766",
    "prefectureCode": "15",
    "prefectureNumber": 15,
    "prefecture": "新潟県",
    "city": "五泉市",
    "town": "番坂"
  },
  "9591767": {
    "zipcode": "9591767",
    "prefectureCode": "15",
    "prefectureNumber": 15,
    "prefecture": "新潟県",
    "city": "五泉市",
    "town": "新田町"
  },
  "9591801": {
    "zipcode": "9591801",
    "prefectureCode": "15",
    "prefectureNumber": 15,
    "prefecture": "新潟県",
    "city": "五泉市",
    "town": "羽下"
  },
  "9591802": {
    "zipcode": "9591802",
    "prefectureCode": "15",
    "prefectureNumber": 15,
    "prefecture": "新潟県",
    "city": "五泉市",
    "town": "下新"
  },
  "9591803": {
    "zipcode": "9591803",
    "prefectureCode": "15",
    "prefectureNumber": 15,
    "prefecture": "新潟県",
    "city": "五泉市",
    "town": "下条"
  },
  "9591804": {
    "zipcode": "9591804",
    "prefectureCode": "15",
    "prefectureNumber": 15,
    "prefecture": "新潟県",
    "city": "五泉市",
    "town": "田屋"
  },
  "9591805": {
    "zipcode": "9591805",
    "prefectureCode": "15",
    "prefectureNumber": 15,
    "prefecture": "新潟県",
    "city": "五泉市",
    "town": "船越"
  },
  "9591806": {
    "zipcode": "9591806",
    "prefectureCode": "15",
    "prefectureNumber": 15,
    "prefecture": "新潟県",
    "city": "五泉市",
    "town": "猿橋"
  },
  "9591807": {
    "zipcode": "9591807",
    "prefectureCode": "15",
    "prefectureNumber": 15,
    "prefecture": "新潟県",
    "city": "五泉市",
    "town": "次屋"
  },
  "9591811": {
    "zipcode": "9591811",
    "prefectureCode": "15",
    "prefectureNumber": 15,
    "prefecture": "新潟県",
    "city": "五泉市",
    "town": "三本木"
  },
  "9591812": {
    "zipcode": "9591812",
    "prefectureCode": "15",
    "prefectureNumber": 15,
    "prefecture": "新潟県",
    "city": "五泉市",
    "town": "水島町"
  },
  "9591813": {
    "zipcode": "9591813",
    "prefectureCode": "15",
    "prefectureNumber": 15,
    "prefecture": "新潟県",
    "city": "五泉市",
    "town": "伊勢の川"
  },
  "9591814": {
    "zipcode": "9591814",
    "prefectureCode": "15",
    "prefectureNumber": 15,
    "prefecture": "新潟県",
    "city": "五泉市",
    "town": "北五泉駅前"
  },
  "9591821": {
    "zipcode": "9591821",
    "prefectureCode": "15",
    "prefectureNumber": 15,
    "prefecture": "新潟県",
    "city": "五泉市",
    "town": "赤海"
  },
  "9591822": {
    "zipcode": "9591822",
    "prefectureCode": "15",
    "prefectureNumber": 15,
    "prefecture": "新潟県",
    "city": "五泉市",
    "town": "緑町"
  },
  "9591823": {
    "zipcode": "9591823",
    "prefectureCode": "15",
    "prefectureNumber": 15,
    "prefecture": "新潟県",
    "city": "五泉市",
    "town": "駅前"
  },
  "9591824": {
    "zipcode": "9591824",
    "prefectureCode": "15",
    "prefectureNumber": 15,
    "prefecture": "新潟県",
    "city": "五泉市",
    "town": "吉沢"
  },
  "9591825": {
    "zipcode": "9591825",
    "prefectureCode": "15",
    "prefectureNumber": 15,
    "prefecture": "新潟県",
    "city": "五泉市",
    "town": "太田"
  },
  "9591831": {
    "zipcode": "9591831",
    "prefectureCode": "15",
    "prefectureNumber": 15,
    "prefecture": "新潟県",
    "city": "五泉市",
    "town": "曙町"
  },
  "9591832": {
    "zipcode": "9591832",
    "prefectureCode": "15",
    "prefectureNumber": 15,
    "prefecture": "新潟県",
    "city": "五泉市",
    "town": "川瀬"
  },
  "9591833": {
    "zipcode": "9591833",
    "prefectureCode": "15",
    "prefectureNumber": 15,
    "prefecture": "新潟県",
    "city": "五泉市",
    "town": "五十嵐新田"
  },
  "9591834": {
    "zipcode": "9591834",
    "prefectureCode": "15",
    "prefectureNumber": 15,
    "prefecture": "新潟県",
    "city": "五泉市",
    "town": "木越"
  },
  "9591835": {
    "zipcode": "9591835",
    "prefectureCode": "15",
    "prefectureNumber": 15,
    "prefecture": "新潟県",
    "city": "五泉市",
    "town": "今泉"
  },
  "9591836": {
    "zipcode": "9591836",
    "prefectureCode": "15",
    "prefectureNumber": 15,
    "prefecture": "新潟県",
    "city": "五泉市",
    "town": "南本町"
  },
  "9591837": {
    "zipcode": "9591837",
    "prefectureCode": "15",
    "prefectureNumber": 15,
    "prefecture": "新潟県",
    "city": "五泉市",
    "town": "寺沢"
  },
  "9591841": {
    "zipcode": "9591841",
    "prefectureCode": "15",
    "prefectureNumber": 15,
    "prefecture": "新潟県",
    "city": "五泉市",
    "town": "二ツ柳"
  },
  "9591842": {
    "zipcode": "9591842",
    "prefectureCode": "15",
    "prefectureNumber": 15,
    "prefecture": "新潟県",
    "city": "五泉市",
    "town": "能代"
  },
  "9591843": {
    "zipcode": "9591843",
    "prefectureCode": "15",
    "prefectureNumber": 15,
    "prefecture": "新潟県",
    "city": "五泉市",
    "town": "町屋"
  },
  "9591844": {
    "zipcode": "9591844",
    "prefectureCode": "15",
    "prefectureNumber": 15,
    "prefecture": "新潟県",
    "city": "五泉市",
    "town": "西四ツ屋"
  },
  "9591845": {
    "zipcode": "9591845",
    "prefectureCode": "15",
    "prefectureNumber": 15,
    "prefecture": "新潟県",
    "city": "五泉市",
    "town": "大沢"
  },
  "9591846": {
    "zipcode": "9591846",
    "prefectureCode": "15",
    "prefectureNumber": 15,
    "prefecture": "新潟県",
    "city": "五泉市",
    "town": "尻上"
  },
  "9591847": {
    "zipcode": "9591847",
    "prefectureCode": "15",
    "prefectureNumber": 15,
    "prefecture": "新潟県",
    "city": "五泉市",
    "town": "菅沢"
  },
  "9591848": {
    "zipcode": "9591848",
    "prefectureCode": "15",
    "prefectureNumber": 15,
    "prefecture": "新潟県",
    "city": "五泉市",
    "town": "橋田"
  },
  "9591851": {
    "zipcode": "9591851",
    "prefectureCode": "15",
    "prefectureNumber": 15,
    "prefecture": "新潟県",
    "city": "五泉市",
    "town": "五泉"
  },
  "9591852": {
    "zipcode": "9591852",
    "prefectureCode": "15",
    "prefectureNumber": 15,
    "prefecture": "新潟県",
    "city": "五泉市",
    "town": "荻曽根"
  },
  "9591853": {
    "zipcode": "9591853",
    "prefectureCode": "15",
    "prefectureNumber": 15,
    "prefecture": "新潟県",
    "city": "五泉市",
    "town": "土深"
  },
  "9591854": {
    "zipcode": "9591854",
    "prefectureCode": "15",
    "prefectureNumber": 15,
    "prefecture": "新潟県",
    "city": "五泉市",
    "town": "丸田"
  },
  "9591855": {
    "zipcode": "9591855",
    "prefectureCode": "15",
    "prefectureNumber": 15,
    "prefecture": "新潟県",
    "city": "五泉市",
    "town": "小熊"
  },
  "9591856": {
    "zipcode": "9591856",
    "prefectureCode": "15",
    "prefectureNumber": 15,
    "prefecture": "新潟県",
    "city": "五泉市",
    "town": "山崎"
  },
  "9591857": {
    "zipcode": "9591857",
    "prefectureCode": "15",
    "prefectureNumber": 15,
    "prefecture": "新潟県",
    "city": "五泉市",
    "town": "石倉"
  },
  "9591861": {
    "zipcode": "9591861",
    "prefectureCode": "15",
    "prefectureNumber": 15,
    "prefecture": "新潟県",
    "city": "五泉市",
    "town": "粟島"
  },
  "9591862": {
    "zipcode": "9591862",
    "prefectureCode": "15",
    "prefectureNumber": 15,
    "prefecture": "新潟県",
    "city": "五泉市",
    "town": "旭町"
  },
  "9591863": {
    "zipcode": "9591863",
    "prefectureCode": "15",
    "prefectureNumber": 15,
    "prefecture": "新潟県",
    "city": "五泉市",
    "town": "東本町"
  },
  "9591864": {
    "zipcode": "9591864",
    "prefectureCode": "15",
    "prefectureNumber": 15,
    "prefecture": "新潟県",
    "city": "五泉市",
    "town": "郷屋川"
  },
  "9591865": {
    "zipcode": "9591865",
    "prefectureCode": "15",
    "prefectureNumber": 15,
    "prefecture": "新潟県",
    "city": "五泉市",
    "town": "本町"
  },
  "9591866": {
    "zipcode": "9591866",
    "prefectureCode": "15",
    "prefectureNumber": 15,
    "prefecture": "新潟県",
    "city": "五泉市",
    "town": "学校町"
  },
  "9591867": {
    "zipcode": "9591867",
    "prefectureCode": "15",
    "prefectureNumber": 15,
    "prefecture": "新潟県",
    "city": "五泉市",
    "town": "大川前"
  },
  "9591871": {
    "zipcode": "9591871",
    "prefectureCode": "15",
    "prefectureNumber": 15,
    "prefecture": "新潟県",
    "city": "五泉市",
    "town": "白山"
  },
  "9591872": {
    "zipcode": "9591872",
    "prefectureCode": "15",
    "prefectureNumber": 15,
    "prefecture": "新潟県",
    "city": "五泉市",
    "town": "宮町"
  },
  "9591873": {
    "zipcode": "9591873",
    "prefectureCode": "15",
    "prefectureNumber": 15,
    "prefecture": "新潟県",
    "city": "五泉市",
    "town": "錦町"
  },
  "9591874": {
    "zipcode": "9591874",
    "prefectureCode": "15",
    "prefectureNumber": 15,
    "prefecture": "新潟県",
    "city": "五泉市",
    "town": "横町"
  },
  "9591875": {
    "zipcode": "9591875",
    "prefectureCode": "15",
    "prefectureNumber": 15,
    "prefecture": "新潟県",
    "city": "五泉市",
    "town": "馬場町"
  },
  "9591876": {
    "zipcode": "9591876",
    "prefectureCode": "15",
    "prefectureNumber": 15,
    "prefecture": "新潟県",
    "city": "五泉市",
    "town": "泉町"
  },
  "9591901": {
    "zipcode": "9591901",
    "prefectureCode": "15",
    "prefectureNumber": 15,
    "prefecture": "新潟県",
    "city": "阿賀野市",
    "town": "中ノ通"
  },
  "9591902": {
    "zipcode": "9591902",
    "prefectureCode": "15",
    "prefectureNumber": 15,
    "prefecture": "新潟県",
    "city": "阿賀野市",
    "town": "飯山新"
  },
  "9591903": {
    "zipcode": "9591903",
    "prefectureCode": "15",
    "prefectureNumber": 15,
    "prefecture": "新潟県",
    "city": "阿賀野市",
    "town": "藤屋"
  },
  "9591904": {
    "zipcode": "9591904",
    "prefectureCode": "15",
    "prefectureNumber": 15,
    "prefecture": "新潟県",
    "city": "阿賀野市",
    "town": "上西野"
  },
  "9591905": {
    "zipcode": "9591905",
    "prefectureCode": "15",
    "prefectureNumber": 15,
    "prefecture": "新潟県",
    "city": "阿賀野市",
    "town": "滝沢"
  },
  "9591906": {
    "zipcode": "9591906",
    "prefectureCode": "15",
    "prefectureNumber": 15,
    "prefecture": "新潟県",
    "city": "阿賀野市",
    "town": "村岡"
  },
  "9591907": {
    "zipcode": "9591907",
    "prefectureCode": "15",
    "prefectureNumber": 15,
    "prefecture": "新潟県",
    "city": "阿賀野市",
    "town": "熊堂"
  },
  "9591908": {
    "zipcode": "9591908",
    "prefectureCode": "15",
    "prefectureNumber": 15,
    "prefecture": "新潟県",
    "city": "阿賀野市",
    "town": "上蔵野"
  },
  "9591909": {
    "zipcode": "9591909",
    "prefectureCode": "15",
    "prefectureNumber": 15,
    "prefecture": "新潟県",
    "city": "阿賀野市",
    "town": "上高関"
  },
  "9591910": {
    "zipcode": "9591910",
    "prefectureCode": "15",
    "prefectureNumber": 15,
    "prefecture": "新潟県",
    "city": "阿賀野市",
    "town": "向中ノ通"
  },
  "9591911": {
    "zipcode": "9591911",
    "prefectureCode": "15",
    "prefectureNumber": 15,
    "prefecture": "新潟県",
    "city": "阿賀野市",
    "town": "長起"
  },
  "9591912": {
    "zipcode": "9591912",
    "prefectureCode": "15",
    "prefectureNumber": 15,
    "prefecture": "新潟県",
    "city": "阿賀野市",
    "town": "下一分"
  },
  "9591913": {
    "zipcode": "9591913",
    "prefectureCode": "15",
    "prefectureNumber": 15,
    "prefecture": "新潟県",
    "city": "阿賀野市",
    "town": "沢口"
  },
  "9591914": {
    "zipcode": "9591914",
    "prefectureCode": "15",
    "prefectureNumber": 15,
    "prefecture": "新潟県",
    "city": "阿賀野市",
    "town": "女堂"
  },
  "9591915": {
    "zipcode": "9591915",
    "prefectureCode": "15",
    "prefectureNumber": 15,
    "prefecture": "新潟県",
    "city": "阿賀野市",
    "town": "上一分"
  },
  "9591916": {
    "zipcode": "9591916",
    "prefectureCode": "15",
    "prefectureNumber": 15,
    "prefecture": "新潟県",
    "city": "阿賀野市",
    "town": "小栗山"
  },
  "9591917": {
    "zipcode": "9591917",
    "prefectureCode": "15",
    "prefectureNumber": 15,
    "prefecture": "新潟県",
    "city": "阿賀野市",
    "town": "堤"
  },
  "9591918": {
    "zipcode": "9591918",
    "prefectureCode": "15",
    "prefectureNumber": 15,
    "prefecture": "新潟県",
    "city": "阿賀野市",
    "town": "笹岡"
  },
  "9591919": {
    "zipcode": "9591919",
    "prefectureCode": "15",
    "prefectureNumber": 15,
    "prefecture": "新潟県",
    "city": "阿賀野市",
    "town": "山崎"
  },
  "9591921": {
    "zipcode": "9591921",
    "prefectureCode": "15",
    "prefectureNumber": 15,
    "prefecture": "新潟県",
    "city": "阿賀野市",
    "town": "上西山"
  },
  "9591922": {
    "zipcode": "9591922",
    "prefectureCode": "15",
    "prefectureNumber": 15,
    "prefecture": "新潟県",
    "city": "阿賀野市",
    "town": "湯沢"
  },
  "9591923": {
    "zipcode": "9591923",
    "prefectureCode": "15",
    "prefectureNumber": 15,
    "prefecture": "新潟県",
    "city": "阿賀野市",
    "town": "勝屋"
  },
  "9591924": {
    "zipcode": "9591924",
    "prefectureCode": "15",
    "prefectureNumber": 15,
    "prefecture": "新潟県",
    "city": "阿賀野市",
    "town": "畑江"
  },
  "9591925": {
    "zipcode": "9591925",
    "prefectureCode": "15",
    "prefectureNumber": 15,
    "prefecture": "新潟県",
    "city": "阿賀野市",
    "town": "真光寺ヴィレッジ"
  },
  "9591926": {
    "zipcode": "9591926",
    "prefectureCode": "15",
    "prefectureNumber": 15,
    "prefecture": "新潟県",
    "city": "阿賀野市",
    "town": "出湯"
  },
  "9591927": {
    "zipcode": "9591927",
    "prefectureCode": "15",
    "prefectureNumber": 15,
    "prefecture": "新潟県",
    "city": "阿賀野市",
    "town": "今板"
  },
  "9591928": {
    "zipcode": "9591928",
    "prefectureCode": "15",
    "prefectureNumber": 15,
    "prefecture": "新潟県",
    "city": "阿賀野市",
    "town": "村杉"
  },
  "9591929": {
    "zipcode": "9591929",
    "prefectureCode": "15",
    "prefectureNumber": 15,
    "prefecture": "新潟県",
    "city": "阿賀野市",
    "town": "大日"
  },
  "9591930": {
    "zipcode": "9591930",
    "prefectureCode": "15",
    "prefectureNumber": 15,
    "prefecture": "新潟県",
    "city": "阿賀野市",
    "town": "大宮"
  },
  "9591931": {
    "zipcode": "9591931",
    "prefectureCode": "15",
    "prefectureNumber": 15,
    "prefecture": "新潟県",
    "city": "阿賀野市",
    "town": "山寺"
  },
  "9591932": {
    "zipcode": "9591932",
    "prefectureCode": "15",
    "prefectureNumber": 15,
    "prefecture": "新潟県",
    "city": "阿賀野市",
    "town": "上山田"
  },
  "9591933": {
    "zipcode": "9591933",
    "prefectureCode": "15",
    "prefectureNumber": 15,
    "prefecture": "新潟県",
    "city": "阿賀野市",
    "town": "上小中山"
  },
  "9591934": {
    "zipcode": "9591934",
    "prefectureCode": "15",
    "prefectureNumber": 15,
    "prefecture": "新潟県",
    "city": "阿賀野市",
    "town": "七浦"
  },
  "9591935": {
    "zipcode": "9591935",
    "prefectureCode": "15",
    "prefectureNumber": 15,
    "prefecture": "新潟県",
    "city": "阿賀野市",
    "town": "大室"
  },
  "9591936": {
    "zipcode": "9591936",
    "prefectureCode": "15",
    "prefectureNumber": 15,
    "prefecture": "新潟県",
    "city": "阿賀野市",
    "town": "十二神"
  },
  "9591937": {
    "zipcode": "9591937",
    "prefectureCode": "15",
    "prefectureNumber": 15,
    "prefecture": "新潟県",
    "city": "阿賀野市",
    "town": "福井"
  },
  "9591938": {
    "zipcode": "9591938",
    "prefectureCode": "15",
    "prefectureNumber": 15,
    "prefecture": "新潟県",
    "city": "阿賀野市",
    "town": "貝喰"
  },
  "9591941": {
    "zipcode": "9591941",
    "prefectureCode": "15",
    "prefectureNumber": 15,
    "prefecture": "新潟県",
    "city": "阿賀野市",
    "town": "羽黒"
  },
  "9591942": {
    "zipcode": "9591942",
    "prefectureCode": "15",
    "prefectureNumber": 15,
    "prefecture": "新潟県",
    "city": "阿賀野市",
    "town": "上坂町"
  },
  "9591943": {
    "zipcode": "9591943",
    "prefectureCode": "15",
    "prefectureNumber": 15,
    "prefecture": "新潟県",
    "city": "阿賀野市",
    "town": "次郎丸"
  },
  "9591944": {
    "zipcode": "9591944",
    "prefectureCode": "15",
    "prefectureNumber": 15,
    "prefecture": "新潟県",
    "city": "阿賀野市",
    "town": "金屋"
  },
  "9591945": {
    "zipcode": "9591945",
    "prefectureCode": "15",
    "prefectureNumber": 15,
    "prefecture": "新潟県",
    "city": "阿賀野市",
    "town": "上山屋"
  },
  "9591946": {
    "zipcode": "9591946",
    "prefectureCode": "15",
    "prefectureNumber": 15,
    "prefecture": "新潟県",
    "city": "阿賀野市",
    "town": "押切"
  },
  "9591947": {
    "zipcode": "9591947",
    "prefectureCode": "15",
    "prefectureNumber": 15,
    "prefecture": "新潟県",
    "city": "阿賀野市",
    "town": "宮下"
  },
  "9591948": {
    "zipcode": "9591948",
    "prefectureCode": "15",
    "prefectureNumber": 15,
    "prefecture": "新潟県",
    "city": "阿賀野市",
    "town": "宮島"
  },
  "9591949": {
    "zipcode": "9591949",
    "prefectureCode": "15",
    "prefectureNumber": 15,
    "prefecture": "新潟県",
    "city": "阿賀野市",
    "town": "川崎"
  },
  "9591951": {
    "zipcode": "9591951",
    "prefectureCode": "15",
    "prefectureNumber": 15,
    "prefecture": "新潟県",
    "city": "阿賀野市",
    "town": "下福岡"
  },
  "9591952": {
    "zipcode": "9591952",
    "prefectureCode": "15",
    "prefectureNumber": 15,
    "prefecture": "新潟県",
    "city": "阿賀野市",
    "town": "下山屋"
  },
  "9591953": {
    "zipcode": "9591953",
    "prefectureCode": "15",
    "prefectureNumber": 15,
    "prefecture": "新潟県",
    "city": "阿賀野市",
    "town": "発久"
  },
  "9591954": {
    "zipcode": "9591954",
    "prefectureCode": "15",
    "prefectureNumber": 15,
    "prefecture": "新潟県",
    "city": "阿賀野市",
    "town": "蒔田"
  },
  "9591955": {
    "zipcode": "9591955",
    "prefectureCode": "15",
    "prefectureNumber": 15,
    "prefecture": "新潟県",
    "city": "阿賀野市",
    "town": "赤水"
  },
  "9591956": {
    "zipcode": "9591956",
    "prefectureCode": "15",
    "prefectureNumber": 15,
    "prefecture": "新潟県",
    "city": "阿賀野市",
    "town": "須走"
  },
  "9591957": {
    "zipcode": "9591957",
    "prefectureCode": "15",
    "prefectureNumber": 15,
    "prefecture": "新潟県",
    "city": "阿賀野市",
    "town": "横山"
  },
  "9591958": {
    "zipcode": "9591958",
    "prefectureCode": "15",
    "prefectureNumber": 15,
    "prefecture": "新潟県",
    "city": "阿賀野市",
    "town": "野村"
  },
  "9591959": {
    "zipcode": "9591959",
    "prefectureCode": "15",
    "prefectureNumber": 15,
    "prefecture": "新潟県",
    "city": "阿賀野市",
    "town": "泉"
  },
  "9591961": {
    "zipcode": "9591961",
    "prefectureCode": "15",
    "prefectureNumber": 15,
    "prefecture": "新潟県",
    "city": "阿賀野市",
    "town": "山倉"
  },
  "9591962": {
    "zipcode": "9591962",
    "prefectureCode": "15",
    "prefectureNumber": 15,
    "prefecture": "新潟県",
    "city": "阿賀野市",
    "town": "上関口"
  },
  "9591963": {
    "zipcode": "9591963",
    "prefectureCode": "15",
    "prefectureNumber": 15,
    "prefecture": "新潟県",
    "city": "阿賀野市",
    "town": "南沖山"
  },
  "9591964": {
    "zipcode": "9591964",
    "prefectureCode": "15",
    "prefectureNumber": 15,
    "prefecture": "新潟県",
    "city": "阿賀野市",
    "town": "沖"
  },
  "9591965": {
    "zipcode": "9591965",
    "prefectureCode": "15",
    "prefectureNumber": 15,
    "prefecture": "新潟県",
    "city": "阿賀野市",
    "town": "島田"
  },
  "9591966": {
    "zipcode": "9591966",
    "prefectureCode": "15",
    "prefectureNumber": 15,
    "prefecture": "新潟県",
    "city": "阿賀野市",
    "town": "塚田"
  },
  "9591967": {
    "zipcode": "9591967",
    "prefectureCode": "15",
    "prefectureNumber": 15,
    "prefecture": "新潟県",
    "city": "阿賀野市",
    "town": "本明"
  },
  "9591968": {
    "zipcode": "9591968",
    "prefectureCode": "15",
    "prefectureNumber": 15,
    "prefecture": "新潟県",
    "city": "阿賀野市",
    "town": "榎船渡"
  },
  "9591971": {
    "zipcode": "9591971",
    "prefectureCode": "15",
    "prefectureNumber": 15,
    "prefecture": "新潟県",
    "city": "阿賀野市",
    "town": "高田"
  },
  "9591972": {
    "zipcode": "9591972",
    "prefectureCode": "15",
    "prefectureNumber": 15,
    "prefecture": "新潟県",
    "city": "阿賀野市",
    "town": "山倉新田"
  },
  "9591973": {
    "zipcode": "9591973",
    "prefectureCode": "15",
    "prefectureNumber": 15,
    "prefecture": "新潟県",
    "city": "阿賀野市",
    "town": "上高田"
  },
  "9591974": {
    "zipcode": "9591974",
    "prefectureCode": "15",
    "prefectureNumber": 15,
    "prefecture": "新潟県",
    "city": "阿賀野市",
    "town": "榎"
  },
  "9591975": {
    "zipcode": "9591975",
    "prefectureCode": "15",
    "prefectureNumber": 15,
    "prefecture": "新潟県",
    "city": "阿賀野市",
    "town": "上飯塚"
  },
  "9591976": {
    "zipcode": "9591976",
    "prefectureCode": "15",
    "prefectureNumber": 15,
    "prefecture": "新潟県",
    "city": "阿賀野市",
    "town": "船居"
  },
  "9591977": {
    "zipcode": "9591977",
    "prefectureCode": "15",
    "prefectureNumber": 15,
    "prefecture": "新潟県",
    "city": "阿賀野市",
    "town": "沖ノ館"
  },
  "9591978": {
    "zipcode": "9591978",
    "prefectureCode": "15",
    "prefectureNumber": 15,
    "prefecture": "新潟県",
    "city": "阿賀野市",
    "town": "川岡"
  },
  "9592000": {
    "zipcode": "9592000",
    "prefectureCode": "15",
    "prefectureNumber": 15,
    "prefecture": "新潟県",
    "city": "阿賀野市",
    "town": "以下に掲載がない場合"
  },
  "9592001": {
    "zipcode": "9592001",
    "prefectureCode": "15",
    "prefectureNumber": 15,
    "prefecture": "新潟県",
    "city": "阿賀野市",
    "town": "沖通"
  },
  "9592002": {
    "zipcode": "9592002",
    "prefectureCode": "15",
    "prefectureNumber": 15,
    "prefecture": "新潟県",
    "city": "阿賀野市",
    "town": "下条"
  },
  "9592003": {
    "zipcode": "9592003",
    "prefectureCode": "15",
    "prefectureNumber": 15,
    "prefecture": "新潟県",
    "city": "阿賀野市",
    "town": "安野町"
  },
  "9592004": {
    "zipcode": "9592004",
    "prefectureCode": "15",
    "prefectureNumber": 15,
    "prefecture": "新潟県",
    "city": "阿賀野市",
    "town": "南安野町"
  },
  "9592005": {
    "zipcode": "9592005",
    "prefectureCode": "15",
    "prefectureNumber": 15,
    "prefecture": "新潟県",
    "city": "阿賀野市",
    "town": "山口町"
  },
  "9592006": {
    "zipcode": "9592006",
    "prefectureCode": "15",
    "prefectureNumber": 15,
    "prefecture": "新潟県",
    "city": "阿賀野市",
    "town": "みそら野町"
  },
  "9592007": {
    "zipcode": "9592007",
    "prefectureCode": "15",
    "prefectureNumber": 15,
    "prefecture": "新潟県",
    "city": "阿賀野市",
    "town": "山口"
  },
  "9592011": {
    "zipcode": "9592011",
    "prefectureCode": "15",
    "prefectureNumber": 15,
    "prefecture": "新潟県",
    "city": "阿賀野市",
    "town": "千原"
  },
  "9592012": {
    "zipcode": "9592012",
    "prefectureCode": "15",
    "prefectureNumber": 15,
    "prefecture": "新潟県",
    "city": "阿賀野市",
    "town": "天神堂"
  },
  "9592013": {
    "zipcode": "9592013",
    "prefectureCode": "15",
    "prefectureNumber": 15,
    "prefecture": "新潟県",
    "city": "阿賀野市",
    "town": "水原"
  },
  "9592014": {
    "zipcode": "9592014",
    "prefectureCode": "15",
    "prefectureNumber": 15,
    "prefecture": "新潟県",
    "city": "阿賀野市",
    "town": "北園町"
  },
  "9592015": {
    "zipcode": "9592015",
    "prefectureCode": "15",
    "prefectureNumber": 15,
    "prefecture": "新潟県",
    "city": "阿賀野市",
    "town": "北本町"
  },
  "9592021": {
    "zipcode": "9592021",
    "prefectureCode": "15",
    "prefectureNumber": 15,
    "prefecture": "新潟県",
    "city": "阿賀野市",
    "town": "中央町"
  },
  "9592022": {
    "zipcode": "9592022",
    "prefectureCode": "15",
    "prefectureNumber": 15,
    "prefecture": "新潟県",
    "city": "阿賀野市",
    "town": "外城町"
  },
  "9592023": {
    "zipcode": "9592023",
    "prefectureCode": "15",
    "prefectureNumber": 15,
    "prefecture": "新潟県",
    "city": "阿賀野市",
    "town": "日の出町"
  },
  "9592024": {
    "zipcode": "9592024",
    "prefectureCode": "15",
    "prefectureNumber": 15,
    "prefecture": "新潟県",
    "city": "阿賀野市",
    "town": "中島町"
  },
  "9592025": {
    "zipcode": "9592025",
    "prefectureCode": "15",
    "prefectureNumber": 15,
    "prefecture": "新潟県",
    "city": "阿賀野市",
    "town": "岡山町"
  },
  "9592026": {
    "zipcode": "9592026",
    "prefectureCode": "15",
    "prefectureNumber": 15,
    "prefecture": "新潟県",
    "city": "阿賀野市",
    "town": "下条町"
  },
  "9592031": {
    "zipcode": "9592031",
    "prefectureCode": "15",
    "prefectureNumber": 15,
    "prefecture": "新潟県",
    "city": "阿賀野市",
    "town": "金田町"
  },
  "9592032": {
    "zipcode": "9592032",
    "prefectureCode": "15",
    "prefectureNumber": 15,
    "prefecture": "新潟県",
    "city": "阿賀野市",
    "town": "学校町"
  },
  "9592033": {
    "zipcode": "9592033",
    "prefectureCode": "15",
    "prefectureNumber": 15,
    "prefecture": "新潟県",
    "city": "阿賀野市",
    "town": "百津町"
  },
  "9592034": {
    "zipcode": "9592034",
    "prefectureCode": "15",
    "prefectureNumber": 15,
    "prefecture": "新潟県",
    "city": "阿賀野市",
    "town": "緑町"
  },
  "9592035": {
    "zipcode": "9592035",
    "prefectureCode": "15",
    "prefectureNumber": 15,
    "prefecture": "新潟県",
    "city": "阿賀野市",
    "town": "稲荷町"
  },
  "9592036": {
    "zipcode": "9592036",
    "prefectureCode": "15",
    "prefectureNumber": 15,
    "prefecture": "新潟県",
    "city": "阿賀野市",
    "town": "若葉町"
  },
  "9592037": {
    "zipcode": "9592037",
    "prefectureCode": "15",
    "prefectureNumber": 15,
    "prefecture": "新潟県",
    "city": "阿賀野市",
    "town": "百津"
  },
  "9592041": {
    "zipcode": "9592041",
    "prefectureCode": "15",
    "prefectureNumber": 15,
    "prefecture": "新潟県",
    "city": "阿賀野市",
    "town": "原"
  },
  "9592042": {
    "zipcode": "9592042",
    "prefectureCode": "15",
    "prefectureNumber": 15,
    "prefecture": "新潟県",
    "city": "阿賀野市",
    "town": "境新田"
  },
  "9592043": {
    "zipcode": "9592043",
    "prefectureCode": "15",
    "prefectureNumber": 15,
    "prefecture": "新潟県",
    "city": "阿賀野市",
    "town": "大野地"
  },
  "9592044": {
    "zipcode": "9592044",
    "prefectureCode": "15",
    "prefectureNumber": 15,
    "prefecture": "新潟県",
    "city": "阿賀野市",
    "town": "金沢"
  },
  "9592045": {
    "zipcode": "9592045",
    "prefectureCode": "15",
    "prefectureNumber": 15,
    "prefecture": "新潟県",
    "city": "阿賀野市",
    "town": "里"
  },
  "9592046": {
    "zipcode": "9592046",
    "prefectureCode": "15",
    "prefectureNumber": 15,
    "prefecture": "新潟県",
    "city": "阿賀野市",
    "town": "庄ケ宮"
  },
  "9592047": {
    "zipcode": "9592047",
    "prefectureCode": "15",
    "prefectureNumber": 15,
    "prefecture": "新潟県",
    "city": "阿賀野市",
    "town": "上中"
  },
  "9592048": {
    "zipcode": "9592048",
    "prefectureCode": "15",
    "prefectureNumber": 15,
    "prefecture": "新潟県",
    "city": "阿賀野市",
    "town": "上中野目"
  },
  "9592049": {
    "zipcode": "9592049",
    "prefectureCode": "15",
    "prefectureNumber": 15,
    "prefecture": "新潟県",
    "city": "阿賀野市",
    "town": "深町"
  },
  "9592051": {
    "zipcode": "9592051",
    "prefectureCode": "15",
    "prefectureNumber": 15,
    "prefecture": "新潟県",
    "city": "阿賀野市",
    "town": "七石"
  },
  "9592052": {
    "zipcode": "9592052",
    "prefectureCode": "15",
    "prefectureNumber": 15,
    "prefecture": "新潟県",
    "city": "阿賀野市",
    "town": "田中"
  },
  "9592053": {
    "zipcode": "9592053",
    "prefectureCode": "15",
    "prefectureNumber": 15,
    "prefecture": "新潟県",
    "city": "阿賀野市",
    "town": "境新"
  },
  "9592054": {
    "zipcode": "9592054",
    "prefectureCode": "15",
    "prefectureNumber": 15,
    "prefecture": "新潟県",
    "city": "阿賀野市",
    "town": "越御堂"
  },
  "9592055": {
    "zipcode": "9592055",
    "prefectureCode": "15",
    "prefectureNumber": 15,
    "prefecture": "新潟県",
    "city": "阿賀野市",
    "town": "堀越"
  },
  "9592056": {
    "zipcode": "9592056",
    "prefectureCode": "15",
    "prefectureNumber": 15,
    "prefecture": "新潟県",
    "city": "阿賀野市",
    "town": "牧島"
  },
  "9592057": {
    "zipcode": "9592057",
    "prefectureCode": "15",
    "prefectureNumber": 15,
    "prefecture": "新潟県",
    "city": "阿賀野市",
    "town": "野地城"
  },
  "9592061": {
    "zipcode": "9592061",
    "prefectureCode": "15",
    "prefectureNumber": 15,
    "prefecture": "新潟県",
    "city": "阿賀野市",
    "town": "荒屋"
  },
  "9592062": {
    "zipcode": "9592062",
    "prefectureCode": "15",
    "prefectureNumber": 15,
    "prefecture": "新潟県",
    "city": "阿賀野市",
    "town": "市野山"
  },
  "9592063": {
    "zipcode": "9592063",
    "prefectureCode": "15",
    "prefectureNumber": 15,
    "prefecture": "新潟県",
    "city": "阿賀野市",
    "town": "土橋"
  },
  "9592064": {
    "zipcode": "9592064",
    "prefectureCode": "15",
    "prefectureNumber": 15,
    "prefecture": "新潟県",
    "city": "阿賀野市",
    "town": "福田"
  },
  "9592065": {
    "zipcode": "9592065",
    "prefectureCode": "15",
    "prefectureNumber": 15,
    "prefecture": "新潟県",
    "city": "阿賀野市",
    "town": "小境"
  },
  "9592066": {
    "zipcode": "9592066",
    "prefectureCode": "15",
    "prefectureNumber": 15,
    "prefecture": "新潟県",
    "city": "阿賀野市",
    "town": "中潟"
  },
  "9592071": {
    "zipcode": "9592071",
    "prefectureCode": "15",
    "prefectureNumber": 15,
    "prefecture": "新潟県",
    "city": "阿賀野市",
    "town": "水ケ曽根"
  },
  "9592072": {
    "zipcode": "9592072",
    "prefectureCode": "15",
    "prefectureNumber": 15,
    "prefecture": "新潟県",
    "city": "阿賀野市",
    "town": "西岡"
  },
  "9592073": {
    "zipcode": "9592073",
    "prefectureCode": "15",
    "prefectureNumber": 15,
    "prefecture": "新潟県",
    "city": "阿賀野市",
    "town": "上福岡"
  },
  "9592074": {
    "zipcode": "9592074",
    "prefectureCode": "15",
    "prefectureNumber": 15,
    "prefecture": "新潟県",
    "city": "阿賀野市",
    "town": "分田"
  },
  "9592075": {
    "zipcode": "9592075",
    "prefectureCode": "15",
    "prefectureNumber": 15,
    "prefecture": "新潟県",
    "city": "阿賀野市",
    "town": "東町"
  },
  "9592081": {
    "zipcode": "9592081",
    "prefectureCode": "15",
    "prefectureNumber": 15,
    "prefecture": "新潟県",
    "city": "阿賀野市",
    "town": "上江端"
  },
  "9592082": {
    "zipcode": "9592082",
    "prefectureCode": "15",
    "prefectureNumber": 15,
    "prefecture": "新潟県",
    "city": "阿賀野市",
    "town": "切梅新田"
  },
  "9592083": {
    "zipcode": "9592083",
    "prefectureCode": "15",
    "prefectureNumber": 15,
    "prefecture": "新潟県",
    "city": "阿賀野市",
    "town": "熊居新田"
  },
  "9592085": {
    "zipcode": "9592085",
    "prefectureCode": "15",
    "prefectureNumber": 15,
    "prefecture": "新潟県",
    "city": "阿賀野市",
    "town": "山本新"
  },
  "9592086": {
    "zipcode": "9592086",
    "prefectureCode": "15",
    "prefectureNumber": 15,
    "prefecture": "新潟県",
    "city": "阿賀野市",
    "town": "新座"
  },
  "9592101": {
    "zipcode": "9592101",
    "prefectureCode": "15",
    "prefectureNumber": 15,
    "prefecture": "新潟県",
    "city": "阿賀野市",
    "town": "駒林"
  },
  "9592102": {
    "zipcode": "9592102",
    "prefectureCode": "15",
    "prefectureNumber": 15,
    "prefecture": "新潟県",
    "city": "阿賀野市",
    "town": "五郎巻"
  },
  "9592103": {
    "zipcode": "9592103",
    "prefectureCode": "15",
    "prefectureNumber": 15,
    "prefecture": "新潟県",
    "city": "阿賀野市",
    "town": "金渕甲"
  },
  "9592104": {
    "zipcode": "9592104",
    "prefectureCode": "15",
    "prefectureNumber": 15,
    "prefecture": "新潟県",
    "city": "阿賀野市",
    "town": "法柳新田"
  },
  "9592105": {
    "zipcode": "9592105",
    "prefectureCode": "15",
    "prefectureNumber": 15,
    "prefecture": "新潟県",
    "city": "阿賀野市",
    "town": "金渕乙"
  },
  "9592106": {
    "zipcode": "9592106",
    "prefectureCode": "15",
    "prefectureNumber": 15,
    "prefecture": "新潟県",
    "city": "阿賀野市",
    "town": "法柳"
  },
  "9592107": {
    "zipcode": "9592107",
    "prefectureCode": "15",
    "prefectureNumber": 15,
    "prefecture": "新潟県",
    "city": "阿賀野市",
    "town": "深堀"
  },
  "9592111": {
    "zipcode": "9592111",
    "prefectureCode": "15",
    "prefectureNumber": 15,
    "prefecture": "新潟県",
    "city": "阿賀野市",
    "town": "猫山"
  },
  "9592112": {
    "zipcode": "9592112",
    "prefectureCode": "15",
    "prefectureNumber": 15,
    "prefecture": "新潟県",
    "city": "阿賀野市",
    "town": "曽郷"
  },
  "9592113": {
    "zipcode": "9592113",
    "prefectureCode": "15",
    "prefectureNumber": 15,
    "prefecture": "新潟県",
    "city": "阿賀野市",
    "town": "緑岡"
  },
  "9592114": {
    "zipcode": "9592114",
    "prefectureCode": "15",
    "prefectureNumber": 15,
    "prefecture": "新潟県",
    "city": "阿賀野市",
    "town": "城"
  },
  "9592115": {
    "zipcode": "9592115",
    "prefectureCode": "15",
    "prefectureNumber": 15,
    "prefecture": "新潟県",
    "city": "阿賀野市",
    "town": "田山"
  },
  "9592116": {
    "zipcode": "9592116",
    "prefectureCode": "15",
    "prefectureNumber": 15,
    "prefecture": "新潟県",
    "city": "阿賀野市",
    "town": "上黒瀬"
  },
  "9592117": {
    "zipcode": "9592117",
    "prefectureCode": "15",
    "prefectureNumber": 15,
    "prefecture": "新潟県",
    "city": "阿賀野市",
    "town": "下黒瀬"
  },
  "9592121": {
    "zipcode": "9592121",
    "prefectureCode": "15",
    "prefectureNumber": 15,
    "prefecture": "新潟県",
    "city": "阿賀野市",
    "town": "小里"
  },
  "9592122": {
    "zipcode": "9592122",
    "prefectureCode": "15",
    "prefectureNumber": 15,
    "prefecture": "新潟県",
    "city": "阿賀野市",
    "town": "飯森杉"
  },
  "9592123": {
    "zipcode": "9592123",
    "prefectureCode": "15",
    "prefectureNumber": 15,
    "prefecture": "新潟県",
    "city": "阿賀野市",
    "town": "姥ケ橋"
  },
  "9592124": {
    "zipcode": "9592124",
    "prefectureCode": "15",
    "prefectureNumber": 15,
    "prefecture": "新潟県",
    "city": "阿賀野市",
    "town": "下ノ橋"
  },
  "9592125": {
    "zipcode": "9592125",
    "prefectureCode": "15",
    "prefectureNumber": 15,
    "prefecture": "新潟県",
    "city": "阿賀野市",
    "town": "京ケ島"
  },
  "9592126": {
    "zipcode": "9592126",
    "prefectureCode": "15",
    "prefectureNumber": 15,
    "prefecture": "新潟県",
    "city": "阿賀野市",
    "town": "窪川原"
  },
  "9592130": {
    "zipcode": "9592130",
    "prefectureCode": "15",
    "prefectureNumber": 15,
    "prefecture": "新潟県",
    "city": "阿賀野市",
    "town": "六日野"
  },
  "9592131": {
    "zipcode": "9592131",
    "prefectureCode": "15",
    "prefectureNumber": 15,
    "prefecture": "新潟県",
    "city": "阿賀野市",
    "town": "月崎"
  },
  "9592132": {
    "zipcode": "9592132",
    "prefectureCode": "15",
    "prefectureNumber": 15,
    "prefecture": "新潟県",
    "city": "阿賀野市",
    "town": "前山"
  },
  "9592133": {
    "zipcode": "9592133",
    "prefectureCode": "15",
    "prefectureNumber": 15,
    "prefecture": "新潟県",
    "city": "阿賀野市",
    "town": "関屋"
  },
  "9592134": {
    "zipcode": "9592134",
    "prefectureCode": "15",
    "prefectureNumber": 15,
    "prefecture": "新潟県",
    "city": "阿賀野市",
    "town": "小河原"
  },
  "9592135": {
    "zipcode": "9592135",
    "prefectureCode": "15",
    "prefectureNumber": 15,
    "prefecture": "新潟県",
    "city": "阿賀野市",
    "town": "下里"
  },
  "9592136": {
    "zipcode": "9592136",
    "prefectureCode": "15",
    "prefectureNumber": 15,
    "prefecture": "新潟県",
    "city": "阿賀野市",
    "town": "京ケ瀬工業団地"
  },
  "9592141": {
    "zipcode": "9592141",
    "prefectureCode": "15",
    "prefectureNumber": 15,
    "prefecture": "新潟県",
    "city": "阿賀野市",
    "town": "七島"
  },
  "9592142": {
    "zipcode": "9592142",
    "prefectureCode": "15",
    "prefectureNumber": 15,
    "prefecture": "新潟県",
    "city": "阿賀野市",
    "town": "箸木免"
  },
  "9592143": {
    "zipcode": "9592143",
    "prefectureCode": "15",
    "prefectureNumber": 15,
    "prefecture": "新潟県",
    "city": "阿賀野市",
    "town": "川前"
  },
  "9592144": {
    "zipcode": "9592144",
    "prefectureCode": "15",
    "prefectureNumber": 15,
    "prefecture": "新潟県",
    "city": "阿賀野市",
    "town": "清野"
  },
  "9592145": {
    "zipcode": "9592145",
    "prefectureCode": "15",
    "prefectureNumber": 15,
    "prefecture": "新潟県",
    "city": "阿賀野市",
    "town": "寺社新"
  },
  "9592146": {
    "zipcode": "9592146",
    "prefectureCode": "15",
    "prefectureNumber": 15,
    "prefecture": "新潟県",
    "city": "阿賀野市",
    "town": "小島"
  },
  "9592147": {
    "zipcode": "9592147",
    "prefectureCode": "15",
    "prefectureNumber": 15,
    "prefecture": "新潟県",
    "city": "阿賀野市",
    "town": "粕島"
  },
  "9592148": {
    "zipcode": "9592148",
    "prefectureCode": "15",
    "prefectureNumber": 15,
    "prefecture": "新潟県",
    "city": "阿賀野市",
    "town": "嘉瀬島"
  },
  "9592201": {
    "zipcode": "9592201",
    "prefectureCode": "15",
    "prefectureNumber": 15,
    "prefecture": "新潟県",
    "city": "阿賀野市",
    "town": "羽多屋"
  },
  "9592202": {
    "zipcode": "9592202",
    "prefectureCode": "15",
    "prefectureNumber": 15,
    "prefecture": "新潟県",
    "city": "阿賀野市",
    "town": "籠田"
  },
  "9592203": {
    "zipcode": "9592203",
    "prefectureCode": "15",
    "prefectureNumber": 15,
    "prefecture": "新潟県",
    "city": "阿賀野市",
    "town": "丸山"
  },
  "9592204": {
    "zipcode": "9592204",
    "prefectureCode": "15",
    "prefectureNumber": 15,
    "prefecture": "新潟県",
    "city": "阿賀野市",
    "town": "福永"
  },
  "9592205": {
    "zipcode": "9592205",
    "prefectureCode": "15",
    "prefectureNumber": 15,
    "prefecture": "新潟県",
    "city": "阿賀野市",
    "town": "寺社"
  },
  "9592206": {
    "zipcode": "9592206",
    "prefectureCode": "15",
    "prefectureNumber": 15,
    "prefecture": "新潟県",
    "city": "阿賀野市",
    "town": "かがやき"
  },
  "9592211": {
    "zipcode": "9592211",
    "prefectureCode": "15",
    "prefectureNumber": 15,
    "prefecture": "新潟県",
    "city": "阿賀野市",
    "town": "沢田"
  },
  "9592212": {
    "zipcode": "9592212",
    "prefectureCode": "15",
    "prefectureNumber": 15,
    "prefecture": "新潟県",
    "city": "阿賀野市",
    "town": "久保"
  },
  "9592213": {
    "zipcode": "9592213",
    "prefectureCode": "15",
    "prefectureNumber": 15,
    "prefecture": "新潟県",
    "city": "阿賀野市",
    "town": "小松"
  },
  "9592214": {
    "zipcode": "9592214",
    "prefectureCode": "15",
    "prefectureNumber": 15,
    "prefecture": "新潟県",
    "city": "阿賀野市",
    "town": "草水"
  },
  "9592215": {
    "zipcode": "9592215",
    "prefectureCode": "15",
    "prefectureNumber": 15,
    "prefecture": "新潟県",
    "city": "阿賀野市",
    "town": "六野瀬"
  },
  "9592216": {
    "zipcode": "9592216",
    "prefectureCode": "15",
    "prefectureNumber": 15,
    "prefecture": "新潟県",
    "city": "阿賀野市",
    "town": "渡場"
  },
  "9592217": {
    "zipcode": "9592217",
    "prefectureCode": "15",
    "prefectureNumber": 15,
    "prefecture": "新潟県",
    "city": "阿賀野市",
    "town": "新保"
  },
  "9592221": {
    "zipcode": "9592221",
    "prefectureCode": "15",
    "prefectureNumber": 15,
    "prefecture": "新潟県",
    "city": "阿賀野市",
    "town": "保田"
  },
  "9592222": {
    "zipcode": "9592222",
    "prefectureCode": "15",
    "prefectureNumber": 15,
    "prefecture": "新潟県",
    "city": "阿賀野市",
    "town": "小浮"
  },
  "9592223": {
    "zipcode": "9592223",
    "prefectureCode": "15",
    "prefectureNumber": 15,
    "prefecture": "新潟県",
    "city": "阿賀野市",
    "town": "布目"
  },
  "9592224": {
    "zipcode": "9592224",
    "prefectureCode": "15",
    "prefectureNumber": 15,
    "prefecture": "新潟県",
    "city": "阿賀野市",
    "town": "千唐仁"
  },
  "9592225": {
    "zipcode": "9592225",
    "prefectureCode": "15",
    "prefectureNumber": 15,
    "prefecture": "新潟県",
    "city": "阿賀野市",
    "town": "嶋瀬"
  },
  "9592226": {
    "zipcode": "9592226",
    "prefectureCode": "15",
    "prefectureNumber": 15,
    "prefecture": "新潟県",
    "city": "阿賀野市",
    "town": "野田"
  },
  "9592227": {
    "zipcode": "9592227",
    "prefectureCode": "15",
    "prefectureNumber": 15,
    "prefecture": "新潟県",
    "city": "阿賀野市",
    "town": "大和"
  },
  "9592301": {
    "zipcode": "9592301",
    "prefectureCode": "15",
    "prefectureNumber": 15,
    "prefecture": "新潟県",
    "city": "新発田市",
    "town": "竹ケ花"
  },
  "9592302": {
    "zipcode": "9592302",
    "prefectureCode": "15",
    "prefectureNumber": 15,
    "prefecture": "新潟県",
    "city": "新発田市",
    "town": "二ツ堂"
  },
  "9592303": {
    "zipcode": "9592303",
    "prefectureCode": "15",
    "prefectureNumber": 15,
    "prefecture": "新潟県",
    "city": "新発田市",
    "town": "切梅"
  },
  "9592304": {
    "zipcode": "9592304",
    "prefectureCode": "15",
    "prefectureNumber": 15,
    "prefecture": "新潟県",
    "city": "新発田市",
    "town": "大伝"
  },
  "9592305": {
    "zipcode": "9592305",
    "prefectureCode": "15",
    "prefectureNumber": 15,
    "prefecture": "新潟県",
    "city": "新発田市",
    "town": "戸板沢"
  },
  "9592311": {
    "zipcode": "9592311",
    "prefectureCode": "15",
    "prefectureNumber": 15,
    "prefecture": "新潟県",
    "city": "新発田市",
    "town": "荒町"
  },
  "9592312": {
    "zipcode": "9592312",
    "prefectureCode": "15",
    "prefectureNumber": 15,
    "prefecture": "新潟県",
    "city": "新発田市",
    "town": "太斎"
  },
  "9592313": {
    "zipcode": "9592313",
    "prefectureCode": "15",
    "prefectureNumber": 15,
    "prefecture": "新潟県",
    "city": "新発田市",
    "town": "藤掛"
  },
  "9592314": {
    "zipcode": "9592314",
    "prefectureCode": "15",
    "prefectureNumber": 15,
    "prefecture": "新潟県",
    "city": "新発田市",
    "town": "赤橋"
  },
  "9592315": {
    "zipcode": "9592315",
    "prefectureCode": "15",
    "prefectureNumber": 15,
    "prefecture": "新潟県",
    "city": "新発田市",
    "town": "小坂"
  },
  "9592321": {
    "zipcode": "9592321",
    "prefectureCode": "15",
    "prefectureNumber": 15,
    "prefecture": "新潟県",
    "city": "新発田市",
    "town": "池ノ端"
  },
  "9592322": {
    "zipcode": "9592322",
    "prefectureCode": "15",
    "prefectureNumber": 15,
    "prefecture": "新潟県",
    "city": "新発田市",
    "town": "下中ノ目"
  },
  "9592323": {
    "zipcode": "9592323",
    "prefectureCode": "15",
    "prefectureNumber": 15,
    "prefecture": "新潟県",
    "city": "新発田市",
    "town": "乙次"
  },
  "9592324": {
    "zipcode": "9592324",
    "prefectureCode": "15",
    "prefectureNumber": 15,
    "prefecture": "新潟県",
    "city": "新発田市",
    "town": "吉浦"
  },
  "9592325": {
    "zipcode": "9592325",
    "prefectureCode": "15",
    "prefectureNumber": 15,
    "prefecture": "新潟県",
    "city": "新発田市",
    "town": "天王"
  },
  "9592326": {
    "zipcode": "9592326",
    "prefectureCode": "15",
    "prefectureNumber": 15,
    "prefecture": "新潟県",
    "city": "新発田市",
    "town": "三ツ椡"
  },
  "9592327": {
    "zipcode": "9592327",
    "prefectureCode": "15",
    "prefectureNumber": 15,
    "prefecture": "新潟県",
    "city": "新発田市",
    "town": "福島"
  },
  "9592328": {
    "zipcode": "9592328",
    "prefectureCode": "15",
    "prefectureNumber": 15,
    "prefecture": "新潟県",
    "city": "新発田市",
    "town": "乗廻"
  },
  "9592329": {
    "zipcode": "9592329",
    "prefectureCode": "15",
    "prefectureNumber": 15,
    "prefecture": "新潟県",
    "city": "新発田市",
    "town": "中ノ目新田"
  },
  "9592331": {
    "zipcode": "9592331",
    "prefectureCode": "15",
    "prefectureNumber": 15,
    "prefecture": "新潟県",
    "city": "新発田市",
    "town": "下飯塚"
  },
  "9592332": {
    "zipcode": "9592332",
    "prefectureCode": "15",
    "prefectureNumber": 15,
    "prefecture": "新潟県",
    "city": "新発田市",
    "town": "万代"
  },
  "9592333": {
    "zipcode": "9592333",
    "prefectureCode": "15",
    "prefectureNumber": 15,
    "prefecture": "新潟県",
    "city": "新発田市",
    "town": "岡屋敷"
  },
  "9592334": {
    "zipcode": "9592334",
    "prefectureCode": "15",
    "prefectureNumber": 15,
    "prefecture": "新潟県",
    "city": "新発田市",
    "town": "月岡"
  },
  "9592335": {
    "zipcode": "9592335",
    "prefectureCode": "15",
    "prefectureNumber": 15,
    "prefecture": "新潟県",
    "city": "新発田市",
    "town": "本田"
  },
  "9592336": {
    "zipcode": "9592336",
    "prefectureCode": "15",
    "prefectureNumber": 15,
    "prefecture": "新潟県",
    "city": "新発田市",
    "town": "加治万代"
  },
  "9592337": {
    "zipcode": "9592337",
    "prefectureCode": "15",
    "prefectureNumber": 15,
    "prefecture": "新潟県",
    "city": "新発田市",
    "town": "竹俣万代"
  },
  "9592338": {
    "zipcode": "9592338",
    "prefectureCode": "15",
    "prefectureNumber": 15,
    "prefecture": "新潟県",
    "city": "新発田市",
    "town": "月岡温泉"
  },
  "9592381": {
    "zipcode": "9592381",
    "prefectureCode": "15",
    "prefectureNumber": 15,
    "prefecture": "新潟県",
    "city": "新発田市",
    "town": "滝沢"
  },
  "9592401": {
    "zipcode": "9592401",
    "prefectureCode": "15",
    "prefectureNumber": 15,
    "prefecture": "新潟県",
    "city": "新発田市",
    "town": "湖南"
  },
  "9592402": {
    "zipcode": "9592402",
    "prefectureCode": "15",
    "prefectureNumber": 15,
    "prefecture": "新潟県",
    "city": "新発田市",
    "town": "小島"
  },
  "9592403": {
    "zipcode": "9592403",
    "prefectureCode": "15",
    "prefectureNumber": 15,
    "prefecture": "新潟県",
    "city": "新発田市",
    "town": "塚田"
  },
  "9592404": {
    "zipcode": "9592404",
    "prefectureCode": "15",
    "prefectureNumber": 15,
    "prefecture": "新潟県",
    "city": "新発田市",
    "town": "下城"
  },
  "9592405": {
    "zipcode": "9592405",
    "prefectureCode": "15",
    "prefectureNumber": 15,
    "prefecture": "新潟県",
    "city": "新発田市",
    "town": "野中"
  },
  "9592406": {
    "zipcode": "9592406",
    "prefectureCode": "15",
    "prefectureNumber": 15,
    "prefecture": "新潟県",
    "city": "新発田市",
    "town": "稲荷"
  },
  "9592407": {
    "zipcode": "9592407",
    "prefectureCode": "15",
    "prefectureNumber": 15,
    "prefecture": "新潟県",
    "city": "新発田市",
    "town": "川口"
  },
  "9592408": {
    "zipcode": "9592408",
    "prefectureCode": "15",
    "prefectureNumber": 15,
    "prefecture": "新潟県",
    "city": "新発田市",
    "town": "吉田"
  },
  "9592409": {
    "zipcode": "9592409",
    "prefectureCode": "15",
    "prefectureNumber": 15,
    "prefecture": "新潟県",
    "city": "新発田市",
    "town": "古楯"
  },
  "9592411": {
    "zipcode": "9592411",
    "prefectureCode": "15",
    "prefectureNumber": 15,
    "prefecture": "新潟県",
    "city": "新発田市",
    "town": "横岡"
  },
  "9592412": {
    "zipcode": "9592412",
    "prefectureCode": "15",
    "prefectureNumber": 15,
    "prefecture": "新潟県",
    "city": "新発田市",
    "town": "平山"
  },
  "9592413": {
    "zipcode": "9592413",
    "prefectureCode": "15",
    "prefectureNumber": 15,
    "prefecture": "新潟県",
    "city": "新発田市",
    "town": "箱岩"
  },
  "9592414": {
    "zipcode": "9592414",
    "prefectureCode": "15",
    "prefectureNumber": 15,
    "prefecture": "新潟県",
    "city": "新発田市",
    "town": "下山田"
  },
  "9592415": {
    "zipcode": "9592415",
    "prefectureCode": "15",
    "prefectureNumber": 15,
    "prefecture": "新潟県",
    "city": "新発田市",
    "town": "住田"
  },
  "9592416": {
    "zipcode": "9592416",
    "prefectureCode": "15",
    "prefectureNumber": 15,
    "prefecture": "新潟県",
    "city": "新発田市",
    "town": "西浦"
  },
  "9592417": {
    "zipcode": "9592417",
    "prefectureCode": "15",
    "prefectureNumber": 15,
    "prefecture": "新潟県",
    "city": "新発田市",
    "town": "下西山"
  },
  "9592421": {
    "zipcode": "9592421",
    "prefectureCode": "15",
    "prefectureNumber": 15,
    "prefecture": "新潟県",
    "city": "新発田市",
    "town": "上今泉"
  },
  "9592422": {
    "zipcode": "9592422",
    "prefectureCode": "15",
    "prefectureNumber": 15,
    "prefecture": "新潟県",
    "city": "新発田市",
    "town": "関妻"
  },
  "9592425": {
    "zipcode": "9592425",
    "prefectureCode": "15",
    "prefectureNumber": 15,
    "prefecture": "新潟県",
    "city": "新発田市",
    "town": "高田"
  },
  "9592426": {
    "zipcode": "9592426",
    "prefectureCode": "15",
    "prefectureNumber": 15,
    "prefecture": "新潟県",
    "city": "新発田市",
    "town": "向中条"
  },
  "9592431": {
    "zipcode": "9592431",
    "prefectureCode": "15",
    "prefectureNumber": 15,
    "prefecture": "新潟県",
    "city": "新発田市",
    "town": "釜杭"
  },
  "9592432": {
    "zipcode": "9592432",
    "prefectureCode": "15",
    "prefectureNumber": 15,
    "prefecture": "新潟県",
    "city": "新発田市",
    "town": "二本木"
  },
  "9592433": {
    "zipcode": "9592433",
    "prefectureCode": "15",
    "prefectureNumber": 15,
    "prefecture": "新潟県",
    "city": "新発田市",
    "town": "古川"
  },
  "9592434": {
    "zipcode": "9592434",
    "prefectureCode": "15",
    "prefectureNumber": 15,
    "prefecture": "新潟県",
    "city": "新発田市",
    "town": "押廻"
  },
  "9592435": {
    "zipcode": "9592435",
    "prefectureCode": "15",
    "prefectureNumber": 15,
    "prefecture": "新潟県",
    "city": "新発田市",
    "town": "川尻"
  },
  "9592436": {
    "zipcode": "9592436",
    "prefectureCode": "15",
    "prefectureNumber": 15,
    "prefecture": "新潟県",
    "city": "新発田市",
    "town": "草荷"
  },
  "9592437": {
    "zipcode": "9592437",
    "prefectureCode": "15",
    "prefectureNumber": 15,
    "prefecture": "新潟県",
    "city": "新発田市",
    "town": "高山寺"
  },
  "9592441": {
    "zipcode": "9592441",
    "prefectureCode": "15",
    "prefectureNumber": 15,
    "prefecture": "新潟県",
    "city": "新発田市",
    "town": "金津"
  },
  "9592442": {
    "zipcode": "9592442",
    "prefectureCode": "15",
    "prefectureNumber": 15,
    "prefecture": "新潟県",
    "city": "新発田市",
    "town": "茗荷谷"
  },
  "9592443": {
    "zipcode": "9592443",
    "prefectureCode": "15",
    "prefectureNumber": 15,
    "prefecture": "新潟県",
    "city": "新発田市",
    "town": "新屋敷"
  },
  "9592444": {
    "zipcode": "9592444",
    "prefectureCode": "15",
    "prefectureNumber": 15,
    "prefecture": "新潟県",
    "city": "新発田市",
    "town": "新保小路"
  },
  "9592445": {
    "zipcode": "9592445",
    "prefectureCode": "15",
    "prefectureNumber": 15,
    "prefecture": "新潟県",
    "city": "新発田市",
    "town": "館野小路"
  },
  "9592451": {
    "zipcode": "9592451",
    "prefectureCode": "15",
    "prefectureNumber": 15,
    "prefecture": "新潟県",
    "city": "新発田市",
    "town": "下中"
  },
  "9592452": {
    "zipcode": "9592452",
    "prefectureCode": "15",
    "prefectureNumber": 15,
    "prefecture": "新潟県",
    "city": "新発田市",
    "town": "上館"
  },
  "9592453": {
    "zipcode": "9592453",
    "prefectureCode": "15",
    "prefectureNumber": 15,
    "prefecture": "新潟県",
    "city": "新発田市",
    "town": "三日市"
  },
  "9592454": {
    "zipcode": "9592454",
    "prefectureCode": "15",
    "prefectureNumber": 15,
    "prefecture": "新潟県",
    "city": "新発田市",
    "town": "早道場"
  },
  "9592455": {
    "zipcode": "9592455",
    "prefectureCode": "15",
    "prefectureNumber": 15,
    "prefecture": "新潟県",
    "city": "新発田市",
    "town": "上小松"
  },
  "9592456": {
    "zipcode": "9592456",
    "prefectureCode": "15",
    "prefectureNumber": 15,
    "prefecture": "新潟県",
    "city": "新発田市",
    "town": "下小松"
  },
  "9592457": {
    "zipcode": "9592457",
    "prefectureCode": "15",
    "prefectureNumber": 15,
    "prefecture": "新潟県",
    "city": "新発田市",
    "town": "下今泉"
  },
  "9592461": {
    "zipcode": "9592461",
    "prefectureCode": "15",
    "prefectureNumber": 15,
    "prefecture": "新潟県",
    "city": "新発田市",
    "town": "大野"
  },
  "9592462": {
    "zipcode": "9592462",
    "prefectureCode": "15",
    "prefectureNumber": 15,
    "prefecture": "新潟県",
    "city": "新発田市",
    "town": "戸野港"
  },
  "9592463": {
    "zipcode": "9592463",
    "prefectureCode": "15",
    "prefectureNumber": 15,
    "prefecture": "新潟県",
    "city": "新発田市",
    "town": "岡島"
  },
  "9592464": {
    "zipcode": "9592464",
    "prefectureCode": "15",
    "prefectureNumber": 15,
    "prefecture": "新潟県",
    "city": "新発田市",
    "town": "金塚"
  },
  "9592465": {
    "zipcode": "9592465",
    "prefectureCode": "15",
    "prefectureNumber": 15,
    "prefecture": "新潟県",
    "city": "新発田市",
    "town": "相馬"
  },
  "9592468": {
    "zipcode": "9592468",
    "prefectureCode": "15",
    "prefectureNumber": 15,
    "prefecture": "新潟県",
    "city": "新発田市",
    "town": "中俵"
  },
  "9592471": {
    "zipcode": "9592471",
    "prefectureCode": "15",
    "prefectureNumber": 15,
    "prefecture": "新潟県",
    "city": "新発田市",
    "town": "小国谷"
  },
  "9592472": {
    "zipcode": "9592472",
    "prefectureCode": "15",
    "prefectureNumber": 15,
    "prefecture": "新潟県",
    "city": "新発田市",
    "town": "貝屋"
  },
  "9592473": {
    "zipcode": "9592473",
    "prefectureCode": "15",
    "prefectureNumber": 15,
    "prefecture": "新潟県",
    "city": "新発田市",
    "town": "金山"
  },
  "9592474": {
    "zipcode": "9592474",
    "prefectureCode": "15",
    "prefectureNumber": 15,
    "prefecture": "新潟県",
    "city": "新発田市",
    "town": "境"
  },
  "9592475": {
    "zipcode": "9592475",
    "prefectureCode": "15",
    "prefectureNumber": 15,
    "prefecture": "新潟県",
    "city": "新発田市",
    "town": "寺尾"
  },
  "9592476": {
    "zipcode": "9592476",
    "prefectureCode": "15",
    "prefectureNumber": 15,
    "prefecture": "新潟県",
    "city": "新発田市",
    "town": "貝塚"
  },
  "9592477": {
    "zipcode": "9592477",
    "prefectureCode": "15",
    "prefectureNumber": 15,
    "prefecture": "新潟県",
    "city": "新発田市",
    "town": "下小中山"
  },
  "9592478": {
    "zipcode": "9592478",
    "prefectureCode": "15",
    "prefectureNumber": 15,
    "prefecture": "新潟県",
    "city": "新発田市",
    "town": "下坂町"
  },
  "9592479": {
    "zipcode": "9592479",
    "prefectureCode": "15",
    "prefectureNumber": 15,
    "prefecture": "新潟県",
    "city": "新発田市",
    "town": "金沢"
  },
  "9592501": {
    "zipcode": "9592501",
    "prefectureCode": "15",
    "prefectureNumber": 15,
    "prefecture": "新潟県",
    "city": "新発田市",
    "town": "上荒沢"
  },
  "9592502": {
    "zipcode": "9592502",
    "prefectureCode": "15",
    "prefectureNumber": 15,
    "prefecture": "新潟県",
    "city": "新発田市",
    "town": "熊出"
  },
  "9592503": {
    "zipcode": "9592503",
    "prefectureCode": "15",
    "prefectureNumber": 15,
    "prefecture": "新潟県",
    "city": "新発田市",
    "town": "下中山"
  },
  "9592504": {
    "zipcode": "9592504",
    "prefectureCode": "15",
    "prefectureNumber": 15,
    "prefecture": "新潟県",
    "city": "新発田市",
    "town": "上寺内"
  },
  "9592505": {
    "zipcode": "9592505",
    "prefectureCode": "15",
    "prefectureNumber": 15,
    "prefecture": "新潟県",
    "city": "新発田市",
    "town": "下寺内"
  },
  "9592506": {
    "zipcode": "9592506",
    "prefectureCode": "15",
    "prefectureNumber": 15,
    "prefecture": "新潟県",
    "city": "新発田市",
    "town": "横山"
  },
  "9592507": {
    "zipcode": "9592507",
    "prefectureCode": "15",
    "prefectureNumber": 15,
    "prefecture": "新潟県",
    "city": "新発田市",
    "town": "溝足"
  },
  "9592511": {
    "zipcode": "9592511",
    "prefectureCode": "15",
    "prefectureNumber": 15,
    "prefecture": "新潟県",
    "city": "新発田市",
    "town": "菅谷"
  },
  "9592512": {
    "zipcode": "9592512",
    "prefectureCode": "15",
    "prefectureNumber": 15,
    "prefecture": "新潟県",
    "city": "新発田市",
    "town": "小出"
  },
  "9592513": {
    "zipcode": "9592513",
    "prefectureCode": "15",
    "prefectureNumber": 15,
    "prefecture": "新潟県",
    "city": "新発田市",
    "town": "繁山"
  },
  "9592514": {
    "zipcode": "9592514",
    "prefectureCode": "15",
    "prefectureNumber": 15,
    "prefecture": "新潟県",
    "city": "新発田市",
    "town": "上石川"
  },
  "9592515": {
    "zipcode": "9592515",
    "prefectureCode": "15",
    "prefectureNumber": 15,
    "prefecture": "新潟県",
    "city": "新発田市",
    "town": "中川"
  },
  "9592516": {
    "zipcode": "9592516",
    "prefectureCode": "15",
    "prefectureNumber": 15,
    "prefecture": "新潟県",
    "city": "新発田市",
    "town": "下石川"
  },
  "9592517": {
    "zipcode": "9592517",
    "prefectureCode": "15",
    "prefectureNumber": 15,
    "prefecture": "新潟県",
    "city": "新発田市",
    "town": "麓"
  },
  "9592518": {
    "zipcode": "9592518",
    "prefectureCode": "15",
    "prefectureNumber": 15,
    "prefecture": "新潟県",
    "city": "新発田市",
    "town": "滝"
  },
  "9592521": {
    "zipcode": "9592521",
    "prefectureCode": "15",
    "prefectureNumber": 15,
    "prefecture": "新潟県",
    "city": "新発田市",
    "town": "蔵光"
  },
  "9592522": {
    "zipcode": "9592522",
    "prefectureCode": "15",
    "prefectureNumber": 15,
    "prefecture": "新潟県",
    "city": "新発田市",
    "town": "北中江"
  },
  "9592523": {
    "zipcode": "9592523",
    "prefectureCode": "15",
    "prefectureNumber": 15,
    "prefecture": "新潟県",
    "city": "新発田市",
    "town": "上中江"
  },
  "9592524": {
    "zipcode": "9592524",
    "prefectureCode": "15",
    "prefectureNumber": 15,
    "prefecture": "新潟県",
    "city": "新発田市",
    "town": "下中江"
  },
  "9592525": {
    "zipcode": "9592525",
    "prefectureCode": "15",
    "prefectureNumber": 15,
    "prefecture": "新潟県",
    "city": "新発田市",
    "town": "中倉"
  },
  "9592526": {
    "zipcode": "9592526",
    "prefectureCode": "15",
    "prefectureNumber": 15,
    "prefecture": "新潟県",
    "city": "新発田市",
    "town": "中妻"
  },
  "9592527": {
    "zipcode": "9592527",
    "prefectureCode": "15",
    "prefectureNumber": 15,
    "prefecture": "新潟県",
    "city": "新発田市",
    "town": "黒岩"
  },
  "9592528": {
    "zipcode": "9592528",
    "prefectureCode": "15",
    "prefectureNumber": 15,
    "prefecture": "新潟県",
    "city": "新発田市",
    "town": "東宮内"
  },
  "9592600": {
    "zipcode": "9592600",
    "prefectureCode": "15",
    "prefectureNumber": 15,
    "prefecture": "新潟県",
    "city": "胎内市",
    "town": "以下に掲載がない場合"
  },
  "9592601": {
    "zipcode": "9592601",
    "prefectureCode": "15",
    "prefectureNumber": 15,
    "prefecture": "新潟県",
    "city": "胎内市",
    "town": "桃崎浜"
  },
  "9592602": {
    "zipcode": "9592602",
    "prefectureCode": "15",
    "prefectureNumber": 15,
    "prefecture": "新潟県",
    "city": "胎内市",
    "town": "乙"
  },
  "9592603": {
    "zipcode": "9592603",
    "prefectureCode": "15",
    "prefectureNumber": 15,
    "prefecture": "新潟県",
    "city": "胎内市",
    "town": "菅田"
  },
  "9592604": {
    "zipcode": "9592604",
    "prefectureCode": "15",
    "prefectureNumber": 15,
    "prefecture": "新潟県",
    "city": "胎内市",
    "town": "大出"
  },
  "9592605": {
    "zipcode": "9592605",
    "prefectureCode": "15",
    "prefectureNumber": 15,
    "prefecture": "新潟県",
    "city": "胎内市",
    "town": "江尻"
  },
  "9592606": {
    "zipcode": "9592606",
    "prefectureCode": "15",
    "prefectureNumber": 15,
    "prefecture": "新潟県",
    "city": "胎内市",
    "town": "八幡"
  },
  "9592607": {
    "zipcode": "9592607",
    "prefectureCode": "15",
    "prefectureNumber": 15,
    "prefecture": "新潟県",
    "city": "胎内市",
    "town": "地本"
  },
  "9592608": {
    "zipcode": "9592608",
    "prefectureCode": "15",
    "prefectureNumber": 15,
    "prefecture": "新潟県",
    "city": "胎内市",
    "town": "富岡"
  },
  "9592609": {
    "zipcode": "9592609",
    "prefectureCode": "15",
    "prefectureNumber": 15,
    "prefecture": "新潟県",
    "city": "胎内市",
    "town": "荒井浜"
  },
  "9592611": {
    "zipcode": "9592611",
    "prefectureCode": "15",
    "prefectureNumber": 15,
    "prefecture": "新潟県",
    "city": "胎内市",
    "town": "山屋"
  },
  "9592612": {
    "zipcode": "9592612",
    "prefectureCode": "15",
    "prefectureNumber": 15,
    "prefecture": "新潟県",
    "city": "胎内市",
    "town": "小地谷"
  },
  "9592613": {
    "zipcode": "9592613",
    "prefectureCode": "15",
    "prefectureNumber": 15,
    "prefecture": "新潟県",
    "city": "胎内市",
    "town": "平木田駅前"
  },
  "9592614": {
    "zipcode": "9592614",
    "prefectureCode": "15",
    "prefectureNumber": 15,
    "prefecture": "新潟県",
    "city": "胎内市",
    "town": "平木田"
  },
  "9592615": {
    "zipcode": "9592615",
    "prefectureCode": "15",
    "prefectureNumber": 15,
    "prefecture": "新潟県",
    "city": "胎内市",
    "town": "横道"
  },
  "9592616": {
    "zipcode": "9592616",
    "prefectureCode": "15",
    "prefectureNumber": 15,
    "prefecture": "新潟県",
    "city": "胎内市",
    "town": "土作"
  },
  "9592617": {
    "zipcode": "9592617",
    "prefectureCode": "15",
    "prefectureNumber": 15,
    "prefecture": "新潟県",
    "city": "胎内市",
    "town": "高野村新田"
  },
  "9592618": {
    "zipcode": "9592618",
    "prefectureCode": "15",
    "prefectureNumber": 15,
    "prefecture": "新潟県",
    "city": "胎内市",
    "town": "高野"
  },
  "9592619": {
    "zipcode": "9592619",
    "prefectureCode": "15",
    "prefectureNumber": 15,
    "prefecture": "新潟県",
    "city": "胎内市",
    "town": "十二天"
  },
  "9592621": {
    "zipcode": "9592621",
    "prefectureCode": "15",
    "prefectureNumber": 15,
    "prefecture": "新潟県",
    "city": "胎内市",
    "town": "並槻"
  },
  "9592622": {
    "zipcode": "9592622",
    "prefectureCode": "15",
    "prefectureNumber": 15,
    "prefecture": "新潟県",
    "city": "胎内市",
    "town": "追分"
  },
  "9592623": {
    "zipcode": "9592623",
    "prefectureCode": "15",
    "prefectureNumber": 15,
    "prefecture": "新潟県",
    "city": "胎内市",
    "town": "仁谷野"
  },
  "9592624": {
    "zipcode": "9592624",
    "prefectureCode": "15",
    "prefectureNumber": 15,
    "prefecture": "新潟県",
    "city": "胎内市",
    "town": "羽黒"
  },
  "9592625": {
    "zipcode": "9592625",
    "prefectureCode": "15",
    "prefectureNumber": 15,
    "prefecture": "新潟県",
    "city": "胎内市",
    "town": "半山"
  },
  "9592626": {
    "zipcode": "9592626",
    "prefectureCode": "15",
    "prefectureNumber": 15,
    "prefecture": "新潟県",
    "city": "胎内市",
    "town": "飯角"
  },
  "9592627": {
    "zipcode": "9592627",
    "prefectureCode": "15",
    "prefectureNumber": 15,
    "prefecture": "新潟県",
    "city": "胎内市",
    "town": "野中"
  },
  "9592628": {
    "zipcode": "9592628",
    "prefectureCode": "15",
    "prefectureNumber": 15,
    "prefecture": "新潟県",
    "city": "胎内市",
    "town": "二葉町"
  },
  "9592629": {
    "zipcode": "9592629",
    "prefectureCode": "15",
    "prefectureNumber": 15,
    "prefecture": "新潟県",
    "city": "胎内市",
    "town": "中条"
  },
  "9592631": {
    "zipcode": "9592631",
    "prefectureCode": "15",
    "prefectureNumber": 15,
    "prefecture": "新潟県",
    "city": "胎内市",
    "town": "表町"
  },
  "9592632": {
    "zipcode": "9592632",
    "prefectureCode": "15",
    "prefectureNumber": 15,
    "prefecture": "新潟県",
    "city": "胎内市",
    "town": "新栄町"
  },
  "9592633": {
    "zipcode": "9592633",
    "prefectureCode": "15",
    "prefectureNumber": 15,
    "prefecture": "新潟県",
    "city": "胎内市",
    "town": "関沢"
  },
  "9592634": {
    "zipcode": "9592634",
    "prefectureCode": "15",
    "prefectureNumber": 15,
    "prefecture": "新潟県",
    "city": "胎内市",
    "town": "小牧台"
  },
  "9592635": {
    "zipcode": "9592635",
    "prefectureCode": "15",
    "prefectureNumber": 15,
    "prefecture": "新潟県",
    "city": "胎内市",
    "town": "つつじが丘"
  },
  "9592636": {
    "zipcode": "9592636",
    "prefectureCode": "15",
    "prefectureNumber": 15,
    "prefecture": "新潟県",
    "city": "胎内市",
    "town": "星の宮町"
  },
  "9592637": {
    "zipcode": "9592637",
    "prefectureCode": "15",
    "prefectureNumber": 15,
    "prefecture": "新潟県",
    "city": "胎内市",
    "town": "長橋"
  },
  "9592638": {
    "zipcode": "9592638",
    "prefectureCode": "15",
    "prefectureNumber": 15,
    "prefecture": "新潟県",
    "city": "胎内市",
    "town": "水沢町"
  },
  "9592641": {
    "zipcode": "9592641",
    "prefectureCode": "15",
    "prefectureNumber": 15,
    "prefecture": "新潟県",
    "city": "胎内市",
    "town": "若松町"
  },
  "9592642": {
    "zipcode": "9592642",
    "prefectureCode": "15",
    "prefectureNumber": 15,
    "prefecture": "新潟県",
    "city": "胎内市",
    "town": "新和町"
  },
  "9592643": {
    "zipcode": "9592643",
    "prefectureCode": "15",
    "prefectureNumber": 15,
    "prefecture": "新潟県",
    "city": "胎内市",
    "town": "東本町"
  },
  "9592644": {
    "zipcode": "9592644",
    "prefectureCode": "15",
    "prefectureNumber": 15,
    "prefecture": "新潟県",
    "city": "胎内市",
    "town": "大川町"
  },
  "9592645": {
    "zipcode": "9592645",
    "prefectureCode": "15",
    "prefectureNumber": 15,
    "prefecture": "新潟県",
    "city": "胎内市",
    "town": "本町"
  },
  "9592646": {
    "zipcode": "9592646",
    "prefectureCode": "15",
    "prefectureNumber": 15,
    "prefecture": "新潟県",
    "city": "胎内市",
    "town": "西栄町"
  },
  "9592647": {
    "zipcode": "9592647",
    "prefectureCode": "15",
    "prefectureNumber": 15,
    "prefecture": "新潟県",
    "city": "胎内市",
    "town": "北本町"
  },
  "9592648": {
    "zipcode": "9592648",
    "prefectureCode": "15",
    "prefectureNumber": 15,
    "prefecture": "新潟県",
    "city": "胎内市",
    "town": "住吉町"
  },
  "9592651": {
    "zipcode": "9592651",
    "prefectureCode": "15",
    "prefectureNumber": 15,
    "prefecture": "新潟県",
    "city": "胎内市",
    "town": "西条町"
  },
  "9592652": {
    "zipcode": "9592652",
    "prefectureCode": "15",
    "prefectureNumber": 15,
    "prefecture": "新潟県",
    "city": "胎内市",
    "town": "協和町"
  },
  "9592653": {
    "zipcode": "9592653",
    "prefectureCode": "15",
    "prefectureNumber": 15,
    "prefecture": "新潟県",
    "city": "胎内市",
    "town": "倉敷町"
  },
  "9592654": {
    "zipcode": "9592654",
    "prefectureCode": "15",
    "prefectureNumber": 15,
    "prefecture": "新潟県",
    "city": "胎内市",
    "town": "本郷町"
  },
  "9592655": {
    "zipcode": "9592655",
    "prefectureCode": "15",
    "prefectureNumber": 15,
    "prefecture": "新潟県",
    "city": "胎内市",
    "town": "本郷"
  },
  "9592656": {
    "zipcode": "9592656",
    "prefectureCode": "15",
    "prefectureNumber": 15,
    "prefecture": "新潟県",
    "city": "胎内市",
    "town": "西本町"
  },
  "9592657": {
    "zipcode": "9592657",
    "prefectureCode": "15",
    "prefectureNumber": 15,
    "prefecture": "新潟県",
    "city": "胎内市",
    "town": "江上"
  },
  "9592658": {
    "zipcode": "9592658",
    "prefectureCode": "15",
    "prefectureNumber": 15,
    "prefecture": "新潟県",
    "city": "胎内市",
    "town": "西条"
  },
  "9592659": {
    "zipcode": "9592659",
    "prefectureCode": "15",
    "prefectureNumber": 15,
    "prefecture": "新潟県",
    "city": "胎内市",
    "town": "あかね町"
  },
  "9592661": {
    "zipcode": "9592661",
    "prefectureCode": "15",
    "prefectureNumber": 15,
    "prefecture": "新潟県",
    "city": "胎内市",
    "town": "赤川"
  },
  "9592662": {
    "zipcode": "9592662",
    "prefectureCode": "15",
    "prefectureNumber": 15,
    "prefecture": "新潟県",
    "city": "胎内市",
    "town": "鷹ノ巣"
  },
  "9592663": {
    "zipcode": "9592663",
    "prefectureCode": "15",
    "prefectureNumber": 15,
    "prefecture": "新潟県",
    "city": "胎内市",
    "town": "草野"
  },
  "9592664": {
    "zipcode": "9592664",
    "prefectureCode": "15",
    "prefectureNumber": 15,
    "prefecture": "新潟県",
    "city": "胎内市",
    "town": "柴橋"
  },
  "9592665": {
    "zipcode": "9592665",
    "prefectureCode": "15",
    "prefectureNumber": 15,
    "prefecture": "新潟県",
    "city": "胎内市",
    "town": "大塚"
  },
  "9592666": {
    "zipcode": "9592666",
    "prefectureCode": "15",
    "prefectureNumber": 15,
    "prefecture": "新潟県",
    "city": "胎内市",
    "town": "新舘"
  },
  "9592667": {
    "zipcode": "9592667",
    "prefectureCode": "15",
    "prefectureNumber": 15,
    "prefecture": "新潟県",
    "city": "胎内市",
    "town": "西川内"
  },
  "9592668": {
    "zipcode": "9592668",
    "prefectureCode": "15",
    "prefectureNumber": 15,
    "prefecture": "新潟県",
    "city": "胎内市",
    "town": "弥彦岡"
  },
  "9592669": {
    "zipcode": "9592669",
    "prefectureCode": "15",
    "prefectureNumber": 15,
    "prefecture": "新潟県",
    "city": "胎内市",
    "town": "塩津"
  },
  "9592671": {
    "zipcode": "9592671",
    "prefectureCode": "15",
    "prefectureNumber": 15,
    "prefecture": "新潟県",
    "city": "胎内市",
    "town": "東川内"
  },
  "9592672": {
    "zipcode": "9592672",
    "prefectureCode": "15",
    "prefectureNumber": 15,
    "prefecture": "新潟県",
    "city": "胎内市",
    "town": "八田"
  },
  "9592673": {
    "zipcode": "9592673",
    "prefectureCode": "15",
    "prefectureNumber": 15,
    "prefecture": "新潟県",
    "city": "胎内市",
    "town": "寅田"
  },
  "9592674": {
    "zipcode": "9592674",
    "prefectureCode": "15",
    "prefectureNumber": 15,
    "prefecture": "新潟県",
    "city": "胎内市",
    "town": "小舟戸"
  },
  "9592675": {
    "zipcode": "9592675",
    "prefectureCode": "15",
    "prefectureNumber": 15,
    "prefecture": "新潟県",
    "city": "胎内市",
    "town": "船戸"
  },
  "9592676": {
    "zipcode": "9592676",
    "prefectureCode": "15",
    "prefectureNumber": 15,
    "prefecture": "新潟県",
    "city": "胎内市",
    "town": "上城塚"
  },
  "9592677": {
    "zipcode": "9592677",
    "prefectureCode": "15",
    "prefectureNumber": 15,
    "prefecture": "新潟県",
    "city": "胎内市",
    "town": "下城塚"
  },
  "9592701": {
    "zipcode": "9592701",
    "prefectureCode": "15",
    "prefectureNumber": 15,
    "prefecture": "新潟県",
    "city": "胎内市",
    "town": "笹口浜"
  },
  "9592702": {
    "zipcode": "9592702",
    "prefectureCode": "15",
    "prefectureNumber": 15,
    "prefecture": "新潟県",
    "city": "胎内市",
    "town": "平根台"
  },
  "9592703": {
    "zipcode": "9592703",
    "prefectureCode": "15",
    "prefectureNumber": 15,
    "prefecture": "新潟県",
    "city": "胎内市",
    "town": "高畑"
  },
  "9592704": {
    "zipcode": "9592704",
    "prefectureCode": "15",
    "prefectureNumber": 15,
    "prefecture": "新潟県",
    "city": "胎内市",
    "town": "宮瀬"
  },
  "9592705": {
    "zipcode": "9592705",
    "prefectureCode": "15",
    "prefectureNumber": 15,
    "prefecture": "新潟県",
    "city": "胎内市",
    "town": "鴻ノ巣"
  },
  "9592706": {
    "zipcode": "9592706",
    "prefectureCode": "15",
    "prefectureNumber": 15,
    "prefecture": "新潟県",
    "city": "胎内市",
    "town": "山王"
  },
  "9592707": {
    "zipcode": "9592707",
    "prefectureCode": "15",
    "prefectureNumber": 15,
    "prefecture": "新潟県",
    "city": "胎内市",
    "town": "下高田"
  },
  "9592708": {
    "zipcode": "9592708",
    "prefectureCode": "15",
    "prefectureNumber": 15,
    "prefecture": "新潟県",
    "city": "胎内市",
    "town": "中村浜"
  },
  "9592709": {
    "zipcode": "9592709",
    "prefectureCode": "15",
    "prefectureNumber": 15,
    "prefecture": "新潟県",
    "city": "胎内市",
    "town": "村松浜"
  },
  "9592712": {
    "zipcode": "9592712",
    "prefectureCode": "15",
    "prefectureNumber": 15,
    "prefecture": "新潟県",
    "city": "胎内市",
    "town": "築地"
  },
  "9592713": {
    "zipcode": "9592713",
    "prefectureCode": "15",
    "prefectureNumber": 15,
    "prefecture": "新潟県",
    "city": "胎内市",
    "town": "築地新"
  },
  "9592714": {
    "zipcode": "9592714",
    "prefectureCode": "15",
    "prefectureNumber": 15,
    "prefecture": "新潟県",
    "city": "胎内市",
    "town": "堀口"
  },
  "9592715": {
    "zipcode": "9592715",
    "prefectureCode": "15",
    "prefectureNumber": 15,
    "prefecture": "新潟県",
    "city": "胎内市",
    "town": "高橋"
  },
  "9592716": {
    "zipcode": "9592716",
    "prefectureCode": "15",
    "prefectureNumber": 15,
    "prefecture": "新潟県",
    "city": "胎内市",
    "town": "中倉"
  },
  "9592721": {
    "zipcode": "9592721",
    "prefectureCode": "15",
    "prefectureNumber": 15,
    "prefecture": "新潟県",
    "city": "胎内市",
    "town": "苔実"
  },
  "9592722": {
    "zipcode": "9592722",
    "prefectureCode": "15",
    "prefectureNumber": 15,
    "prefecture": "新潟県",
    "city": "胎内市",
    "town": "竹島"
  },
  "9592723": {
    "zipcode": "9592723",
    "prefectureCode": "15",
    "prefectureNumber": 15,
    "prefecture": "新潟県",
    "city": "胎内市",
    "town": "宮川"
  },
  "9592724": {
    "zipcode": "9592724",
    "prefectureCode": "15",
    "prefectureNumber": 15,
    "prefecture": "新潟県",
    "city": "胎内市",
    "town": "北成田"
  },
  "9592801": {
    "zipcode": "9592801",
    "prefectureCode": "15",
    "prefectureNumber": 15,
    "prefecture": "新潟県",
    "city": "胎内市",
    "town": "近江新"
  },
  "9592802": {
    "zipcode": "9592802",
    "prefectureCode": "15",
    "prefectureNumber": 15,
    "prefecture": "新潟県",
    "city": "胎内市",
    "town": "切田"
  },
  "9592803": {
    "zipcode": "9592803",
    "prefectureCode": "15",
    "prefectureNumber": 15,
    "prefecture": "新潟県",
    "city": "胎内市",
    "town": "蔵王"
  },
  "9592804": {
    "zipcode": "9592804",
    "prefectureCode": "15",
    "prefectureNumber": 15,
    "prefecture": "新潟県",
    "city": "胎内市",
    "town": "塩沢"
  },
  "9592805": {
    "zipcode": "9592805",
    "prefectureCode": "15",
    "prefectureNumber": 15,
    "prefecture": "新潟県",
    "city": "胎内市",
    "town": "下館"
  },
  "9592806": {
    "zipcode": "9592806",
    "prefectureCode": "15",
    "prefectureNumber": 15,
    "prefecture": "新潟県",
    "city": "胎内市",
    "town": "下赤谷"
  },
  "9592807": {
    "zipcode": "9592807",
    "prefectureCode": "15",
    "prefectureNumber": 15,
    "prefecture": "新潟県",
    "city": "胎内市",
    "town": "黒川"
  },
  "9592808": {
    "zipcode": "9592808",
    "prefectureCode": "15",
    "prefectureNumber": 15,
    "prefecture": "新潟県",
    "city": "胎内市",
    "town": "東牧"
  },
  "9592809": {
    "zipcode": "9592809",
    "prefectureCode": "15",
    "prefectureNumber": 15,
    "prefecture": "新潟県",
    "city": "胎内市",
    "town": "下江端"
  },
  "9592811": {
    "zipcode": "9592811",
    "prefectureCode": "15",
    "prefectureNumber": 15,
    "prefecture": "新潟県",
    "city": "胎内市",
    "town": "鍬江"
  },
  "9592812": {
    "zipcode": "9592812",
    "prefectureCode": "15",
    "prefectureNumber": 15,
    "prefecture": "新潟県",
    "city": "胎内市",
    "town": "小長谷"
  },
  "9592813": {
    "zipcode": "9592813",
    "prefectureCode": "15",
    "prefectureNumber": 15,
    "prefecture": "新潟県",
    "city": "胎内市",
    "town": "大長谷"
  },
  "9592814": {
    "zipcode": "9592814",
    "prefectureCode": "15",
    "prefectureNumber": 15,
    "prefecture": "新潟県",
    "city": "胎内市",
    "town": "黒俣"
  },
  "9592815": {
    "zipcode": "9592815",
    "prefectureCode": "15",
    "prefectureNumber": 15,
    "prefecture": "新潟県",
    "city": "胎内市",
    "town": "持倉"
  },
  "9592816": {
    "zipcode": "9592816",
    "prefectureCode": "15",
    "prefectureNumber": 15,
    "prefecture": "新潟県",
    "city": "胎内市",
    "town": "下荒沢"
  },
  "9592817": {
    "zipcode": "9592817",
    "prefectureCode": "15",
    "prefectureNumber": 15,
    "prefecture": "新潟県",
    "city": "胎内市",
    "town": "須巻"
  },
  "9592821": {
    "zipcode": "9592821",
    "prefectureCode": "15",
    "prefectureNumber": 15,
    "prefecture": "新潟県",
    "city": "胎内市",
    "town": "坪穴"
  },
  "9592822": {
    "zipcode": "9592822",
    "prefectureCode": "15",
    "prefectureNumber": 15,
    "prefecture": "新潟県",
    "city": "胎内市",
    "town": "夏井"
  },
  "9592823": {
    "zipcode": "9592823",
    "prefectureCode": "15",
    "prefectureNumber": 15,
    "prefecture": "新潟県",
    "city": "胎内市",
    "town": "熱田坂"
  },
  "9592824": {
    "zipcode": "9592824",
    "prefectureCode": "15",
    "prefectureNumber": 15,
    "prefecture": "新潟県",
    "city": "胎内市",
    "town": "宮久"
  },
  "9592825": {
    "zipcode": "9592825",
    "prefectureCode": "15",
    "prefectureNumber": 15,
    "prefecture": "新潟県",
    "city": "胎内市",
    "town": "坂井"
  },
  "9592826": {
    "zipcode": "9592826",
    "prefectureCode": "15",
    "prefectureNumber": 15,
    "prefecture": "新潟県",
    "city": "胎内市",
    "town": "鼓岡"
  },
  "9592827": {
    "zipcode": "9592827",
    "prefectureCode": "15",
    "prefectureNumber": 15,
    "prefecture": "新潟県",
    "city": "胎内市",
    "town": "栗木野新田"
  },
  "9593101": {
    "zipcode": "9593101",
    "prefectureCode": "15",
    "prefectureNumber": 15,
    "prefecture": "新潟県",
    "city": "村上市",
    "town": "花立"
  },
  "9593102": {
    "zipcode": "9593102",
    "prefectureCode": "15",
    "prefectureNumber": 15,
    "prefecture": "新潟県",
    "city": "村上市",
    "town": "貝附"
  },
  "9593103": {
    "zipcode": "9593103",
    "prefectureCode": "15",
    "prefectureNumber": 15,
    "prefecture": "新潟県",
    "city": "村上市",
    "town": "荒島"
  },
  "9593104": {
    "zipcode": "9593104",
    "prefectureCode": "15",
    "prefectureNumber": 15,
    "prefecture": "新潟県",
    "city": "村上市",
    "town": "春木山"
  },
  "9593105": {
    "zipcode": "9593105",
    "prefectureCode": "15",
    "prefectureNumber": 15,
    "prefecture": "新潟県",
    "city": "村上市",
    "town": "梨木"
  },
  "9593106": {
    "zipcode": "9593106",
    "prefectureCode": "15",
    "prefectureNumber": 15,
    "prefecture": "新潟県",
    "city": "村上市",
    "town": "切田"
  },
  "9593107": {
    "zipcode": "9593107",
    "prefectureCode": "15",
    "prefectureNumber": 15,
    "prefecture": "新潟県",
    "city": "村上市",
    "town": "下鍜冶屋"
  },
  "9593108": {
    "zipcode": "9593108",
    "prefectureCode": "15",
    "prefectureNumber": 15,
    "prefecture": "新潟県",
    "city": "村上市",
    "town": "上鍜冶屋"
  },
  "9593111": {
    "zipcode": "9593111",
    "prefectureCode": "15",
    "prefectureNumber": 15,
    "prefecture": "新潟県",
    "city": "村上市",
    "town": "長政"
  },
  "9593112": {
    "zipcode": "9593112",
    "prefectureCode": "15",
    "prefectureNumber": 15,
    "prefecture": "新潟県",
    "city": "村上市",
    "town": "中野"
  },
  "9593113": {
    "zipcode": "9593113",
    "prefectureCode": "15",
    "prefectureNumber": 15,
    "prefecture": "新潟県",
    "city": "村上市",
    "town": "名割"
  },
  "9593114": {
    "zipcode": "9593114",
    "prefectureCode": "15",
    "prefectureNumber": 15,
    "prefecture": "新潟県",
    "city": "村上市",
    "town": "南新保"
  },
  "9593115": {
    "zipcode": "9593115",
    "prefectureCode": "15",
    "prefectureNumber": 15,
    "prefecture": "新潟県",
    "city": "村上市",
    "town": "新光寺"
  },
  "9593116": {
    "zipcode": "9593116",
    "prefectureCode": "15",
    "prefectureNumber": 15,
    "prefecture": "新潟県",
    "city": "村上市",
    "town": "荒屋"
  },
  "9593117": {
    "zipcode": "9593117",
    "prefectureCode": "15",
    "prefectureNumber": 15,
    "prefecture": "新潟県",
    "city": "村上市",
    "town": "海老江"
  },
  "9593121": {
    "zipcode": "9593121",
    "prefectureCode": "15",
    "prefectureNumber": 15,
    "prefecture": "新潟県",
    "city": "村上市",
    "town": "佐々木"
  },
  "9593122": {
    "zipcode": "9593122",
    "prefectureCode": "15",
    "prefectureNumber": 15,
    "prefecture": "新潟県",
    "city": "村上市",
    "town": "大津"
  },
  "9593123": {
    "zipcode": "9593123",
    "prefectureCode": "15",
    "prefectureNumber": 15,
    "prefecture": "新潟県",
    "city": "村上市",
    "town": "中倉"
  },
  "9593124": {
    "zipcode": "9593124",
    "prefectureCode": "15",
    "prefectureNumber": 15,
    "prefecture": "新潟県",
    "city": "村上市",
    "town": "金屋"
  },
  "9593125": {
    "zipcode": "9593125",
    "prefectureCode": "15",
    "prefectureNumber": 15,
    "prefecture": "新潟県",
    "city": "村上市",
    "town": "荒川縁新田"
  },
  "9593126": {
    "zipcode": "9593126",
    "prefectureCode": "15",
    "prefectureNumber": 15,
    "prefecture": "新潟県",
    "city": "村上市",
    "town": "鳥屋"
  },
  "9593131": {
    "zipcode": "9593131",
    "prefectureCode": "15",
    "prefectureNumber": 15,
    "prefecture": "新潟県",
    "city": "村上市",
    "town": "藤沢"
  },
  "9593132": {
    "zipcode": "9593132",
    "prefectureCode": "15",
    "prefectureNumber": 15,
    "prefecture": "新潟県",
    "city": "村上市",
    "town": "坂町"
  },
  "9593133": {
    "zipcode": "9593133",
    "prefectureCode": "15",
    "prefectureNumber": 15,
    "prefecture": "新潟県",
    "city": "村上市",
    "town": "山口"
  },
  "9593134": {
    "zipcode": "9593134",
    "prefectureCode": "15",
    "prefectureNumber": 15,
    "prefecture": "新潟県",
    "city": "村上市",
    "town": "羽ヶ榎"
  },
  "9593200": {
    "zipcode": "9593200",
    "prefectureCode": "15",
    "prefectureNumber": 15,
    "prefecture": "新潟県",
    "city": "岩船郡関川村",
    "town": "以下に掲載がない場合"
  },
  "9593201": {
    "zipcode": "9593201",
    "prefectureCode": "15",
    "prefectureNumber": 15,
    "prefecture": "新潟県",
    "city": "岩船郡関川村",
    "town": "朴坂"
  },
  "9593202": {
    "zipcode": "9593202",
    "prefectureCode": "15",
    "prefectureNumber": 15,
    "prefecture": "新潟県",
    "city": "岩船郡関川村",
    "town": "宮前"
  },
  "9593203": {
    "zipcode": "9593203",
    "prefectureCode": "15",
    "prefectureNumber": 15,
    "prefecture": "新潟県",
    "city": "岩船郡関川村",
    "town": "南中"
  },
  "9593204": {
    "zipcode": "9593204",
    "prefectureCode": "15",
    "prefectureNumber": 15,
    "prefecture": "新潟県",
    "city": "岩船郡関川村",
    "town": "蛇喰"
  },
  "9593205": {
    "zipcode": "9593205",
    "prefectureCode": "15",
    "prefectureNumber": 15,
    "prefecture": "新潟県",
    "city": "岩船郡関川村",
    "town": "上新保"
  },
  "9593206": {
    "zipcode": "9593206",
    "prefectureCode": "15",
    "prefectureNumber": 15,
    "prefecture": "新潟県",
    "city": "岩船郡関川村",
    "town": "中束"
  },
  "9593207": {
    "zipcode": "9593207",
    "prefectureCode": "15",
    "prefectureNumber": 15,
    "prefecture": "新潟県",
    "city": "岩船郡関川村",
    "town": "蕨野"
  },
  "9593208": {
    "zipcode": "9593208",
    "prefectureCode": "15",
    "prefectureNumber": 15,
    "prefecture": "新潟県",
    "city": "岩船郡関川村",
    "town": "田麦千刈"
  },
  "9593211": {
    "zipcode": "9593211",
    "prefectureCode": "15",
    "prefectureNumber": 15,
    "prefecture": "新潟県",
    "city": "岩船郡関川村",
    "town": "小和田"
  },
  "9593212": {
    "zipcode": "9593212",
    "prefectureCode": "15",
    "prefectureNumber": 15,
    "prefecture": "新潟県",
    "city": "岩船郡関川村",
    "town": "若山"
  },
  "9593213": {
    "zipcode": "9593213",
    "prefectureCode": "15",
    "prefectureNumber": 15,
    "prefecture": "新潟県",
    "city": "岩船郡関川村",
    "town": "上野"
  },
  "9593214": {
    "zipcode": "9593214",
    "prefectureCode": "15",
    "prefectureNumber": 15,
    "prefecture": "新潟県",
    "city": "岩船郡関川村",
    "town": "上野新"
  },
  "9593215": {
    "zipcode": "9593215",
    "prefectureCode": "15",
    "prefectureNumber": 15,
    "prefecture": "新潟県",
    "city": "岩船郡関川村",
    "town": "深沢"
  },
  "9593216": {
    "zipcode": "9593216",
    "prefectureCode": "15",
    "prefectureNumber": 15,
    "prefecture": "新潟県",
    "city": "岩船郡関川村",
    "town": "上野原"
  },
  "9593221": {
    "zipcode": "9593221",
    "prefectureCode": "15",
    "prefectureNumber": 15,
    "prefecture": "新潟県",
    "city": "岩船郡関川村",
    "town": "下川口"
  },
  "9593222": {
    "zipcode": "9593222",
    "prefectureCode": "15",
    "prefectureNumber": 15,
    "prefecture": "新潟県",
    "city": "岩船郡関川村",
    "town": "荒川台"
  },
  "9593223": {
    "zipcode": "9593223",
    "prefectureCode": "15",
    "prefectureNumber": 15,
    "prefecture": "新潟県",
    "city": "岩船郡関川村",
    "town": "大内淵"
  },
  "9593224": {
    "zipcode": "9593224",
    "prefectureCode": "15",
    "prefectureNumber": 15,
    "prefecture": "新潟県",
    "city": "岩船郡関川村",
    "town": "聞出"
  },
  "9593225": {
    "zipcode": "9593225",
    "prefectureCode": "15",
    "prefectureNumber": 15,
    "prefecture": "新潟県",
    "city": "岩船郡関川村",
    "town": "沼"
  },
  "9593226": {
    "zipcode": "9593226",
    "prefectureCode": "15",
    "prefectureNumber": 15,
    "prefecture": "新潟県",
    "city": "岩船郡関川村",
    "town": "片貝"
  },
  "9593227": {
    "zipcode": "9593227",
    "prefectureCode": "15",
    "prefectureNumber": 15,
    "prefecture": "新潟県",
    "city": "岩船郡関川村",
    "town": "八ツ口"
  },
  "9593228": {
    "zipcode": "9593228",
    "prefectureCode": "15",
    "prefectureNumber": 15,
    "prefecture": "新潟県",
    "city": "岩船郡関川村",
    "town": "金丸"
  },
  "9593231": {
    "zipcode": "9593231",
    "prefectureCode": "15",
    "prefectureNumber": 15,
    "prefecture": "新潟県",
    "city": "岩船郡関川村",
    "town": "上川口"
  },
  "9593232": {
    "zipcode": "9593232",
    "prefectureCode": "15",
    "prefectureNumber": 15,
    "prefecture": "新潟県",
    "city": "岩船郡関川村",
    "town": "蔵田島"
  },
  "9593233": {
    "zipcode": "9593233",
    "prefectureCode": "15",
    "prefectureNumber": 15,
    "prefecture": "新潟県",
    "city": "岩船郡関川村",
    "town": "久保"
  },
  "9593234": {
    "zipcode": "9593234",
    "prefectureCode": "15",
    "prefectureNumber": 15,
    "prefecture": "新潟県",
    "city": "岩船郡関川村",
    "town": "鮖谷"
  },
  "9593235": {
    "zipcode": "9593235",
    "prefectureCode": "15",
    "prefectureNumber": 15,
    "prefecture": "新潟県",
    "city": "岩船郡関川村",
    "town": "安角"
  },
  "9593236": {
    "zipcode": "9593236",
    "prefectureCode": "15",
    "prefectureNumber": 15,
    "prefecture": "新潟県",
    "city": "岩船郡関川村",
    "town": "大石"
  },
  "9593237": {
    "zipcode": "9593237",
    "prefectureCode": "15",
    "prefectureNumber": 15,
    "prefecture": "新潟県",
    "city": "岩船郡関川村",
    "town": "金俣"
  },
  "9593241": {
    "zipcode": "9593241",
    "prefectureCode": "15",
    "prefectureNumber": 15,
    "prefecture": "新潟県",
    "city": "岩船郡関川村",
    "town": "大島"
  },
  "9593242": {
    "zipcode": "9593242",
    "prefectureCode": "15",
    "prefectureNumber": 15,
    "prefecture": "新潟県",
    "city": "岩船郡関川村",
    "town": "下土沢"
  },
  "9593243": {
    "zipcode": "9593243",
    "prefectureCode": "15",
    "prefectureNumber": 15,
    "prefecture": "新潟県",
    "city": "岩船郡関川村",
    "town": "鍬江沢"
  },
  "9593244": {
    "zipcode": "9593244",
    "prefectureCode": "15",
    "prefectureNumber": 15,
    "prefecture": "新潟県",
    "city": "岩船郡関川村",
    "town": "山本"
  },
  "9593245": {
    "zipcode": "9593245",
    "prefectureCode": "15",
    "prefectureNumber": 15,
    "prefecture": "新潟県",
    "city": "岩船郡関川村",
    "town": "幾地"
  },
  "9593246": {
    "zipcode": "9593246",
    "prefectureCode": "15",
    "prefectureNumber": 15,
    "prefecture": "新潟県",
    "city": "岩船郡関川村",
    "town": "上土沢"
  },
  "9593251": {
    "zipcode": "9593251",
    "prefectureCode": "15",
    "prefectureNumber": 15,
    "prefecture": "新潟県",
    "city": "岩船郡関川村",
    "town": "桂"
  },
  "9593252": {
    "zipcode": "9593252",
    "prefectureCode": "15",
    "prefectureNumber": 15,
    "prefecture": "新潟県",
    "city": "岩船郡関川村",
    "town": "高田"
  },
  "9593253": {
    "zipcode": "9593253",
    "prefectureCode": "15",
    "prefectureNumber": 15,
    "prefecture": "新潟県",
    "city": "岩船郡関川村",
    "town": "平内新"
  },
  "9593254": {
    "zipcode": "9593254",
    "prefectureCode": "15",
    "prefectureNumber": 15,
    "prefecture": "新潟県",
    "city": "岩船郡関川村",
    "town": "小見前新田"
  },
  "9593255": {
    "zipcode": "9593255",
    "prefectureCode": "15",
    "prefectureNumber": 15,
    "prefecture": "新潟県",
    "city": "岩船郡関川村",
    "town": "松ケ丘"
  },
  "9593256": {
    "zipcode": "9593256",
    "prefectureCode": "15",
    "prefectureNumber": 15,
    "prefecture": "新潟県",
    "city": "岩船郡関川村",
    "town": "小見"
  },
  "9593257": {
    "zipcode": "9593257",
    "prefectureCode": "15",
    "prefectureNumber": 15,
    "prefecture": "新潟県",
    "city": "岩船郡関川村",
    "town": "上野山"
  },
  "9593258": {
    "zipcode": "9593258",
    "prefectureCode": "15",
    "prefectureNumber": 15,
    "prefecture": "新潟県",
    "city": "岩船郡関川村",
    "town": "滝原"
  },
  "9593259": {
    "zipcode": "9593259",
    "prefectureCode": "15",
    "prefectureNumber": 15,
    "prefecture": "新潟県",
    "city": "岩船郡関川村",
    "town": "松平"
  },
  "9593261": {
    "zipcode": "9593261",
    "prefectureCode": "15",
    "prefectureNumber": 15,
    "prefecture": "新潟県",
    "city": "岩船郡関川村",
    "town": "湯沢"
  },
  "9593262": {
    "zipcode": "9593262",
    "prefectureCode": "15",
    "prefectureNumber": 15,
    "prefecture": "新潟県",
    "city": "岩船郡関川村",
    "town": "沢"
  },
  "9593263": {
    "zipcode": "9593263",
    "prefectureCode": "15",
    "prefectureNumber": 15,
    "prefecture": "新潟県",
    "city": "岩船郡関川村",
    "town": "高瀬"
  },
  "9593264": {
    "zipcode": "9593264",
    "prefectureCode": "15",
    "prefectureNumber": 15,
    "prefecture": "新潟県",
    "city": "岩船郡関川村",
    "town": "上関"
  },
  "9593265": {
    "zipcode": "9593265",
    "prefectureCode": "15",
    "prefectureNumber": 15,
    "prefecture": "新潟県",
    "city": "岩船郡関川村",
    "town": "下関"
  },
  "9593271": {
    "zipcode": "9593271",
    "prefectureCode": "15",
    "prefectureNumber": 15,
    "prefecture": "新潟県",
    "city": "岩船郡関川村",
    "town": "辰田新"
  },
  "9593272": {
    "zipcode": "9593272",
    "prefectureCode": "15",
    "prefectureNumber": 15,
    "prefecture": "新潟県",
    "city": "岩船郡関川村",
    "town": "打上"
  },
  "9593273": {
    "zipcode": "9593273",
    "prefectureCode": "15",
    "prefectureNumber": 15,
    "prefecture": "新潟県",
    "city": "岩船郡関川村",
    "town": "勝蔵"
  },
  "9593274": {
    "zipcode": "9593274",
    "prefectureCode": "15",
    "prefectureNumber": 15,
    "prefecture": "新潟県",
    "city": "岩船郡関川村",
    "town": "南赤谷"
  },
  "9593275": {
    "zipcode": "9593275",
    "prefectureCode": "15",
    "prefectureNumber": 15,
    "prefecture": "新潟県",
    "city": "岩船郡関川村",
    "town": "内須川"
  },
  "9593401": {
    "zipcode": "9593401",
    "prefectureCode": "15",
    "prefectureNumber": 15,
    "prefecture": "新潟県",
    "city": "村上市",
    "town": "七湊"
  },
  "9593402": {
    "zipcode": "9593402",
    "prefectureCode": "15",
    "prefectureNumber": 15,
    "prefecture": "新潟県",
    "city": "村上市",
    "town": "志田平"
  },
  "9593403": {
    "zipcode": "9593403",
    "prefectureCode": "15",
    "prefectureNumber": 15,
    "prefecture": "新潟県",
    "city": "村上市",
    "town": "上助渕"
  },
  "9593404": {
    "zipcode": "9593404",
    "prefectureCode": "15",
    "prefectureNumber": 15,
    "prefecture": "新潟県",
    "city": "村上市",
    "town": "山屋"
  },
  "9593405": {
    "zipcode": "9593405",
    "prefectureCode": "15",
    "prefectureNumber": 15,
    "prefecture": "新潟県",
    "city": "村上市",
    "town": "里本庄"
  },
  "9593406": {
    "zipcode": "9593406",
    "prefectureCode": "15",
    "prefectureNumber": 15,
    "prefecture": "新潟県",
    "city": "村上市",
    "town": "下助渕"
  },
  "9593407": {
    "zipcode": "9593407",
    "prefectureCode": "15",
    "prefectureNumber": 15,
    "prefecture": "新潟県",
    "city": "村上市",
    "town": "殿岡"
  },
  "9593411": {
    "zipcode": "9593411",
    "prefectureCode": "15",
    "prefectureNumber": 15,
    "prefecture": "新潟県",
    "city": "村上市",
    "town": "南大平"
  },
  "9593412": {
    "zipcode": "9593412",
    "prefectureCode": "15",
    "prefectureNumber": 15,
    "prefecture": "新潟県",
    "city": "村上市",
    "town": "指合"
  },
  "9593413": {
    "zipcode": "9593413",
    "prefectureCode": "15",
    "prefectureNumber": 15,
    "prefecture": "新潟県",
    "city": "村上市",
    "town": "小出"
  },
  "9593414": {
    "zipcode": "9593414",
    "prefectureCode": "15",
    "prefectureNumber": 15,
    "prefecture": "新潟県",
    "city": "村上市",
    "town": "有明"
  },
  "9593415": {
    "zipcode": "9593415",
    "prefectureCode": "15",
    "prefectureNumber": 15,
    "prefecture": "新潟県",
    "city": "村上市",
    "town": "大塚"
  },
  "9593416": {
    "zipcode": "9593416",
    "prefectureCode": "15",
    "prefectureNumber": 15,
    "prefecture": "新潟県",
    "city": "村上市",
    "town": "今宿"
  },
  "9593417": {
    "zipcode": "9593417",
    "prefectureCode": "15",
    "prefectureNumber": 15,
    "prefecture": "新潟県",
    "city": "村上市",
    "town": "河内"
  },
  "9593421": {
    "zipcode": "9593421",
    "prefectureCode": "15",
    "prefectureNumber": 15,
    "prefecture": "新潟県",
    "city": "村上市",
    "town": "桃川"
  },
  "9593422": {
    "zipcode": "9593422",
    "prefectureCode": "15",
    "prefectureNumber": 15,
    "prefecture": "新潟県",
    "city": "村上市",
    "town": "飯岡"
  },
  "9593423": {
    "zipcode": "9593423",
    "prefectureCode": "15",
    "prefectureNumber": 15,
    "prefecture": "新潟県",
    "city": "村上市",
    "town": "九日市"
  },
  "9593424": {
    "zipcode": "9593424",
    "prefectureCode": "15",
    "prefectureNumber": 15,
    "prefecture": "新潟県",
    "city": "村上市",
    "town": "牧目"
  },
  "9593425": {
    "zipcode": "9593425",
    "prefectureCode": "15",
    "prefectureNumber": 15,
    "prefecture": "新潟県",
    "city": "村上市",
    "town": "山田"
  },
  "9593426": {
    "zipcode": "9593426",
    "prefectureCode": "15",
    "prefectureNumber": 15,
    "prefecture": "新潟県",
    "city": "村上市",
    "town": "岩野沢"
  },
  "9593427": {
    "zipcode": "9593427",
    "prefectureCode": "15",
    "prefectureNumber": 15,
    "prefecture": "新潟県",
    "city": "村上市",
    "town": "松沢"
  },
  "9593428": {
    "zipcode": "9593428",
    "prefectureCode": "15",
    "prefectureNumber": 15,
    "prefecture": "新潟県",
    "city": "村上市",
    "town": "松喜和"
  },
  "9593431": {
    "zipcode": "9593431",
    "prefectureCode": "15",
    "prefectureNumber": 15,
    "prefecture": "新潟県",
    "city": "村上市",
    "town": "平林"
  },
  "9593432": {
    "zipcode": "9593432",
    "prefectureCode": "15",
    "prefectureNumber": 15,
    "prefecture": "新潟県",
    "city": "村上市",
    "town": "葛籠山"
  },
  "9593433": {
    "zipcode": "9593433",
    "prefectureCode": "15",
    "prefectureNumber": 15,
    "prefecture": "新潟県",
    "city": "村上市",
    "town": "川部"
  },
  "9593434": {
    "zipcode": "9593434",
    "prefectureCode": "15",
    "prefectureNumber": 15,
    "prefecture": "新潟県",
    "city": "村上市",
    "town": "小岩内"
  },
  "9593435": {
    "zipcode": "9593435",
    "prefectureCode": "15",
    "prefectureNumber": 15,
    "prefecture": "新潟県",
    "city": "村上市",
    "town": "宿田"
  },
  "9593436": {
    "zipcode": "9593436",
    "prefectureCode": "15",
    "prefectureNumber": 15,
    "prefecture": "新潟県",
    "city": "村上市",
    "town": "牛屋"
  },
  "9593437": {
    "zipcode": "9593437",
    "prefectureCode": "15",
    "prefectureNumber": 15,
    "prefecture": "新潟県",
    "city": "村上市",
    "town": "福田"
  },
  "9593441": {
    "zipcode": "9593441",
    "prefectureCode": "15",
    "prefectureNumber": 15,
    "prefecture": "新潟県",
    "city": "村上市",
    "town": "塩谷"
  },
  "9593442": {
    "zipcode": "9593442",
    "prefectureCode": "15",
    "prefectureNumber": 15,
    "prefecture": "新潟県",
    "city": "村上市",
    "town": "長松"
  },
  "9593443": {
    "zipcode": "9593443",
    "prefectureCode": "15",
    "prefectureNumber": 15,
    "prefecture": "新潟県",
    "city": "村上市",
    "town": "北新保"
  },
  "9593444": {
    "zipcode": "9593444",
    "prefectureCode": "15",
    "prefectureNumber": 15,
    "prefecture": "新潟県",
    "city": "村上市",
    "town": "南田中"
  },
  "9593445": {
    "zipcode": "9593445",
    "prefectureCode": "15",
    "prefectureNumber": 15,
    "prefecture": "新潟県",
    "city": "村上市",
    "town": "新飯田"
  },
  "9593446": {
    "zipcode": "9593446",
    "prefectureCode": "15",
    "prefectureNumber": 15,
    "prefecture": "新潟県",
    "city": "村上市",
    "town": "小口川"
  },
  "9593447": {
    "zipcode": "9593447",
    "prefectureCode": "15",
    "prefectureNumber": 15,
    "prefecture": "新潟県",
    "city": "村上市",
    "town": "高御堂"
  },
  "9593448": {
    "zipcode": "9593448",
    "prefectureCode": "15",
    "prefectureNumber": 15,
    "prefecture": "新潟県",
    "city": "村上市",
    "town": "潟端"
  },
  "9593449": {
    "zipcode": "9593449",
    "prefectureCode": "15",
    "prefectureNumber": 15,
    "prefecture": "新潟県",
    "city": "村上市",
    "town": "岩船駅前"
  },
  "9593651": {
    "zipcode": "9593651",
    "prefectureCode": "15",
    "prefectureNumber": 15,
    "prefecture": "新潟県",
    "city": "村上市",
    "town": "芦谷"
  },
  "9593652": {
    "zipcode": "9593652",
    "prefectureCode": "15",
    "prefectureNumber": 15,
    "prefecture": "新潟県",
    "city": "村上市",
    "town": "越沢"
  },
  "9593653": {
    "zipcode": "9593653",
    "prefectureCode": "15",
    "prefectureNumber": 15,
    "prefecture": "新潟県",
    "city": "村上市",
    "town": "寒川"
  },
  "9593661": {
    "zipcode": "9593661",
    "prefectureCode": "15",
    "prefectureNumber": 15,
    "prefecture": "新潟県",
    "city": "村上市",
    "town": "脇川"
  },
  "9593662": {
    "zipcode": "9593662",
    "prefectureCode": "15",
    "prefectureNumber": 15,
    "prefecture": "新潟県",
    "city": "村上市",
    "town": "今川"
  },
  "9593663": {
    "zipcode": "9593663",
    "prefectureCode": "15",
    "prefectureNumber": 15,
    "prefecture": "新潟県",
    "city": "村上市",
    "town": "板貝"
  },
  "9593664": {
    "zipcode": "9593664",
    "prefectureCode": "15",
    "prefectureNumber": 15,
    "prefecture": "新潟県",
    "city": "村上市",
    "town": "笹川"
  },
  "9593665": {
    "zipcode": "9593665",
    "prefectureCode": "15",
    "prefectureNumber": 15,
    "prefecture": "新潟県",
    "city": "村上市",
    "town": "桑川"
  },
  "9593666": {
    "zipcode": "9593666",
    "prefectureCode": "15",
    "prefectureNumber": 15,
    "prefecture": "新潟県",
    "city": "村上市",
    "town": "浜新保"
  },
  "9593901": {
    "zipcode": "9593901",
    "prefectureCode": "15",
    "prefectureNumber": 15,
    "prefecture": "新潟県",
    "city": "村上市",
    "town": "伊呉野"
  },
  "9593902": {
    "zipcode": "9593902",
    "prefectureCode": "15",
    "prefectureNumber": 15,
    "prefecture": "新潟県",
    "city": "村上市",
    "town": "中浜"
  },
  "9593903": {
    "zipcode": "9593903",
    "prefectureCode": "15",
    "prefectureNumber": 15,
    "prefecture": "新潟県",
    "city": "村上市",
    "town": "岩崎"
  },
  "9593904": {
    "zipcode": "9593904",
    "prefectureCode": "15",
    "prefectureNumber": 15,
    "prefecture": "新潟県",
    "city": "村上市",
    "town": "温出"
  },
  "9593905": {
    "zipcode": "9593905",
    "prefectureCode": "15",
    "prefectureNumber": 15,
    "prefecture": "新潟県",
    "city": "村上市",
    "town": "堀ノ内"
  },
  "9593906": {
    "zipcode": "9593906",
    "prefectureCode": "15",
    "prefectureNumber": 15,
    "prefecture": "新潟県",
    "city": "村上市",
    "town": "大谷沢"
  },
  "9593907": {
    "zipcode": "9593907",
    "prefectureCode": "15",
    "prefectureNumber": 15,
    "prefecture": "新潟県",
    "city": "村上市",
    "town": "府屋"
  },
  "9593911": {
    "zipcode": "9593911",
    "prefectureCode": "15",
    "prefectureNumber": 15,
    "prefecture": "新潟県",
    "city": "村上市",
    "town": "杉平"
  },
  "9593912": {
    "zipcode": "9593912",
    "prefectureCode": "15",
    "prefectureNumber": 15,
    "prefecture": "新潟県",
    "city": "村上市",
    "town": "遅郷"
  },
  "9593913": {
    "zipcode": "9593913",
    "prefectureCode": "15",
    "prefectureNumber": 15,
    "prefecture": "新潟県",
    "city": "村上市",
    "town": "岩石"
  },
  "9593914": {
    "zipcode": "9593914",
    "prefectureCode": "15",
    "prefectureNumber": 15,
    "prefecture": "新潟県",
    "city": "村上市",
    "town": "小俣"
  },
  "9593915": {
    "zipcode": "9593915",
    "prefectureCode": "15",
    "prefectureNumber": 15,
    "prefecture": "新潟県",
    "city": "村上市",
    "town": "大代"
  },
  "9593916": {
    "zipcode": "9593916",
    "prefectureCode": "15",
    "prefectureNumber": 15,
    "prefecture": "新潟県",
    "city": "村上市",
    "town": "雷"
  },
  "9593917": {
    "zipcode": "9593917",
    "prefectureCode": "15",
    "prefectureNumber": 15,
    "prefecture": "新潟県",
    "city": "村上市",
    "town": "山熊田"
  },
  "9593918": {
    "zipcode": "9593918",
    "prefectureCode": "15",
    "prefectureNumber": 15,
    "prefecture": "新潟県",
    "city": "村上市",
    "town": "中継"
  },
  "9593919": {
    "zipcode": "9593919",
    "prefectureCode": "15",
    "prefectureNumber": 15,
    "prefecture": "新潟県",
    "city": "村上市",
    "town": "塔下"
  },
  "9593921": {
    "zipcode": "9593921",
    "prefectureCode": "15",
    "prefectureNumber": 15,
    "prefecture": "新潟県",
    "city": "村上市",
    "town": "荒川口"
  },
  "9593922": {
    "zipcode": "9593922",
    "prefectureCode": "15",
    "prefectureNumber": 15,
    "prefecture": "新潟県",
    "city": "村上市",
    "town": "朴平"
  },
  "9593923": {
    "zipcode": "9593923",
    "prefectureCode": "15",
    "prefectureNumber": 15,
    "prefecture": "新潟県",
    "city": "村上市",
    "town": "荒川"
  },
  "9593924": {
    "zipcode": "9593924",
    "prefectureCode": "15",
    "prefectureNumber": 15,
    "prefecture": "新潟県",
    "city": "村上市",
    "town": "北黒川"
  },
  "9593925": {
    "zipcode": "9593925",
    "prefectureCode": "15",
    "prefectureNumber": 15,
    "prefecture": "新潟県",
    "city": "村上市",
    "town": "大沢"
  },
  "9593926": {
    "zipcode": "9593926",
    "prefectureCode": "15",
    "prefectureNumber": 15,
    "prefecture": "新潟県",
    "city": "村上市",
    "town": "大毎"
  },
  "9593927": {
    "zipcode": "9593927",
    "prefectureCode": "15",
    "prefectureNumber": 15,
    "prefecture": "新潟県",
    "city": "村上市",
    "town": "北中"
  },
  "9593928": {
    "zipcode": "9593928",
    "prefectureCode": "15",
    "prefectureNumber": 15,
    "prefecture": "新潟県",
    "city": "村上市",
    "town": "中津原"
  },
  "9593931": {
    "zipcode": "9593931",
    "prefectureCode": "15",
    "prefectureNumber": 15,
    "prefecture": "新潟県",
    "city": "村上市",
    "town": "長坂"
  },
  "9593932": {
    "zipcode": "9593932",
    "prefectureCode": "15",
    "prefectureNumber": 15,
    "prefecture": "新潟県",
    "city": "村上市",
    "town": "垣之内"
  },
  "9593933": {
    "zipcode": "9593933",
    "prefectureCode": "15",
    "prefectureNumber": 15,
    "prefecture": "新潟県",
    "city": "村上市",
    "town": "下大鳥"
  },
  "9593934": {
    "zipcode": "9593934",
    "prefectureCode": "15",
    "prefectureNumber": 15,
    "prefecture": "新潟県",
    "city": "村上市",
    "town": "上大鳥"
  },
  "9593935": {
    "zipcode": "9593935",
    "prefectureCode": "15",
    "prefectureNumber": 15,
    "prefecture": "新潟県",
    "city": "村上市",
    "town": "北田中"
  },
  "9593936": {
    "zipcode": "9593936",
    "prefectureCode": "15",
    "prefectureNumber": 15,
    "prefecture": "新潟県",
    "city": "村上市",
    "town": "北赤谷"
  },
  "9593937": {
    "zipcode": "9593937",
    "prefectureCode": "15",
    "prefectureNumber": 15,
    "prefecture": "新潟県",
    "city": "村上市",
    "town": "板屋沢"
  },
  "9593938": {
    "zipcode": "9593938",
    "prefectureCode": "15",
    "prefectureNumber": 15,
    "prefecture": "新潟県",
    "city": "村上市",
    "town": "遠矢崎"
  },
  "9593941": {
    "zipcode": "9593941",
    "prefectureCode": "15",
    "prefectureNumber": 15,
    "prefecture": "新潟県",
    "city": "村上市",
    "town": "碁石"
  },
  "9593942": {
    "zipcode": "9593942",
    "prefectureCode": "15",
    "prefectureNumber": 15,
    "prefecture": "新潟県",
    "city": "村上市",
    "town": "勝木"
  },
  "9593943": {
    "zipcode": "9593943",
    "prefectureCode": "15",
    "prefectureNumber": 15,
    "prefecture": "新潟県",
    "city": "村上市",
    "town": "下大蔵"
  },
  "9593944": {
    "zipcode": "9593944",
    "prefectureCode": "15",
    "prefectureNumber": 15,
    "prefecture": "新潟県",
    "city": "村上市",
    "town": "立島"
  },
  "9593945": {
    "zipcode": "9593945",
    "prefectureCode": "15",
    "prefectureNumber": 15,
    "prefecture": "新潟県",
    "city": "村上市",
    "town": "間瀬"
  },
  "9593946": {
    "zipcode": "9593946",
    "prefectureCode": "15",
    "prefectureNumber": 15,
    "prefecture": "新潟県",
    "city": "村上市",
    "town": "寝屋"
  },
  "9593947": {
    "zipcode": "9593947",
    "prefectureCode": "15",
    "prefectureNumber": 15,
    "prefecture": "新潟県",
    "city": "村上市",
    "town": "鵜泊"
  },
  "9593948": {
    "zipcode": "9593948",
    "prefectureCode": "15",
    "prefectureNumber": 15,
    "prefecture": "新潟県",
    "city": "村上市",
    "town": "上大蔵"
  },
  "9594301": {
    "zipcode": "9594301",
    "prefectureCode": "15",
    "prefectureNumber": 15,
    "prefecture": "新潟県",
    "city": "東蒲原郡阿賀町",
    "town": "向鹿瀬"
  },
  "9594302": {
    "zipcode": "9594302",
    "prefectureCode": "15",
    "prefectureNumber": 15,
    "prefecture": "新潟県",
    "city": "東蒲原郡阿賀町",
    "town": "鹿瀬"
  },
  "9594303": {
    "zipcode": "9594303",
    "prefectureCode": "15",
    "prefectureNumber": 15,
    "prefecture": "新潟県",
    "city": "東蒲原郡阿賀町",
    "town": "日出谷"
  },
  "9594304": {
    "zipcode": "9594304",
    "prefectureCode": "15",
    "prefectureNumber": 15,
    "prefecture": "新潟県",
    "city": "東蒲原郡阿賀町",
    "town": "豊実"
  },
  "9594400": {
    "zipcode": "9594400",
    "prefectureCode": "15",
    "prefectureNumber": 15,
    "prefecture": "新潟県",
    "city": "東蒲原郡阿賀町",
    "town": "以下に掲載がない場合"
  },
  "9594401": {
    "zipcode": "9594401",
    "prefectureCode": "15",
    "prefectureNumber": 15,
    "prefecture": "新潟県",
    "city": "東蒲原郡阿賀町",
    "town": "角島"
  },
  "9594402": {
    "zipcode": "9594402",
    "prefectureCode": "15",
    "prefectureNumber": 15,
    "prefecture": "新潟県",
    "city": "東蒲原郡阿賀町",
    "town": "津川"
  },
  "9594403": {
    "zipcode": "9594403",
    "prefectureCode": "15",
    "prefectureNumber": 15,
    "prefecture": "新潟県",
    "city": "東蒲原郡阿賀町",
    "town": "平堀"
  },
  "9594404": {
    "zipcode": "9594404",
    "prefectureCode": "15",
    "prefectureNumber": 15,
    "prefecture": "新潟県",
    "city": "東蒲原郡阿賀町",
    "town": "広沢"
  },
  "9594405": {
    "zipcode": "9594405",
    "prefectureCode": "15",
    "prefectureNumber": 15,
    "prefecture": "新潟県",
    "city": "東蒲原郡阿賀町",
    "town": "上ノ山"
  },
  "9594406": {
    "zipcode": "9594406",
    "prefectureCode": "15",
    "prefectureNumber": 15,
    "prefecture": "新潟県",
    "city": "東蒲原郡阿賀町",
    "town": "雲和田"
  },
  "9594407": {
    "zipcode": "9594407",
    "prefectureCode": "15",
    "prefectureNumber": 15,
    "prefecture": "新潟県",
    "city": "東蒲原郡阿賀町",
    "town": "西"
  },
  "9594408": {
    "zipcode": "9594408",
    "prefectureCode": "15",
    "prefectureNumber": 15,
    "prefecture": "新潟県",
    "city": "東蒲原郡阿賀町",
    "town": "赤岩"
  },
  "9594409": {
    "zipcode": "9594409",
    "prefectureCode": "15",
    "prefectureNumber": 15,
    "prefecture": "新潟県",
    "city": "東蒲原郡阿賀町",
    "town": "京ノ瀬"
  },
  "9594410": {
    "zipcode": "9594410",
    "prefectureCode": "15",
    "prefectureNumber": 15,
    "prefecture": "新潟県",
    "city": "東蒲原郡阿賀町",
    "town": "大牧"
  },
  "9594411": {
    "zipcode": "9594411",
    "prefectureCode": "15",
    "prefectureNumber": 15,
    "prefecture": "新潟県",
    "city": "東蒲原郡阿賀町",
    "town": "天満"
  },
  "9594412": {
    "zipcode": "9594412",
    "prefectureCode": "15",
    "prefectureNumber": 15,
    "prefecture": "新潟県",
    "city": "東蒲原郡阿賀町",
    "town": "花立"
  },
  "9594413": {
    "zipcode": "9594413",
    "prefectureCode": "15",
    "prefectureNumber": 15,
    "prefecture": "新潟県",
    "city": "東蒲原郡阿賀町",
    "town": "倉ノ平"
  },
  "9594414": {
    "zipcode": "9594414",
    "prefectureCode": "15",
    "prefectureNumber": 15,
    "prefecture": "新潟県",
    "city": "東蒲原郡阿賀町",
    "town": "福取"
  },
  "9594415": {
    "zipcode": "9594415",
    "prefectureCode": "15",
    "prefectureNumber": 15,
    "prefecture": "新潟県",
    "city": "東蒲原郡阿賀町",
    "town": "八ツ田"
  },
  "9594416": {
    "zipcode": "9594416",
    "prefectureCode": "15",
    "prefectureNumber": 15,
    "prefecture": "新潟県",
    "city": "東蒲原郡阿賀町",
    "town": "田沢"
  },
  "9594417": {
    "zipcode": "9594417",
    "prefectureCode": "15",
    "prefectureNumber": 15,
    "prefecture": "新潟県",
    "city": "東蒲原郡阿賀町",
    "town": "八木山"
  },
  "9594418": {
    "zipcode": "9594418",
    "prefectureCode": "15",
    "prefectureNumber": 15,
    "prefecture": "新潟県",
    "city": "東蒲原郡阿賀町",
    "town": "野村"
  },
  "9594441": {
    "zipcode": "9594441",
    "prefectureCode": "15",
    "prefectureNumber": 15,
    "prefecture": "新潟県",
    "city": "東蒲原郡阿賀町",
    "town": "払川"
  },
  "9594501": {
    "zipcode": "9594501",
    "prefectureCode": "15",
    "prefectureNumber": 15,
    "prefecture": "新潟県",
    "city": "東蒲原郡阿賀町",
    "town": "九島"
  },
  "9594502": {
    "zipcode": "9594502",
    "prefectureCode": "15",
    "prefectureNumber": 15,
    "prefecture": "新潟県",
    "city": "東蒲原郡阿賀町",
    "town": "小出"
  },
  "9594503": {
    "zipcode": "9594503",
    "prefectureCode": "15",
    "prefectureNumber": 15,
    "prefecture": "新潟県",
    "city": "東蒲原郡阿賀町",
    "town": "豊川乙"
  },
  "9594504": {
    "zipcode": "9594504",
    "prefectureCode": "15",
    "prefectureNumber": 15,
    "prefecture": "新潟県",
    "city": "東蒲原郡阿賀町",
    "town": "豊川丙"
  },
  "9594505": {
    "zipcode": "9594505",
    "prefectureCode": "15",
    "prefectureNumber": 15,
    "prefecture": "新潟県",
    "city": "東蒲原郡阿賀町",
    "town": "豊川甲"
  },
  "9594506": {
    "zipcode": "9594506",
    "prefectureCode": "15",
    "prefectureNumber": 15,
    "prefecture": "新潟県",
    "city": "東蒲原郡阿賀町",
    "town": "両郷乙"
  },
  "9594507": {
    "zipcode": "9594507",
    "prefectureCode": "15",
    "prefectureNumber": 15,
    "prefecture": "新潟県",
    "city": "東蒲原郡阿賀町",
    "town": "両郷甲"
  },
  "9594511": {
    "zipcode": "9594511",
    "prefectureCode": "15",
    "prefectureNumber": 15,
    "prefecture": "新潟県",
    "city": "東蒲原郡阿賀町",
    "town": "東山"
  },
  "9594512": {
    "zipcode": "9594512",
    "prefectureCode": "15",
    "prefectureNumber": 15,
    "prefecture": "新潟県",
    "city": "東蒲原郡阿賀町",
    "town": "大倉乙"
  },
  "9594513": {
    "zipcode": "9594513",
    "prefectureCode": "15",
    "prefectureNumber": 15,
    "prefecture": "新潟県",
    "city": "東蒲原郡阿賀町",
    "town": "大倉甲"
  },
  "9594514": {
    "zipcode": "9594514",
    "prefectureCode": "15",
    "prefectureNumber": 15,
    "prefecture": "新潟県",
    "city": "東蒲原郡阿賀町",
    "town": "七名乙"
  },
  "9594515": {
    "zipcode": "9594515",
    "prefectureCode": "15",
    "prefectureNumber": 15,
    "prefecture": "新潟県",
    "city": "東蒲原郡阿賀町",
    "town": "七名甲"
  },
  "9594521": {
    "zipcode": "9594521",
    "prefectureCode": "15",
    "prefectureNumber": 15,
    "prefecture": "新潟県",
    "city": "東蒲原郡阿賀町",
    "town": "三宝分甲"
  },
  "9594522": {
    "zipcode": "9594522",
    "prefectureCode": "15",
    "prefectureNumber": 15,
    "prefecture": "新潟県",
    "city": "東蒲原郡阿賀町",
    "town": "三宝分乙"
  },
  "9594523": {
    "zipcode": "9594523",
    "prefectureCode": "15",
    "prefectureNumber": 15,
    "prefecture": "新潟県",
    "city": "東蒲原郡阿賀町",
    "town": "三宝分丙"
  },
  "9594524": {
    "zipcode": "9594524",
    "prefectureCode": "15",
    "prefectureNumber": 15,
    "prefecture": "新潟県",
    "city": "東蒲原郡阿賀町",
    "town": "三方乙"
  },
  "9594525": {
    "zipcode": "9594525",
    "prefectureCode": "15",
    "prefectureNumber": 15,
    "prefecture": "新潟県",
    "city": "東蒲原郡阿賀町",
    "town": "小手茂"
  },
  "9594526": {
    "zipcode": "9594526",
    "prefectureCode": "15",
    "prefectureNumber": 15,
    "prefecture": "新潟県",
    "city": "東蒲原郡阿賀町",
    "town": "三方甲"
  },
  "9594531": {
    "zipcode": "9594531",
    "prefectureCode": "15",
    "prefectureNumber": 15,
    "prefecture": "新潟県",
    "city": "東蒲原郡阿賀町",
    "town": "日野川甲"
  },
  "9594532": {
    "zipcode": "9594532",
    "prefectureCode": "15",
    "prefectureNumber": 15,
    "prefecture": "新潟県",
    "city": "東蒲原郡阿賀町",
    "town": "広谷丙"
  },
  "9594533": {
    "zipcode": "9594533",
    "prefectureCode": "15",
    "prefectureNumber": 15,
    "prefecture": "新潟県",
    "city": "東蒲原郡阿賀町",
    "town": "神谷丙"
  },
  "9594534": {
    "zipcode": "9594534",
    "prefectureCode": "15",
    "prefectureNumber": 15,
    "prefecture": "新潟県",
    "city": "東蒲原郡阿賀町",
    "town": "神谷乙"
  },
  "9594535": {
    "zipcode": "9594535",
    "prefectureCode": "15",
    "prefectureNumber": 15,
    "prefecture": "新潟県",
    "city": "東蒲原郡阿賀町",
    "town": "神谷甲"
  },
  "9594536": {
    "zipcode": "9594536",
    "prefectureCode": "15",
    "prefectureNumber": 15,
    "prefecture": "新潟県",
    "city": "東蒲原郡阿賀町",
    "town": "広谷甲"
  },
  "9594537": {
    "zipcode": "9594537",
    "prefectureCode": "15",
    "prefectureNumber": 15,
    "prefecture": "新潟県",
    "city": "東蒲原郡阿賀町",
    "town": "広谷乙"
  },
  "9594538": {
    "zipcode": "9594538",
    "prefectureCode": "15",
    "prefectureNumber": 15,
    "prefecture": "新潟県",
    "city": "東蒲原郡阿賀町",
    "town": "日野川丙"
  },
  "9594539": {
    "zipcode": "9594539",
    "prefectureCode": "15",
    "prefectureNumber": 15,
    "prefecture": "新潟県",
    "city": "東蒲原郡阿賀町",
    "town": "日野川乙"
  },
  "9594601": {
    "zipcode": "9594601",
    "prefectureCode": "15",
    "prefectureNumber": 15,
    "prefecture": "新潟県",
    "city": "東蒲原郡阿賀町",
    "town": "綱木"
  },
  "9594602": {
    "zipcode": "9594602",
    "prefectureCode": "15",
    "prefectureNumber": 15,
    "prefecture": "新潟県",
    "city": "東蒲原郡阿賀町",
    "town": "古岐"
  },
  "9594603": {
    "zipcode": "9594603",
    "prefectureCode": "15",
    "prefectureNumber": 15,
    "prefecture": "新潟県",
    "city": "東蒲原郡阿賀町",
    "town": "新谷"
  },
  "9594604": {
    "zipcode": "9594604",
    "prefectureCode": "15",
    "prefectureNumber": 15,
    "prefecture": "新潟県",
    "city": "東蒲原郡阿賀町",
    "town": "行地"
  },
  "9594605": {
    "zipcode": "9594605",
    "prefectureCode": "15",
    "prefectureNumber": 15,
    "prefecture": "新潟県",
    "city": "東蒲原郡阿賀町",
    "town": "細越"
  },
  "9594606": {
    "zipcode": "9594606",
    "prefectureCode": "15",
    "prefectureNumber": 15,
    "prefecture": "新潟県",
    "city": "東蒲原郡阿賀町",
    "town": "五十沢"
  },
  "9594608": {
    "zipcode": "9594608",
    "prefectureCode": "15",
    "prefectureNumber": 15,
    "prefecture": "新潟県",
    "city": "東蒲原郡阿賀町",
    "town": "小花地"
  },
  "9594611": {
    "zipcode": "9594611",
    "prefectureCode": "15",
    "prefectureNumber": 15,
    "prefecture": "新潟県",
    "city": "東蒲原郡阿賀町",
    "town": "中ノ沢"
  },
  "9594612": {
    "zipcode": "9594612",
    "prefectureCode": "15",
    "prefectureNumber": 15,
    "prefecture": "新潟県",
    "city": "東蒲原郡阿賀町",
    "town": "岡沢"
  },
  "9594614": {
    "zipcode": "9594614",
    "prefectureCode": "15",
    "prefectureNumber": 15,
    "prefecture": "新潟県",
    "city": "東蒲原郡阿賀町",
    "town": "五十島"
  },
  "9594617": {
    "zipcode": "9594617",
    "prefectureCode": "15",
    "prefectureNumber": 15,
    "prefecture": "新潟県",
    "city": "東蒲原郡阿賀町",
    "town": "上島"
  },
  "9594618": {
    "zipcode": "9594618",
    "prefectureCode": "15",
    "prefectureNumber": 15,
    "prefecture": "新潟県",
    "city": "東蒲原郡阿賀町",
    "town": "川口"
  },
  "9594621": {
    "zipcode": "9594621",
    "prefectureCode": "15",
    "prefectureNumber": 15,
    "prefecture": "新潟県",
    "city": "東蒲原郡阿賀町",
    "town": "あが野北"
  },
  "9594622": {
    "zipcode": "9594622",
    "prefectureCode": "15",
    "prefectureNumber": 15,
    "prefecture": "新潟県",
    "city": "東蒲原郡阿賀町",
    "town": "白崎"
  },
  "9594623": {
    "zipcode": "9594623",
    "prefectureCode": "15",
    "prefectureNumber": 15,
    "prefecture": "新潟県",
    "city": "東蒲原郡阿賀町",
    "town": "黒岩"
  },
  "9594624": {
    "zipcode": "9594624",
    "prefectureCode": "15",
    "prefectureNumber": 15,
    "prefecture": "新潟県",
    "city": "東蒲原郡阿賀町",
    "town": "谷沢"
  },
  "9594625": {
    "zipcode": "9594625",
    "prefectureCode": "15",
    "prefectureNumber": 15,
    "prefecture": "新潟県",
    "city": "東蒲原郡阿賀町",
    "town": "吉津"
  },
  "9594626": {
    "zipcode": "9594626",
    "prefectureCode": "15",
    "prefectureNumber": 15,
    "prefecture": "新潟県",
    "city": "東蒲原郡阿賀町",
    "town": "あが野南"
  },
  "9594627": {
    "zipcode": "9594627",
    "prefectureCode": "15",
    "prefectureNumber": 15,
    "prefecture": "新潟県",
    "city": "東蒲原郡阿賀町",
    "town": "岩谷"
  },
  "9594631": {
    "zipcode": "9594631",
    "prefectureCode": "15",
    "prefectureNumber": 15,
    "prefecture": "新潟県",
    "city": "東蒲原郡阿賀町",
    "town": "取上"
  },
  "9594632": {
    "zipcode": "9594632",
    "prefectureCode": "15",
    "prefectureNumber": 15,
    "prefecture": "新潟県",
    "city": "東蒲原郡阿賀町",
    "town": "石戸"
  },
  "9594633": {
    "zipcode": "9594633",
    "prefectureCode": "15",
    "prefectureNumber": 15,
    "prefecture": "新潟県",
    "city": "東蒲原郡阿賀町",
    "town": "長谷"
  },
  "9594634": {
    "zipcode": "9594634",
    "prefectureCode": "15",
    "prefectureNumber": 15,
    "prefecture": "新潟県",
    "city": "東蒲原郡阿賀町",
    "town": "熊渡"
  },
  "9594635": {
    "zipcode": "9594635",
    "prefectureCode": "15",
    "prefectureNumber": 15,
    "prefecture": "新潟県",
    "city": "東蒲原郡阿賀町",
    "town": "釣浜"
  },
  "9594636": {
    "zipcode": "9594636",
    "prefectureCode": "15",
    "prefectureNumber": 15,
    "prefecture": "新潟県",
    "city": "東蒲原郡阿賀町",
    "town": "石間"
  }
}
