{
  "9610000": {
    "zipcode": "9610000",
    "prefectureCode": "07",
    "prefectureNumber": 7,
    "prefecture": "福島県",
    "city": "西白河郡西郷村",
    "town": "以下に掲載がない場合"
  },
  "9610001": {
    "zipcode": "9610001",
    "prefectureCode": "07",
    "prefectureNumber": 7,
    "prefecture": "福島県",
    "city": "白河市",
    "town": "小田川"
  },
  "9610002": {
    "zipcode": "9610002",
    "prefectureCode": "07",
    "prefectureNumber": 7,
    "prefecture": "福島県",
    "city": "白河市",
    "town": "大和田"
  },
  "9610003": {
    "zipcode": "9610003",
    "prefectureCode": "07",
    "prefectureNumber": 7,
    "prefecture": "福島県",
    "city": "白河市",
    "town": "泉田"
  },
  "9610004": {
    "zipcode": "9610004",
    "prefectureCode": "07",
    "prefectureNumber": 7,
    "prefecture": "福島県",
    "city": "白河市",
    "town": "萱根"
  },
  "9610005": {
    "zipcode": "9610005",
    "prefectureCode": "07",
    "prefectureNumber": 7,
    "prefecture": "福島県",
    "city": "白河市",
    "town": "豊地"
  },
  "9610011": {
    "zipcode": "9610011",
    "prefectureCode": "07",
    "prefectureNumber": 7,
    "prefecture": "福島県",
    "city": "白河市",
    "town": "久田野"
  },
  "9610012": {
    "zipcode": "9610012",
    "prefectureCode": "07",
    "prefectureNumber": 7,
    "prefecture": "福島県",
    "city": "白河市",
    "town": "本沼"
  },
  "9610013": {
    "zipcode": "9610013",
    "prefectureCode": "07",
    "prefectureNumber": 7,
    "prefecture": "福島県",
    "city": "白河市",
    "town": "舟田"
  },
  "9610014": {
    "zipcode": "9610014",
    "prefectureCode": "07",
    "prefectureNumber": 7,
    "prefecture": "福島県",
    "city": "白河市",
    "town": "借宿"
  },
  "9610015": {
    "zipcode": "9610015",
    "prefectureCode": "07",
    "prefectureNumber": 7,
    "prefecture": "福島県",
    "city": "白河市",
    "town": "田島"
  },
  "9610016": {
    "zipcode": "9610016",
    "prefectureCode": "07",
    "prefectureNumber": 7,
    "prefecture": "福島県",
    "city": "白河市",
    "town": "板橋"
  },
  "9610017": {
    "zipcode": "9610017",
    "prefectureCode": "07",
    "prefectureNumber": 7,
    "prefecture": "福島県",
    "city": "白河市",
    "town": "双石"
  },
  "9610021": {
    "zipcode": "9610021",
    "prefectureCode": "07",
    "prefectureNumber": 7,
    "prefecture": "福島県",
    "city": "白河市",
    "town": "関辺"
  },
  "9610022": {
    "zipcode": "9610022",
    "prefectureCode": "07",
    "prefectureNumber": 7,
    "prefecture": "福島県",
    "city": "白河市",
    "town": "南池下"
  },
  "9610023": {
    "zipcode": "9610023",
    "prefectureCode": "07",
    "prefectureNumber": 7,
    "prefecture": "福島県",
    "city": "白河市",
    "town": "亀石"
  },
  "9610024": {
    "zipcode": "9610024",
    "prefectureCode": "07",
    "prefectureNumber": 7,
    "prefecture": "福島県",
    "city": "白河市",
    "town": "新夏梨"
  },
  "9610025": {
    "zipcode": "9610025",
    "prefectureCode": "07",
    "prefectureNumber": 7,
    "prefecture": "福島県",
    "city": "白河市",
    "town": "夏梨"
  },
  "9610026": {
    "zipcode": "9610026",
    "prefectureCode": "07",
    "prefectureNumber": 7,
    "prefecture": "福島県",
    "city": "白河市",
    "town": "上ノ原"
  },
  "9610027": {
    "zipcode": "9610027",
    "prefectureCode": "07",
    "prefectureNumber": 7,
    "prefecture": "福島県",
    "city": "白河市",
    "town": "十文字"
  },
  "9610031": {
    "zipcode": "9610031",
    "prefectureCode": "07",
    "prefectureNumber": 7,
    "prefecture": "福島県",
    "city": "白河市",
    "town": "道東"
  },
  "9610032": {
    "zipcode": "9610032",
    "prefectureCode": "07",
    "prefectureNumber": 7,
    "prefecture": "福島県",
    "city": "白河市",
    "town": "家ノ前"
  },
  "9610033": {
    "zipcode": "9610033",
    "prefectureCode": "07",
    "prefectureNumber": 7,
    "prefecture": "福島県",
    "city": "白河市",
    "town": "八幡山"
  },
  "9610034": {
    "zipcode": "9610034",
    "prefectureCode": "07",
    "prefectureNumber": 7,
    "prefecture": "福島県",
    "city": "白河市",
    "town": "屋敷添"
  },
  "9610035": {
    "zipcode": "9610035",
    "prefectureCode": "07",
    "prefectureNumber": 7,
    "prefecture": "福島県",
    "city": "白河市",
    "town": "南家ノ前"
  },
  "9610036": {
    "zipcode": "9610036",
    "prefectureCode": "07",
    "prefectureNumber": 7,
    "prefecture": "福島県",
    "city": "白河市",
    "town": "裏山"
  },
  "9610037": {
    "zipcode": "9610037",
    "prefectureCode": "07",
    "prefectureNumber": 7,
    "prefecture": "福島県",
    "city": "白河市",
    "town": "新道"
  },
  "9610038": {
    "zipcode": "9610038",
    "prefectureCode": "07",
    "prefectureNumber": 7,
    "prefecture": "福島県",
    "city": "白河市",
    "town": "旗宿"
  },
  "9610039": {
    "zipcode": "9610039",
    "prefectureCode": "07",
    "prefectureNumber": 7,
    "prefecture": "福島県",
    "city": "白河市",
    "town": "上野原"
  },
  "9610041": {
    "zipcode": "9610041",
    "prefectureCode": "07",
    "prefectureNumber": 7,
    "prefecture": "福島県",
    "city": "白河市",
    "town": "結城"
  },
  "9610042": {
    "zipcode": "9610042",
    "prefectureCode": "07",
    "prefectureNumber": 7,
    "prefecture": "福島県",
    "city": "白河市",
    "town": "金鈴"
  },
  "9610043": {
    "zipcode": "9610043",
    "prefectureCode": "07",
    "prefectureNumber": 7,
    "prefecture": "福島県",
    "city": "白河市",
    "town": "藤沢"
  },
  "9610044": {
    "zipcode": "9610044",
    "prefectureCode": "07",
    "prefectureNumber": 7,
    "prefecture": "福島県",
    "city": "白河市",
    "town": "藤沢山"
  },
  "9610045": {
    "zipcode": "9610045",
    "prefectureCode": "07",
    "prefectureNumber": 7,
    "prefecture": "福島県",
    "city": "白河市",
    "town": "合戦坂"
  },
  "9610046": {
    "zipcode": "9610046",
    "prefectureCode": "07",
    "prefectureNumber": 7,
    "prefecture": "福島県",
    "city": "白河市",
    "town": "土武塚"
  },
  "9610047": {
    "zipcode": "9610047",
    "prefectureCode": "07",
    "prefectureNumber": 7,
    "prefecture": "福島県",
    "city": "白河市",
    "town": "八竜神"
  },
  "9610051": {
    "zipcode": "9610051",
    "prefectureCode": "07",
    "prefectureNumber": 7,
    "prefecture": "福島県",
    "city": "白河市",
    "town": "大"
  },
  "9610052": {
    "zipcode": "9610052",
    "prefectureCode": "07",
    "prefectureNumber": 7,
    "prefecture": "福島県",
    "city": "白河市",
    "town": "南中川原"
  },
  "9610053": {
    "zipcode": "9610053",
    "prefectureCode": "07",
    "prefectureNumber": 7,
    "prefecture": "福島県",
    "city": "白河市",
    "town": "中田"
  },
  "9610054": {
    "zipcode": "9610054",
    "prefectureCode": "07",
    "prefectureNumber": 7,
    "prefecture": "福島県",
    "city": "白河市",
    "town": "北中川原"
  },
  "9610061": {
    "zipcode": "9610061",
    "prefectureCode": "07",
    "prefectureNumber": 7,
    "prefecture": "福島県",
    "city": "白河市",
    "town": "田中山"
  },
  "9610062": {
    "zipcode": "9610062",
    "prefectureCode": "07",
    "prefectureNumber": 7,
    "prefecture": "福島県",
    "city": "白河市",
    "town": "外薄葉"
  },
  "9610063": {
    "zipcode": "9610063",
    "prefectureCode": "07",
    "prefectureNumber": 7,
    "prefecture": "福島県",
    "city": "白河市",
    "town": "薄葉"
  },
  "9610064": {
    "zipcode": "9610064",
    "prefectureCode": "07",
    "prefectureNumber": 7,
    "prefecture": "福島県",
    "city": "白河市",
    "town": "女石"
  },
  "9610065": {
    "zipcode": "9610065",
    "prefectureCode": "07",
    "prefectureNumber": 7,
    "prefecture": "福島県",
    "city": "白河市",
    "town": "向寺"
  },
  "9610066": {
    "zipcode": "9610066",
    "prefectureCode": "07",
    "prefectureNumber": 7,
    "prefecture": "福島県",
    "city": "白河市",
    "town": "羅漢前"
  },
  "9610071": {
    "zipcode": "9610071",
    "prefectureCode": "07",
    "prefectureNumber": 7,
    "prefecture": "福島県",
    "city": "白河市",
    "town": "士多町東"
  },
  "9610072": {
    "zipcode": "9610072",
    "prefectureCode": "07",
    "prefectureNumber": 7,
    "prefecture": "福島県",
    "city": "白河市",
    "town": "士多町"
  },
  "9610073": {
    "zipcode": "9610073",
    "prefectureCode": "07",
    "prefectureNumber": 7,
    "prefecture": "福島県",
    "city": "白河市",
    "town": "田町"
  },
  "9610074": {
    "zipcode": "9610074",
    "prefectureCode": "07",
    "prefectureNumber": 7,
    "prefecture": "福島県",
    "city": "白河市",
    "town": "郭内"
  },
  "9610075": {
    "zipcode": "9610075",
    "prefectureCode": "07",
    "prefectureNumber": 7,
    "prefecture": "福島県",
    "city": "白河市",
    "town": "会津町"
  },
  "9610076": {
    "zipcode": "9610076",
    "prefectureCode": "07",
    "prefectureNumber": 7,
    "prefecture": "福島県",
    "city": "白河市",
    "town": "五番町川原"
  },
  "9610077": {
    "zipcode": "9610077",
    "prefectureCode": "07",
    "prefectureNumber": 7,
    "prefecture": "福島県",
    "city": "白河市",
    "town": "仁井町"
  },
  "9610078": {
    "zipcode": "9610078",
    "prefectureCode": "07",
    "prefectureNumber": 7,
    "prefecture": "福島県",
    "city": "白河市",
    "town": "米村道北"
  },
  "9610081": {
    "zipcode": "9610081",
    "prefectureCode": "07",
    "prefectureNumber": 7,
    "prefecture": "福島県",
    "city": "白河市",
    "town": "飯沢山"
  },
  "9610082": {
    "zipcode": "9610082",
    "prefectureCode": "07",
    "prefectureNumber": 7,
    "prefecture": "福島県",
    "city": "白河市",
    "town": "飯沢"
  },
  "9610083": {
    "zipcode": "9610083",
    "prefectureCode": "07",
    "prefectureNumber": 7,
    "prefecture": "福島県",
    "city": "白河市",
    "town": "金勝寺"
  },
  "9610084": {
    "zipcode": "9610084",
    "prefectureCode": "07",
    "prefectureNumber": 7,
    "prefecture": "福島県",
    "city": "白河市",
    "town": "金勝寺東"
  },
  "9610085": {
    "zipcode": "9610085",
    "prefectureCode": "07",
    "prefectureNumber": 7,
    "prefecture": "福島県",
    "city": "白河市",
    "town": "町田"
  },
  "9610086": {
    "zipcode": "9610086",
    "prefectureCode": "07",
    "prefectureNumber": 7,
    "prefecture": "福島県",
    "city": "白河市",
    "town": "鶴巻山"
  },
  "9610087": {
    "zipcode": "9610087",
    "prefectureCode": "07",
    "prefectureNumber": 7,
    "prefecture": "福島県",
    "city": "白河市",
    "town": "鶴巻"
  },
  "9610091": {
    "zipcode": "9610091",
    "prefectureCode": "07",
    "prefectureNumber": 7,
    "prefecture": "福島県",
    "city": "白河市",
    "town": "弥次郎窪"
  },
  "9610092": {
    "zipcode": "9610092",
    "prefectureCode": "07",
    "prefectureNumber": 7,
    "prefecture": "福島県",
    "city": "白河市",
    "town": "六反山"
  },
  "9610093": {
    "zipcode": "9610093",
    "prefectureCode": "07",
    "prefectureNumber": 7,
    "prefecture": "福島県",
    "city": "白河市",
    "town": "葉ノ木平"
  },
  "9610094": {
    "zipcode": "9610094",
    "prefectureCode": "07",
    "prefectureNumber": 7,
    "prefecture": "福島県",
    "city": "白河市",
    "town": "追廻"
  },
  "9610100": {
    "zipcode": "9610100",
    "prefectureCode": "07",
    "prefectureNumber": 7,
    "prefecture": "福島県",
    "city": "西白河郡中島村",
    "town": "以下に掲載がない場合"
  },
  "9610101": {
    "zipcode": "9610101",
    "prefectureCode": "07",
    "prefectureNumber": 7,
    "prefecture": "福島県",
    "city": "西白河郡中島村",
    "town": "松崎"
  },
  "9610102": {
    "zipcode": "9610102",
    "prefectureCode": "07",
    "prefectureNumber": 7,
    "prefecture": "福島県",
    "city": "西白河郡中島村",
    "town": "滑津"
  },
  "9610103": {
    "zipcode": "9610103",
    "prefectureCode": "07",
    "prefectureNumber": 7,
    "prefecture": "福島県",
    "city": "西白河郡中島村",
    "town": "中島"
  },
  "9610104": {
    "zipcode": "9610104",
    "prefectureCode": "07",
    "prefectureNumber": 7,
    "prefecture": "福島県",
    "city": "西白河郡中島村",
    "town": "吉岡"
  },
  "9610105": {
    "zipcode": "9610105",
    "prefectureCode": "07",
    "prefectureNumber": 7,
    "prefecture": "福島県",
    "city": "西白河郡中島村",
    "town": "川原田"
  },
  "9610106": {
    "zipcode": "9610106",
    "prefectureCode": "07",
    "prefectureNumber": 7,
    "prefecture": "福島県",
    "city": "西白河郡中島村",
    "town": "二子塚"
  },
  "9610301": {
    "zipcode": "9610301",
    "prefectureCode": "07",
    "prefectureNumber": 7,
    "prefecture": "福島県",
    "city": "白河市",
    "town": "東下野出島"
  },
  "9610302": {
    "zipcode": "9610302",
    "prefectureCode": "07",
    "prefectureNumber": 7,
    "prefecture": "福島県",
    "city": "白河市",
    "town": "東上野出島"
  },
  "9610303": {
    "zipcode": "9610303",
    "prefectureCode": "07",
    "prefectureNumber": 7,
    "prefecture": "福島県",
    "city": "白河市",
    "town": "東釜子"
  },
  "9610304": {
    "zipcode": "9610304",
    "prefectureCode": "07",
    "prefectureNumber": 7,
    "prefecture": "福島県",
    "city": "白河市",
    "town": "東工業団地"
  },
  "9610305": {
    "zipcode": "9610305",
    "prefectureCode": "07",
    "prefectureNumber": 7,
    "prefecture": "福島県",
    "city": "白河市",
    "town": "東千田"
  },
  "9610306": {
    "zipcode": "9610306",
    "prefectureCode": "07",
    "prefectureNumber": 7,
    "prefecture": "福島県",
    "city": "白河市",
    "town": "東形見"
  },
  "9610307": {
    "zipcode": "9610307",
    "prefectureCode": "07",
    "prefectureNumber": 7,
    "prefecture": "福島県",
    "city": "白河市",
    "town": "東栃本"
  },
  "9610308": {
    "zipcode": "9610308",
    "prefectureCode": "07",
    "prefectureNumber": 7,
    "prefecture": "福島県",
    "city": "白河市",
    "town": "東蕪内"
  },
  "9610309": {
    "zipcode": "9610309",
    "prefectureCode": "07",
    "prefectureNumber": 7,
    "prefecture": "福島県",
    "city": "白河市",
    "town": "東深仁井田"
  },
  "9610401": {
    "zipcode": "9610401",
    "prefectureCode": "07",
    "prefectureNumber": 7,
    "prefecture": "福島県",
    "city": "白河市",
    "town": "表郷中野"
  },
  "9610402": {
    "zipcode": "9610402",
    "prefectureCode": "07",
    "prefectureNumber": 7,
    "prefecture": "福島県",
    "city": "白河市",
    "town": "表郷内松"
  },
  "9610403": {
    "zipcode": "9610403",
    "prefectureCode": "07",
    "prefectureNumber": 7,
    "prefecture": "福島県",
    "city": "白河市",
    "town": "表郷番沢"
  },
  "9610404": {
    "zipcode": "9610404",
    "prefectureCode": "07",
    "prefectureNumber": 7,
    "prefecture": "福島県",
    "city": "白河市",
    "town": "表郷社田"
  },
  "9610405": {
    "zipcode": "9610405",
    "prefectureCode": "07",
    "prefectureNumber": 7,
    "prefecture": "福島県",
    "city": "白河市",
    "town": "表郷小松"
  },
  "9610406": {
    "zipcode": "9610406",
    "prefectureCode": "07",
    "prefectureNumber": 7,
    "prefecture": "福島県",
    "city": "白河市",
    "town": "表郷八幡"
  },
  "9610407": {
    "zipcode": "9610407",
    "prefectureCode": "07",
    "prefectureNumber": 7,
    "prefecture": "福島県",
    "city": "白河市",
    "town": "表郷中寺"
  },
  "9610408": {
    "zipcode": "9610408",
    "prefectureCode": "07",
    "prefectureNumber": 7,
    "prefecture": "福島県",
    "city": "白河市",
    "town": "表郷堀之内"
  },
  "9610409": {
    "zipcode": "9610409",
    "prefectureCode": "07",
    "prefectureNumber": 7,
    "prefecture": "福島県",
    "city": "白河市",
    "town": "表郷河東田"
  },
  "9610411": {
    "zipcode": "9610411",
    "prefectureCode": "07",
    "prefectureNumber": 7,
    "prefecture": "福島県",
    "city": "白河市",
    "town": "表郷深渡戸"
  },
  "9610412": {
    "zipcode": "9610412",
    "prefectureCode": "07",
    "prefectureNumber": 7,
    "prefecture": "福島県",
    "city": "白河市",
    "town": "表郷下羽原"
  },
  "9610413": {
    "zipcode": "9610413",
    "prefectureCode": "07",
    "prefectureNumber": 7,
    "prefecture": "福島県",
    "city": "白河市",
    "town": "表郷三森"
  },
  "9610414": {
    "zipcode": "9610414",
    "prefectureCode": "07",
    "prefectureNumber": 7,
    "prefecture": "福島県",
    "city": "白河市",
    "town": "表郷高木"
  },
  "9610415": {
    "zipcode": "9610415",
    "prefectureCode": "07",
    "prefectureNumber": 7,
    "prefecture": "福島県",
    "city": "白河市",
    "town": "表郷梁森"
  },
  "9610416": {
    "zipcode": "9610416",
    "prefectureCode": "07",
    "prefectureNumber": 7,
    "prefecture": "福島県",
    "city": "白河市",
    "town": "表郷金山"
  },
  "9610801": {
    "zipcode": "9610801",
    "prefectureCode": "07",
    "prefectureNumber": 7,
    "prefecture": "福島県",
    "city": "白河市",
    "town": "豊年"
  },
  "9610802": {
    "zipcode": "9610802",
    "prefectureCode": "07",
    "prefectureNumber": 7,
    "prefecture": "福島県",
    "city": "白河市",
    "town": "関川窪"
  },
  "9610803": {
    "zipcode": "9610803",
    "prefectureCode": "07",
    "prefectureNumber": 7,
    "prefecture": "福島県",
    "city": "白河市",
    "town": "栄町"
  },
  "9610804": {
    "zipcode": "9610804",
    "prefectureCode": "07",
    "prefectureNumber": 7,
    "prefecture": "福島県",
    "city": "白河市",
    "town": "蛇石"
  },
  "9610805": {
    "zipcode": "9610805",
    "prefectureCode": "07",
    "prefectureNumber": 7,
    "prefecture": "福島県",
    "city": "白河市",
    "town": "文珠山"
  },
  "9610811": {
    "zipcode": "9610811",
    "prefectureCode": "07",
    "prefectureNumber": 7,
    "prefecture": "福島県",
    "city": "白河市",
    "town": "菅生舘"
  },
  "9610812": {
    "zipcode": "9610812",
    "prefectureCode": "07",
    "prefectureNumber": 7,
    "prefecture": "福島県",
    "city": "白河市",
    "town": "南湖"
  },
  "9610813": {
    "zipcode": "9610813",
    "prefectureCode": "07",
    "prefectureNumber": 7,
    "prefecture": "福島県",
    "city": "白河市",
    "town": "東大沼"
  },
  "9610814": {
    "zipcode": "9610814",
    "prefectureCode": "07",
    "prefectureNumber": 7,
    "prefecture": "福島県",
    "city": "白河市",
    "town": "三本松山"
  },
  "9610815": {
    "zipcode": "9610815",
    "prefectureCode": "07",
    "prefectureNumber": 7,
    "prefecture": "福島県",
    "city": "白河市",
    "town": "五郎窪"
  },
  "9610816": {
    "zipcode": "9610816",
    "prefectureCode": "07",
    "prefectureNumber": 7,
    "prefecture": "福島県",
    "city": "白河市",
    "town": "西大沼"
  },
  "9610817": {
    "zipcode": "9610817",
    "prefectureCode": "07",
    "prefectureNumber": 7,
    "prefecture": "福島県",
    "city": "白河市",
    "town": "東武塚"
  },
  "9610821": {
    "zipcode": "9610821",
    "prefectureCode": "07",
    "prefectureNumber": 7,
    "prefecture": "福島県",
    "city": "白河市",
    "town": "北裏"
  },
  "9610822": {
    "zipcode": "9610822",
    "prefectureCode": "07",
    "prefectureNumber": 7,
    "prefecture": "福島県",
    "city": "白河市",
    "town": "瀬戸原"
  },
  "9610823": {
    "zipcode": "9610823",
    "prefectureCode": "07",
    "prefectureNumber": 7,
    "prefecture": "福島県",
    "city": "白河市",
    "town": "中島"
  },
  "9610824": {
    "zipcode": "9610824",
    "prefectureCode": "07",
    "prefectureNumber": 7,
    "prefecture": "福島県",
    "city": "白河市",
    "town": "丸小山"
  },
  "9610825": {
    "zipcode": "9610825",
    "prefectureCode": "07",
    "prefectureNumber": 7,
    "prefecture": "福島県",
    "city": "白河市",
    "town": "池下向山"
  },
  "9610826": {
    "zipcode": "9610826",
    "prefectureCode": "07",
    "prefectureNumber": 7,
    "prefecture": "福島県",
    "city": "白河市",
    "town": "池下裏"
  },
  "9610827": {
    "zipcode": "9610827",
    "prefectureCode": "07",
    "prefectureNumber": 7,
    "prefecture": "福島県",
    "city": "白河市",
    "town": "池下"
  },
  "9610828": {
    "zipcode": "9610828",
    "prefectureCode": "07",
    "prefectureNumber": 7,
    "prefecture": "福島県",
    "city": "白河市",
    "town": "十三原道下"
  },
  "9610829": {
    "zipcode": "9610829",
    "prefectureCode": "07",
    "prefectureNumber": 7,
    "prefecture": "福島県",
    "city": "白河市",
    "town": "十三原道上"
  },
  "9610831": {
    "zipcode": "9610831",
    "prefectureCode": "07",
    "prefectureNumber": 7,
    "prefecture": "福島県",
    "city": "白河市",
    "town": "老久保"
  },
  "9610832": {
    "zipcode": "9610832",
    "prefectureCode": "07",
    "prefectureNumber": 7,
    "prefecture": "福島県",
    "city": "白河市",
    "town": "西小丸山"
  },
  "9610833": {
    "zipcode": "9610833",
    "prefectureCode": "07",
    "prefectureNumber": 7,
    "prefecture": "福島県",
    "city": "白河市",
    "town": "東三坂山"
  },
  "9610834": {
    "zipcode": "9610834",
    "prefectureCode": "07",
    "prefectureNumber": 7,
    "prefecture": "福島県",
    "city": "白河市",
    "town": "西三坂"
  },
  "9610835": {
    "zipcode": "9610835",
    "prefectureCode": "07",
    "prefectureNumber": 7,
    "prefecture": "福島県",
    "city": "白河市",
    "town": "白坂"
  },
  "9610836": {
    "zipcode": "9610836",
    "prefectureCode": "07",
    "prefectureNumber": 7,
    "prefecture": "福島県",
    "city": "白河市",
    "town": "みさか"
  },
  "9610837": {
    "zipcode": "9610837",
    "prefectureCode": "07",
    "prefectureNumber": 7,
    "prefecture": "福島県",
    "city": "白河市",
    "town": "西三坂山"
  },
  "9610838": {
    "zipcode": "9610838",
    "prefectureCode": "07",
    "prefectureNumber": 7,
    "prefecture": "福島県",
    "city": "白河市",
    "town": "老久保山"
  },
  "9610841": {
    "zipcode": "9610841",
    "prefectureCode": "07",
    "prefectureNumber": 7,
    "prefecture": "福島県",
    "city": "白河市",
    "town": "古高山"
  },
  "9610842": {
    "zipcode": "9610842",
    "prefectureCode": "07",
    "prefectureNumber": 7,
    "prefecture": "福島県",
    "city": "白河市",
    "town": "新池"
  },
  "9610843": {
    "zipcode": "9610843",
    "prefectureCode": "07",
    "prefectureNumber": 7,
    "prefecture": "福島県",
    "city": "白河市",
    "town": "古池"
  },
  "9610844": {
    "zipcode": "9610844",
    "prefectureCode": "07",
    "prefectureNumber": 7,
    "prefecture": "福島県",
    "city": "白河市",
    "town": "中野山"
  },
  "9610845": {
    "zipcode": "9610845",
    "prefectureCode": "07",
    "prefectureNumber": 7,
    "prefecture": "福島県",
    "city": "白河市",
    "town": "大坂山"
  },
  "9610846": {
    "zipcode": "9610846",
    "prefectureCode": "07",
    "prefectureNumber": 7,
    "prefecture": "福島県",
    "city": "白河市",
    "town": "大暮矢見山"
  },
  "9610851": {
    "zipcode": "9610851",
    "prefectureCode": "07",
    "prefectureNumber": 7,
    "prefecture": "福島県",
    "city": "白河市",
    "town": "南登り町"
  },
  "9610852": {
    "zipcode": "9610852",
    "prefectureCode": "07",
    "prefectureNumber": 7,
    "prefecture": "福島県",
    "city": "白河市",
    "town": "転坂"
  },
  "9610853": {
    "zipcode": "9610853",
    "prefectureCode": "07",
    "prefectureNumber": 7,
    "prefecture": "福島県",
    "city": "白河市",
    "town": "新高山"
  },
  "9610854": {
    "zipcode": "9610854",
    "prefectureCode": "07",
    "prefectureNumber": 7,
    "prefecture": "福島県",
    "city": "白河市",
    "town": "高山"
  },
  "9610855": {
    "zipcode": "9610855",
    "prefectureCode": "07",
    "prefectureNumber": 7,
    "prefecture": "福島県",
    "city": "白河市",
    "town": "高山西"
  },
  "9610856": {
    "zipcode": "9610856",
    "prefectureCode": "07",
    "prefectureNumber": 7,
    "prefecture": "福島県",
    "city": "白河市",
    "town": "新白河"
  },
  "9610857": {
    "zipcode": "9610857",
    "prefectureCode": "07",
    "prefectureNumber": 7,
    "prefecture": "福島県",
    "city": "白河市",
    "town": "南堀切"
  },
  "9610861": {
    "zipcode": "9610861",
    "prefectureCode": "07",
    "prefectureNumber": 7,
    "prefecture": "福島県",
    "city": "白河市",
    "town": "風神下"
  },
  "9610862": {
    "zipcode": "9610862",
    "prefectureCode": "07",
    "prefectureNumber": 7,
    "prefecture": "福島県",
    "city": "白河市",
    "town": "三番町"
  },
  "9610863": {
    "zipcode": "9610863",
    "prefectureCode": "07",
    "prefectureNumber": 7,
    "prefecture": "福島県",
    "city": "白河市",
    "town": "七番町"
  },
  "9610864": {
    "zipcode": "9610864",
    "prefectureCode": "07",
    "prefectureNumber": 7,
    "prefecture": "福島県",
    "city": "白河市",
    "town": "風神山東"
  },
  "9610865": {
    "zipcode": "9610865",
    "prefectureCode": "07",
    "prefectureNumber": 7,
    "prefecture": "福島県",
    "city": "白河市",
    "town": "花見坂"
  },
  "9610866": {
    "zipcode": "9610866",
    "prefectureCode": "07",
    "prefectureNumber": 7,
    "prefecture": "福島県",
    "city": "白河市",
    "town": "鶴芝"
  },
  "9610867": {
    "zipcode": "9610867",
    "prefectureCode": "07",
    "prefectureNumber": 7,
    "prefecture": "福島県",
    "city": "白河市",
    "town": "石切場"
  },
  "9610871": {
    "zipcode": "9610871",
    "prefectureCode": "07",
    "prefectureNumber": 7,
    "prefecture": "福島県",
    "city": "白河市",
    "town": "米山越"
  },
  "9610872": {
    "zipcode": "9610872",
    "prefectureCode": "07",
    "prefectureNumber": 7,
    "prefecture": "福島県",
    "city": "白河市",
    "town": "三本松"
  },
  "9610873": {
    "zipcode": "9610873",
    "prefectureCode": "07",
    "prefectureNumber": 7,
    "prefecture": "福島県",
    "city": "白河市",
    "town": "松並"
  },
  "9610874": {
    "zipcode": "9610874",
    "prefectureCode": "07",
    "prefectureNumber": 7,
    "prefecture": "福島県",
    "city": "白河市",
    "town": "九番町西裏"
  },
  "9610875": {
    "zipcode": "9610875",
    "prefectureCode": "07",
    "prefectureNumber": 7,
    "prefecture": "福島県",
    "city": "白河市",
    "town": "九番町"
  },
  "9610881": {
    "zipcode": "9610881",
    "prefectureCode": "07",
    "prefectureNumber": 7,
    "prefecture": "福島県",
    "city": "白河市",
    "town": "与惣小屋"
  },
  "9610882": {
    "zipcode": "9610882",
    "prefectureCode": "07",
    "prefectureNumber": 7,
    "prefecture": "福島県",
    "city": "白河市",
    "town": "与惣小屋山"
  },
  "9610883": {
    "zipcode": "9610883",
    "prefectureCode": "07",
    "prefectureNumber": 7,
    "prefecture": "福島県",
    "city": "白河市",
    "town": "東小丸山"
  },
  "9610884": {
    "zipcode": "9610884",
    "prefectureCode": "07",
    "prefectureNumber": 7,
    "prefecture": "福島県",
    "city": "白河市",
    "town": "鬼越道下"
  },
  "9610885": {
    "zipcode": "9610885",
    "prefectureCode": "07",
    "prefectureNumber": 7,
    "prefecture": "福島県",
    "city": "白河市",
    "town": "鬼越"
  },
  "9610886": {
    "zipcode": "9610886",
    "prefectureCode": "07",
    "prefectureNumber": 7,
    "prefecture": "福島県",
    "city": "白河市",
    "town": "影鬼越"
  },
  "9610887": {
    "zipcode": "9610887",
    "prefectureCode": "07",
    "prefectureNumber": 7,
    "prefecture": "福島県",
    "city": "白河市",
    "town": "鬼越山"
  },
  "9610888": {
    "zipcode": "9610888",
    "prefectureCode": "07",
    "prefectureNumber": 7,
    "prefecture": "福島県",
    "city": "白河市",
    "town": "十三原"
  },
  "9610901": {
    "zipcode": "9610901",
    "prefectureCode": "07",
    "prefectureNumber": 7,
    "prefecture": "福島県",
    "city": "白河市",
    "town": "明戸"
  },
  "9610902": {
    "zipcode": "9610902",
    "prefectureCode": "07",
    "prefectureNumber": 7,
    "prefecture": "福島県",
    "city": "白河市",
    "town": "番士小路"
  },
  "9610903": {
    "zipcode": "9610903",
    "prefectureCode": "07",
    "prefectureNumber": 7,
    "prefecture": "福島県",
    "city": "白河市",
    "town": "年貢町"
  },
  "9610904": {
    "zipcode": "9610904",
    "prefectureCode": "07",
    "prefectureNumber": 7,
    "prefecture": "福島県",
    "city": "白河市",
    "town": "馬町裏"
  },
  "9610905": {
    "zipcode": "9610905",
    "prefectureCode": "07",
    "prefectureNumber": 7,
    "prefecture": "福島県",
    "city": "白河市",
    "town": "本町"
  },
  "9610906": {
    "zipcode": "9610906",
    "prefectureCode": "07",
    "prefectureNumber": 7,
    "prefecture": "福島県",
    "city": "白河市",
    "town": "本町北裏"
  },
  "9610907": {
    "zipcode": "9610907",
    "prefectureCode": "07",
    "prefectureNumber": 7,
    "prefecture": "福島県",
    "city": "白河市",
    "town": "横町"
  },
  "9610908": {
    "zipcode": "9610908",
    "prefectureCode": "07",
    "prefectureNumber": 7,
    "prefecture": "福島県",
    "city": "白河市",
    "town": "大手町"
  },
  "9610911": {
    "zipcode": "9610911",
    "prefectureCode": "07",
    "prefectureNumber": 7,
    "prefecture": "福島県",
    "city": "白河市",
    "town": "桜町"
  },
  "9610912": {
    "zipcode": "9610912",
    "prefectureCode": "07",
    "prefectureNumber": 7,
    "prefecture": "福島県",
    "city": "白河市",
    "town": "旭町"
  },
  "9610913": {
    "zipcode": "9610913",
    "prefectureCode": "07",
    "prefectureNumber": 7,
    "prefecture": "福島県",
    "city": "白河市",
    "town": "鍛冶町"
  },
  "9610914": {
    "zipcode": "9610914",
    "prefectureCode": "07",
    "prefectureNumber": 7,
    "prefecture": "福島県",
    "city": "白河市",
    "town": "寺小路"
  },
  "9610915": {
    "zipcode": "9610915",
    "prefectureCode": "07",
    "prefectureNumber": 7,
    "prefecture": "福島県",
    "city": "白河市",
    "town": "馬町下"
  },
  "9610916": {
    "zipcode": "9610916",
    "prefectureCode": "07",
    "prefectureNumber": 7,
    "prefecture": "福島県",
    "city": "白河市",
    "town": "束前町"
  },
  "9610917": {
    "zipcode": "9610917",
    "prefectureCode": "07",
    "prefectureNumber": 7,
    "prefecture": "福島県",
    "city": "白河市",
    "town": "八百屋町"
  },
  "9610921": {
    "zipcode": "9610921",
    "prefectureCode": "07",
    "prefectureNumber": 7,
    "prefecture": "福島県",
    "city": "白河市",
    "town": "円明寺"
  },
  "9610922": {
    "zipcode": "9610922",
    "prefectureCode": "07",
    "prefectureNumber": 7,
    "prefecture": "福島県",
    "city": "白河市",
    "town": "菖蒲沢"
  },
  "9610923": {
    "zipcode": "9610923",
    "prefectureCode": "07",
    "prefectureNumber": 7,
    "prefecture": "福島県",
    "city": "白河市",
    "town": "白井掛下"
  },
  "9610924": {
    "zipcode": "9610924",
    "prefectureCode": "07",
    "prefectureNumber": 7,
    "prefecture": "福島県",
    "city": "白河市",
    "town": "白井掛"
  },
  "9610925": {
    "zipcode": "9610925",
    "prefectureCode": "07",
    "prefectureNumber": 7,
    "prefecture": "福島県",
    "city": "白河市",
    "town": "向新蔵"
  },
  "9610926": {
    "zipcode": "9610926",
    "prefectureCode": "07",
    "prefectureNumber": 7,
    "prefecture": "福島県",
    "city": "白河市",
    "town": "友月山"
  },
  "9610931": {
    "zipcode": "9610931",
    "prefectureCode": "07",
    "prefectureNumber": 7,
    "prefecture": "福島県",
    "city": "白河市",
    "town": "馬町"
  },
  "9610932": {
    "zipcode": "9610932",
    "prefectureCode": "07",
    "prefectureNumber": 7,
    "prefecture": "福島県",
    "city": "白河市",
    "town": "南町"
  },
  "9610933": {
    "zipcode": "9610933",
    "prefectureCode": "07",
    "prefectureNumber": 7,
    "prefecture": "福島県",
    "city": "白河市",
    "town": "新蔵町"
  },
  "9610934": {
    "zipcode": "9610934",
    "prefectureCode": "07",
    "prefectureNumber": 7,
    "prefecture": "福島県",
    "city": "白河市",
    "town": "袋町"
  },
  "9610935": {
    "zipcode": "9610935",
    "prefectureCode": "07",
    "prefectureNumber": 7,
    "prefecture": "福島県",
    "city": "白河市",
    "town": "手代町"
  },
  "9610936": {
    "zipcode": "9610936",
    "prefectureCode": "07",
    "prefectureNumber": 7,
    "prefecture": "福島県",
    "city": "白河市",
    "town": "大工町"
  },
  "9610937": {
    "zipcode": "9610937",
    "prefectureCode": "07",
    "prefectureNumber": 7,
    "prefecture": "福島県",
    "city": "白河市",
    "town": "上ノ台"
  },
  "9610941": {
    "zipcode": "9610941",
    "prefectureCode": "07",
    "prefectureNumber": 7,
    "prefecture": "福島県",
    "city": "白河市",
    "town": "八幡小路"
  },
  "9610942": {
    "zipcode": "9610942",
    "prefectureCode": "07",
    "prefectureNumber": 7,
    "prefecture": "福島県",
    "city": "白河市",
    "town": "愛宕町"
  },
  "9610943": {
    "zipcode": "9610943",
    "prefectureCode": "07",
    "prefectureNumber": 7,
    "prefecture": "福島県",
    "city": "白河市",
    "town": "金屋町"
  },
  "9610944": {
    "zipcode": "9610944",
    "prefectureCode": "07",
    "prefectureNumber": 7,
    "prefecture": "福島県",
    "city": "白河市",
    "town": "宰領町"
  },
  "9610945": {
    "zipcode": "9610945",
    "prefectureCode": "07",
    "prefectureNumber": 7,
    "prefecture": "福島県",
    "city": "白河市",
    "town": "巡り矢"
  },
  "9610946": {
    "zipcode": "9610946",
    "prefectureCode": "07",
    "prefectureNumber": 7,
    "prefecture": "福島県",
    "city": "白河市",
    "town": "二番町"
  },
  "9610947": {
    "zipcode": "9610947",
    "prefectureCode": "07",
    "prefectureNumber": 7,
    "prefecture": "福島県",
    "city": "白河市",
    "town": "一番町"
  },
  "9610951": {
    "zipcode": "9610951",
    "prefectureCode": "07",
    "prefectureNumber": 7,
    "prefecture": "福島県",
    "city": "白河市",
    "town": "中町"
  },
  "9610952": {
    "zipcode": "9610952",
    "prefectureCode": "07",
    "prefectureNumber": 7,
    "prefecture": "福島県",
    "city": "白河市",
    "town": "中町北裏"
  },
  "9610953": {
    "zipcode": "9610953",
    "prefectureCode": "07",
    "prefectureNumber": 7,
    "prefecture": "福島県",
    "city": "白河市",
    "town": "鷹匠町"
  },
  "9610954": {
    "zipcode": "9610954",
    "prefectureCode": "07",
    "prefectureNumber": 7,
    "prefecture": "福島県",
    "city": "白河市",
    "town": "天神町"
  },
  "9610955": {
    "zipcode": "9610955",
    "prefectureCode": "07",
    "prefectureNumber": 7,
    "prefecture": "福島県",
    "city": "白河市",
    "town": "道場町"
  },
  "9610956": {
    "zipcode": "9610956",
    "prefectureCode": "07",
    "prefectureNumber": 7,
    "prefecture": "福島県",
    "city": "白河市",
    "town": "勘定町"
  },
  "9610957": {
    "zipcode": "9610957",
    "prefectureCode": "07",
    "prefectureNumber": 7,
    "prefecture": "福島県",
    "city": "白河市",
    "town": "道場小路"
  },
  "9610961": {
    "zipcode": "9610961",
    "prefectureCode": "07",
    "prefectureNumber": 7,
    "prefecture": "福島県",
    "city": "白河市",
    "town": "四ツ谷"
  },
  "9610962": {
    "zipcode": "9610962",
    "prefectureCode": "07",
    "prefectureNumber": 7,
    "prefecture": "福島県",
    "city": "白河市",
    "town": "登り町"
  },
  "9610963": {
    "zipcode": "9610963",
    "prefectureCode": "07",
    "prefectureNumber": 7,
    "prefecture": "福島県",
    "city": "白河市",
    "town": "日影"
  },
  "9610964": {
    "zipcode": "9610964",
    "prefectureCode": "07",
    "prefectureNumber": 7,
    "prefecture": "福島県",
    "city": "白河市",
    "town": "日向"
  },
  "9610965": {
    "zipcode": "9610965",
    "prefectureCode": "07",
    "prefectureNumber": 7,
    "prefecture": "福島県",
    "city": "白河市",
    "town": "細工町"
  },
  "9610971": {
    "zipcode": "9610971",
    "prefectureCode": "07",
    "prefectureNumber": 7,
    "prefecture": "福島県",
    "city": "白河市",
    "town": "昭和町"
  },
  "9610972": {
    "zipcode": "9610972",
    "prefectureCode": "07",
    "prefectureNumber": 7,
    "prefecture": "福島県",
    "city": "白河市",
    "town": "立石"
  },
  "9610973": {
    "zipcode": "9610973",
    "prefectureCode": "07",
    "prefectureNumber": 7,
    "prefecture": "福島県",
    "city": "白河市",
    "town": "北登り町"
  },
  "9610974": {
    "zipcode": "9610974",
    "prefectureCode": "07",
    "prefectureNumber": 7,
    "prefecture": "福島県",
    "city": "白河市",
    "town": "北堀切"
  },
  "9610975": {
    "zipcode": "9610975",
    "prefectureCode": "07",
    "prefectureNumber": 7,
    "prefecture": "福島県",
    "city": "白河市",
    "town": "立石山"
  },
  "9610981": {
    "zipcode": "9610981",
    "prefectureCode": "07",
    "prefectureNumber": 7,
    "prefecture": "福島県",
    "city": "白河市",
    "town": "北真舟"
  },
  "9610982": {
    "zipcode": "9610982",
    "prefectureCode": "07",
    "prefectureNumber": 7,
    "prefecture": "福島県",
    "city": "白河市",
    "town": "南真舟"
  },
  "9610983": {
    "zipcode": "9610983",
    "prefectureCode": "07",
    "prefectureNumber": 7,
    "prefecture": "福島県",
    "city": "白河市",
    "town": "真舟"
  },
  "9610984": {
    "zipcode": "9610984",
    "prefectureCode": "07",
    "prefectureNumber": 7,
    "prefecture": "福島県",
    "city": "白河市",
    "town": "和尚壇山"
  },
  "9610985": {
    "zipcode": "9610985",
    "prefectureCode": "07",
    "prefectureNumber": 7,
    "prefecture": "福島県",
    "city": "白河市",
    "town": "和尚壇"
  },
  "9610986": {
    "zipcode": "9610986",
    "prefectureCode": "07",
    "prefectureNumber": 7,
    "prefecture": "福島県",
    "city": "白河市",
    "town": "塩路山"
  },
  "9610991": {
    "zipcode": "9610991",
    "prefectureCode": "07",
    "prefectureNumber": 7,
    "prefecture": "福島県",
    "city": "白河市",
    "town": "中山東"
  },
  "9610992": {
    "zipcode": "9610992",
    "prefectureCode": "07",
    "prefectureNumber": 7,
    "prefecture": "福島県",
    "city": "白河市",
    "town": "南堀川端"
  },
  "9610993": {
    "zipcode": "9610993",
    "prefectureCode": "07",
    "prefectureNumber": 7,
    "prefecture": "福島県",
    "city": "白河市",
    "town": "中山南"
  },
  "9610994": {
    "zipcode": "9610994",
    "prefectureCode": "07",
    "prefectureNumber": 7,
    "prefecture": "福島県",
    "city": "白河市",
    "town": "中山下"
  },
  "9610995": {
    "zipcode": "9610995",
    "prefectureCode": "07",
    "prefectureNumber": 7,
    "prefecture": "福島県",
    "city": "白河市",
    "town": "中山"
  },
  "9610996": {
    "zipcode": "9610996",
    "prefectureCode": "07",
    "prefectureNumber": 7,
    "prefecture": "福島県",
    "city": "白河市",
    "town": "北堀川端"
  },
  "9618001": {
    "zipcode": "9618001",
    "prefectureCode": "07",
    "prefectureNumber": 7,
    "prefecture": "福島県",
    "city": "西白河郡西郷村",
    "town": "羽太"
  },
  "9618002": {
    "zipcode": "9618002",
    "prefectureCode": "07",
    "prefectureNumber": 7,
    "prefecture": "福島県",
    "city": "白河市",
    "town": "大信隈戸（北小萱）"
  },
  "9618011": {
    "zipcode": "9618011",
    "prefectureCode": "07",
    "prefectureNumber": 7,
    "prefecture": "福島県",
    "city": "西白河郡西郷村",
    "town": "柏野"
  },
  "9618021": {
    "zipcode": "9618021",
    "prefectureCode": "07",
    "prefectureNumber": 7,
    "prefecture": "福島県",
    "city": "西白河郡西郷村",
    "town": "長坂"
  },
  "9618031": {
    "zipcode": "9618031",
    "prefectureCode": "07",
    "prefectureNumber": 7,
    "prefecture": "福島県",
    "city": "西白河郡西郷村",
    "town": "米"
  },
  "9618041": {
    "zipcode": "9618041",
    "prefectureCode": "07",
    "prefectureNumber": 7,
    "prefecture": "福島県",
    "city": "西白河郡西郷村",
    "town": "豊作東"
  },
  "9618042": {
    "zipcode": "9618042",
    "prefectureCode": "07",
    "prefectureNumber": 7,
    "prefecture": "福島県",
    "city": "西白河郡西郷村",
    "town": "豊作西"
  },
  "9618043": {
    "zipcode": "9618043",
    "prefectureCode": "07",
    "prefectureNumber": 7,
    "prefecture": "福島県",
    "city": "西白河郡西郷村",
    "town": "石塚南"
  },
  "9618044": {
    "zipcode": "9618044",
    "prefectureCode": "07",
    "prefectureNumber": 7,
    "prefecture": "福島県",
    "city": "西白河郡西郷村",
    "town": "石塚北"
  },
  "9618045": {
    "zipcode": "9618045",
    "prefectureCode": "07",
    "prefectureNumber": 7,
    "prefecture": "福島県",
    "city": "西白河郡西郷村",
    "town": "屋敷裏西"
  },
  "9618046": {
    "zipcode": "9618046",
    "prefectureCode": "07",
    "prefectureNumber": 7,
    "prefecture": "福島県",
    "city": "西白河郡西郷村",
    "town": "屋敷裏東"
  },
  "9618047": {
    "zipcode": "9618047",
    "prefectureCode": "07",
    "prefectureNumber": 7,
    "prefecture": "福島県",
    "city": "西白河郡西郷村",
    "town": "裏山南"
  },
  "9618051": {
    "zipcode": "9618051",
    "prefectureCode": "07",
    "prefectureNumber": 7,
    "prefecture": "福島県",
    "city": "西白河郡西郷村",
    "town": "下前田東"
  },
  "9618052": {
    "zipcode": "9618052",
    "prefectureCode": "07",
    "prefectureNumber": 7,
    "prefecture": "福島県",
    "city": "西白河郡西郷村",
    "town": "道南東"
  },
  "9618053": {
    "zipcode": "9618053",
    "prefectureCode": "07",
    "prefectureNumber": 7,
    "prefecture": "福島県",
    "city": "西白河郡西郷村",
    "town": "前山東"
  },
  "9618054": {
    "zipcode": "9618054",
    "prefectureCode": "07",
    "prefectureNumber": 7,
    "prefecture": "福島県",
    "city": "西白河郡西郷村",
    "town": "前山西"
  },
  "9618055": {
    "zipcode": "9618055",
    "prefectureCode": "07",
    "prefectureNumber": 7,
    "prefecture": "福島県",
    "city": "西白河郡西郷村",
    "town": "道南西"
  },
  "9618056": {
    "zipcode": "9618056",
    "prefectureCode": "07",
    "prefectureNumber": 7,
    "prefecture": "福島県",
    "city": "西白河郡西郷村",
    "town": "下前田西"
  },
  "9618061": {
    "zipcode": "9618061",
    "prefectureCode": "07",
    "prefectureNumber": 7,
    "prefecture": "福島県",
    "city": "西白河郡西郷村",
    "town": "小田倉"
  },
  "9618071": {
    "zipcode": "9618071",
    "prefectureCode": "07",
    "prefectureNumber": 7,
    "prefecture": "福島県",
    "city": "西白河郡西郷村",
    "town": "真船"
  },
  "9618081": {
    "zipcode": "9618081",
    "prefectureCode": "07",
    "prefectureNumber": 7,
    "prefecture": "福島県",
    "city": "西白河郡西郷村",
    "town": "鶴生"
  },
  "9618091": {
    "zipcode": "9618091",
    "prefectureCode": "07",
    "prefectureNumber": 7,
    "prefecture": "福島県",
    "city": "西白河郡西郷村",
    "town": "熊倉"
  }
}
