{
  "9620000": {
    "zipcode": "9620000",
    "prefectureCode": "07",
    "prefectureNumber": 7,
    "prefecture": "福島県",
    "city": "須賀川市",
    "town": "以下に掲載がない場合"
  },
  "9620001": {
    "zipcode": "9620001",
    "prefectureCode": "07",
    "prefectureNumber": 7,
    "prefecture": "福島県",
    "city": "須賀川市",
    "town": "森宿"
  },
  "9620002": {
    "zipcode": "9620002",
    "prefectureCode": "07",
    "prefectureNumber": 7,
    "prefecture": "福島県",
    "city": "須賀川市",
    "town": "上人坦"
  },
  "9620003": {
    "zipcode": "9620003",
    "prefectureCode": "07",
    "prefectureNumber": 7,
    "prefecture": "福島県",
    "city": "須賀川市",
    "town": "岩瀬森"
  },
  "9620004": {
    "zipcode": "9620004",
    "prefectureCode": "07",
    "prefectureNumber": 7,
    "prefecture": "福島県",
    "city": "須賀川市",
    "town": "中山"
  },
  "9620005": {
    "zipcode": "9620005",
    "prefectureCode": "07",
    "prefectureNumber": 7,
    "prefecture": "福島県",
    "city": "須賀川市",
    "town": "台"
  },
  "9620006": {
    "zipcode": "9620006",
    "prefectureCode": "07",
    "prefectureNumber": 7,
    "prefecture": "福島県",
    "city": "須賀川市",
    "town": "山寺道"
  },
  "9620007": {
    "zipcode": "9620007",
    "prefectureCode": "07",
    "prefectureNumber": 7,
    "prefecture": "福島県",
    "city": "須賀川市",
    "town": "下宿町"
  },
  "9620011": {
    "zipcode": "9620011",
    "prefectureCode": "07",
    "prefectureNumber": 7,
    "prefecture": "福島県",
    "city": "須賀川市",
    "town": "坂の上町"
  },
  "9620012": {
    "zipcode": "9620012",
    "prefectureCode": "07",
    "prefectureNumber": 7,
    "prefecture": "福島県",
    "city": "須賀川市",
    "town": "陣場町"
  },
  "9620013": {
    "zipcode": "9620013",
    "prefectureCode": "07",
    "prefectureNumber": 7,
    "prefecture": "福島県",
    "city": "須賀川市",
    "town": "岡東町"
  },
  "9620014": {
    "zipcode": "9620014",
    "prefectureCode": "07",
    "prefectureNumber": 7,
    "prefecture": "福島県",
    "city": "須賀川市",
    "town": "西川町"
  },
  "9620015": {
    "zipcode": "9620015",
    "prefectureCode": "07",
    "prefectureNumber": 7,
    "prefecture": "福島県",
    "city": "須賀川市",
    "town": "日向町"
  },
  "9620016": {
    "zipcode": "9620016",
    "prefectureCode": "07",
    "prefectureNumber": 7,
    "prefecture": "福島県",
    "city": "須賀川市",
    "town": "西田町"
  },
  "9620017": {
    "zipcode": "9620017",
    "prefectureCode": "07",
    "prefectureNumber": 7,
    "prefecture": "福島県",
    "city": "須賀川市",
    "town": "西の内町"
  },
  "9620021": {
    "zipcode": "9620021",
    "prefectureCode": "07",
    "prefectureNumber": 7,
    "prefecture": "福島県",
    "city": "須賀川市",
    "town": "館取町"
  },
  "9620022": {
    "zipcode": "9620022",
    "prefectureCode": "07",
    "prefectureNumber": 7,
    "prefecture": "福島県",
    "city": "須賀川市",
    "town": "丸田町"
  },
  "9620023": {
    "zipcode": "9620023",
    "prefectureCode": "07",
    "prefectureNumber": 7,
    "prefecture": "福島県",
    "city": "須賀川市",
    "town": "大黒町"
  },
  "9620024": {
    "zipcode": "9620024",
    "prefectureCode": "07",
    "prefectureNumber": 7,
    "prefecture": "福島県",
    "city": "須賀川市",
    "town": "稲荷町"
  },
  "9620025": {
    "zipcode": "9620025",
    "prefectureCode": "07",
    "prefectureNumber": 7,
    "prefecture": "福島県",
    "city": "須賀川市",
    "town": "八幡山"
  },
  "9620026": {
    "zipcode": "9620026",
    "prefectureCode": "07",
    "prefectureNumber": 7,
    "prefecture": "福島県",
    "city": "須賀川市",
    "town": "岩崎"
  },
  "9620027": {
    "zipcode": "9620027",
    "prefectureCode": "07",
    "prefectureNumber": 7,
    "prefecture": "福島県",
    "city": "須賀川市",
    "town": "堀底町"
  },
  "9620028": {
    "zipcode": "9620028",
    "prefectureCode": "07",
    "prefectureNumber": 7,
    "prefecture": "福島県",
    "city": "須賀川市",
    "town": "茶畑町"
  },
  "9620031": {
    "zipcode": "9620031",
    "prefectureCode": "07",
    "prefectureNumber": 7,
    "prefecture": "福島県",
    "city": "須賀川市",
    "town": "影沼町"
  },
  "9620032": {
    "zipcode": "9620032",
    "prefectureCode": "07",
    "prefectureNumber": 7,
    "prefecture": "福島県",
    "city": "須賀川市",
    "town": "大袋町"
  },
  "9620033": {
    "zipcode": "9620033",
    "prefectureCode": "07",
    "prefectureNumber": 7,
    "prefecture": "福島県",
    "city": "須賀川市",
    "town": "岩作"
  },
  "9620034": {
    "zipcode": "9620034",
    "prefectureCode": "07",
    "prefectureNumber": 7,
    "prefecture": "福島県",
    "city": "須賀川市",
    "town": "一里坦"
  },
  "9620035": {
    "zipcode": "9620035",
    "prefectureCode": "07",
    "prefectureNumber": 7,
    "prefecture": "福島県",
    "city": "須賀川市",
    "town": "五月雨"
  },
  "9620036": {
    "zipcode": "9620036",
    "prefectureCode": "07",
    "prefectureNumber": 7,
    "prefecture": "福島県",
    "city": "須賀川市",
    "town": "芹沢町"
  },
  "9620041": {
    "zipcode": "9620041",
    "prefectureCode": "07",
    "prefectureNumber": 7,
    "prefecture": "福島県",
    "city": "須賀川市",
    "town": "横山町"
  },
  "9620042": {
    "zipcode": "9620042",
    "prefectureCode": "07",
    "prefectureNumber": 7,
    "prefecture": "福島県",
    "city": "須賀川市",
    "town": "稲"
  },
  "9620043": {
    "zipcode": "9620043",
    "prefectureCode": "07",
    "prefectureNumber": 7,
    "prefecture": "福島県",
    "city": "須賀川市",
    "town": "岩渕"
  },
  "9620044": {
    "zipcode": "9620044",
    "prefectureCode": "07",
    "prefectureNumber": 7,
    "prefecture": "福島県",
    "city": "須賀川市",
    "town": "池下"
  },
  "9620045": {
    "zipcode": "9620045",
    "prefectureCode": "07",
    "prefectureNumber": 7,
    "prefecture": "福島県",
    "city": "須賀川市",
    "town": "保土原"
  },
  "9620046": {
    "zipcode": "9620046",
    "prefectureCode": "07",
    "prefectureNumber": 7,
    "prefecture": "福島県",
    "city": "須賀川市",
    "town": "泉田"
  },
  "9620047": {
    "zipcode": "9620047",
    "prefectureCode": "07",
    "prefectureNumber": 7,
    "prefecture": "福島県",
    "city": "須賀川市",
    "town": "松塚"
  },
  "9620051": {
    "zipcode": "9620051",
    "prefectureCode": "07",
    "prefectureNumber": 7,
    "prefecture": "福島県",
    "city": "須賀川市",
    "town": "越久"
  },
  "9620052": {
    "zipcode": "9620052",
    "prefectureCode": "07",
    "prefectureNumber": 7,
    "prefecture": "福島県",
    "city": "須賀川市",
    "town": "西川"
  },
  "9620053": {
    "zipcode": "9620053",
    "prefectureCode": "07",
    "prefectureNumber": 7,
    "prefecture": "福島県",
    "city": "須賀川市",
    "town": "卸町"
  },
  "9620054": {
    "zipcode": "9620054",
    "prefectureCode": "07",
    "prefectureNumber": 7,
    "prefecture": "福島県",
    "city": "須賀川市",
    "town": "牛袋町"
  },
  "9620055": {
    "zipcode": "9620055",
    "prefectureCode": "07",
    "prefectureNumber": 7,
    "prefecture": "福島県",
    "city": "須賀川市",
    "town": "新町"
  },
  "9620056": {
    "zipcode": "9620056",
    "prefectureCode": "07",
    "prefectureNumber": 7,
    "prefecture": "福島県",
    "city": "須賀川市",
    "town": "大桑原"
  },
  "9620057": {
    "zipcode": "9620057",
    "prefectureCode": "07",
    "prefectureNumber": 7,
    "prefecture": "福島県",
    "city": "須賀川市",
    "town": "袋田"
  },
  "9620058": {
    "zipcode": "9620058",
    "prefectureCode": "07",
    "prefectureNumber": 7,
    "prefecture": "福島県",
    "city": "須賀川市",
    "town": "池ノ下町"
  },
  "9620059": {
    "zipcode": "9620059",
    "prefectureCode": "07",
    "prefectureNumber": 7,
    "prefecture": "福島県",
    "city": "須賀川市",
    "town": "吉美根"
  },
  "9620061": {
    "zipcode": "9620061",
    "prefectureCode": "07",
    "prefectureNumber": 7,
    "prefecture": "福島県",
    "city": "須賀川市",
    "town": "北山寺町"
  },
  "9620062": {
    "zipcode": "9620062",
    "prefectureCode": "07",
    "prefectureNumber": 7,
    "prefecture": "福島県",
    "city": "須賀川市",
    "town": "山寺町"
  },
  "9620063": {
    "zipcode": "9620063",
    "prefectureCode": "07",
    "prefectureNumber": 7,
    "prefecture": "福島県",
    "city": "須賀川市",
    "town": "西山寺町"
  },
  "9620121": {
    "zipcode": "9620121",
    "prefectureCode": "07",
    "prefectureNumber": 7,
    "prefecture": "福島県",
    "city": "須賀川市",
    "town": "横田"
  },
  "9620122": {
    "zipcode": "9620122",
    "prefectureCode": "07",
    "prefectureNumber": 7,
    "prefecture": "福島県",
    "city": "須賀川市",
    "town": "木之崎"
  },
  "9620123": {
    "zipcode": "9620123",
    "prefectureCode": "07",
    "prefectureNumber": 7,
    "prefecture": "福島県",
    "city": "須賀川市",
    "town": "矢田野"
  },
  "9620124": {
    "zipcode": "9620124",
    "prefectureCode": "07",
    "prefectureNumber": 7,
    "prefecture": "福島県",
    "city": "須賀川市",
    "town": "桙衝"
  },
  "9620125": {
    "zipcode": "9620125",
    "prefectureCode": "07",
    "prefectureNumber": 7,
    "prefecture": "福島県",
    "city": "須賀川市",
    "town": "堀込"
  },
  "9620126": {
    "zipcode": "9620126",
    "prefectureCode": "07",
    "prefectureNumber": 7,
    "prefecture": "福島県",
    "city": "須賀川市",
    "town": "花の里"
  },
  "9620201": {
    "zipcode": "9620201",
    "prefectureCode": "07",
    "prefectureNumber": 7,
    "prefecture": "福島県",
    "city": "須賀川市",
    "town": "志茂"
  },
  "9620202": {
    "zipcode": "9620202",
    "prefectureCode": "07",
    "prefectureNumber": 7,
    "prefecture": "福島県",
    "city": "須賀川市",
    "town": "小中"
  },
  "9620203": {
    "zipcode": "9620203",
    "prefectureCode": "07",
    "prefectureNumber": 7,
    "prefecture": "福島県",
    "city": "須賀川市",
    "town": "長沼"
  },
  "9620204": {
    "zipcode": "9620204",
    "prefectureCode": "07",
    "prefectureNumber": 7,
    "prefecture": "福島県",
    "city": "須賀川市",
    "town": "江花"
  },
  "9620205": {
    "zipcode": "9620205",
    "prefectureCode": "07",
    "prefectureNumber": 7,
    "prefecture": "福島県",
    "city": "須賀川市",
    "town": "勢至堂"
  },
  "9620211": {
    "zipcode": "9620211",
    "prefectureCode": "07",
    "prefectureNumber": 7,
    "prefecture": "福島県",
    "city": "須賀川市",
    "town": "滝（赤土、雁田、北久保、白砂、白砂山、大新畑、大日前、滝西、チャクの下、日向前、本郷、前田）"
  },
  "9620301": {
    "zipcode": "9620301",
    "prefectureCode": "07",
    "prefectureNumber": 7,
    "prefecture": "福島県",
    "city": "須賀川市",
    "town": "今泉"
  },
  "9620302": {
    "zipcode": "9620302",
    "prefectureCode": "07",
    "prefectureNumber": 7,
    "prefecture": "福島県",
    "city": "須賀川市",
    "town": "柱田"
  },
  "9620303": {
    "zipcode": "9620303",
    "prefectureCode": "07",
    "prefectureNumber": 7,
    "prefecture": "福島県",
    "city": "須賀川市",
    "town": "梅田"
  },
  "9620304": {
    "zipcode": "9620304",
    "prefectureCode": "07",
    "prefectureNumber": 7,
    "prefecture": "福島県",
    "city": "須賀川市",
    "town": "滝（その他）"
  },
  "9620305": {
    "zipcode": "9620305",
    "prefectureCode": "07",
    "prefectureNumber": 7,
    "prefecture": "福島県",
    "city": "須賀川市",
    "town": "守屋"
  },
  "9620311": {
    "zipcode": "9620311",
    "prefectureCode": "07",
    "prefectureNumber": 7,
    "prefecture": "福島県",
    "city": "須賀川市",
    "town": "矢沢"
  },
  "9620312": {
    "zipcode": "9620312",
    "prefectureCode": "07",
    "prefectureNumber": 7,
    "prefecture": "福島県",
    "city": "須賀川市",
    "town": "大久保"
  },
  "9620313": {
    "zipcode": "9620313",
    "prefectureCode": "07",
    "prefectureNumber": 7,
    "prefecture": "福島県",
    "city": "須賀川市",
    "town": "北横田"
  },
  "9620314": {
    "zipcode": "9620314",
    "prefectureCode": "07",
    "prefectureNumber": 7,
    "prefecture": "福島県",
    "city": "須賀川市",
    "town": "深渡戸"
  },
  "9620315": {
    "zipcode": "9620315",
    "prefectureCode": "07",
    "prefectureNumber": 7,
    "prefecture": "福島県",
    "city": "須賀川市",
    "town": "畑田"
  },
  "9620401": {
    "zipcode": "9620401",
    "prefectureCode": "07",
    "prefectureNumber": 7,
    "prefecture": "福島県",
    "city": "須賀川市",
    "town": "向陽町"
  },
  "9620402": {
    "zipcode": "9620402",
    "prefectureCode": "07",
    "prefectureNumber": 7,
    "prefecture": "福島県",
    "city": "須賀川市",
    "town": "仁井田"
  },
  "9620403": {
    "zipcode": "9620403",
    "prefectureCode": "07",
    "prefectureNumber": 7,
    "prefecture": "福島県",
    "city": "須賀川市",
    "town": "滑川"
  },
  "9620404": {
    "zipcode": "9620404",
    "prefectureCode": "07",
    "prefectureNumber": 7,
    "prefecture": "福島県",
    "city": "須賀川市",
    "town": "舘ケ岡"
  },
  "9620405": {
    "zipcode": "9620405",
    "prefectureCode": "07",
    "prefectureNumber": 7,
    "prefecture": "福島県",
    "city": "須賀川市",
    "town": "季の郷"
  },
  "9620406": {
    "zipcode": "9620406",
    "prefectureCode": "07",
    "prefectureNumber": 7,
    "prefecture": "福島県",
    "city": "須賀川市",
    "town": "宮の杜"
  },
  "9620500": {
    "zipcode": "9620500",
    "prefectureCode": "07",
    "prefectureNumber": 7,
    "prefecture": "福島県",
    "city": "岩瀬郡天栄村",
    "town": "以下に掲載がない場合"
  },
  "9620501": {
    "zipcode": "9620501",
    "prefectureCode": "07",
    "prefectureNumber": 7,
    "prefecture": "福島県",
    "city": "岩瀬郡天栄村",
    "town": "牧之内"
  },
  "9620502": {
    "zipcode": "9620502",
    "prefectureCode": "07",
    "prefectureNumber": 7,
    "prefecture": "福島県",
    "city": "岩瀬郡天栄村",
    "town": "上松本"
  },
  "9620503": {
    "zipcode": "9620503",
    "prefectureCode": "07",
    "prefectureNumber": 7,
    "prefecture": "福島県",
    "city": "岩瀬郡天栄村",
    "town": "下松本"
  },
  "9620504": {
    "zipcode": "9620504",
    "prefectureCode": "07",
    "prefectureNumber": 7,
    "prefecture": "福島県",
    "city": "岩瀬郡天栄村",
    "town": "大里"
  },
  "9620511": {
    "zipcode": "9620511",
    "prefectureCode": "07",
    "prefectureNumber": 7,
    "prefecture": "福島県",
    "city": "岩瀬郡天栄村",
    "town": "白子"
  },
  "9620512": {
    "zipcode": "9620512",
    "prefectureCode": "07",
    "prefectureNumber": 7,
    "prefecture": "福島県",
    "city": "岩瀬郡天栄村",
    "town": "飯豊"
  },
  "9620513": {
    "zipcode": "9620513",
    "prefectureCode": "07",
    "prefectureNumber": 7,
    "prefecture": "福島県",
    "city": "岩瀬郡天栄村",
    "town": "沖内"
  },
  "9620514": {
    "zipcode": "9620514",
    "prefectureCode": "07",
    "prefectureNumber": 7,
    "prefecture": "福島県",
    "city": "岩瀬郡天栄村",
    "town": "柿之内"
  },
  "9620515": {
    "zipcode": "9620515",
    "prefectureCode": "07",
    "prefectureNumber": 7,
    "prefecture": "福島県",
    "city": "岩瀬郡天栄村",
    "town": "高林"
  },
  "9620516": {
    "zipcode": "9620516",
    "prefectureCode": "07",
    "prefectureNumber": 7,
    "prefecture": "福島県",
    "city": "岩瀬郡天栄村",
    "town": "小川"
  },
  "9620621": {
    "zipcode": "9620621",
    "prefectureCode": "07",
    "prefectureNumber": 7,
    "prefecture": "福島県",
    "city": "岩瀬郡天栄村",
    "town": "湯本"
  },
  "9620622": {
    "zipcode": "9620622",
    "prefectureCode": "07",
    "prefectureNumber": 7,
    "prefecture": "福島県",
    "city": "岩瀬郡天栄村",
    "town": "田良尾"
  },
  "9620623": {
    "zipcode": "9620623",
    "prefectureCode": "07",
    "prefectureNumber": 7,
    "prefecture": "福島県",
    "city": "岩瀬郡天栄村",
    "town": "羽鳥"
  },
  "9620711": {
    "zipcode": "9620711",
    "prefectureCode": "07",
    "prefectureNumber": 7,
    "prefecture": "福島県",
    "city": "須賀川市",
    "town": "塩田"
  },
  "9620712": {
    "zipcode": "9620712",
    "prefectureCode": "07",
    "prefectureNumber": 7,
    "prefecture": "福島県",
    "city": "須賀川市",
    "town": "小倉"
  },
  "9620713": {
    "zipcode": "9620713",
    "prefectureCode": "07",
    "prefectureNumber": 7,
    "prefecture": "福島県",
    "city": "須賀川市",
    "town": "上小山田"
  },
  "9620714": {
    "zipcode": "9620714",
    "prefectureCode": "07",
    "prefectureNumber": 7,
    "prefecture": "福島県",
    "city": "須賀川市",
    "town": "下小山田"
  },
  "9620721": {
    "zipcode": "9620721",
    "prefectureCode": "07",
    "prefectureNumber": 7,
    "prefecture": "福島県",
    "city": "須賀川市",
    "town": "雨田"
  },
  "9620722": {
    "zipcode": "9620722",
    "prefectureCode": "07",
    "prefectureNumber": 7,
    "prefecture": "福島県",
    "city": "須賀川市",
    "town": "大栗"
  },
  "9620723": {
    "zipcode": "9620723",
    "prefectureCode": "07",
    "prefectureNumber": 7,
    "prefecture": "福島県",
    "city": "須賀川市",
    "town": "狸森"
  },
  "9620724": {
    "zipcode": "9620724",
    "prefectureCode": "07",
    "prefectureNumber": 7,
    "prefecture": "福島県",
    "city": "須賀川市",
    "town": "田中"
  },
  "9620725": {
    "zipcode": "9620725",
    "prefectureCode": "07",
    "prefectureNumber": 7,
    "prefecture": "福島県",
    "city": "須賀川市",
    "town": "日照田"
  },
  "9620726": {
    "zipcode": "9620726",
    "prefectureCode": "07",
    "prefectureNumber": 7,
    "prefecture": "福島県",
    "city": "須賀川市",
    "town": "市野関"
  },
  "9620727": {
    "zipcode": "9620727",
    "prefectureCode": "07",
    "prefectureNumber": 7,
    "prefecture": "福島県",
    "city": "須賀川市",
    "town": "小作田"
  },
  "9620728": {
    "zipcode": "9620728",
    "prefectureCode": "07",
    "prefectureNumber": 7,
    "prefecture": "福島県",
    "city": "須賀川市",
    "town": "虹の台"
  },
  "9620801": {
    "zipcode": "9620801",
    "prefectureCode": "07",
    "prefectureNumber": 7,
    "prefecture": "福島県",
    "city": "須賀川市",
    "town": "江持"
  },
  "9620802": {
    "zipcode": "9620802",
    "prefectureCode": "07",
    "prefectureNumber": 7,
    "prefecture": "福島県",
    "city": "須賀川市",
    "town": "堤"
  },
  "9620803": {
    "zipcode": "9620803",
    "prefectureCode": "07",
    "prefectureNumber": 7,
    "prefecture": "福島県",
    "city": "須賀川市",
    "town": "古河"
  },
  "9620804": {
    "zipcode": "9620804",
    "prefectureCode": "07",
    "prefectureNumber": 7,
    "prefecture": "福島県",
    "city": "須賀川市",
    "town": "中曽根"
  },
  "9620805": {
    "zipcode": "9620805",
    "prefectureCode": "07",
    "prefectureNumber": 7,
    "prefecture": "福島県",
    "city": "須賀川市",
    "town": "崩免"
  },
  "9620806": {
    "zipcode": "9620806",
    "prefectureCode": "07",
    "prefectureNumber": 7,
    "prefecture": "福島県",
    "city": "須賀川市",
    "town": "下宿前"
  },
  "9620807": {
    "zipcode": "9620807",
    "prefectureCode": "07",
    "prefectureNumber": 7,
    "prefecture": "福島県",
    "city": "須賀川市",
    "town": "境免"
  },
  "9620811": {
    "zipcode": "9620811",
    "prefectureCode": "07",
    "prefectureNumber": 7,
    "prefecture": "福島県",
    "city": "須賀川市",
    "town": "あおば町"
  },
  "9620812": {
    "zipcode": "9620812",
    "prefectureCode": "07",
    "prefectureNumber": 7,
    "prefecture": "福島県",
    "city": "須賀川市",
    "town": "浜尾"
  },
  "9620813": {
    "zipcode": "9620813",
    "prefectureCode": "07",
    "prefectureNumber": 7,
    "prefecture": "福島県",
    "city": "須賀川市",
    "town": "和田"
  },
  "9620814": {
    "zipcode": "9620814",
    "prefectureCode": "07",
    "prefectureNumber": 7,
    "prefecture": "福島県",
    "city": "須賀川市",
    "town": "前田川"
  },
  "9620815": {
    "zipcode": "9620815",
    "prefectureCode": "07",
    "prefectureNumber": 7,
    "prefecture": "福島県",
    "city": "須賀川市",
    "town": "牡丹園"
  },
  "9620816": {
    "zipcode": "9620816",
    "prefectureCode": "07",
    "prefectureNumber": 7,
    "prefecture": "福島県",
    "city": "須賀川市",
    "town": "朝日田"
  },
  "9620817": {
    "zipcode": "9620817",
    "prefectureCode": "07",
    "prefectureNumber": 7,
    "prefecture": "福島県",
    "city": "須賀川市",
    "town": "南上町"
  },
  "9620818": {
    "zipcode": "9620818",
    "prefectureCode": "07",
    "prefectureNumber": 7,
    "prefecture": "福島県",
    "city": "須賀川市",
    "town": "和田道"
  },
  "9620821": {
    "zipcode": "9620821",
    "prefectureCode": "07",
    "prefectureNumber": 7,
    "prefecture": "福島県",
    "city": "須賀川市",
    "town": "桜岡"
  },
  "9620822": {
    "zipcode": "9620822",
    "prefectureCode": "07",
    "prefectureNumber": 7,
    "prefecture": "福島県",
    "city": "須賀川市",
    "town": "東作"
  },
  "9620823": {
    "zipcode": "9620823",
    "prefectureCode": "07",
    "prefectureNumber": 7,
    "prefecture": "福島県",
    "city": "須賀川市",
    "town": "花岡"
  },
  "9620824": {
    "zipcode": "9620824",
    "prefectureCode": "07",
    "prefectureNumber": 7,
    "prefecture": "福島県",
    "city": "須賀川市",
    "town": "新田"
  },
  "9620825": {
    "zipcode": "9620825",
    "prefectureCode": "07",
    "prefectureNumber": 7,
    "prefecture": "福島県",
    "city": "須賀川市",
    "town": "六軒"
  },
  "9620826": {
    "zipcode": "9620826",
    "prefectureCode": "07",
    "prefectureNumber": 7,
    "prefecture": "福島県",
    "city": "須賀川市",
    "town": "広表"
  },
  "9620827": {
    "zipcode": "9620827",
    "prefectureCode": "07",
    "prefectureNumber": 7,
    "prefecture": "福島県",
    "city": "須賀川市",
    "town": "寺田"
  },
  "9620831": {
    "zipcode": "9620831",
    "prefectureCode": "07",
    "prefectureNumber": 7,
    "prefecture": "福島県",
    "city": "須賀川市",
    "town": "八幡町"
  },
  "9620832": {
    "zipcode": "9620832",
    "prefectureCode": "07",
    "prefectureNumber": 7,
    "prefecture": "福島県",
    "city": "須賀川市",
    "town": "本町"
  },
  "9620833": {
    "zipcode": "9620833",
    "prefectureCode": "07",
    "prefectureNumber": 7,
    "prefecture": "福島県",
    "city": "須賀川市",
    "town": "馬町"
  },
  "9620834": {
    "zipcode": "9620834",
    "prefectureCode": "07",
    "prefectureNumber": 7,
    "prefecture": "福島県",
    "city": "須賀川市",
    "town": "旭町"
  },
  "9620835": {
    "zipcode": "9620835",
    "prefectureCode": "07",
    "prefectureNumber": 7,
    "prefecture": "福島県",
    "city": "須賀川市",
    "town": "千日堂"
  },
  "9620836": {
    "zipcode": "9620836",
    "prefectureCode": "07",
    "prefectureNumber": 7,
    "prefecture": "福島県",
    "city": "須賀川市",
    "town": "並木町"
  },
  "9620837": {
    "zipcode": "9620837",
    "prefectureCode": "07",
    "prefectureNumber": 7,
    "prefecture": "福島県",
    "city": "須賀川市",
    "town": "高久田境"
  },
  "9620838": {
    "zipcode": "9620838",
    "prefectureCode": "07",
    "prefectureNumber": 7,
    "prefecture": "福島県",
    "city": "須賀川市",
    "town": "南町"
  },
  "9620839": {
    "zipcode": "9620839",
    "prefectureCode": "07",
    "prefectureNumber": 7,
    "prefecture": "福島県",
    "city": "須賀川市",
    "town": "大町"
  },
  "9620841": {
    "zipcode": "9620841",
    "prefectureCode": "07",
    "prefectureNumber": 7,
    "prefecture": "福島県",
    "city": "須賀川市",
    "town": "上北町"
  },
  "9620842": {
    "zipcode": "9620842",
    "prefectureCode": "07",
    "prefectureNumber": 7,
    "prefecture": "福島県",
    "city": "須賀川市",
    "town": "宮先町"
  },
  "9620843": {
    "zipcode": "9620843",
    "prefectureCode": "07",
    "prefectureNumber": 7,
    "prefecture": "福島県",
    "city": "須賀川市",
    "town": "池上町"
  },
  "9620844": {
    "zipcode": "9620844",
    "prefectureCode": "07",
    "prefectureNumber": 7,
    "prefecture": "福島県",
    "city": "須賀川市",
    "town": "東町"
  },
  "9620845": {
    "zipcode": "9620845",
    "prefectureCode": "07",
    "prefectureNumber": 7,
    "prefecture": "福島県",
    "city": "須賀川市",
    "town": "中町"
  },
  "9620846": {
    "zipcode": "9620846",
    "prefectureCode": "07",
    "prefectureNumber": 7,
    "prefecture": "福島県",
    "city": "須賀川市",
    "town": "加治町"
  },
  "9620847": {
    "zipcode": "9620847",
    "prefectureCode": "07",
    "prefectureNumber": 7,
    "prefecture": "福島県",
    "city": "須賀川市",
    "town": "諏訪町"
  },
  "9620848": {
    "zipcode": "9620848",
    "prefectureCode": "07",
    "prefectureNumber": 7,
    "prefecture": "福島県",
    "city": "須賀川市",
    "town": "弘法坦"
  },
  "9620851": {
    "zipcode": "9620851",
    "prefectureCode": "07",
    "prefectureNumber": 7,
    "prefecture": "福島県",
    "city": "須賀川市",
    "town": "中宿"
  },
  "9620852": {
    "zipcode": "9620852",
    "prefectureCode": "07",
    "prefectureNumber": 7,
    "prefecture": "福島県",
    "city": "須賀川市",
    "town": "仲の町"
  },
  "9620853": {
    "zipcode": "9620853",
    "prefectureCode": "07",
    "prefectureNumber": 7,
    "prefecture": "福島県",
    "city": "須賀川市",
    "town": "前川"
  },
  "9620854": {
    "zipcode": "9620854",
    "prefectureCode": "07",
    "prefectureNumber": 7,
    "prefecture": "福島県",
    "city": "須賀川市",
    "town": "古屋敷"
  },
  "9620855": {
    "zipcode": "9620855",
    "prefectureCode": "07",
    "prefectureNumber": 7,
    "prefecture": "福島県",
    "city": "須賀川市",
    "town": "守谷舘"
  },
  "9620856": {
    "zipcode": "9620856",
    "prefectureCode": "07",
    "prefectureNumber": 7,
    "prefecture": "福島県",
    "city": "須賀川市",
    "town": "北町"
  },
  "9620857": {
    "zipcode": "9620857",
    "prefectureCode": "07",
    "prefectureNumber": 7,
    "prefecture": "福島県",
    "city": "須賀川市",
    "town": "長禄町"
  },
  "9620858": {
    "zipcode": "9620858",
    "prefectureCode": "07",
    "prefectureNumber": 7,
    "prefecture": "福島県",
    "city": "須賀川市",
    "town": "栄町"
  },
  "9620859": {
    "zipcode": "9620859",
    "prefectureCode": "07",
    "prefectureNumber": 7,
    "prefecture": "福島県",
    "city": "須賀川市",
    "town": "塚田"
  },
  "9620861": {
    "zipcode": "9620861",
    "prefectureCode": "07",
    "prefectureNumber": 7,
    "prefecture": "福島県",
    "city": "須賀川市",
    "town": "古舘"
  },
  "9620862": {
    "zipcode": "9620862",
    "prefectureCode": "07",
    "prefectureNumber": 7,
    "prefecture": "福島県",
    "city": "須賀川市",
    "town": "六郎兵衛"
  },
  "9620863": {
    "zipcode": "9620863",
    "prefectureCode": "07",
    "prefectureNumber": 7,
    "prefecture": "福島県",
    "city": "須賀川市",
    "town": "緑町"
  },
  "9620864": {
    "zipcode": "9620864",
    "prefectureCode": "07",
    "prefectureNumber": 7,
    "prefecture": "福島県",
    "city": "須賀川市",
    "town": "北上町"
  },
  "9620865": {
    "zipcode": "9620865",
    "prefectureCode": "07",
    "prefectureNumber": 7,
    "prefecture": "福島県",
    "city": "須賀川市",
    "town": "妙見"
  },
  "9620866": {
    "zipcode": "9620866",
    "prefectureCode": "07",
    "prefectureNumber": 7,
    "prefecture": "福島県",
    "city": "須賀川市",
    "town": "栗谷沢"
  },
  "9620867": {
    "zipcode": "9620867",
    "prefectureCode": "07",
    "prefectureNumber": 7,
    "prefecture": "福島県",
    "city": "須賀川市",
    "town": "愛宕山"
  },
  "9620868": {
    "zipcode": "9620868",
    "prefectureCode": "07",
    "prefectureNumber": 7,
    "prefecture": "福島県",
    "city": "須賀川市",
    "town": "芦田塚"
  }
}
