{
  "9630000": {
    "zipcode": "9630000",
    "prefectureCode": "07",
    "prefectureNumber": 7,
    "prefecture": "福島県",
    "city": "郡山市",
    "town": "以下に掲載がない場合"
  },
  "9630101": {
    "zipcode": "9630101",
    "prefectureCode": "07",
    "prefectureNumber": 7,
    "prefecture": "福島県",
    "city": "郡山市",
    "town": "安積町日出山"
  },
  "9630102": {
    "zipcode": "9630102",
    "prefectureCode": "07",
    "prefectureNumber": 7,
    "prefecture": "福島県",
    "city": "郡山市",
    "town": "安積町笹川"
  },
  "9630103": {
    "zipcode": "9630103",
    "prefectureCode": "07",
    "prefectureNumber": 7,
    "prefecture": "福島県",
    "city": "郡山市",
    "town": "安積町大森町"
  },
  "9630104": {
    "zipcode": "9630104",
    "prefectureCode": "07",
    "prefectureNumber": 7,
    "prefecture": "福島県",
    "city": "郡山市",
    "town": "安積町南長久保"
  },
  "9630105": {
    "zipcode": "9630105",
    "prefectureCode": "07",
    "prefectureNumber": 7,
    "prefecture": "福島県",
    "city": "郡山市",
    "town": "安積町長久保"
  },
  "9630106": {
    "zipcode": "9630106",
    "prefectureCode": "07",
    "prefectureNumber": 7,
    "prefecture": "福島県",
    "city": "郡山市",
    "town": "成山町"
  },
  "9630107": {
    "zipcode": "9630107",
    "prefectureCode": "07",
    "prefectureNumber": 7,
    "prefecture": "福島県",
    "city": "郡山市",
    "town": "安積"
  },
  "9630108": {
    "zipcode": "9630108",
    "prefectureCode": "07",
    "prefectureNumber": 7,
    "prefecture": "福島県",
    "city": "郡山市",
    "town": "笹川"
  },
  "9630109": {
    "zipcode": "9630109",
    "prefectureCode": "07",
    "prefectureNumber": 7,
    "prefecture": "福島県",
    "city": "郡山市",
    "town": "安積町吉田"
  },
  "9630111": {
    "zipcode": "9630111",
    "prefectureCode": "07",
    "prefectureNumber": 7,
    "prefecture": "福島県",
    "city": "郡山市",
    "town": "安積町荒井"
  },
  "9630112": {
    "zipcode": "9630112",
    "prefectureCode": "07",
    "prefectureNumber": 7,
    "prefecture": "福島県",
    "city": "郡山市",
    "town": "安積町成田"
  },
  "9630113": {
    "zipcode": "9630113",
    "prefectureCode": "07",
    "prefectureNumber": 7,
    "prefecture": "福島県",
    "city": "郡山市",
    "town": "安積町牛庭"
  },
  "9630114": {
    "zipcode": "9630114",
    "prefectureCode": "07",
    "prefectureNumber": 7,
    "prefecture": "福島県",
    "city": "郡山市",
    "town": "安積町（柴宮東）"
  },
  "9630115": {
    "zipcode": "9630115",
    "prefectureCode": "07",
    "prefectureNumber": 7,
    "prefecture": "福島県",
    "city": "郡山市",
    "town": "南"
  },
  "9630116": {
    "zipcode": "9630116",
    "prefectureCode": "07",
    "prefectureNumber": 7,
    "prefecture": "福島県",
    "city": "郡山市",
    "town": "安積荒井本町"
  },
  "9630117": {
    "zipcode": "9630117",
    "prefectureCode": "07",
    "prefectureNumber": 7,
    "prefecture": "福島県",
    "city": "郡山市",
    "town": "安積荒井"
  },
  "9630118": {
    "zipcode": "9630118",
    "prefectureCode": "07",
    "prefectureNumber": 7,
    "prefecture": "福島県",
    "city": "郡山市",
    "town": "安積北井"
  },
  "9630119": {
    "zipcode": "9630119",
    "prefectureCode": "07",
    "prefectureNumber": 7,
    "prefecture": "福島県",
    "city": "郡山市",
    "town": "巳六段"
  },
  "9630121": {
    "zipcode": "9630121",
    "prefectureCode": "07",
    "prefectureNumber": 7,
    "prefecture": "福島県",
    "city": "郡山市",
    "town": "三穂田町川田"
  },
  "9630122": {
    "zipcode": "9630122",
    "prefectureCode": "07",
    "prefectureNumber": 7,
    "prefecture": "福島県",
    "city": "郡山市",
    "town": "三穂田町野田"
  },
  "9630123": {
    "zipcode": "9630123",
    "prefectureCode": "07",
    "prefectureNumber": 7,
    "prefecture": "福島県",
    "city": "郡山市",
    "town": "三穂田町鍋山"
  },
  "9630124": {
    "zipcode": "9630124",
    "prefectureCode": "07",
    "prefectureNumber": 7,
    "prefecture": "福島県",
    "city": "郡山市",
    "town": "三穂田町下守屋"
  },
  "9630125": {
    "zipcode": "9630125",
    "prefectureCode": "07",
    "prefectureNumber": 7,
    "prefecture": "福島県",
    "city": "郡山市",
    "town": "三穂田町富岡"
  },
  "9630126": {
    "zipcode": "9630126",
    "prefectureCode": "07",
    "prefectureNumber": 7,
    "prefecture": "福島県",
    "city": "郡山市",
    "town": "三穂田町山口"
  },
  "9630127": {
    "zipcode": "9630127",
    "prefectureCode": "07",
    "prefectureNumber": 7,
    "prefecture": "福島県",
    "city": "郡山市",
    "town": "三穂田町大谷"
  },
  "9630128": {
    "zipcode": "9630128",
    "prefectureCode": "07",
    "prefectureNumber": 7,
    "prefecture": "福島県",
    "city": "郡山市",
    "town": "三穂田町駒屋"
  },
  "9630129": {
    "zipcode": "9630129",
    "prefectureCode": "07",
    "prefectureNumber": 7,
    "prefecture": "福島県",
    "city": "郡山市",
    "town": "三穂田町八幡"
  },
  "9630201": {
    "zipcode": "9630201",
    "prefectureCode": "07",
    "prefectureNumber": 7,
    "prefecture": "福島県",
    "city": "郡山市",
    "town": "大槻町"
  },
  "9630202": {
    "zipcode": "9630202",
    "prefectureCode": "07",
    "prefectureNumber": 7,
    "prefecture": "福島県",
    "city": "郡山市",
    "town": "柏山町"
  },
  "9630203": {
    "zipcode": "9630203",
    "prefectureCode": "07",
    "prefectureNumber": 7,
    "prefecture": "福島県",
    "city": "郡山市",
    "town": "静町"
  },
  "9630204": {
    "zipcode": "9630204",
    "prefectureCode": "07",
    "prefectureNumber": 7,
    "prefecture": "福島県",
    "city": "郡山市",
    "town": "土瓜"
  },
  "9630205": {
    "zipcode": "9630205",
    "prefectureCode": "07",
    "prefectureNumber": 7,
    "prefecture": "福島県",
    "city": "郡山市",
    "town": "堤"
  },
  "9630206": {
    "zipcode": "9630206",
    "prefectureCode": "07",
    "prefectureNumber": 7,
    "prefecture": "福島県",
    "city": "郡山市",
    "town": "中野"
  },
  "9630207": {
    "zipcode": "9630207",
    "prefectureCode": "07",
    "prefectureNumber": 7,
    "prefecture": "福島県",
    "city": "郡山市",
    "town": "鳴神"
  },
  "9630208": {
    "zipcode": "9630208",
    "prefectureCode": "07",
    "prefectureNumber": 7,
    "prefecture": "福島県",
    "city": "郡山市",
    "town": "谷地"
  },
  "9630209": {
    "zipcode": "9630209",
    "prefectureCode": "07",
    "prefectureNumber": 7,
    "prefecture": "福島県",
    "city": "郡山市",
    "town": "御前南"
  },
  "9630211": {
    "zipcode": "9630211",
    "prefectureCode": "07",
    "prefectureNumber": 7,
    "prefecture": "福島県",
    "city": "郡山市",
    "town": "片平町"
  },
  "9630212": {
    "zipcode": "9630212",
    "prefectureCode": "07",
    "prefectureNumber": 7,
    "prefecture": "福島県",
    "city": "郡山市",
    "town": "逢瀬町河内"
  },
  "9630213": {
    "zipcode": "9630213",
    "prefectureCode": "07",
    "prefectureNumber": 7,
    "prefecture": "福島県",
    "city": "郡山市",
    "town": "逢瀬町多田野"
  },
  "9630214": {
    "zipcode": "9630214",
    "prefectureCode": "07",
    "prefectureNumber": 7,
    "prefecture": "福島県",
    "city": "郡山市",
    "town": "逢瀬町夏出"
  },
  "9630215": {
    "zipcode": "9630215",
    "prefectureCode": "07",
    "prefectureNumber": 7,
    "prefecture": "福島県",
    "city": "郡山市",
    "town": "待池台"
  },
  "9630216": {
    "zipcode": "9630216",
    "prefectureCode": "07",
    "prefectureNumber": 7,
    "prefecture": "福島県",
    "city": "郡山市",
    "town": "中ノ目"
  },
  "9630221": {
    "zipcode": "9630221",
    "prefectureCode": "07",
    "prefectureNumber": 7,
    "prefecture": "福島県",
    "city": "郡山市",
    "town": "亀田西"
  },
  "9630231": {
    "zipcode": "9630231",
    "prefectureCode": "07",
    "prefectureNumber": 7,
    "prefecture": "福島県",
    "city": "郡山市",
    "town": "谷地本町"
  },
  "9630232": {
    "zipcode": "9630232",
    "prefectureCode": "07",
    "prefectureNumber": 7,
    "prefecture": "福島県",
    "city": "郡山市",
    "town": "静西"
  },
  "9630531": {
    "zipcode": "9630531",
    "prefectureCode": "07",
    "prefectureNumber": 7,
    "prefecture": "福島県",
    "city": "郡山市",
    "town": "日和田町高倉"
  },
  "9630532": {
    "zipcode": "9630532",
    "prefectureCode": "07",
    "prefectureNumber": 7,
    "prefecture": "福島県",
    "city": "郡山市",
    "town": "日和田町梅沢"
  },
  "9630533": {
    "zipcode": "9630533",
    "prefectureCode": "07",
    "prefectureNumber": 7,
    "prefecture": "福島県",
    "city": "郡山市",
    "town": "日和田町八丁目"
  },
  "9630534": {
    "zipcode": "9630534",
    "prefectureCode": "07",
    "prefectureNumber": 7,
    "prefecture": "福島県",
    "city": "郡山市",
    "town": "日和田町"
  },
  "9630541": {
    "zipcode": "9630541",
    "prefectureCode": "07",
    "prefectureNumber": 7,
    "prefecture": "福島県",
    "city": "郡山市",
    "town": "喜久田町堀之内"
  },
  "9630542": {
    "zipcode": "9630542",
    "prefectureCode": "07",
    "prefectureNumber": 7,
    "prefecture": "福島県",
    "city": "郡山市",
    "town": "喜久田町原"
  },
  "9630543": {
    "zipcode": "9630543",
    "prefectureCode": "07",
    "prefectureNumber": 7,
    "prefecture": "福島県",
    "city": "郡山市",
    "town": "喜久田町前田沢"
  },
  "9630544": {
    "zipcode": "9630544",
    "prefectureCode": "07",
    "prefectureNumber": 7,
    "prefecture": "福島県",
    "city": "郡山市",
    "town": "喜久田町坪沢"
  },
  "9630545": {
    "zipcode": "9630545",
    "prefectureCode": "07",
    "prefectureNumber": 7,
    "prefecture": "福島県",
    "city": "郡山市",
    "town": "喜久田町赤坂"
  },
  "9630546": {
    "zipcode": "9630546",
    "prefectureCode": "07",
    "prefectureNumber": 7,
    "prefecture": "福島県",
    "city": "郡山市",
    "town": "喜久田町早稲原"
  },
  "9630547": {
    "zipcode": "9630547",
    "prefectureCode": "07",
    "prefectureNumber": 7,
    "prefecture": "福島県",
    "city": "郡山市",
    "town": "喜久田町卸"
  },
  "9630551": {
    "zipcode": "9630551",
    "prefectureCode": "07",
    "prefectureNumber": 7,
    "prefecture": "福島県",
    "city": "郡山市",
    "town": "喜久田町"
  },
  "9630552": {
    "zipcode": "9630552",
    "prefectureCode": "07",
    "prefectureNumber": 7,
    "prefecture": "福島県",
    "city": "郡山市",
    "town": "東原"
  },
  "9630661": {
    "zipcode": "9630661",
    "prefectureCode": "07",
    "prefectureNumber": 7,
    "prefecture": "福島県",
    "city": "郡山市",
    "town": "舞木町"
  },
  "9630662": {
    "zipcode": "9630662",
    "prefectureCode": "07",
    "prefectureNumber": 7,
    "prefecture": "福島県",
    "city": "郡山市",
    "town": "白岩町"
  },
  "9630663": {
    "zipcode": "9630663",
    "prefectureCode": "07",
    "prefectureNumber": 7,
    "prefecture": "福島県",
    "city": "郡山市",
    "town": "下白岩町"
  },
  "9630664": {
    "zipcode": "9630664",
    "prefectureCode": "07",
    "prefectureNumber": 7,
    "prefecture": "福島県",
    "city": "郡山市",
    "town": "あぶくま台"
  },
  "9630665": {
    "zipcode": "9630665",
    "prefectureCode": "07",
    "prefectureNumber": 7,
    "prefecture": "福島県",
    "city": "郡山市",
    "town": "横川町"
  },
  "9630666": {
    "zipcode": "9630666",
    "prefectureCode": "07",
    "prefectureNumber": 7,
    "prefecture": "福島県",
    "city": "郡山市",
    "town": "安原町"
  },
  "9630667": {
    "zipcode": "9630667",
    "prefectureCode": "07",
    "prefectureNumber": 7,
    "prefecture": "福島県",
    "city": "郡山市",
    "town": "阿久津町"
  },
  "9630671": {
    "zipcode": "9630671",
    "prefectureCode": "07",
    "prefectureNumber": 7,
    "prefecture": "福島県",
    "city": "郡山市",
    "town": "富久山町南小泉"
  },
  "9630672": {
    "zipcode": "9630672",
    "prefectureCode": "07",
    "prefectureNumber": 7,
    "prefecture": "福島県",
    "city": "郡山市",
    "town": "富久山町北小泉"
  },
  "9630673": {
    "zipcode": "9630673",
    "prefectureCode": "07",
    "prefectureNumber": 7,
    "prefecture": "福島県",
    "city": "郡山市",
    "town": "富久山町堂坂"
  },
  "9630701": {
    "zipcode": "9630701",
    "prefectureCode": "07",
    "prefectureNumber": 7,
    "prefecture": "福島県",
    "city": "郡山市",
    "town": "緑ケ丘西"
  },
  "9630702": {
    "zipcode": "9630702",
    "prefectureCode": "07",
    "prefectureNumber": 7,
    "prefecture": "福島県",
    "city": "郡山市",
    "town": "緑ケ丘東"
  },
  "9630703": {
    "zipcode": "9630703",
    "prefectureCode": "07",
    "prefectureNumber": 7,
    "prefecture": "福島県",
    "city": "郡山市",
    "town": "蒲倉町"
  },
  "9630704": {
    "zipcode": "9630704",
    "prefectureCode": "07",
    "prefectureNumber": 7,
    "prefecture": "福島県",
    "city": "郡山市",
    "town": "荒井町"
  },
  "9630711": {
    "zipcode": "9630711",
    "prefectureCode": "07",
    "prefectureNumber": 7,
    "prefecture": "福島県",
    "city": "郡山市",
    "town": "中田町上石"
  },
  "9630712": {
    "zipcode": "9630712",
    "prefectureCode": "07",
    "prefectureNumber": 7,
    "prefecture": "福島県",
    "city": "郡山市",
    "town": "中田町海老根"
  },
  "9630713": {
    "zipcode": "9630713",
    "prefectureCode": "07",
    "prefectureNumber": 7,
    "prefecture": "福島県",
    "city": "郡山市",
    "town": "中田町高倉"
  },
  "9630714": {
    "zipcode": "9630714",
    "prefectureCode": "07",
    "prefectureNumber": 7,
    "prefecture": "福島県",
    "city": "郡山市",
    "town": "中田町赤沼"
  },
  "9630721": {
    "zipcode": "9630721",
    "prefectureCode": "07",
    "prefectureNumber": 7,
    "prefecture": "福島県",
    "city": "郡山市",
    "town": "田村町手代木"
  },
  "9630722": {
    "zipcode": "9630722",
    "prefectureCode": "07",
    "prefectureNumber": 7,
    "prefecture": "福島県",
    "city": "郡山市",
    "town": "田村町小川"
  },
  "9630723": {
    "zipcode": "9630723",
    "prefectureCode": "07",
    "prefectureNumber": 7,
    "prefecture": "福島県",
    "city": "郡山市",
    "town": "田村町桜ケ丘"
  },
  "9630724": {
    "zipcode": "9630724",
    "prefectureCode": "07",
    "prefectureNumber": 7,
    "prefecture": "福島県",
    "city": "郡山市",
    "town": "田村町上行合"
  },
  "9630725": {
    "zipcode": "9630725",
    "prefectureCode": "07",
    "prefectureNumber": 7,
    "prefecture": "福島県",
    "city": "郡山市",
    "town": "田村町金屋"
  },
  "9630726": {
    "zipcode": "9630726",
    "prefectureCode": "07",
    "prefectureNumber": 7,
    "prefecture": "福島県",
    "city": "郡山市",
    "town": "田村町下行合"
  },
  "9630831": {
    "zipcode": "9630831",
    "prefectureCode": "07",
    "prefectureNumber": 7,
    "prefecture": "福島県",
    "city": "郡山市",
    "town": "中田町柳橋"
  },
  "9630832": {
    "zipcode": "9630832",
    "prefectureCode": "07",
    "prefectureNumber": 7,
    "prefecture": "福島県",
    "city": "郡山市",
    "town": "中田町中津川"
  },
  "9630833": {
    "zipcode": "9630833",
    "prefectureCode": "07",
    "prefectureNumber": 7,
    "prefecture": "福島県",
    "city": "郡山市",
    "town": "中田町下枝"
  },
  "9630834": {
    "zipcode": "9630834",
    "prefectureCode": "07",
    "prefectureNumber": 7,
    "prefecture": "福島県",
    "city": "郡山市",
    "town": "中田町牛縊本郷"
  },
  "9630835": {
    "zipcode": "9630835",
    "prefectureCode": "07",
    "prefectureNumber": 7,
    "prefecture": "福島県",
    "city": "郡山市",
    "town": "中田町黒木"
  },
  "9630836": {
    "zipcode": "9630836",
    "prefectureCode": "07",
    "prefectureNumber": 7,
    "prefecture": "福島県",
    "city": "郡山市",
    "town": "中田町木目沢"
  },
  "9630837": {
    "zipcode": "9630837",
    "prefectureCode": "07",
    "prefectureNumber": 7,
    "prefecture": "福島県",
    "city": "郡山市",
    "town": "中田町駒板"
  },
  "9630901": {
    "zipcode": "9630901",
    "prefectureCode": "07",
    "prefectureNumber": 7,
    "prefecture": "福島県",
    "city": "郡山市",
    "town": "西田町丹伊田"
  },
  "9630902": {
    "zipcode": "9630902",
    "prefectureCode": "07",
    "prefectureNumber": 7,
    "prefecture": "福島県",
    "city": "郡山市",
    "town": "西田町高柴"
  },
  "9630903": {
    "zipcode": "9630903",
    "prefectureCode": "07",
    "prefectureNumber": 7,
    "prefecture": "福島県",
    "city": "郡山市",
    "town": "西田町板橋"
  },
  "9630904": {
    "zipcode": "9630904",
    "prefectureCode": "07",
    "prefectureNumber": 7,
    "prefecture": "福島県",
    "city": "郡山市",
    "town": "西田町土棚"
  },
  "9630911": {
    "zipcode": "9630911",
    "prefectureCode": "07",
    "prefectureNumber": 7,
    "prefecture": "福島県",
    "city": "郡山市",
    "town": "西田町大田"
  },
  "9630912": {
    "zipcode": "9630912",
    "prefectureCode": "07",
    "prefectureNumber": 7,
    "prefecture": "福島県",
    "city": "郡山市",
    "town": "西田町根木屋"
  },
  "9630913": {
    "zipcode": "9630913",
    "prefectureCode": "07",
    "prefectureNumber": 7,
    "prefecture": "福島県",
    "city": "郡山市",
    "town": "西田町芹沢"
  },
  "9630914": {
    "zipcode": "9630914",
    "prefectureCode": "07",
    "prefectureNumber": 7,
    "prefecture": "福島県",
    "city": "郡山市",
    "town": "西田町木村"
  },
  "9630921": {
    "zipcode": "9630921",
    "prefectureCode": "07",
    "prefectureNumber": 7,
    "prefecture": "福島県",
    "city": "郡山市",
    "town": "西田町鬼生田"
  },
  "9630922": {
    "zipcode": "9630922",
    "prefectureCode": "07",
    "prefectureNumber": 7,
    "prefecture": "福島県",
    "city": "郡山市",
    "town": "西田町三町目"
  },
  "9630923": {
    "zipcode": "9630923",
    "prefectureCode": "07",
    "prefectureNumber": 7,
    "prefecture": "福島県",
    "city": "郡山市",
    "town": "西田町黒田"
  },
  "9630924": {
    "zipcode": "9630924",
    "prefectureCode": "07",
    "prefectureNumber": 7,
    "prefecture": "福島県",
    "city": "郡山市",
    "town": "西田町大網"
  },
  "9630925": {
    "zipcode": "9630925",
    "prefectureCode": "07",
    "prefectureNumber": 7,
    "prefecture": "福島県",
    "city": "郡山市",
    "town": "西田町阿広木"
  },
  "9631151": {
    "zipcode": "9631151",
    "prefectureCode": "07",
    "prefectureNumber": 7,
    "prefecture": "福島県",
    "city": "郡山市",
    "town": "田村町金沢"
  },
  "9631152": {
    "zipcode": "9631152",
    "prefectureCode": "07",
    "prefectureNumber": 7,
    "prefecture": "福島県",
    "city": "郡山市",
    "town": "田村町細田"
  },
  "9631153": {
    "zipcode": "9631153",
    "prefectureCode": "07",
    "prefectureNumber": 7,
    "prefecture": "福島県",
    "city": "郡山市",
    "town": "田村町大供"
  },
  "9631154": {
    "zipcode": "9631154",
    "prefectureCode": "07",
    "prefectureNumber": 7,
    "prefecture": "福島県",
    "city": "郡山市",
    "town": "田村町岩作"
  },
  "9631155": {
    "zipcode": "9631155",
    "prefectureCode": "07",
    "prefectureNumber": 7,
    "prefecture": "福島県",
    "city": "郡山市",
    "town": "田村町守山"
  },
  "9631156": {
    "zipcode": "9631156",
    "prefectureCode": "07",
    "prefectureNumber": 7,
    "prefecture": "福島県",
    "city": "郡山市",
    "town": "田村町東山"
  },
  "9631161": {
    "zipcode": "9631161",
    "prefectureCode": "07",
    "prefectureNumber": 7,
    "prefecture": "福島県",
    "city": "郡山市",
    "town": "田村町大善寺"
  },
  "9631162": {
    "zipcode": "9631162",
    "prefectureCode": "07",
    "prefectureNumber": 7,
    "prefecture": "福島県",
    "city": "郡山市",
    "town": "田村町山中"
  },
  "9631163": {
    "zipcode": "9631163",
    "prefectureCode": "07",
    "prefectureNumber": 7,
    "prefecture": "福島県",
    "city": "郡山市",
    "town": "田村町正直"
  },
  "9631164": {
    "zipcode": "9631164",
    "prefectureCode": "07",
    "prefectureNumber": 7,
    "prefecture": "福島県",
    "city": "郡山市",
    "town": "田村町御代田"
  },
  "9631165": {
    "zipcode": "9631165",
    "prefectureCode": "07",
    "prefectureNumber": 7,
    "prefecture": "福島県",
    "city": "郡山市",
    "town": "田村町徳定"
  },
  "9631241": {
    "zipcode": "9631241",
    "prefectureCode": "07",
    "prefectureNumber": 7,
    "prefecture": "福島県",
    "city": "郡山市",
    "town": "田村町川曲"
  },
  "9631242": {
    "zipcode": "9631242",
    "prefectureCode": "07",
    "prefectureNumber": 7,
    "prefecture": "福島県",
    "city": "郡山市",
    "town": "田村町糠塚"
  },
  "9631243": {
    "zipcode": "9631243",
    "prefectureCode": "07",
    "prefectureNumber": 7,
    "prefecture": "福島県",
    "city": "郡山市",
    "town": "田村町田母神"
  },
  "9631244": {
    "zipcode": "9631244",
    "prefectureCode": "07",
    "prefectureNumber": 7,
    "prefecture": "福島県",
    "city": "郡山市",
    "town": "田村町栃本"
  },
  "9631245": {
    "zipcode": "9631245",
    "prefectureCode": "07",
    "prefectureNumber": 7,
    "prefecture": "福島県",
    "city": "郡山市",
    "town": "田村町栃山神"
  },
  "9631246": {
    "zipcode": "9631246",
    "prefectureCode": "07",
    "prefectureNumber": 7,
    "prefecture": "福島県",
    "city": "郡山市",
    "town": "田村町谷田川"
  },
  "9631247": {
    "zipcode": "9631247",
    "prefectureCode": "07",
    "prefectureNumber": 7,
    "prefecture": "福島県",
    "city": "郡山市",
    "town": "田村町下道渡"
  },
  "9631248": {
    "zipcode": "9631248",
    "prefectureCode": "07",
    "prefectureNumber": 7,
    "prefecture": "福島県",
    "city": "郡山市",
    "town": "田村町上道渡"
  },
  "9631301": {
    "zipcode": "9631301",
    "prefectureCode": "07",
    "prefectureNumber": 7,
    "prefecture": "福島県",
    "city": "郡山市",
    "town": "熱海町石筵"
  },
  "9631302": {
    "zipcode": "9631302",
    "prefectureCode": "07",
    "prefectureNumber": 7,
    "prefecture": "福島県",
    "city": "郡山市",
    "town": "熱海町高玉"
  },
  "9631303": {
    "zipcode": "9631303",
    "prefectureCode": "07",
    "prefectureNumber": 7,
    "prefecture": "福島県",
    "city": "郡山市",
    "town": "熱海町玉川"
  },
  "9631304": {
    "zipcode": "9631304",
    "prefectureCode": "07",
    "prefectureNumber": 7,
    "prefecture": "福島県",
    "city": "郡山市",
    "town": "熱海町安子島"
  },
  "9631305": {
    "zipcode": "9631305",
    "prefectureCode": "07",
    "prefectureNumber": 7,
    "prefecture": "福島県",
    "city": "郡山市",
    "town": "熱海町下伊豆島"
  },
  "9631306": {
    "zipcode": "9631306",
    "prefectureCode": "07",
    "prefectureNumber": 7,
    "prefecture": "福島県",
    "city": "郡山市",
    "town": "熱海町上伊豆島"
  },
  "9631307": {
    "zipcode": "9631307",
    "prefectureCode": "07",
    "prefectureNumber": 7,
    "prefecture": "福島県",
    "city": "郡山市",
    "town": "熱海町長橋"
  },
  "9631308": {
    "zipcode": "9631308",
    "prefectureCode": "07",
    "prefectureNumber": 7,
    "prefecture": "福島県",
    "city": "郡山市",
    "town": "熱海町中山"
  },
  "9631309": {
    "zipcode": "9631309",
    "prefectureCode": "07",
    "prefectureNumber": 7,
    "prefecture": "福島県",
    "city": "郡山市",
    "town": "熱海町熱海"
  },
  "9631311": {
    "zipcode": "9631311",
    "prefectureCode": "07",
    "prefectureNumber": 7,
    "prefecture": "福島県",
    "city": "郡山市",
    "town": "上伊豆島"
  },
  "9631411": {
    "zipcode": "9631411",
    "prefectureCode": "07",
    "prefectureNumber": 7,
    "prefecture": "福島県",
    "city": "郡山市",
    "town": "湖南町舟津"
  },
  "9631412": {
    "zipcode": "9631412",
    "prefectureCode": "07",
    "prefectureNumber": 7,
    "prefecture": "福島県",
    "city": "郡山市",
    "town": "湖南町舘"
  },
  "9631413": {
    "zipcode": "9631413",
    "prefectureCode": "07",
    "prefectureNumber": 7,
    "prefecture": "福島県",
    "city": "郡山市",
    "town": "湖南町横沢"
  },
  "9631414": {
    "zipcode": "9631414",
    "prefectureCode": "07",
    "prefectureNumber": 7,
    "prefecture": "福島県",
    "city": "郡山市",
    "town": "湖南町浜路"
  },
  "9631521": {
    "zipcode": "9631521",
    "prefectureCode": "07",
    "prefectureNumber": 7,
    "prefecture": "福島県",
    "city": "郡山市",
    "town": "湖南町中野"
  },
  "9631522": {
    "zipcode": "9631522",
    "prefectureCode": "07",
    "prefectureNumber": 7,
    "prefecture": "福島県",
    "city": "郡山市",
    "town": "湖南町三代"
  },
  "9631631": {
    "zipcode": "9631631",
    "prefectureCode": "07",
    "prefectureNumber": 7,
    "prefecture": "福島県",
    "city": "郡山市",
    "town": "湖南町赤津"
  },
  "9631632": {
    "zipcode": "9631632",
    "prefectureCode": "07",
    "prefectureNumber": 7,
    "prefecture": "福島県",
    "city": "郡山市",
    "town": "湖南町馬入新田"
  },
  "9631633": {
    "zipcode": "9631633",
    "prefectureCode": "07",
    "prefectureNumber": 7,
    "prefecture": "福島県",
    "city": "郡山市",
    "town": "湖南町福良"
  },
  "9633311": {
    "zipcode": "9633311",
    "prefectureCode": "07",
    "prefectureNumber": 7,
    "prefecture": "福島県",
    "city": "田村郡小野町",
    "town": "湯沢"
  },
  "9633312": {
    "zipcode": "9633312",
    "prefectureCode": "07",
    "prefectureNumber": 7,
    "prefecture": "福島県",
    "city": "田村郡小野町",
    "town": "夏井"
  },
  "9633313": {
    "zipcode": "9633313",
    "prefectureCode": "07",
    "prefectureNumber": 7,
    "prefecture": "福島県",
    "city": "田村郡小野町",
    "town": "南田原井"
  },
  "9633314": {
    "zipcode": "9633314",
    "prefectureCode": "07",
    "prefectureNumber": 7,
    "prefecture": "福島県",
    "city": "田村郡小野町",
    "town": "塩庭"
  },
  "9633315": {
    "zipcode": "9633315",
    "prefectureCode": "07",
    "prefectureNumber": 7,
    "prefecture": "福島県",
    "city": "田村郡小野町",
    "town": "和名田"
  },
  "9633316": {
    "zipcode": "9633316",
    "prefectureCode": "07",
    "prefectureNumber": 7,
    "prefecture": "福島県",
    "city": "田村郡小野町",
    "town": "上羽出庭"
  },
  "9633400": {
    "zipcode": "9633400",
    "prefectureCode": "07",
    "prefectureNumber": 7,
    "prefecture": "福島県",
    "city": "田村郡小野町",
    "town": "以下に掲載がない場合"
  },
  "9633401": {
    "zipcode": "9633401",
    "prefectureCode": "07",
    "prefectureNumber": 7,
    "prefecture": "福島県",
    "city": "田村郡小野町",
    "town": "小野新町"
  },
  "9633402": {
    "zipcode": "9633402",
    "prefectureCode": "07",
    "prefectureNumber": 7,
    "prefecture": "福島県",
    "city": "田村郡小野町",
    "town": "谷津作"
  },
  "9633403": {
    "zipcode": "9633403",
    "prefectureCode": "07",
    "prefectureNumber": 7,
    "prefecture": "福島県",
    "city": "田村郡小野町",
    "town": "小野赤沼"
  },
  "9633404": {
    "zipcode": "9633404",
    "prefectureCode": "07",
    "prefectureNumber": 7,
    "prefecture": "福島県",
    "city": "田村郡小野町",
    "town": "菖蒲谷"
  },
  "9633405": {
    "zipcode": "9633405",
    "prefectureCode": "07",
    "prefectureNumber": 7,
    "prefecture": "福島県",
    "city": "田村郡小野町",
    "town": "雁股田"
  },
  "9633406": {
    "zipcode": "9633406",
    "prefectureCode": "07",
    "prefectureNumber": 7,
    "prefecture": "福島県",
    "city": "田村郡小野町",
    "town": "皮籠石"
  },
  "9633521": {
    "zipcode": "9633521",
    "prefectureCode": "07",
    "prefectureNumber": 7,
    "prefecture": "福島県",
    "city": "田村郡小野町",
    "town": "飯豊"
  },
  "9633522": {
    "zipcode": "9633522",
    "prefectureCode": "07",
    "prefectureNumber": 7,
    "prefecture": "福島県",
    "city": "田村郡小野町",
    "town": "小戸神"
  },
  "9633523": {
    "zipcode": "9633523",
    "prefectureCode": "07",
    "prefectureNumber": 7,
    "prefecture": "福島県",
    "city": "田村郡小野町",
    "town": "小野山神"
  },
  "9633524": {
    "zipcode": "9633524",
    "prefectureCode": "07",
    "prefectureNumber": 7,
    "prefecture": "福島県",
    "city": "田村郡小野町",
    "town": "浮金"
  },
  "9633525": {
    "zipcode": "9633525",
    "prefectureCode": "07",
    "prefectureNumber": 7,
    "prefecture": "福島県",
    "city": "田村郡小野町",
    "town": "吉野辺"
  },
  "9633601": {
    "zipcode": "9633601",
    "prefectureCode": "07",
    "prefectureNumber": 7,
    "prefecture": "福島県",
    "city": "田村市",
    "town": "滝根町菅谷"
  },
  "9633602": {
    "zipcode": "9633602",
    "prefectureCode": "07",
    "prefectureNumber": 7,
    "prefecture": "福島県",
    "city": "田村市",
    "town": "滝根町神俣"
  },
  "9633603": {
    "zipcode": "9633603",
    "prefectureCode": "07",
    "prefectureNumber": 7,
    "prefecture": "福島県",
    "city": "田村市",
    "town": "滝根町広瀬"
  },
  "9634111": {
    "zipcode": "9634111",
    "prefectureCode": "07",
    "prefectureNumber": 7,
    "prefecture": "福島県",
    "city": "田村市",
    "town": "大越町上大越"
  },
  "9634112": {
    "zipcode": "9634112",
    "prefectureCode": "07",
    "prefectureNumber": 7,
    "prefecture": "福島県",
    "city": "田村市",
    "town": "大越町下大越"
  },
  "9634113": {
    "zipcode": "9634113",
    "prefectureCode": "07",
    "prefectureNumber": 7,
    "prefecture": "福島県",
    "city": "田村市",
    "town": "大越町早稲川"
  },
  "9634114": {
    "zipcode": "9634114",
    "prefectureCode": "07",
    "prefectureNumber": 7,
    "prefecture": "福島県",
    "city": "田村市",
    "town": "大越町牧野"
  },
  "9634115": {
    "zipcode": "9634115",
    "prefectureCode": "07",
    "prefectureNumber": 7,
    "prefecture": "福島県",
    "city": "田村市",
    "town": "大越町栗出"
  },
  "9634201": {
    "zipcode": "9634201",
    "prefectureCode": "07",
    "prefectureNumber": 7,
    "prefecture": "福島県",
    "city": "田村市",
    "town": "船引町永谷"
  },
  "9634202": {
    "zipcode": "9634202",
    "prefectureCode": "07",
    "prefectureNumber": 7,
    "prefecture": "福島県",
    "city": "田村市",
    "town": "船引町椚山"
  },
  "9634203": {
    "zipcode": "9634203",
    "prefectureCode": "07",
    "prefectureNumber": 7,
    "prefecture": "福島県",
    "city": "田村市",
    "town": "船引町門沢"
  },
  "9634204": {
    "zipcode": "9634204",
    "prefectureCode": "07",
    "prefectureNumber": 7,
    "prefecture": "福島県",
    "city": "田村市",
    "town": "船引町堀越"
  },
  "9634205": {
    "zipcode": "9634205",
    "prefectureCode": "07",
    "prefectureNumber": 7,
    "prefecture": "福島県",
    "city": "田村市",
    "town": "船引町遠山沢"
  },
  "9634300": {
    "zipcode": "9634300",
    "prefectureCode": "07",
    "prefectureNumber": 7,
    "prefecture": "福島県",
    "city": "田村市",
    "town": "以下に掲載がない場合"
  },
  "9634311": {
    "zipcode": "9634311",
    "prefectureCode": "07",
    "prefectureNumber": 7,
    "prefecture": "福島県",
    "city": "田村市",
    "town": "船引町今泉"
  },
  "9634312": {
    "zipcode": "9634312",
    "prefectureCode": "07",
    "prefectureNumber": 7,
    "prefecture": "福島県",
    "city": "田村市",
    "town": "船引町船引"
  },
  "9634313": {
    "zipcode": "9634313",
    "prefectureCode": "07",
    "prefectureNumber": 7,
    "prefecture": "福島県",
    "city": "田村市",
    "town": "船引町石森"
  },
  "9634314": {
    "zipcode": "9634314",
    "prefectureCode": "07",
    "prefectureNumber": 7,
    "prefecture": "福島県",
    "city": "田村市",
    "town": "船引町文珠"
  },
  "9634315": {
    "zipcode": "9634315",
    "prefectureCode": "07",
    "prefectureNumber": 7,
    "prefecture": "福島県",
    "city": "田村市",
    "town": "船引町春山"
  },
  "9634316": {
    "zipcode": "9634316",
    "prefectureCode": "07",
    "prefectureNumber": 7,
    "prefecture": "福島県",
    "city": "田村市",
    "town": "船引町芦沢"
  },
  "9634317": {
    "zipcode": "9634317",
    "prefectureCode": "07",
    "prefectureNumber": 7,
    "prefecture": "福島県",
    "city": "田村市",
    "town": "船引町東部台"
  },
  "9634318": {
    "zipcode": "9634318",
    "prefectureCode": "07",
    "prefectureNumber": 7,
    "prefecture": "福島県",
    "city": "田村市",
    "town": "船引町光陽台"
  },
  "9634321": {
    "zipcode": "9634321",
    "prefectureCode": "07",
    "prefectureNumber": 7,
    "prefecture": "福島県",
    "city": "田村市",
    "town": "船引町笹山"
  },
  "9634322": {
    "zipcode": "9634322",
    "prefectureCode": "07",
    "prefectureNumber": 7,
    "prefecture": "福島県",
    "city": "田村市",
    "town": "船引町荒和田"
  },
  "9634323": {
    "zipcode": "9634323",
    "prefectureCode": "07",
    "prefectureNumber": 7,
    "prefecture": "福島県",
    "city": "田村市",
    "town": "船引町要田"
  },
  "9634324": {
    "zipcode": "9634324",
    "prefectureCode": "07",
    "prefectureNumber": 7,
    "prefecture": "福島県",
    "city": "田村市",
    "town": "船引町成田"
  },
  "9634431": {
    "zipcode": "9634431",
    "prefectureCode": "07",
    "prefectureNumber": 7,
    "prefecture": "福島県",
    "city": "田村市",
    "town": "船引町石沢"
  },
  "9634432": {
    "zipcode": "9634432",
    "prefectureCode": "07",
    "prefectureNumber": 7,
    "prefecture": "福島県",
    "city": "田村市",
    "town": "船引町長外路"
  },
  "9634433": {
    "zipcode": "9634433",
    "prefectureCode": "07",
    "prefectureNumber": 7,
    "prefecture": "福島県",
    "city": "田村市",
    "town": "船引町北鹿又"
  },
  "9634434": {
    "zipcode": "9634434",
    "prefectureCode": "07",
    "prefectureNumber": 7,
    "prefecture": "福島県",
    "city": "田村市",
    "town": "船引町門鹿"
  },
  "9634435": {
    "zipcode": "9634435",
    "prefectureCode": "07",
    "prefectureNumber": 7,
    "prefecture": "福島県",
    "city": "田村市",
    "town": "船引町大倉"
  },
  "9634436": {
    "zipcode": "9634436",
    "prefectureCode": "07",
    "prefectureNumber": 7,
    "prefecture": "福島県",
    "city": "田村市",
    "town": "船引町新舘"
  },
  "9634541": {
    "zipcode": "9634541",
    "prefectureCode": "07",
    "prefectureNumber": 7,
    "prefecture": "福島県",
    "city": "田村市",
    "town": "船引町上移"
  },
  "9634542": {
    "zipcode": "9634542",
    "prefectureCode": "07",
    "prefectureNumber": 7,
    "prefecture": "福島県",
    "city": "田村市",
    "town": "船引町横道"
  },
  "9634543": {
    "zipcode": "9634543",
    "prefectureCode": "07",
    "prefectureNumber": 7,
    "prefecture": "福島県",
    "city": "田村市",
    "town": "船引町中山"
  },
  "9634544": {
    "zipcode": "9634544",
    "prefectureCode": "07",
    "prefectureNumber": 7,
    "prefecture": "福島県",
    "city": "田村市",
    "town": "船引町南移"
  },
  "9634545": {
    "zipcode": "9634545",
    "prefectureCode": "07",
    "prefectureNumber": 7,
    "prefecture": "福島県",
    "city": "田村市",
    "town": "船引町北移"
  },
  "9634601": {
    "zipcode": "9634601",
    "prefectureCode": "07",
    "prefectureNumber": 7,
    "prefecture": "福島県",
    "city": "田村市",
    "town": "常葉町山根"
  },
  "9634602": {
    "zipcode": "9634602",
    "prefectureCode": "07",
    "prefectureNumber": 7,
    "prefecture": "福島県",
    "city": "田村市",
    "town": "常葉町常葉"
  },
  "9634603": {
    "zipcode": "9634603",
    "prefectureCode": "07",
    "prefectureNumber": 7,
    "prefecture": "福島県",
    "city": "田村市",
    "town": "常葉町西向"
  },
  "9634604": {
    "zipcode": "9634604",
    "prefectureCode": "07",
    "prefectureNumber": 7,
    "prefecture": "福島県",
    "city": "田村市",
    "town": "常葉町鹿山"
  },
  "9634605": {
    "zipcode": "9634605",
    "prefectureCode": "07",
    "prefectureNumber": 7,
    "prefecture": "福島県",
    "city": "田村市",
    "town": "常葉町久保"
  },
  "9634606": {
    "zipcode": "9634606",
    "prefectureCode": "07",
    "prefectureNumber": 7,
    "prefecture": "福島県",
    "city": "田村市",
    "town": "常葉町新田作"
  },
  "9634611": {
    "zipcode": "9634611",
    "prefectureCode": "07",
    "prefectureNumber": 7,
    "prefecture": "福島県",
    "city": "田村市",
    "town": "常葉町堀田"
  },
  "9634612": {
    "zipcode": "9634612",
    "prefectureCode": "07",
    "prefectureNumber": 7,
    "prefecture": "福島県",
    "city": "田村市",
    "town": "常葉町早稲川"
  },
  "9634613": {
    "zipcode": "9634613",
    "prefectureCode": "07",
    "prefectureNumber": 7,
    "prefecture": "福島県",
    "city": "田村市",
    "town": "常葉町関本"
  },
  "9634614": {
    "zipcode": "9634614",
    "prefectureCode": "07",
    "prefectureNumber": 7,
    "prefecture": "福島県",
    "city": "田村市",
    "town": "常葉町小桧山"
  },
  "9634701": {
    "zipcode": "9634701",
    "prefectureCode": "07",
    "prefectureNumber": 7,
    "prefecture": "福島県",
    "city": "田村市",
    "town": "都路町古道"
  },
  "9634702": {
    "zipcode": "9634702",
    "prefectureCode": "07",
    "prefectureNumber": 7,
    "prefecture": "福島県",
    "city": "田村市",
    "town": "都路町岩井沢"
  },
  "9635100": {
    "zipcode": "9635100",
    "prefectureCode": "07",
    "prefectureNumber": 7,
    "prefecture": "福島県",
    "city": "東白川郡矢祭町",
    "town": "以下に掲載がない場合"
  },
  "9635111": {
    "zipcode": "9635111",
    "prefectureCode": "07",
    "prefectureNumber": 7,
    "prefecture": "福島県",
    "city": "東白川郡矢祭町",
    "town": "金沢"
  },
  "9635112": {
    "zipcode": "9635112",
    "prefectureCode": "07",
    "prefectureNumber": 7,
    "prefecture": "福島県",
    "city": "東白川郡矢祭町",
    "town": "宝坂"
  },
  "9635113": {
    "zipcode": "9635113",
    "prefectureCode": "07",
    "prefectureNumber": 7,
    "prefecture": "福島県",
    "city": "東白川郡矢祭町",
    "town": "下関河内"
  },
  "9635114": {
    "zipcode": "9635114",
    "prefectureCode": "07",
    "prefectureNumber": 7,
    "prefecture": "福島県",
    "city": "東白川郡矢祭町",
    "town": "大ぬかり"
  },
  "9635115": {
    "zipcode": "9635115",
    "prefectureCode": "07",
    "prefectureNumber": 7,
    "prefecture": "福島県",
    "city": "東白川郡矢祭町",
    "town": "上関河内"
  },
  "9635116": {
    "zipcode": "9635116",
    "prefectureCode": "07",
    "prefectureNumber": 7,
    "prefecture": "福島県",
    "city": "東白川郡矢祭町",
    "town": "高野"
  },
  "9635117": {
    "zipcode": "9635117",
    "prefectureCode": "07",
    "prefectureNumber": 7,
    "prefecture": "福島県",
    "city": "東白川郡矢祭町",
    "town": "山下"
  },
  "9635118": {
    "zipcode": "9635118",
    "prefectureCode": "07",
    "prefectureNumber": 7,
    "prefecture": "福島県",
    "city": "東白川郡矢祭町",
    "town": "東舘"
  },
  "9635119": {
    "zipcode": "9635119",
    "prefectureCode": "07",
    "prefectureNumber": 7,
    "prefecture": "福島県",
    "city": "東白川郡矢祭町",
    "town": "小田川"
  },
  "9635201": {
    "zipcode": "9635201",
    "prefectureCode": "07",
    "prefectureNumber": 7,
    "prefecture": "福島県",
    "city": "東白川郡矢祭町",
    "town": "中石井"
  },
  "9635202": {
    "zipcode": "9635202",
    "prefectureCode": "07",
    "prefectureNumber": 7,
    "prefecture": "福島県",
    "city": "東白川郡矢祭町",
    "town": "下石井"
  },
  "9635203": {
    "zipcode": "9635203",
    "prefectureCode": "07",
    "prefectureNumber": 7,
    "prefecture": "福島県",
    "city": "東白川郡矢祭町",
    "town": "戸塚"
  },
  "9635321": {
    "zipcode": "9635321",
    "prefectureCode": "07",
    "prefectureNumber": 7,
    "prefecture": "福島県",
    "city": "東白川郡矢祭町",
    "town": "関岡"
  },
  "9635322": {
    "zipcode": "9635322",
    "prefectureCode": "07",
    "prefectureNumber": 7,
    "prefecture": "福島県",
    "city": "東白川郡矢祭町",
    "town": "内川"
  },
  "9635323": {
    "zipcode": "9635323",
    "prefectureCode": "07",
    "prefectureNumber": 7,
    "prefecture": "福島県",
    "city": "東白川郡矢祭町",
    "town": "茗荷"
  },
  "9635341": {
    "zipcode": "9635341",
    "prefectureCode": "07",
    "prefectureNumber": 7,
    "prefecture": "福島県",
    "city": "東白川郡塙町",
    "town": "台宿"
  },
  "9635342": {
    "zipcode": "9635342",
    "prefectureCode": "07",
    "prefectureNumber": 7,
    "prefecture": "福島県",
    "city": "東白川郡塙町",
    "town": "伊香"
  },
  "9635343": {
    "zipcode": "9635343",
    "prefectureCode": "07",
    "prefectureNumber": 7,
    "prefecture": "福島県",
    "city": "東白川郡塙町",
    "town": "植田"
  },
  "9635344": {
    "zipcode": "9635344",
    "prefectureCode": "07",
    "prefectureNumber": 7,
    "prefecture": "福島県",
    "city": "東白川郡塙町",
    "town": "真名畑"
  },
  "9635400": {
    "zipcode": "9635400",
    "prefectureCode": "07",
    "prefectureNumber": 7,
    "prefecture": "福島県",
    "city": "東白川郡塙町",
    "town": "以下に掲載がない場合"
  },
  "9635401": {
    "zipcode": "9635401",
    "prefectureCode": "07",
    "prefectureNumber": 7,
    "prefecture": "福島県",
    "city": "東白川郡塙町",
    "town": "東河内"
  },
  "9635402": {
    "zipcode": "9635402",
    "prefectureCode": "07",
    "prefectureNumber": 7,
    "prefecture": "福島県",
    "city": "東白川郡塙町",
    "town": "常世北野"
  },
  "9635403": {
    "zipcode": "9635403",
    "prefectureCode": "07",
    "prefectureNumber": 7,
    "prefecture": "福島県",
    "city": "東白川郡塙町",
    "town": "常世中野"
  },
  "9635404": {
    "zipcode": "9635404",
    "prefectureCode": "07",
    "prefectureNumber": 7,
    "prefecture": "福島県",
    "city": "東白川郡塙町",
    "town": "竹之内"
  },
  "9635405": {
    "zipcode": "9635405",
    "prefectureCode": "07",
    "prefectureNumber": 7,
    "prefecture": "福島県",
    "city": "東白川郡塙町",
    "town": "塙"
  },
  "9635406": {
    "zipcode": "9635406",
    "prefectureCode": "07",
    "prefectureNumber": 7,
    "prefecture": "福島県",
    "city": "東白川郡塙町",
    "town": "上渋井"
  },
  "9635407": {
    "zipcode": "9635407",
    "prefectureCode": "07",
    "prefectureNumber": 7,
    "prefecture": "福島県",
    "city": "東白川郡塙町",
    "town": "西河内"
  },
  "9635408": {
    "zipcode": "9635408",
    "prefectureCode": "07",
    "prefectureNumber": 7,
    "prefecture": "福島県",
    "city": "東白川郡塙町",
    "town": "堀越"
  },
  "9635411": {
    "zipcode": "9635411",
    "prefectureCode": "07",
    "prefectureNumber": 7,
    "prefecture": "福島県",
    "city": "東白川郡塙町",
    "town": "上石井"
  },
  "9635505": {
    "zipcode": "9635505",
    "prefectureCode": "07",
    "prefectureNumber": 7,
    "prefecture": "福島県",
    "city": "東白川郡鮫川村",
    "town": "渡瀬（越虫６８）"
  },
  "9635521": {
    "zipcode": "9635521",
    "prefectureCode": "07",
    "prefectureNumber": 7,
    "prefecture": "福島県",
    "city": "東白川郡塙町",
    "town": "那倉"
  },
  "9635522": {
    "zipcode": "9635522",
    "prefectureCode": "07",
    "prefectureNumber": 7,
    "prefecture": "福島県",
    "city": "東白川郡塙町",
    "town": "片貝"
  },
  "9635531": {
    "zipcode": "9635531",
    "prefectureCode": "07",
    "prefectureNumber": 7,
    "prefecture": "福島県",
    "city": "東白川郡塙町",
    "town": "田代"
  },
  "9635532": {
    "zipcode": "9635532",
    "prefectureCode": "07",
    "prefectureNumber": 7,
    "prefecture": "福島県",
    "city": "東白川郡塙町",
    "town": "大蕨"
  },
  "9635533": {
    "zipcode": "9635533",
    "prefectureCode": "07",
    "prefectureNumber": 7,
    "prefecture": "福島県",
    "city": "東白川郡塙町",
    "town": "湯岐"
  },
  "9635534": {
    "zipcode": "9635534",
    "prefectureCode": "07",
    "prefectureNumber": 7,
    "prefecture": "福島県",
    "city": "東白川郡塙町",
    "town": "木野反"
  },
  "9635535": {
    "zipcode": "9635535",
    "prefectureCode": "07",
    "prefectureNumber": 7,
    "prefecture": "福島県",
    "city": "東白川郡塙町",
    "town": "山形"
  },
  "9635536": {
    "zipcode": "9635536",
    "prefectureCode": "07",
    "prefectureNumber": 7,
    "prefecture": "福島県",
    "city": "東白川郡塙町",
    "town": "川上"
  },
  "9635537": {
    "zipcode": "9635537",
    "prefectureCode": "07",
    "prefectureNumber": 7,
    "prefecture": "福島県",
    "city": "東白川郡塙町",
    "town": "板庭"
  },
  "9635538": {
    "zipcode": "9635538",
    "prefectureCode": "07",
    "prefectureNumber": 7,
    "prefecture": "福島県",
    "city": "東白川郡塙町",
    "town": "中塚"
  },
  "9635539": {
    "zipcode": "9635539",
    "prefectureCode": "07",
    "prefectureNumber": 7,
    "prefecture": "福島県",
    "city": "東白川郡塙町",
    "town": "田野作"
  },
  "9635661": {
    "zipcode": "9635661",
    "prefectureCode": "07",
    "prefectureNumber": 7,
    "prefecture": "福島県",
    "city": "東白川郡棚倉町",
    "town": "山田"
  },
  "9635662": {
    "zipcode": "9635662",
    "prefectureCode": "07",
    "prefectureNumber": 7,
    "prefecture": "福島県",
    "city": "東白川郡棚倉町",
    "town": "岡田"
  },
  "9635663": {
    "zipcode": "9635663",
    "prefectureCode": "07",
    "prefectureNumber": 7,
    "prefecture": "福島県",
    "city": "東白川郡棚倉町",
    "town": "流"
  },
  "9635664": {
    "zipcode": "9635664",
    "prefectureCode": "07",
    "prefectureNumber": 7,
    "prefecture": "福島県",
    "city": "東白川郡棚倉町",
    "town": "塚原"
  },
  "9635671": {
    "zipcode": "9635671",
    "prefectureCode": "07",
    "prefectureNumber": 7,
    "prefecture": "福島県",
    "city": "東白川郡棚倉町",
    "town": "寺山"
  },
  "9635672": {
    "zipcode": "9635672",
    "prefectureCode": "07",
    "prefectureNumber": 7,
    "prefecture": "福島県",
    "city": "東白川郡棚倉町",
    "town": "八槻"
  },
  "9635681": {
    "zipcode": "9635681",
    "prefectureCode": "07",
    "prefectureNumber": 7,
    "prefecture": "福島県",
    "city": "東白川郡棚倉町",
    "town": "上手沢"
  },
  "9635682": {
    "zipcode": "9635682",
    "prefectureCode": "07",
    "prefectureNumber": 7,
    "prefecture": "福島県",
    "city": "東白川郡棚倉町",
    "town": "下手沢"
  },
  "9635683": {
    "zipcode": "9635683",
    "prefectureCode": "07",
    "prefectureNumber": 7,
    "prefecture": "福島県",
    "city": "東白川郡棚倉町",
    "town": "下山本"
  },
  "9635684": {
    "zipcode": "9635684",
    "prefectureCode": "07",
    "prefectureNumber": 7,
    "prefecture": "福島県",
    "city": "東白川郡棚倉町",
    "town": "中山本"
  },
  "9635685": {
    "zipcode": "9635685",
    "prefectureCode": "07",
    "prefectureNumber": 7,
    "prefecture": "福島県",
    "city": "東白川郡棚倉町",
    "town": "北山本"
  },
  "9636100": {
    "zipcode": "9636100",
    "prefectureCode": "07",
    "prefectureNumber": 7,
    "prefecture": "福島県",
    "city": "東白川郡棚倉町",
    "town": "以下に掲載がない場合"
  },
  "9636101": {
    "zipcode": "9636101",
    "prefectureCode": "07",
    "prefectureNumber": 7,
    "prefecture": "福島県",
    "city": "東白川郡棚倉町",
    "town": "堤"
  },
  "9636102": {
    "zipcode": "9636102",
    "prefectureCode": "07",
    "prefectureNumber": 7,
    "prefecture": "福島県",
    "city": "東白川郡棚倉町",
    "town": "天王内"
  },
  "9636103": {
    "zipcode": "9636103",
    "prefectureCode": "07",
    "prefectureNumber": 7,
    "prefecture": "福島県",
    "city": "東白川郡棚倉町",
    "town": "逆川"
  },
  "9636104": {
    "zipcode": "9636104",
    "prefectureCode": "07",
    "prefectureNumber": 7,
    "prefecture": "福島県",
    "city": "東白川郡棚倉町",
    "town": "檜木"
  },
  "9636105": {
    "zipcode": "9636105",
    "prefectureCode": "07",
    "prefectureNumber": 7,
    "prefecture": "福島県",
    "city": "東白川郡棚倉町",
    "town": "小菅生"
  },
  "9636106": {
    "zipcode": "9636106",
    "prefectureCode": "07",
    "prefectureNumber": 7,
    "prefecture": "福島県",
    "city": "東白川郡棚倉町",
    "town": "金沢内"
  },
  "9636111": {
    "zipcode": "9636111",
    "prefectureCode": "07",
    "prefectureNumber": 7,
    "prefecture": "福島県",
    "city": "東白川郡棚倉町",
    "town": "一色"
  },
  "9636112": {
    "zipcode": "9636112",
    "prefectureCode": "07",
    "prefectureNumber": 7,
    "prefecture": "福島県",
    "city": "東白川郡棚倉町",
    "town": "玉野"
  },
  "9636113": {
    "zipcode": "9636113",
    "prefectureCode": "07",
    "prefectureNumber": 7,
    "prefecture": "福島県",
    "city": "東白川郡棚倉町",
    "town": "板橋"
  },
  "9636114": {
    "zipcode": "9636114",
    "prefectureCode": "07",
    "prefectureNumber": 7,
    "prefecture": "福島県",
    "city": "東白川郡棚倉町",
    "town": "上台"
  },
  "9636115": {
    "zipcode": "9636115",
    "prefectureCode": "07",
    "prefectureNumber": 7,
    "prefecture": "福島県",
    "city": "東白川郡棚倉町",
    "town": "福井"
  },
  "9636121": {
    "zipcode": "9636121",
    "prefectureCode": "07",
    "prefectureNumber": 7,
    "prefecture": "福島県",
    "city": "東白川郡棚倉町",
    "town": "花園"
  },
  "9636122": {
    "zipcode": "9636122",
    "prefectureCode": "07",
    "prefectureNumber": 7,
    "prefecture": "福島県",
    "city": "東白川郡棚倉町",
    "town": "仁公儀"
  },
  "9636123": {
    "zipcode": "9636123",
    "prefectureCode": "07",
    "prefectureNumber": 7,
    "prefecture": "福島県",
    "city": "東白川郡棚倉町",
    "town": "関口"
  },
  "9636131": {
    "zipcode": "9636131",
    "prefectureCode": "07",
    "prefectureNumber": 7,
    "prefecture": "福島県",
    "city": "東白川郡棚倉町",
    "town": "棚倉"
  },
  "9636141": {
    "zipcode": "9636141",
    "prefectureCode": "07",
    "prefectureNumber": 7,
    "prefecture": "福島県",
    "city": "東白川郡棚倉町",
    "town": "富岡"
  },
  "9636142": {
    "zipcode": "9636142",
    "prefectureCode": "07",
    "prefectureNumber": 7,
    "prefecture": "福島県",
    "city": "東白川郡棚倉町",
    "town": "山際"
  },
  "9636143": {
    "zipcode": "9636143",
    "prefectureCode": "07",
    "prefectureNumber": 7,
    "prefecture": "福島県",
    "city": "東白川郡棚倉町",
    "town": "福岡"
  },
  "9636144": {
    "zipcode": "9636144",
    "prefectureCode": "07",
    "prefectureNumber": 7,
    "prefecture": "福島県",
    "city": "東白川郡棚倉町",
    "town": "強梨"
  },
  "9636145": {
    "zipcode": "9636145",
    "prefectureCode": "07",
    "prefectureNumber": 7,
    "prefecture": "福島県",
    "city": "東白川郡棚倉町",
    "town": "大梅"
  },
  "9636146": {
    "zipcode": "9636146",
    "prefectureCode": "07",
    "prefectureNumber": 7,
    "prefecture": "福島県",
    "city": "東白川郡棚倉町",
    "town": "戸中"
  },
  "9636147": {
    "zipcode": "9636147",
    "prefectureCode": "07",
    "prefectureNumber": 7,
    "prefecture": "福島県",
    "city": "東白川郡棚倉町",
    "town": "漆草"
  },
  "9636151": {
    "zipcode": "9636151",
    "prefectureCode": "07",
    "prefectureNumber": 7,
    "prefecture": "福島県",
    "city": "東白川郡棚倉町",
    "town": "祝部内"
  },
  "9636152": {
    "zipcode": "9636152",
    "prefectureCode": "07",
    "prefectureNumber": 7,
    "prefecture": "福島県",
    "city": "東白川郡棚倉町",
    "town": "小爪"
  },
  "9636153": {
    "zipcode": "9636153",
    "prefectureCode": "07",
    "prefectureNumber": 7,
    "prefecture": "福島県",
    "city": "東白川郡棚倉町",
    "town": "瀬ケ野"
  },
  "9636200": {
    "zipcode": "9636200",
    "prefectureCode": "07",
    "prefectureNumber": 7,
    "prefecture": "福島県",
    "city": "石川郡浅川町",
    "town": "以下に掲載がない場合"
  },
  "9636201": {
    "zipcode": "9636201",
    "prefectureCode": "07",
    "prefectureNumber": 7,
    "prefecture": "福島県",
    "city": "石川郡浅川町",
    "town": "福貴作"
  },
  "9636202": {
    "zipcode": "9636202",
    "prefectureCode": "07",
    "prefectureNumber": 7,
    "prefecture": "福島県",
    "city": "石川郡浅川町",
    "town": "里白石"
  },
  "9636203": {
    "zipcode": "9636203",
    "prefectureCode": "07",
    "prefectureNumber": 7,
    "prefecture": "福島県",
    "city": "石川郡浅川町",
    "town": "山白石"
  },
  "9636204": {
    "zipcode": "9636204",
    "prefectureCode": "07",
    "prefectureNumber": 7,
    "prefecture": "福島県",
    "city": "石川郡浅川町",
    "town": "浅川"
  },
  "9636205": {
    "zipcode": "9636205",
    "prefectureCode": "07",
    "prefectureNumber": 7,
    "prefecture": "福島県",
    "city": "石川郡浅川町",
    "town": "滝輪"
  },
  "9636206": {
    "zipcode": "9636206",
    "prefectureCode": "07",
    "prefectureNumber": 7,
    "prefecture": "福島県",
    "city": "石川郡浅川町",
    "town": "太田輪"
  },
  "9636207": {
    "zipcode": "9636207",
    "prefectureCode": "07",
    "prefectureNumber": 7,
    "prefecture": "福島県",
    "city": "石川郡浅川町",
    "town": "小貫"
  },
  "9636208": {
    "zipcode": "9636208",
    "prefectureCode": "07",
    "prefectureNumber": 7,
    "prefecture": "福島県",
    "city": "石川郡浅川町",
    "town": "染"
  },
  "9636211": {
    "zipcode": "9636211",
    "prefectureCode": "07",
    "prefectureNumber": 7,
    "prefecture": "福島県",
    "city": "石川郡浅川町",
    "town": "畑田"
  },
  "9636212": {
    "zipcode": "9636212",
    "prefectureCode": "07",
    "prefectureNumber": 7,
    "prefecture": "福島県",
    "city": "石川郡浅川町",
    "town": "松野入"
  },
  "9636213": {
    "zipcode": "9636213",
    "prefectureCode": "07",
    "prefectureNumber": 7,
    "prefecture": "福島県",
    "city": "石川郡浅川町",
    "town": "中里"
  },
  "9636214": {
    "zipcode": "9636214",
    "prefectureCode": "07",
    "prefectureNumber": 7,
    "prefecture": "福島県",
    "city": "石川郡浅川町",
    "town": "大草"
  },
  "9636215": {
    "zipcode": "9636215",
    "prefectureCode": "07",
    "prefectureNumber": 7,
    "prefecture": "福島県",
    "city": "石川郡浅川町",
    "town": "根岸"
  },
  "9636216": {
    "zipcode": "9636216",
    "prefectureCode": "07",
    "prefectureNumber": 7,
    "prefecture": "福島県",
    "city": "石川郡浅川町",
    "town": "袖山"
  },
  "9636217": {
    "zipcode": "9636217",
    "prefectureCode": "07",
    "prefectureNumber": 7,
    "prefecture": "福島県",
    "city": "石川郡浅川町",
    "town": "簑輪"
  },
  "9636218": {
    "zipcode": "9636218",
    "prefectureCode": "07",
    "prefectureNumber": 7,
    "prefecture": "福島県",
    "city": "石川郡浅川町",
    "town": "東大畑"
  },
  "9636300": {
    "zipcode": "9636300",
    "prefectureCode": "07",
    "prefectureNumber": 7,
    "prefecture": "福島県",
    "city": "石川郡玉川村",
    "town": "以下に掲載がない場合"
  },
  "9636301": {
    "zipcode": "9636301",
    "prefectureCode": "07",
    "prefectureNumber": 7,
    "prefecture": "福島県",
    "city": "石川郡玉川村",
    "town": "四辻新田"
  },
  "9636302": {
    "zipcode": "9636302",
    "prefectureCode": "07",
    "prefectureNumber": 7,
    "prefecture": "福島県",
    "city": "石川郡玉川村",
    "town": "南須釜"
  },
  "9636303": {
    "zipcode": "9636303",
    "prefectureCode": "07",
    "prefectureNumber": 7,
    "prefecture": "福島県",
    "city": "石川郡玉川村",
    "town": "吉"
  },
  "9636304": {
    "zipcode": "9636304",
    "prefectureCode": "07",
    "prefectureNumber": 7,
    "prefecture": "福島県",
    "city": "石川郡玉川村",
    "town": "北須釜"
  },
  "9636305": {
    "zipcode": "9636305",
    "prefectureCode": "07",
    "prefectureNumber": 7,
    "prefecture": "福島県",
    "city": "石川郡玉川村",
    "town": "山小屋"
  },
  "9636306": {
    "zipcode": "9636306",
    "prefectureCode": "07",
    "prefectureNumber": 7,
    "prefecture": "福島県",
    "city": "石川郡玉川村",
    "town": "山新田"
  },
  "9636311": {
    "zipcode": "9636311",
    "prefectureCode": "07",
    "prefectureNumber": 7,
    "prefecture": "福島県",
    "city": "石川郡玉川村",
    "town": "岩法寺"
  },
  "9636312": {
    "zipcode": "9636312",
    "prefectureCode": "07",
    "prefectureNumber": 7,
    "prefecture": "福島県",
    "city": "石川郡玉川村",
    "town": "小高"
  },
  "9636313": {
    "zipcode": "9636313",
    "prefectureCode": "07",
    "prefectureNumber": 7,
    "prefecture": "福島県",
    "city": "石川郡玉川村",
    "town": "川辺"
  },
  "9636314": {
    "zipcode": "9636314",
    "prefectureCode": "07",
    "prefectureNumber": 7,
    "prefecture": "福島県",
    "city": "石川郡玉川村",
    "town": "蒜生"
  },
  "9636315": {
    "zipcode": "9636315",
    "prefectureCode": "07",
    "prefectureNumber": 7,
    "prefecture": "福島県",
    "city": "石川郡玉川村",
    "town": "中"
  },
  "9636316": {
    "zipcode": "9636316",
    "prefectureCode": "07",
    "prefectureNumber": 7,
    "prefecture": "福島県",
    "city": "石川郡玉川村",
    "town": "竜崎"
  },
  "9637700": {
    "zipcode": "9637700",
    "prefectureCode": "07",
    "prefectureNumber": 7,
    "prefecture": "福島県",
    "city": "田村郡三春町",
    "town": "以下に掲載がない場合"
  },
  "9637701": {
    "zipcode": "9637701",
    "prefectureCode": "07",
    "prefectureNumber": 7,
    "prefecture": "福島県",
    "city": "田村郡三春町",
    "town": "実沢"
  },
  "9637702": {
    "zipcode": "9637702",
    "prefectureCode": "07",
    "prefectureNumber": 7,
    "prefecture": "福島県",
    "city": "田村郡三春町",
    "town": "青石"
  },
  "9637703": {
    "zipcode": "9637703",
    "prefectureCode": "07",
    "prefectureNumber": 7,
    "prefecture": "福島県",
    "city": "田村郡三春町",
    "town": "庄司"
  },
  "9637704": {
    "zipcode": "9637704",
    "prefectureCode": "07",
    "prefectureNumber": 7,
    "prefecture": "福島県",
    "city": "田村郡三春町",
    "town": "熊耳"
  },
  "9637705": {
    "zipcode": "9637705",
    "prefectureCode": "07",
    "prefectureNumber": 7,
    "prefecture": "福島県",
    "city": "田村郡三春町",
    "town": "天王下"
  },
  "9637706": {
    "zipcode": "9637706",
    "prefectureCode": "07",
    "prefectureNumber": 7,
    "prefecture": "福島県",
    "city": "田村郡三春町",
    "town": "大平"
  },
  "9637707": {
    "zipcode": "9637707",
    "prefectureCode": "07",
    "prefectureNumber": 7,
    "prefecture": "福島県",
    "city": "田村郡三春町",
    "town": "芹ケ沢"
  },
  "9637708": {
    "zipcode": "9637708",
    "prefectureCode": "07",
    "prefectureNumber": 7,
    "prefecture": "福島県",
    "city": "田村郡三春町",
    "town": "栗林"
  },
  "9637709": {
    "zipcode": "9637709",
    "prefectureCode": "07",
    "prefectureNumber": 7,
    "prefecture": "福島県",
    "city": "田村郡三春町",
    "town": "小滝"
  },
  "9637711": {
    "zipcode": "9637711",
    "prefectureCode": "07",
    "prefectureNumber": 7,
    "prefecture": "福島県",
    "city": "田村郡三春町",
    "town": "桜ケ丘"
  },
  "9637712": {
    "zipcode": "9637712",
    "prefectureCode": "07",
    "prefectureNumber": 7,
    "prefecture": "福島県",
    "city": "田村郡三春町",
    "town": "楽内"
  },
  "9637713": {
    "zipcode": "9637713",
    "prefectureCode": "07",
    "prefectureNumber": 7,
    "prefecture": "福島県",
    "city": "田村郡三春町",
    "town": "柴原"
  },
  "9637714": {
    "zipcode": "9637714",
    "prefectureCode": "07",
    "prefectureNumber": 7,
    "prefecture": "福島県",
    "city": "田村郡三春町",
    "town": "滝"
  },
  "9637715": {
    "zipcode": "9637715",
    "prefectureCode": "07",
    "prefectureNumber": 7,
    "prefecture": "福島県",
    "city": "田村郡三春町",
    "town": "樋渡"
  },
  "9637716": {
    "zipcode": "9637716",
    "prefectureCode": "07",
    "prefectureNumber": 7,
    "prefecture": "福島県",
    "city": "田村郡三春町",
    "town": "蛇石"
  },
  "9637717": {
    "zipcode": "9637717",
    "prefectureCode": "07",
    "prefectureNumber": 7,
    "prefecture": "福島県",
    "city": "田村郡三春町",
    "town": "狐田"
  },
  "9637718": {
    "zipcode": "9637718",
    "prefectureCode": "07",
    "prefectureNumber": 7,
    "prefecture": "福島県",
    "city": "田村郡三春町",
    "town": "過足"
  },
  "9637719": {
    "zipcode": "9637719",
    "prefectureCode": "07",
    "prefectureNumber": 7,
    "prefecture": "福島県",
    "city": "田村郡三春町",
    "town": "貝山"
  },
  "9637721": {
    "zipcode": "9637721",
    "prefectureCode": "07",
    "prefectureNumber": 7,
    "prefecture": "福島県",
    "city": "田村郡三春町",
    "town": "蛇沢"
  },
  "9637722": {
    "zipcode": "9637722",
    "prefectureCode": "07",
    "prefectureNumber": 7,
    "prefecture": "福島県",
    "city": "田村郡三春町",
    "town": "西方"
  },
  "9637723": {
    "zipcode": "9637723",
    "prefectureCode": "07",
    "prefectureNumber": 7,
    "prefecture": "福島県",
    "city": "田村郡三春町",
    "town": "斎藤"
  },
  "9637724": {
    "zipcode": "9637724",
    "prefectureCode": "07",
    "prefectureNumber": 7,
    "prefecture": "福島県",
    "city": "田村郡三春町",
    "town": "沼沢"
  },
  "9637725": {
    "zipcode": "9637725",
    "prefectureCode": "07",
    "prefectureNumber": 7,
    "prefecture": "福島県",
    "city": "田村郡三春町",
    "town": "鷹巣"
  },
  "9637726": {
    "zipcode": "9637726",
    "prefectureCode": "07",
    "prefectureNumber": 7,
    "prefecture": "福島県",
    "city": "田村郡三春町",
    "town": "沼之倉"
  },
  "9637731": {
    "zipcode": "9637731",
    "prefectureCode": "07",
    "prefectureNumber": 7,
    "prefecture": "福島県",
    "city": "田村郡三春町",
    "town": "下舞木"
  },
  "9637732": {
    "zipcode": "9637732",
    "prefectureCode": "07",
    "prefectureNumber": 7,
    "prefecture": "福島県",
    "city": "田村郡三春町",
    "town": "上舞木"
  },
  "9637733": {
    "zipcode": "9637733",
    "prefectureCode": "07",
    "prefectureNumber": 7,
    "prefecture": "福島県",
    "city": "田村郡三春町",
    "town": "山田"
  },
  "9637741": {
    "zipcode": "9637741",
    "prefectureCode": "07",
    "prefectureNumber": 7,
    "prefecture": "福島県",
    "city": "田村郡三春町",
    "town": "八島台"
  },
  "9637742": {
    "zipcode": "9637742",
    "prefectureCode": "07",
    "prefectureNumber": 7,
    "prefecture": "福島県",
    "city": "田村郡三春町",
    "town": "鶴蒔田"
  },
  "9637743": {
    "zipcode": "9637743",
    "prefectureCode": "07",
    "prefectureNumber": 7,
    "prefecture": "福島県",
    "city": "田村郡三春町",
    "town": "丈六"
  },
  "9637744": {
    "zipcode": "9637744",
    "prefectureCode": "07",
    "prefectureNumber": 7,
    "prefecture": "福島県",
    "city": "田村郡三春町",
    "town": "八幡町"
  },
  "9637745": {
    "zipcode": "9637745",
    "prefectureCode": "07",
    "prefectureNumber": 7,
    "prefecture": "福島県",
    "city": "田村郡三春町",
    "town": "尼ケ谷"
  },
  "9637746": {
    "zipcode": "9637746",
    "prefectureCode": "07",
    "prefectureNumber": 7,
    "prefecture": "福島県",
    "city": "田村郡三春町",
    "town": "馬場"
  },
  "9637747": {
    "zipcode": "9637747",
    "prefectureCode": "07",
    "prefectureNumber": 7,
    "prefecture": "福島県",
    "city": "田村郡三春町",
    "town": "雁木田"
  },
  "9637748": {
    "zipcode": "9637748",
    "prefectureCode": "07",
    "prefectureNumber": 7,
    "prefecture": "福島県",
    "city": "田村郡三春町",
    "town": "山崎"
  },
  "9637749": {
    "zipcode": "9637749",
    "prefectureCode": "07",
    "prefectureNumber": 7,
    "prefecture": "福島県",
    "city": "田村郡三春町",
    "town": "大久保"
  },
  "9637751": {
    "zipcode": "9637751",
    "prefectureCode": "07",
    "prefectureNumber": 7,
    "prefecture": "福島県",
    "city": "田村郡三春町",
    "town": "北町"
  },
  "9637752": {
    "zipcode": "9637752",
    "prefectureCode": "07",
    "prefectureNumber": 7,
    "prefecture": "福島県",
    "city": "田村郡三春町",
    "town": "六升蒔"
  },
  "9637753": {
    "zipcode": "9637753",
    "prefectureCode": "07",
    "prefectureNumber": 7,
    "prefecture": "福島県",
    "city": "田村郡三春町",
    "town": "八十内"
  },
  "9637754": {
    "zipcode": "9637754",
    "prefectureCode": "07",
    "prefectureNumber": 7,
    "prefecture": "福島県",
    "city": "田村郡三春町",
    "town": "弓町"
  },
  "9637755": {
    "zipcode": "9637755",
    "prefectureCode": "07",
    "prefectureNumber": 7,
    "prefecture": "福島県",
    "city": "田村郡三春町",
    "town": "山中"
  },
  "9637756": {
    "zipcode": "9637756",
    "prefectureCode": "07",
    "prefectureNumber": 7,
    "prefecture": "福島県",
    "city": "田村郡三春町",
    "town": "南町"
  },
  "9637757": {
    "zipcode": "9637757",
    "prefectureCode": "07",
    "prefectureNumber": 7,
    "prefecture": "福島県",
    "city": "田村郡三春町",
    "town": "会下谷"
  },
  "9637758": {
    "zipcode": "9637758",
    "prefectureCode": "07",
    "prefectureNumber": 7,
    "prefecture": "福島県",
    "city": "田村郡三春町",
    "town": "桜谷"
  },
  "9637759": {
    "zipcode": "9637759",
    "prefectureCode": "07",
    "prefectureNumber": 7,
    "prefecture": "福島県",
    "city": "田村郡三春町",
    "town": "大町"
  },
  "9637761": {
    "zipcode": "9637761",
    "prefectureCode": "07",
    "prefectureNumber": 7,
    "prefecture": "福島県",
    "city": "田村郡三春町",
    "town": "樋ノ口"
  },
  "9637762": {
    "zipcode": "9637762",
    "prefectureCode": "07",
    "prefectureNumber": 7,
    "prefecture": "福島県",
    "city": "田村郡三春町",
    "town": "小浜海道"
  },
  "9637763": {
    "zipcode": "9637763",
    "prefectureCode": "07",
    "prefectureNumber": 7,
    "prefecture": "福島県",
    "city": "田村郡三春町",
    "town": "持合畑"
  },
  "9637764": {
    "zipcode": "9637764",
    "prefectureCode": "07",
    "prefectureNumber": 7,
    "prefecture": "福島県",
    "city": "田村郡三春町",
    "town": "北向町"
  },
  "9637765": {
    "zipcode": "9637765",
    "prefectureCode": "07",
    "prefectureNumber": 7,
    "prefecture": "福島県",
    "city": "田村郡三春町",
    "town": "荒町"
  },
  "9637766": {
    "zipcode": "9637766",
    "prefectureCode": "07",
    "prefectureNumber": 7,
    "prefecture": "福島県",
    "city": "田村郡三春町",
    "town": "中町"
  },
  "9637767": {
    "zipcode": "9637767",
    "prefectureCode": "07",
    "prefectureNumber": 7,
    "prefecture": "福島県",
    "city": "田村郡三春町",
    "town": "御免町"
  },
  "9637768": {
    "zipcode": "9637768",
    "prefectureCode": "07",
    "prefectureNumber": 7,
    "prefecture": "福島県",
    "city": "田村郡三春町",
    "town": "渋池"
  },
  "9637769": {
    "zipcode": "9637769",
    "prefectureCode": "07",
    "prefectureNumber": 7,
    "prefecture": "福島県",
    "city": "田村郡三春町",
    "town": "担橋"
  },
  "9637771": {
    "zipcode": "9637771",
    "prefectureCode": "07",
    "prefectureNumber": 7,
    "prefecture": "福島県",
    "city": "田村郡三春町",
    "town": "平沢"
  },
  "9637772": {
    "zipcode": "9637772",
    "prefectureCode": "07",
    "prefectureNumber": 7,
    "prefecture": "福島県",
    "city": "田村郡三春町",
    "town": "御祭"
  },
  "9637773": {
    "zipcode": "9637773",
    "prefectureCode": "07",
    "prefectureNumber": 7,
    "prefecture": "福島県",
    "city": "田村郡三春町",
    "town": "深田和"
  },
  "9637781": {
    "zipcode": "9637781",
    "prefectureCode": "07",
    "prefectureNumber": 7,
    "prefecture": "福島県",
    "city": "田村郡三春町",
    "town": "北成田"
  },
  "9637782": {
    "zipcode": "9637782",
    "prefectureCode": "07",
    "prefectureNumber": 7,
    "prefecture": "福島県",
    "city": "田村郡三春町",
    "town": "富沢"
  },
  "9637783": {
    "zipcode": "9637783",
    "prefectureCode": "07",
    "prefectureNumber": 7,
    "prefecture": "福島県",
    "city": "田村郡三春町",
    "town": "南成田"
  },
  "9637784": {
    "zipcode": "9637784",
    "prefectureCode": "07",
    "prefectureNumber": 7,
    "prefecture": "福島県",
    "city": "田村郡三春町",
    "town": "六斗蒔"
  },
  "9637785": {
    "zipcode": "9637785",
    "prefectureCode": "07",
    "prefectureNumber": 7,
    "prefecture": "福島県",
    "city": "田村郡三春町",
    "town": "松橋"
  },
  "9637786": {
    "zipcode": "9637786",
    "prefectureCode": "07",
    "prefectureNumber": 7,
    "prefecture": "福島県",
    "city": "田村郡三春町",
    "town": "七草木"
  },
  "9637800": {
    "zipcode": "9637800",
    "prefectureCode": "07",
    "prefectureNumber": 7,
    "prefecture": "福島県",
    "city": "石川郡石川町",
    "town": "以下に掲載がない場合"
  },
  "9637801": {
    "zipcode": "9637801",
    "prefectureCode": "07",
    "prefectureNumber": 7,
    "prefecture": "福島県",
    "city": "石川郡石川町",
    "town": "湯郷渡"
  },
  "9637802": {
    "zipcode": "9637802",
    "prefectureCode": "07",
    "prefectureNumber": 7,
    "prefecture": "福島県",
    "city": "石川郡石川町",
    "town": "北山"
  },
  "9637803": {
    "zipcode": "9637803",
    "prefectureCode": "07",
    "prefectureNumber": 7,
    "prefecture": "福島県",
    "city": "石川郡石川町",
    "town": "中田"
  },
  "9637804": {
    "zipcode": "9637804",
    "prefectureCode": "07",
    "prefectureNumber": 7,
    "prefecture": "福島県",
    "city": "石川郡石川町",
    "town": "坂路"
  },
  "9637805": {
    "zipcode": "9637805",
    "prefectureCode": "07",
    "prefectureNumber": 7,
    "prefecture": "福島県",
    "city": "石川郡石川町",
    "town": "谷地"
  },
  "9637806": {
    "zipcode": "9637806",
    "prefectureCode": "07",
    "prefectureNumber": 7,
    "prefecture": "福島県",
    "city": "石川郡石川町",
    "town": "谷沢"
  },
  "9637807": {
    "zipcode": "9637807",
    "prefectureCode": "07",
    "prefectureNumber": 7,
    "prefecture": "福島県",
    "city": "石川郡石川町",
    "town": "形見"
  },
  "9637808": {
    "zipcode": "9637808",
    "prefectureCode": "07",
    "prefectureNumber": 7,
    "prefecture": "福島県",
    "city": "石川郡石川町",
    "town": "双里"
  },
  "9637811": {
    "zipcode": "9637811",
    "prefectureCode": "07",
    "prefectureNumber": 7,
    "prefecture": "福島県",
    "city": "石川郡石川町",
    "town": "北山形"
  },
  "9637812": {
    "zipcode": "9637812",
    "prefectureCode": "07",
    "prefectureNumber": 7,
    "prefecture": "福島県",
    "city": "石川郡石川町",
    "town": "南山形"
  },
  "9637813": {
    "zipcode": "9637813",
    "prefectureCode": "07",
    "prefectureNumber": 7,
    "prefecture": "福島県",
    "city": "石川郡石川町",
    "town": "板橋"
  },
  "9637814": {
    "zipcode": "9637814",
    "prefectureCode": "07",
    "prefectureNumber": 7,
    "prefecture": "福島県",
    "city": "石川郡石川町",
    "town": "山形"
  },
  "9637815": {
    "zipcode": "9637815",
    "prefectureCode": "07",
    "prefectureNumber": 7,
    "prefecture": "福島県",
    "city": "石川郡石川町",
    "town": "大沢"
  },
  "9637816": {
    "zipcode": "9637816",
    "prefectureCode": "07",
    "prefectureNumber": 7,
    "prefecture": "福島県",
    "city": "石川郡石川町",
    "town": "豆ケ平"
  },
  "9637817": {
    "zipcode": "9637817",
    "prefectureCode": "07",
    "prefectureNumber": 7,
    "prefecture": "福島県",
    "city": "石川郡石川町",
    "town": "立ケ岡"
  },
  "9637818": {
    "zipcode": "9637818",
    "prefectureCode": "07",
    "prefectureNumber": 7,
    "prefecture": "福島県",
    "city": "石川郡石川町",
    "town": "塩沼"
  },
  "9637821": {
    "zipcode": "9637821",
    "prefectureCode": "07",
    "prefectureNumber": 7,
    "prefecture": "福島県",
    "city": "石川郡石川町",
    "town": "宝殿前"
  },
  "9637822": {
    "zipcode": "9637822",
    "prefectureCode": "07",
    "prefectureNumber": 7,
    "prefecture": "福島県",
    "city": "石川郡石川町",
    "town": "梁瀬"
  },
  "9637823": {
    "zipcode": "9637823",
    "prefectureCode": "07",
    "prefectureNumber": 7,
    "prefecture": "福島県",
    "city": "石川郡石川町",
    "town": "王子平"
  },
  "9637824": {
    "zipcode": "9637824",
    "prefectureCode": "07",
    "prefectureNumber": 7,
    "prefecture": "福島県",
    "city": "石川郡石川町",
    "town": "原"
  },
  "9637825": {
    "zipcode": "9637825",
    "prefectureCode": "07",
    "prefectureNumber": 7,
    "prefecture": "福島県",
    "city": "石川郡石川町",
    "town": "沢井"
  },
  "9637826": {
    "zipcode": "9637826",
    "prefectureCode": "07",
    "prefectureNumber": 7,
    "prefecture": "福島県",
    "city": "石川郡石川町",
    "town": "赤羽"
  },
  "9637827": {
    "zipcode": "9637827",
    "prefectureCode": "07",
    "prefectureNumber": 7,
    "prefecture": "福島県",
    "city": "石川郡石川町",
    "town": "新屋敷（その他）"
  },
  "9637828": {
    "zipcode": "9637828",
    "prefectureCode": "07",
    "prefectureNumber": 7,
    "prefecture": "福島県",
    "city": "石川郡石川町",
    "town": "下ノ内"
  },
  "9637831": {
    "zipcode": "9637831",
    "prefectureCode": "07",
    "prefectureNumber": 7,
    "prefecture": "福島県",
    "city": "石川郡石川町",
    "town": "母畑"
  },
  "9637832": {
    "zipcode": "9637832",
    "prefectureCode": "07",
    "prefectureNumber": 7,
    "prefecture": "福島県",
    "city": "石川郡石川町",
    "town": "弥吾"
  },
  "9637833": {
    "zipcode": "9637833",
    "prefectureCode": "07",
    "prefectureNumber": 7,
    "prefecture": "福島県",
    "city": "石川郡石川町",
    "town": "石田"
  },
  "9637834": {
    "zipcode": "9637834",
    "prefectureCode": "07",
    "prefectureNumber": 7,
    "prefecture": "福島県",
    "city": "石川郡石川町",
    "town": "轡取"
  },
  "9637835": {
    "zipcode": "9637835",
    "prefectureCode": "07",
    "prefectureNumber": 7,
    "prefecture": "福島県",
    "city": "石川郡石川町",
    "town": "草倉田"
  },
  "9637836": {
    "zipcode": "9637836",
    "prefectureCode": "07",
    "prefectureNumber": 7,
    "prefecture": "福島県",
    "city": "石川郡石川町",
    "town": "塩沢"
  },
  "9637837": {
    "zipcode": "9637837",
    "prefectureCode": "07",
    "prefectureNumber": 7,
    "prefecture": "福島県",
    "city": "石川郡石川町",
    "town": "中野"
  },
  "9637838": {
    "zipcode": "9637838",
    "prefectureCode": "07",
    "prefectureNumber": 7,
    "prefecture": "福島県",
    "city": "石川郡石川町",
    "town": "曲木"
  },
  "9637841": {
    "zipcode": "9637841",
    "prefectureCode": "07",
    "prefectureNumber": 7,
    "prefecture": "福島県",
    "city": "石川郡石川町",
    "town": "江堀田"
  },
  "9637842": {
    "zipcode": "9637842",
    "prefectureCode": "07",
    "prefectureNumber": 7,
    "prefecture": "福島県",
    "city": "石川郡石川町",
    "town": "境ノ内"
  },
  "9637843": {
    "zipcode": "9637843",
    "prefectureCode": "07",
    "prefectureNumber": 7,
    "prefecture": "福島県",
    "city": "石川郡石川町",
    "town": "屋敷ノ入"
  },
  "9637844": {
    "zipcode": "9637844",
    "prefectureCode": "07",
    "prefectureNumber": 7,
    "prefecture": "福島県",
    "city": "石川郡石川町",
    "town": "北町"
  },
  "9637845": {
    "zipcode": "9637845",
    "prefectureCode": "07",
    "prefectureNumber": 7,
    "prefecture": "福島県",
    "city": "石川郡石川町",
    "town": "高田"
  },
  "9637846": {
    "zipcode": "9637846",
    "prefectureCode": "07",
    "prefectureNumber": 7,
    "prefecture": "福島県",
    "city": "石川郡石川町",
    "town": "長久保"
  },
  "9637847": {
    "zipcode": "9637847",
    "prefectureCode": "07",
    "prefectureNumber": 7,
    "prefecture": "福島県",
    "city": "石川郡石川町",
    "town": "古舘"
  },
  "9637848": {
    "zipcode": "9637848",
    "prefectureCode": "07",
    "prefectureNumber": 7,
    "prefecture": "福島県",
    "city": "石川郡石川町",
    "town": "長郷田"
  },
  "9637849": {
    "zipcode": "9637849",
    "prefectureCode": "07",
    "prefectureNumber": 7,
    "prefecture": "福島県",
    "city": "石川郡石川町",
    "town": "一ノ沢"
  },
  "9637851": {
    "zipcode": "9637851",
    "prefectureCode": "07",
    "prefectureNumber": 7,
    "prefecture": "福島県",
    "city": "石川郡石川町",
    "town": "新町"
  },
  "9637852": {
    "zipcode": "9637852",
    "prefectureCode": "07",
    "prefectureNumber": 7,
    "prefecture": "福島県",
    "city": "石川郡石川町",
    "town": "関根"
  },
  "9637853": {
    "zipcode": "9637853",
    "prefectureCode": "07",
    "prefectureNumber": 7,
    "prefecture": "福島県",
    "city": "石川郡石川町",
    "town": "大室"
  },
  "9637854": {
    "zipcode": "9637854",
    "prefectureCode": "07",
    "prefectureNumber": 7,
    "prefecture": "福島県",
    "city": "石川郡石川町",
    "town": "松木下"
  },
  "9637855": {
    "zipcode": "9637855",
    "prefectureCode": "07",
    "prefectureNumber": 7,
    "prefecture": "福島県",
    "city": "石川郡石川町",
    "town": "猫啼"
  },
  "9637856": {
    "zipcode": "9637856",
    "prefectureCode": "07",
    "prefectureNumber": 7,
    "prefecture": "福島県",
    "city": "石川郡石川町",
    "town": "白石"
  },
  "9637857": {
    "zipcode": "9637857",
    "prefectureCode": "07",
    "prefectureNumber": 7,
    "prefecture": "福島県",
    "city": "石川郡石川町",
    "town": "当町"
  },
  "9637858": {
    "zipcode": "9637858",
    "prefectureCode": "07",
    "prefectureNumber": 7,
    "prefecture": "福島県",
    "city": "石川郡石川町",
    "town": "下泉"
  },
  "9637859": {
    "zipcode": "9637859",
    "prefectureCode": "07",
    "prefectureNumber": 7,
    "prefecture": "福島県",
    "city": "石川郡石川町",
    "town": "南町"
  },
  "9637861": {
    "zipcode": "9637861",
    "prefectureCode": "07",
    "prefectureNumber": 7,
    "prefecture": "福島県",
    "city": "石川郡石川町",
    "town": "矢ノ目田"
  },
  "9637862": {
    "zipcode": "9637862",
    "prefectureCode": "07",
    "prefectureNumber": 7,
    "prefecture": "福島県",
    "city": "石川郡石川町",
    "town": "鹿ノ坂"
  },
  "9637863": {
    "zipcode": "9637863",
    "prefectureCode": "07",
    "prefectureNumber": 7,
    "prefecture": "福島県",
    "city": "石川郡石川町",
    "town": "渡里沢"
  },
  "9637864": {
    "zipcode": "9637864",
    "prefectureCode": "07",
    "prefectureNumber": 7,
    "prefecture": "福島県",
    "city": "石川郡石川町",
    "town": "秋台"
  },
  "9637865": {
    "zipcode": "9637865",
    "prefectureCode": "07",
    "prefectureNumber": 7,
    "prefecture": "福島県",
    "city": "石川郡石川町",
    "town": "曲ノ内"
  },
  "9637866": {
    "zipcode": "9637866",
    "prefectureCode": "07",
    "prefectureNumber": 7,
    "prefecture": "福島県",
    "city": "石川郡石川町",
    "town": "外国見"
  },
  "9637867": {
    "zipcode": "9637867",
    "prefectureCode": "07",
    "prefectureNumber": 7,
    "prefecture": "福島県",
    "city": "石川郡石川町",
    "town": "石塚"
  },
  "9637871": {
    "zipcode": "9637871",
    "prefectureCode": "07",
    "prefectureNumber": 7,
    "prefecture": "福島県",
    "city": "石川郡石川町",
    "town": "前ノ内"
  },
  "9637872": {
    "zipcode": "9637872",
    "prefectureCode": "07",
    "prefectureNumber": 7,
    "prefecture": "福島県",
    "city": "石川郡石川町",
    "town": "大内"
  },
  "9637873": {
    "zipcode": "9637873",
    "prefectureCode": "07",
    "prefectureNumber": 7,
    "prefecture": "福島県",
    "city": "石川郡石川町",
    "town": "飛ケ作"
  },
  "9637874": {
    "zipcode": "9637874",
    "prefectureCode": "07",
    "prefectureNumber": 7,
    "prefecture": "福島県",
    "city": "石川郡石川町",
    "town": "大五郎内"
  },
  "9637875": {
    "zipcode": "9637875",
    "prefectureCode": "07",
    "prefectureNumber": 7,
    "prefecture": "福島県",
    "city": "石川郡石川町",
    "town": "柳作"
  },
  "9637876": {
    "zipcode": "9637876",
    "prefectureCode": "07",
    "prefectureNumber": 7,
    "prefecture": "福島県",
    "city": "石川郡石川町",
    "town": "国見"
  },
  "9637881": {
    "zipcode": "9637881",
    "prefectureCode": "07",
    "prefectureNumber": 7,
    "prefecture": "福島県",
    "city": "石川郡石川町",
    "town": "大橋"
  },
  "9637882": {
    "zipcode": "9637882",
    "prefectureCode": "07",
    "prefectureNumber": 7,
    "prefecture": "福島県",
    "city": "石川郡石川町",
    "town": "塩ノ平"
  },
  "9637883": {
    "zipcode": "9637883",
    "prefectureCode": "07",
    "prefectureNumber": 7,
    "prefecture": "福島県",
    "city": "石川郡石川町",
    "town": "麦ノ内"
  },
  "9637884": {
    "zipcode": "9637884",
    "prefectureCode": "07",
    "prefectureNumber": 7,
    "prefecture": "福島県",
    "city": "石川郡石川町",
    "town": "新屋敷（番地）"
  },
  "9637885": {
    "zipcode": "9637885",
    "prefectureCode": "07",
    "prefectureNumber": 7,
    "prefecture": "福島県",
    "city": "石川郡石川町",
    "town": "成亀"
  },
  "9637886": {
    "zipcode": "9637886",
    "prefectureCode": "07",
    "prefectureNumber": 7,
    "prefecture": "福島県",
    "city": "石川郡石川町",
    "town": "和久"
  },
  "9638001": {
    "zipcode": "9638001",
    "prefectureCode": "07",
    "prefectureNumber": 7,
    "prefecture": "福島県",
    "city": "郡山市",
    "town": "大町"
  },
  "9638002": {
    "zipcode": "9638002",
    "prefectureCode": "07",
    "prefectureNumber": 7,
    "prefecture": "福島県",
    "city": "郡山市",
    "town": "駅前"
  },
  "9638003": {
    "zipcode": "9638003",
    "prefectureCode": "07",
    "prefectureNumber": 7,
    "prefecture": "福島県",
    "city": "郡山市",
    "town": "燧田"
  },
  "9638004": {
    "zipcode": "9638004",
    "prefectureCode": "07",
    "prefectureNumber": 7,
    "prefecture": "福島県",
    "city": "郡山市",
    "town": "中町"
  },
  "9638005": {
    "zipcode": "9638005",
    "prefectureCode": "07",
    "prefectureNumber": 7,
    "prefecture": "福島県",
    "city": "郡山市",
    "town": "清水台"
  },
  "9638006": {
    "zipcode": "9638006",
    "prefectureCode": "07",
    "prefectureNumber": 7,
    "prefecture": "福島県",
    "city": "郡山市",
    "town": "赤木町"
  },
  "9638007": {
    "zipcode": "9638007",
    "prefectureCode": "07",
    "prefectureNumber": 7,
    "prefecture": "福島県",
    "city": "郡山市",
    "town": "大名艮"
  },
  "9638008": {
    "zipcode": "9638008",
    "prefectureCode": "07",
    "prefectureNumber": 7,
    "prefecture": "福島県",
    "city": "郡山市",
    "town": "東宿"
  },
  "9638011": {
    "zipcode": "9638011",
    "prefectureCode": "07",
    "prefectureNumber": 7,
    "prefecture": "福島県",
    "city": "郡山市",
    "town": "若葉町"
  },
  "9638012": {
    "zipcode": "9638012",
    "prefectureCode": "07",
    "prefectureNumber": 7,
    "prefecture": "福島県",
    "city": "郡山市",
    "town": "咲田"
  },
  "9638013": {
    "zipcode": "9638013",
    "prefectureCode": "07",
    "prefectureNumber": 7,
    "prefecture": "福島県",
    "city": "郡山市",
    "town": "神明町"
  },
  "9638014": {
    "zipcode": "9638014",
    "prefectureCode": "07",
    "prefectureNumber": 7,
    "prefecture": "福島県",
    "city": "郡山市",
    "town": "虎丸町"
  },
  "9638015": {
    "zipcode": "9638015",
    "prefectureCode": "07",
    "prefectureNumber": 7,
    "prefecture": "福島県",
    "city": "郡山市",
    "town": "細沼町"
  },
  "9638016": {
    "zipcode": "9638016",
    "prefectureCode": "07",
    "prefectureNumber": 7,
    "prefecture": "福島県",
    "city": "郡山市",
    "town": "豊田町"
  },
  "9638017": {
    "zipcode": "9638017",
    "prefectureCode": "07",
    "prefectureNumber": 7,
    "prefecture": "福島県",
    "city": "郡山市",
    "town": "長者"
  },
  "9638018": {
    "zipcode": "9638018",
    "prefectureCode": "07",
    "prefectureNumber": 7,
    "prefecture": "福島県",
    "city": "郡山市",
    "town": "桃見台"
  },
  "9638021": {
    "zipcode": "9638021",
    "prefectureCode": "07",
    "prefectureNumber": 7,
    "prefecture": "福島県",
    "city": "郡山市",
    "town": "桜木"
  },
  "9638022": {
    "zipcode": "9638022",
    "prefectureCode": "07",
    "prefectureNumber": 7,
    "prefecture": "福島県",
    "city": "郡山市",
    "town": "西ノ内"
  },
  "9638023": {
    "zipcode": "9638023",
    "prefectureCode": "07",
    "prefectureNumber": 7,
    "prefecture": "福島県",
    "city": "郡山市",
    "town": "緑町"
  },
  "9638024": {
    "zipcode": "9638024",
    "prefectureCode": "07",
    "prefectureNumber": 7,
    "prefecture": "福島県",
    "city": "郡山市",
    "town": "朝日"
  },
  "9638025": {
    "zipcode": "9638025",
    "prefectureCode": "07",
    "prefectureNumber": 7,
    "prefecture": "福島県",
    "city": "郡山市",
    "town": "桑野"
  },
  "9638026": {
    "zipcode": "9638026",
    "prefectureCode": "07",
    "prefectureNumber": 7,
    "prefecture": "福島県",
    "city": "郡山市",
    "town": "並木"
  },
  "9638031": {
    "zipcode": "9638031",
    "prefectureCode": "07",
    "prefectureNumber": 7,
    "prefecture": "福島県",
    "city": "郡山市",
    "town": "上亀田"
  },
  "9638032": {
    "zipcode": "9638032",
    "prefectureCode": "07",
    "prefectureNumber": 7,
    "prefecture": "福島県",
    "city": "郡山市",
    "town": "下亀田"
  },
  "9638033": {
    "zipcode": "9638033",
    "prefectureCode": "07",
    "prefectureNumber": 7,
    "prefecture": "福島県",
    "city": "郡山市",
    "town": "亀田"
  },
  "9638034": {
    "zipcode": "9638034",
    "prefectureCode": "07",
    "prefectureNumber": 7,
    "prefecture": "福島県",
    "city": "郡山市",
    "town": "島"
  },
  "9638035": {
    "zipcode": "9638035",
    "prefectureCode": "07",
    "prefectureNumber": 7,
    "prefecture": "福島県",
    "city": "郡山市",
    "town": "希望ケ丘"
  },
  "9638036": {
    "zipcode": "9638036",
    "prefectureCode": "07",
    "prefectureNumber": 7,
    "prefecture": "福島県",
    "city": "郡山市",
    "town": "うねめ町"
  },
  "9638037": {
    "zipcode": "9638037",
    "prefectureCode": "07",
    "prefectureNumber": 7,
    "prefecture": "福島県",
    "city": "郡山市",
    "town": "原中"
  },
  "9638038": {
    "zipcode": "9638038",
    "prefectureCode": "07",
    "prefectureNumber": 7,
    "prefecture": "福島県",
    "city": "郡山市",
    "town": "桑野北町"
  },
  "9638039": {
    "zipcode": "9638039",
    "prefectureCode": "07",
    "prefectureNumber": 7,
    "prefecture": "福島県",
    "city": "郡山市",
    "town": "小関谷地"
  },
  "9638041": {
    "zipcode": "9638041",
    "prefectureCode": "07",
    "prefectureNumber": 7,
    "prefecture": "福島県",
    "city": "郡山市",
    "town": "富田町"
  },
  "9638042": {
    "zipcode": "9638042",
    "prefectureCode": "07",
    "prefectureNumber": 7,
    "prefecture": "福島県",
    "city": "郡山市",
    "town": "不動前"
  },
  "9638043": {
    "zipcode": "9638043",
    "prefectureCode": "07",
    "prefectureNumber": 7,
    "prefecture": "福島県",
    "city": "郡山市",
    "town": "名郷田"
  },
  "9638044": {
    "zipcode": "9638044",
    "prefectureCode": "07",
    "prefectureNumber": 7,
    "prefecture": "福島県",
    "city": "郡山市",
    "town": "備前舘"
  },
  "9638045": {
    "zipcode": "9638045",
    "prefectureCode": "07",
    "prefectureNumber": 7,
    "prefecture": "福島県",
    "city": "郡山市",
    "town": "新屋敷"
  },
  "9638046": {
    "zipcode": "9638046",
    "prefectureCode": "07",
    "prefectureNumber": 7,
    "prefecture": "福島県",
    "city": "郡山市",
    "town": "町東"
  },
  "9638047": {
    "zipcode": "9638047",
    "prefectureCode": "07",
    "prefectureNumber": 7,
    "prefecture": "福島県",
    "city": "郡山市",
    "town": "富田東"
  },
  "9638048": {
    "zipcode": "9638048",
    "prefectureCode": "07",
    "prefectureNumber": 7,
    "prefecture": "福島県",
    "city": "郡山市",
    "town": "富田西"
  },
  "9638051": {
    "zipcode": "9638051",
    "prefectureCode": "07",
    "prefectureNumber": 7,
    "prefecture": "福島県",
    "city": "郡山市",
    "town": "富久山町八山田"
  },
  "9638052": {
    "zipcode": "9638052",
    "prefectureCode": "07",
    "prefectureNumber": 7,
    "prefecture": "福島県",
    "city": "郡山市",
    "town": "八山田"
  },
  "9638053": {
    "zipcode": "9638053",
    "prefectureCode": "07",
    "prefectureNumber": 7,
    "prefecture": "福島県",
    "city": "郡山市",
    "town": "八山田西"
  },
  "9638061": {
    "zipcode": "9638061",
    "prefectureCode": "07",
    "prefectureNumber": 7,
    "prefecture": "福島県",
    "city": "郡山市",
    "town": "富久山町福原"
  },
  "9638071": {
    "zipcode": "9638071",
    "prefectureCode": "07",
    "prefectureNumber": 7,
    "prefecture": "福島県",
    "city": "郡山市",
    "town": "富久山町久保田"
  },
  "9638100": {
    "zipcode": "9638100",
    "prefectureCode": "07",
    "prefectureNumber": 7,
    "prefecture": "福島県",
    "city": "石川郡平田村",
    "town": "以下に掲載がない場合"
  },
  "9638111": {
    "zipcode": "9638111",
    "prefectureCode": "07",
    "prefectureNumber": 7,
    "prefecture": "福島県",
    "city": "石川郡平田村",
    "town": "東山"
  },
  "9638112": {
    "zipcode": "9638112",
    "prefectureCode": "07",
    "prefectureNumber": 7,
    "prefecture": "福島県",
    "city": "石川郡平田村",
    "town": "北方"
  },
  "9638113": {
    "zipcode": "9638113",
    "prefectureCode": "07",
    "prefectureNumber": 7,
    "prefecture": "福島県",
    "city": "石川郡平田村",
    "town": "駒形"
  },
  "9638114": {
    "zipcode": "9638114",
    "prefectureCode": "07",
    "prefectureNumber": 7,
    "prefecture": "福島県",
    "city": "石川郡平田村",
    "town": "小平"
  },
  "9638115": {
    "zipcode": "9638115",
    "prefectureCode": "07",
    "prefectureNumber": 7,
    "prefecture": "福島県",
    "city": "石川郡平田村",
    "town": "中倉"
  },
  "9638116": {
    "zipcode": "9638116",
    "prefectureCode": "07",
    "prefectureNumber": 7,
    "prefecture": "福島県",
    "city": "石川郡平田村",
    "town": "西山"
  },
  "9638201": {
    "zipcode": "9638201",
    "prefectureCode": "07",
    "prefectureNumber": 7,
    "prefecture": "福島県",
    "city": "石川郡平田村",
    "town": "蓬田新田"
  },
  "9638202": {
    "zipcode": "9638202",
    "prefectureCode": "07",
    "prefectureNumber": 7,
    "prefecture": "福島県",
    "city": "石川郡平田村",
    "town": "上蓬田"
  },
  "9638203": {
    "zipcode": "9638203",
    "prefectureCode": "07",
    "prefectureNumber": 7,
    "prefecture": "福島県",
    "city": "石川郡平田村",
    "town": "九生滝"
  },
  "9638204": {
    "zipcode": "9638204",
    "prefectureCode": "07",
    "prefectureNumber": 7,
    "prefecture": "福島県",
    "city": "石川郡平田村",
    "town": "鴇子"
  },
  "9638205": {
    "zipcode": "9638205",
    "prefectureCode": "07",
    "prefectureNumber": 7,
    "prefecture": "福島県",
    "city": "石川郡平田村",
    "town": "永田"
  },
  "9638206": {
    "zipcode": "9638206",
    "prefectureCode": "07",
    "prefectureNumber": 7,
    "prefecture": "福島県",
    "city": "石川郡平田村",
    "town": "小松原"
  },
  "9638207": {
    "zipcode": "9638207",
    "prefectureCode": "07",
    "prefectureNumber": 7,
    "prefecture": "福島県",
    "city": "石川郡平田村",
    "town": "下蓬田"
  },
  "9638300": {
    "zipcode": "9638300",
    "prefectureCode": "07",
    "prefectureNumber": 7,
    "prefecture": "福島県",
    "city": "石川郡古殿町",
    "town": "以下に掲載がない場合"
  },
  "9638301": {
    "zipcode": "9638301",
    "prefectureCode": "07",
    "prefectureNumber": 7,
    "prefecture": "福島県",
    "city": "石川郡古殿町",
    "town": "論田"
  },
  "9638302": {
    "zipcode": "9638302",
    "prefectureCode": "07",
    "prefectureNumber": 7,
    "prefecture": "福島県",
    "city": "石川郡古殿町",
    "town": "山上"
  },
  "9638303": {
    "zipcode": "9638303",
    "prefectureCode": "07",
    "prefectureNumber": 7,
    "prefecture": "福島県",
    "city": "石川郡古殿町",
    "town": "大久田"
  },
  "9638304": {
    "zipcode": "9638304",
    "prefectureCode": "07",
    "prefectureNumber": 7,
    "prefecture": "福島県",
    "city": "石川郡古殿町",
    "town": "松川"
  },
  "9638305": {
    "zipcode": "9638305",
    "prefectureCode": "07",
    "prefectureNumber": 7,
    "prefecture": "福島県",
    "city": "石川郡古殿町",
    "town": "竹貫"
  },
  "9638306": {
    "zipcode": "9638306",
    "prefectureCode": "07",
    "prefectureNumber": 7,
    "prefecture": "福島県",
    "city": "石川郡古殿町",
    "town": "田口"
  },
  "9638307": {
    "zipcode": "9638307",
    "prefectureCode": "07",
    "prefectureNumber": 7,
    "prefecture": "福島県",
    "city": "石川郡古殿町",
    "town": "鎌田"
  },
  "9638308": {
    "zipcode": "9638308",
    "prefectureCode": "07",
    "prefectureNumber": 7,
    "prefecture": "福島県",
    "city": "石川郡古殿町",
    "town": "仙石"
  },
  "9638400": {
    "zipcode": "9638400",
    "prefectureCode": "07",
    "prefectureNumber": 7,
    "prefecture": "福島県",
    "city": "東白川郡鮫川村",
    "town": "以下に掲載がない場合"
  },
  "9638401": {
    "zipcode": "9638401",
    "prefectureCode": "07",
    "prefectureNumber": 7,
    "prefecture": "福島県",
    "city": "東白川郡鮫川村",
    "town": "赤坂中野"
  },
  "9638402": {
    "zipcode": "9638402",
    "prefectureCode": "07",
    "prefectureNumber": 7,
    "prefecture": "福島県",
    "city": "東白川郡鮫川村",
    "town": "石井草"
  },
  "9638403": {
    "zipcode": "9638403",
    "prefectureCode": "07",
    "prefectureNumber": 7,
    "prefecture": "福島県",
    "city": "東白川郡鮫川村",
    "town": "赤坂東野"
  },
  "9638404": {
    "zipcode": "9638404",
    "prefectureCode": "07",
    "prefectureNumber": 7,
    "prefecture": "福島県",
    "city": "東白川郡鮫川村",
    "town": "青生野"
  },
  "9638405": {
    "zipcode": "9638405",
    "prefectureCode": "07",
    "prefectureNumber": 7,
    "prefecture": "福島県",
    "city": "東白川郡鮫川村",
    "town": "渡瀬（その他）"
  },
  "9638406": {
    "zipcode": "9638406",
    "prefectureCode": "07",
    "prefectureNumber": 7,
    "prefecture": "福島県",
    "city": "東白川郡鮫川村",
    "town": "富田"
  },
  "9638407": {
    "zipcode": "9638407",
    "prefectureCode": "07",
    "prefectureNumber": 7,
    "prefecture": "福島県",
    "city": "東白川郡鮫川村",
    "town": "赤坂西野"
  },
  "9638408": {
    "zipcode": "9638408",
    "prefectureCode": "07",
    "prefectureNumber": 7,
    "prefecture": "福島県",
    "city": "東白川郡鮫川村",
    "town": "西山"
  },
  "9638801": {
    "zipcode": "9638801",
    "prefectureCode": "07",
    "prefectureNumber": 7,
    "prefecture": "福島県",
    "city": "郡山市",
    "town": "向河原町"
  },
  "9638802": {
    "zipcode": "9638802",
    "prefectureCode": "07",
    "prefectureNumber": 7,
    "prefecture": "福島県",
    "city": "郡山市",
    "town": "谷島町"
  },
  "9638803": {
    "zipcode": "9638803",
    "prefectureCode": "07",
    "prefectureNumber": 7,
    "prefecture": "福島県",
    "city": "郡山市",
    "town": "横塚"
  },
  "9638804": {
    "zipcode": "9638804",
    "prefectureCode": "07",
    "prefectureNumber": 7,
    "prefecture": "福島県",
    "city": "郡山市",
    "town": "北畑"
  },
  "9638805": {
    "zipcode": "9638805",
    "prefectureCode": "07",
    "prefectureNumber": 7,
    "prefecture": "福島県",
    "city": "郡山市",
    "town": "古屋敷"
  },
  "9638806": {
    "zipcode": "9638806",
    "prefectureCode": "07",
    "prefectureNumber": 7,
    "prefecture": "福島県",
    "city": "郡山市",
    "town": "下舘野"
  },
  "9638807": {
    "zipcode": "9638807",
    "prefectureCode": "07",
    "prefectureNumber": 7,
    "prefecture": "福島県",
    "city": "郡山市",
    "town": "佐野良"
  },
  "9638811": {
    "zipcode": "9638811",
    "prefectureCode": "07",
    "prefectureNumber": 7,
    "prefecture": "福島県",
    "city": "郡山市",
    "town": "方八町"
  },
  "9638812": {
    "zipcode": "9638812",
    "prefectureCode": "07",
    "prefectureNumber": 7,
    "prefecture": "福島県",
    "city": "郡山市",
    "town": "松木町"
  },
  "9638813": {
    "zipcode": "9638813",
    "prefectureCode": "07",
    "prefectureNumber": 7,
    "prefecture": "福島県",
    "city": "郡山市",
    "town": "芳賀"
  },
  "9638814": {
    "zipcode": "9638814",
    "prefectureCode": "07",
    "prefectureNumber": 7,
    "prefecture": "福島県",
    "city": "郡山市",
    "town": "石渕町"
  },
  "9638815": {
    "zipcode": "9638815",
    "prefectureCode": "07",
    "prefectureNumber": 7,
    "prefecture": "福島県",
    "city": "郡山市",
    "town": "水門町"
  },
  "9638816": {
    "zipcode": "9638816",
    "prefectureCode": "07",
    "prefectureNumber": 7,
    "prefecture": "福島県",
    "city": "郡山市",
    "town": "上野山"
  },
  "9638817": {
    "zipcode": "9638817",
    "prefectureCode": "07",
    "prefectureNumber": 7,
    "prefecture": "福島県",
    "city": "郡山市",
    "town": "大平町"
  },
  "9638818": {
    "zipcode": "9638818",
    "prefectureCode": "07",
    "prefectureNumber": 7,
    "prefecture": "福島県",
    "city": "郡山市",
    "town": "十貫河原"
  },
  "9638821": {
    "zipcode": "9638821",
    "prefectureCode": "07",
    "prefectureNumber": 7,
    "prefecture": "福島県",
    "city": "郡山市",
    "town": "菱田町"
  },
  "9638822": {
    "zipcode": "9638822",
    "prefectureCode": "07",
    "prefectureNumber": 7,
    "prefecture": "福島県",
    "city": "郡山市",
    "town": "昭和"
  },
  "9638823": {
    "zipcode": "9638823",
    "prefectureCode": "07",
    "prefectureNumber": 7,
    "prefecture": "福島県",
    "city": "郡山市",
    "town": "古川"
  },
  "9638824": {
    "zipcode": "9638824",
    "prefectureCode": "07",
    "prefectureNumber": 7,
    "prefecture": "福島県",
    "city": "郡山市",
    "town": "道場"
  },
  "9638825": {
    "zipcode": "9638825",
    "prefectureCode": "07",
    "prefectureNumber": 7,
    "prefecture": "福島県",
    "city": "郡山市",
    "town": "石塚"
  },
  "9638826": {
    "zipcode": "9638826",
    "prefectureCode": "07",
    "prefectureNumber": 7,
    "prefecture": "福島県",
    "city": "郡山市",
    "town": "船場向"
  },
  "9638827": {
    "zipcode": "9638827",
    "prefectureCode": "07",
    "prefectureNumber": 7,
    "prefecture": "福島県",
    "city": "郡山市",
    "town": "外河原"
  },
  "9638828": {
    "zipcode": "9638828",
    "prefectureCode": "07",
    "prefectureNumber": 7,
    "prefecture": "福島県",
    "city": "郡山市",
    "town": "大河原"
  },
  "9638829": {
    "zipcode": "9638829",
    "prefectureCode": "07",
    "prefectureNumber": 7,
    "prefecture": "福島県",
    "city": "郡山市",
    "town": "榧の木"
  },
  "9638831": {
    "zipcode": "9638831",
    "prefectureCode": "07",
    "prefectureNumber": 7,
    "prefecture": "福島県",
    "city": "郡山市",
    "town": "七ツ池町"
  },
  "9638832": {
    "zipcode": "9638832",
    "prefectureCode": "07",
    "prefectureNumber": 7,
    "prefecture": "福島県",
    "city": "郡山市",
    "town": "山根町"
  },
  "9638833": {
    "zipcode": "9638833",
    "prefectureCode": "07",
    "prefectureNumber": 7,
    "prefecture": "福島県",
    "city": "郡山市",
    "town": "香久池"
  },
  "9638834": {
    "zipcode": "9638834",
    "prefectureCode": "07",
    "prefectureNumber": 7,
    "prefecture": "福島県",
    "city": "郡山市",
    "town": "図景"
  },
  "9638835": {
    "zipcode": "9638835",
    "prefectureCode": "07",
    "prefectureNumber": 7,
    "prefecture": "福島県",
    "city": "郡山市",
    "town": "小原田"
  },
  "9638836": {
    "zipcode": "9638836",
    "prefectureCode": "07",
    "prefectureNumber": 7,
    "prefecture": "福島県",
    "city": "郡山市",
    "town": "八作内"
  },
  "9638837": {
    "zipcode": "9638837",
    "prefectureCode": "07",
    "prefectureNumber": 7,
    "prefecture": "福島県",
    "city": "郡山市",
    "town": "八木橋"
  },
  "9638838": {
    "zipcode": "9638838",
    "prefectureCode": "07",
    "prefectureNumber": 7,
    "prefecture": "福島県",
    "city": "郡山市",
    "town": "深田台"
  },
  "9638841": {
    "zipcode": "9638841",
    "prefectureCode": "07",
    "prefectureNumber": 7,
    "prefecture": "福島県",
    "city": "郡山市",
    "town": "山崎"
  },
  "9638842": {
    "zipcode": "9638842",
    "prefectureCode": "07",
    "prefectureNumber": 7,
    "prefecture": "福島県",
    "city": "郡山市",
    "town": "城清水"
  },
  "9638843": {
    "zipcode": "9638843",
    "prefectureCode": "07",
    "prefectureNumber": 7,
    "prefecture": "福島県",
    "city": "郡山市",
    "town": "川向"
  },
  "9638844": {
    "zipcode": "9638844",
    "prefectureCode": "07",
    "prefectureNumber": 7,
    "prefecture": "福島県",
    "city": "郡山市",
    "town": "賀庄"
  },
  "9638845": {
    "zipcode": "9638845",
    "prefectureCode": "07",
    "prefectureNumber": 7,
    "prefecture": "福島県",
    "city": "郡山市",
    "town": "名倉"
  },
  "9638846": {
    "zipcode": "9638846",
    "prefectureCode": "07",
    "prefectureNumber": 7,
    "prefecture": "福島県",
    "city": "郡山市",
    "town": "久留米"
  },
  "9638851": {
    "zipcode": "9638851",
    "prefectureCode": "07",
    "prefectureNumber": 7,
    "prefecture": "福島県",
    "city": "郡山市",
    "town": "開成"
  },
  "9638852": {
    "zipcode": "9638852",
    "prefectureCode": "07",
    "prefectureNumber": 7,
    "prefecture": "福島県",
    "city": "郡山市",
    "town": "台新"
  },
  "9638861": {
    "zipcode": "9638861",
    "prefectureCode": "07",
    "prefectureNumber": 7,
    "prefecture": "福島県",
    "city": "郡山市",
    "town": "鶴見坦"
  },
  "9638862": {
    "zipcode": "9638862",
    "prefectureCode": "07",
    "prefectureNumber": 7,
    "prefecture": "福島県",
    "city": "郡山市",
    "town": "菜根"
  },
  "9638863": {
    "zipcode": "9638863",
    "prefectureCode": "07",
    "prefectureNumber": 7,
    "prefecture": "福島県",
    "city": "郡山市",
    "town": "菜根屋敷"
  },
  "9638864": {
    "zipcode": "9638864",
    "prefectureCode": "07",
    "prefectureNumber": 7,
    "prefecture": "福島県",
    "city": "郡山市",
    "town": "台東"
  },
  "9638865": {
    "zipcode": "9638865",
    "prefectureCode": "07",
    "prefectureNumber": 7,
    "prefecture": "福島県",
    "city": "郡山市",
    "town": "五百渕西"
  },
  "9638866": {
    "zipcode": "9638866",
    "prefectureCode": "07",
    "prefectureNumber": 7,
    "prefecture": "福島県",
    "city": "郡山市",
    "town": "桑野清水台"
  },
  "9638867": {
    "zipcode": "9638867",
    "prefectureCode": "07",
    "prefectureNumber": 7,
    "prefecture": "福島県",
    "city": "郡山市",
    "town": "五百渕山"
  },
  "9638871": {
    "zipcode": "9638871",
    "prefectureCode": "07",
    "prefectureNumber": 7,
    "prefecture": "福島県",
    "city": "郡山市",
    "town": "本町"
  },
  "9638872": {
    "zipcode": "9638872",
    "prefectureCode": "07",
    "prefectureNumber": 7,
    "prefecture": "福島県",
    "city": "郡山市",
    "town": "栄町"
  },
  "9638873": {
    "zipcode": "9638873",
    "prefectureCode": "07",
    "prefectureNumber": 7,
    "prefecture": "福島県",
    "city": "郡山市",
    "town": "愛宕町"
  },
  "9638874": {
    "zipcode": "9638874",
    "prefectureCode": "07",
    "prefectureNumber": 7,
    "prefecture": "福島県",
    "city": "郡山市",
    "town": "深沢"
  },
  "9638875": {
    "zipcode": "9638875",
    "prefectureCode": "07",
    "prefectureNumber": 7,
    "prefecture": "福島県",
    "city": "郡山市",
    "town": "池ノ台"
  },
  "9638876": {
    "zipcode": "9638876",
    "prefectureCode": "07",
    "prefectureNumber": 7,
    "prefecture": "福島県",
    "city": "郡山市",
    "town": "麓山"
  },
  "9638877": {
    "zipcode": "9638877",
    "prefectureCode": "07",
    "prefectureNumber": 7,
    "prefecture": "福島県",
    "city": "郡山市",
    "town": "堂前町"
  },
  "9638878": {
    "zipcode": "9638878",
    "prefectureCode": "07",
    "prefectureNumber": 7,
    "prefecture": "福島県",
    "city": "郡山市",
    "town": "堤下町"
  }
}
