{
  "9650000": {
    "zipcode": "9650000",
    "prefectureCode": "07",
    "prefectureNumber": 7,
    "prefecture": "福島県",
    "city": "会津若松市",
    "town": "以下に掲載がない場合"
  },
  "9650001": {
    "zipcode": "9650001",
    "prefectureCode": "07",
    "prefectureNumber": 7,
    "prefecture": "福島県",
    "city": "会津若松市",
    "town": "一箕町松長"
  },
  "9650002": {
    "zipcode": "9650002",
    "prefectureCode": "07",
    "prefectureNumber": 7,
    "prefecture": "福島県",
    "city": "会津若松市",
    "town": "一箕町金堀"
  },
  "9650003": {
    "zipcode": "9650003",
    "prefectureCode": "07",
    "prefectureNumber": 7,
    "prefecture": "福島県",
    "city": "会津若松市",
    "town": "一箕町八幡"
  },
  "9650004": {
    "zipcode": "9650004",
    "prefectureCode": "07",
    "prefectureNumber": 7,
    "prefecture": "福島県",
    "city": "会津若松市",
    "town": "一箕町八角"
  },
  "9650005": {
    "zipcode": "9650005",
    "prefectureCode": "07",
    "prefectureNumber": 7,
    "prefecture": "福島県",
    "city": "会津若松市",
    "town": "一箕町亀賀"
  },
  "9650006": {
    "zipcode": "9650006",
    "prefectureCode": "07",
    "prefectureNumber": 7,
    "prefecture": "福島県",
    "city": "会津若松市",
    "town": "一箕町鶴賀"
  },
  "9650007": {
    "zipcode": "9650007",
    "prefectureCode": "07",
    "prefectureNumber": 7,
    "prefecture": "福島県",
    "city": "会津若松市",
    "town": "飯盛"
  },
  "9650008": {
    "zipcode": "9650008",
    "prefectureCode": "07",
    "prefectureNumber": 7,
    "prefecture": "福島県",
    "city": "会津若松市",
    "town": "桧町"
  },
  "9650009": {
    "zipcode": "9650009",
    "prefectureCode": "07",
    "prefectureNumber": 7,
    "prefecture": "福島県",
    "city": "会津若松市",
    "town": "八角町"
  },
  "9650011": {
    "zipcode": "9650011",
    "prefectureCode": "07",
    "prefectureNumber": 7,
    "prefecture": "福島県",
    "city": "会津若松市",
    "town": "鶴賀町"
  },
  "9650012": {
    "zipcode": "9650012",
    "prefectureCode": "07",
    "prefectureNumber": 7,
    "prefecture": "福島県",
    "city": "会津若松市",
    "town": "居合町"
  },
  "9650013": {
    "zipcode": "9650013",
    "prefectureCode": "07",
    "prefectureNumber": 7,
    "prefecture": "福島県",
    "city": "会津若松市",
    "town": "堤町"
  },
  "9650014": {
    "zipcode": "9650014",
    "prefectureCode": "07",
    "prefectureNumber": 7,
    "prefecture": "福島県",
    "city": "会津若松市",
    "town": "大塚"
  },
  "9650015": {
    "zipcode": "9650015",
    "prefectureCode": "07",
    "prefectureNumber": 7,
    "prefecture": "福島県",
    "city": "会津若松市",
    "town": "北滝沢"
  },
  "9650016": {
    "zipcode": "9650016",
    "prefectureCode": "07",
    "prefectureNumber": 7,
    "prefecture": "福島県",
    "city": "会津若松市",
    "town": "中島町"
  },
  "9650020": {
    "zipcode": "9650020",
    "prefectureCode": "07",
    "prefectureNumber": 7,
    "prefecture": "福島県",
    "city": "会津若松市",
    "town": "山見"
  },
  "9650021": {
    "zipcode": "9650021",
    "prefectureCode": "07",
    "prefectureNumber": 7,
    "prefecture": "福島県",
    "city": "会津若松市",
    "town": "山見町"
  },
  "9650022": {
    "zipcode": "9650022",
    "prefectureCode": "07",
    "prefectureNumber": 7,
    "prefecture": "福島県",
    "city": "会津若松市",
    "town": "滝沢町"
  },
  "9650023": {
    "zipcode": "9650023",
    "prefectureCode": "07",
    "prefectureNumber": 7,
    "prefecture": "福島県",
    "city": "会津若松市",
    "town": "蚕養町"
  },
  "9650024": {
    "zipcode": "9650024",
    "prefectureCode": "07",
    "prefectureNumber": 7,
    "prefecture": "福島県",
    "city": "会津若松市",
    "town": "白虎町"
  },
  "9650025": {
    "zipcode": "9650025",
    "prefectureCode": "07",
    "prefectureNumber": 7,
    "prefecture": "福島県",
    "city": "会津若松市",
    "town": "扇町"
  },
  "9650026": {
    "zipcode": "9650026",
    "prefectureCode": "07",
    "prefectureNumber": 7,
    "prefecture": "福島県",
    "city": "会津若松市",
    "town": "平安町"
  },
  "9650027": {
    "zipcode": "9650027",
    "prefectureCode": "07",
    "prefectureNumber": 7,
    "prefecture": "福島県",
    "city": "会津若松市",
    "town": "花畑東"
  },
  "9650028": {
    "zipcode": "9650028",
    "prefectureCode": "07",
    "prefectureNumber": 7,
    "prefecture": "福島県",
    "city": "会津若松市",
    "town": "亀賀"
  },
  "9650029": {
    "zipcode": "9650029",
    "prefectureCode": "07",
    "prefectureNumber": 7,
    "prefecture": "福島県",
    "city": "会津若松市",
    "town": "藤原"
  },
  "9650031": {
    "zipcode": "9650031",
    "prefectureCode": "07",
    "prefectureNumber": 7,
    "prefecture": "福島県",
    "city": "会津若松市",
    "town": "相生町"
  },
  "9650032": {
    "zipcode": "9650032",
    "prefectureCode": "07",
    "prefectureNumber": 7,
    "prefecture": "福島県",
    "city": "会津若松市",
    "town": "旭町"
  },
  "9650033": {
    "zipcode": "9650033",
    "prefectureCode": "07",
    "prefectureNumber": 7,
    "prefecture": "福島県",
    "city": "会津若松市",
    "town": "行仁町"
  },
  "9650034": {
    "zipcode": "9650034",
    "prefectureCode": "07",
    "prefectureNumber": 7,
    "prefecture": "福島県",
    "city": "会津若松市",
    "town": "上町"
  },
  "9650035": {
    "zipcode": "9650035",
    "prefectureCode": "07",
    "prefectureNumber": 7,
    "prefecture": "福島県",
    "city": "会津若松市",
    "town": "馬場町"
  },
  "9650036": {
    "zipcode": "9650036",
    "prefectureCode": "07",
    "prefectureNumber": 7,
    "prefecture": "福島県",
    "city": "会津若松市",
    "town": "馬場本町"
  },
  "9650037": {
    "zipcode": "9650037",
    "prefectureCode": "07",
    "prefectureNumber": 7,
    "prefecture": "福島県",
    "city": "会津若松市",
    "town": "中央"
  },
  "9650038": {
    "zipcode": "9650038",
    "prefectureCode": "07",
    "prefectureNumber": 7,
    "prefecture": "福島県",
    "city": "会津若松市",
    "town": "昭和町"
  },
  "9650039": {
    "zipcode": "9650039",
    "prefectureCode": "07",
    "prefectureNumber": 7,
    "prefecture": "福島県",
    "city": "会津若松市",
    "town": "白虎"
  },
  "9650041": {
    "zipcode": "9650041",
    "prefectureCode": "07",
    "prefectureNumber": 7,
    "prefecture": "福島県",
    "city": "会津若松市",
    "town": "駅前町"
  },
  "9650042": {
    "zipcode": "9650042",
    "prefectureCode": "07",
    "prefectureNumber": 7,
    "prefecture": "福島県",
    "city": "会津若松市",
    "town": "大町"
  },
  "9650043": {
    "zipcode": "9650043",
    "prefectureCode": "07",
    "prefectureNumber": 7,
    "prefecture": "福島県",
    "city": "会津若松市",
    "town": "城北町"
  },
  "9650044": {
    "zipcode": "9650044",
    "prefectureCode": "07",
    "prefectureNumber": 7,
    "prefecture": "福島県",
    "city": "会津若松市",
    "town": "七日町"
  },
  "9650045": {
    "zipcode": "9650045",
    "prefectureCode": "07",
    "prefectureNumber": 7,
    "prefecture": "福島県",
    "city": "会津若松市",
    "town": "西七日町"
  },
  "9650046": {
    "zipcode": "9650046",
    "prefectureCode": "07",
    "prefectureNumber": 7,
    "prefecture": "福島県",
    "city": "会津若松市",
    "town": "八日町"
  },
  "9650047": {
    "zipcode": "9650047",
    "prefectureCode": "07",
    "prefectureNumber": 7,
    "prefecture": "福島県",
    "city": "会津若松市",
    "town": "五月町"
  },
  "9650048": {
    "zipcode": "9650048",
    "prefectureCode": "07",
    "prefectureNumber": 7,
    "prefecture": "福島県",
    "city": "会津若松市",
    "town": "橋本"
  },
  "9650051": {
    "zipcode": "9650051",
    "prefectureCode": "07",
    "prefectureNumber": 7,
    "prefecture": "福島県",
    "city": "会津若松市",
    "town": "町北町谷地"
  },
  "9650052": {
    "zipcode": "9650052",
    "prefectureCode": "07",
    "prefectureNumber": 7,
    "prefecture": "福島県",
    "city": "会津若松市",
    "town": "町北町始"
  },
  "9650053": {
    "zipcode": "9650053",
    "prefectureCode": "07",
    "prefectureNumber": 7,
    "prefecture": "福島県",
    "city": "会津若松市",
    "town": "町北町上荒久田"
  },
  "9650054": {
    "zipcode": "9650054",
    "prefectureCode": "07",
    "prefectureNumber": 7,
    "prefecture": "福島県",
    "city": "会津若松市",
    "town": "町北町石堂"
  },
  "9650055": {
    "zipcode": "9650055",
    "prefectureCode": "07",
    "prefectureNumber": 7,
    "prefecture": "福島県",
    "city": "会津若松市",
    "town": "石堂町"
  },
  "9650056": {
    "zipcode": "9650056",
    "prefectureCode": "07",
    "prefectureNumber": 7,
    "prefecture": "福島県",
    "city": "会津若松市",
    "town": "金川町"
  },
  "9650057": {
    "zipcode": "9650057",
    "prefectureCode": "07",
    "prefectureNumber": 7,
    "prefecture": "福島県",
    "city": "会津若松市",
    "town": "町北町藤室"
  },
  "9650058": {
    "zipcode": "9650058",
    "prefectureCode": "07",
    "prefectureNumber": 7,
    "prefecture": "福島県",
    "city": "会津若松市",
    "town": "町北町中沢"
  },
  "9650059": {
    "zipcode": "9650059",
    "prefectureCode": "07",
    "prefectureNumber": 7,
    "prefecture": "福島県",
    "city": "会津若松市",
    "town": "インター西"
  },
  "9650060": {
    "zipcode": "9650060",
    "prefectureCode": "07",
    "prefectureNumber": 7,
    "prefecture": "福島県",
    "city": "会津若松市",
    "town": "高久工業団地"
  },
  "9650061": {
    "zipcode": "9650061",
    "prefectureCode": "07",
    "prefectureNumber": 7,
    "prefecture": "福島県",
    "city": "会津若松市",
    "town": "神指町高久"
  },
  "9650062": {
    "zipcode": "9650062",
    "prefectureCode": "07",
    "prefectureNumber": 7,
    "prefecture": "福島県",
    "city": "会津若松市",
    "town": "神指町北四合"
  },
  "9650063": {
    "zipcode": "9650063",
    "prefectureCode": "07",
    "prefectureNumber": 7,
    "prefecture": "福島県",
    "city": "会津若松市",
    "town": "神指町高瀬"
  },
  "9650064": {
    "zipcode": "9650064",
    "prefectureCode": "07",
    "prefectureNumber": 7,
    "prefecture": "福島県",
    "city": "会津若松市",
    "town": "神指町黒川"
  },
  "9650065": {
    "zipcode": "9650065",
    "prefectureCode": "07",
    "prefectureNumber": 7,
    "prefecture": "福島県",
    "city": "会津若松市",
    "town": "神指町中四合"
  },
  "9650066": {
    "zipcode": "9650066",
    "prefectureCode": "07",
    "prefectureNumber": 7,
    "prefecture": "福島県",
    "city": "会津若松市",
    "town": "神指町横沼"
  },
  "9650067": {
    "zipcode": "9650067",
    "prefectureCode": "07",
    "prefectureNumber": 7,
    "prefecture": "福島県",
    "city": "会津若松市",
    "town": "神指町下神指"
  },
  "9650068": {
    "zipcode": "9650068",
    "prefectureCode": "07",
    "prefectureNumber": 7,
    "prefecture": "福島県",
    "city": "会津若松市",
    "town": "神指町小見"
  },
  "9650069": {
    "zipcode": "9650069",
    "prefectureCode": "07",
    "prefectureNumber": 7,
    "prefecture": "福島県",
    "city": "会津若松市",
    "town": "神指町天満"
  },
  "9650071": {
    "zipcode": "9650071",
    "prefectureCode": "07",
    "prefectureNumber": 7,
    "prefecture": "福島県",
    "city": "会津若松市",
    "town": "高野町木流"
  },
  "9650072": {
    "zipcode": "9650072",
    "prefectureCode": "07",
    "prefectureNumber": 7,
    "prefecture": "福島県",
    "city": "会津若松市",
    "town": "高野町橋本木流"
  },
  "9650073": {
    "zipcode": "9650073",
    "prefectureCode": "07",
    "prefectureNumber": 7,
    "prefecture": "福島県",
    "city": "会津若松市",
    "town": "高野町上沼"
  },
  "9650074": {
    "zipcode": "9650074",
    "prefectureCode": "07",
    "prefectureNumber": 7,
    "prefecture": "福島県",
    "city": "会津若松市",
    "town": "高野町平塚"
  },
  "9650075": {
    "zipcode": "9650075",
    "prefectureCode": "07",
    "prefectureNumber": 7,
    "prefecture": "福島県",
    "city": "会津若松市",
    "town": "高野町中前田"
  },
  "9650076": {
    "zipcode": "9650076",
    "prefectureCode": "07",
    "prefectureNumber": 7,
    "prefecture": "福島県",
    "city": "会津若松市",
    "town": "高野町中沼"
  },
  "9650077": {
    "zipcode": "9650077",
    "prefectureCode": "07",
    "prefectureNumber": 7,
    "prefecture": "福島県",
    "city": "会津若松市",
    "town": "高野町上高野"
  },
  "9650078": {
    "zipcode": "9650078",
    "prefectureCode": "07",
    "prefectureNumber": 7,
    "prefecture": "福島県",
    "city": "会津若松市",
    "town": "高野町柳川"
  },
  "9650079": {
    "zipcode": "9650079",
    "prefectureCode": "07",
    "prefectureNumber": 7,
    "prefecture": "福島県",
    "city": "会津若松市",
    "town": "高野町界沢"
  },
  "9650080": {
    "zipcode": "9650080",
    "prefectureCode": "07",
    "prefectureNumber": 7,
    "prefecture": "福島県",
    "city": "会津若松市",
    "town": "神指町橋本"
  },
  "9650081": {
    "zipcode": "9650081",
    "prefectureCode": "07",
    "prefectureNumber": 7,
    "prefecture": "福島県",
    "city": "会津若松市",
    "town": "神指町西城戸"
  },
  "9650082": {
    "zipcode": "9650082",
    "prefectureCode": "07",
    "prefectureNumber": 7,
    "prefecture": "福島県",
    "city": "会津若松市",
    "town": "神指町榎木檀"
  },
  "9650083": {
    "zipcode": "9650083",
    "prefectureCode": "07",
    "prefectureNumber": 7,
    "prefecture": "福島県",
    "city": "会津若松市",
    "town": "神指町上神指"
  },
  "9650084": {
    "zipcode": "9650084",
    "prefectureCode": "07",
    "prefectureNumber": 7,
    "prefecture": "福島県",
    "city": "会津若松市",
    "town": "神指町東神指"
  },
  "9650085": {
    "zipcode": "9650085",
    "prefectureCode": "07",
    "prefectureNumber": 7,
    "prefecture": "福島県",
    "city": "会津若松市",
    "town": "神指町如来堂"
  },
  "9650086": {
    "zipcode": "9650086",
    "prefectureCode": "07",
    "prefectureNumber": 7,
    "prefecture": "福島県",
    "city": "会津若松市",
    "town": "神指町本丸"
  },
  "9650087": {
    "zipcode": "9650087",
    "prefectureCode": "07",
    "prefectureNumber": 7,
    "prefecture": "福島県",
    "city": "会津若松市",
    "town": "神指町高瀬新田"
  },
  "9650088": {
    "zipcode": "9650088",
    "prefectureCode": "07",
    "prefectureNumber": 7,
    "prefecture": "福島県",
    "city": "会津若松市",
    "town": "町北町中沢西"
  },
  "9650089": {
    "zipcode": "9650089",
    "prefectureCode": "07",
    "prefectureNumber": 7,
    "prefecture": "福島県",
    "city": "会津若松市",
    "town": "神指町東城戸"
  },
  "9650101": {
    "zipcode": "9650101",
    "prefectureCode": "07",
    "prefectureNumber": 7,
    "prefecture": "福島県",
    "city": "会津若松市",
    "town": "北会津町真宮"
  },
  "9650102": {
    "zipcode": "9650102",
    "prefectureCode": "07",
    "prefectureNumber": 7,
    "prefecture": "福島県",
    "city": "会津若松市",
    "town": "真宮新町北"
  },
  "9650103": {
    "zipcode": "9650103",
    "prefectureCode": "07",
    "prefectureNumber": 7,
    "prefecture": "福島県",
    "city": "会津若松市",
    "town": "真宮新町南"
  },
  "9650107": {
    "zipcode": "9650107",
    "prefectureCode": "07",
    "prefectureNumber": 7,
    "prefecture": "福島県",
    "city": "会津若松市",
    "town": "北会津町和泉"
  },
  "9650110": {
    "zipcode": "9650110",
    "prefectureCode": "07",
    "prefectureNumber": 7,
    "prefecture": "福島県",
    "city": "会津若松市",
    "town": "北会津町中里"
  },
  "9650111": {
    "zipcode": "9650111",
    "prefectureCode": "07",
    "prefectureNumber": 7,
    "prefecture": "福島県",
    "city": "会津若松市",
    "town": "北会津町下荒井"
  },
  "9650112": {
    "zipcode": "9650112",
    "prefectureCode": "07",
    "prefectureNumber": 7,
    "prefecture": "福島県",
    "city": "会津若松市",
    "town": "北会津町白山"
  },
  "9650113": {
    "zipcode": "9650113",
    "prefectureCode": "07",
    "prefectureNumber": 7,
    "prefecture": "福島県",
    "city": "会津若松市",
    "town": "北会津町安良田"
  },
  "9650114": {
    "zipcode": "9650114",
    "prefectureCode": "07",
    "prefectureNumber": 7,
    "prefecture": "福島県",
    "city": "会津若松市",
    "town": "北会津町宮ノ下"
  },
  "9650115": {
    "zipcode": "9650115",
    "prefectureCode": "07",
    "prefectureNumber": 7,
    "prefecture": "福島県",
    "city": "会津若松市",
    "town": "北会津町舘"
  },
  "9650116": {
    "zipcode": "9650116",
    "prefectureCode": "07",
    "prefectureNumber": 7,
    "prefecture": "福島県",
    "city": "会津若松市",
    "town": "北会津町出尻"
  },
  "9650117": {
    "zipcode": "9650117",
    "prefectureCode": "07",
    "prefectureNumber": 7,
    "prefecture": "福島県",
    "city": "会津若松市",
    "town": "北会津町田村山"
  },
  "9650118": {
    "zipcode": "9650118",
    "prefectureCode": "07",
    "prefectureNumber": 7,
    "prefecture": "福島県",
    "city": "会津若松市",
    "town": "北会津町石原"
  },
  "9650121": {
    "zipcode": "9650121",
    "prefectureCode": "07",
    "prefectureNumber": 7,
    "prefecture": "福島県",
    "city": "会津若松市",
    "town": "北会津町蟹川"
  },
  "9650124": {
    "zipcode": "9650124",
    "prefectureCode": "07",
    "prefectureNumber": 7,
    "prefecture": "福島県",
    "city": "会津若松市",
    "town": "北会津町宮袋"
  },
  "9650126": {
    "zipcode": "9650126",
    "prefectureCode": "07",
    "prefectureNumber": 7,
    "prefecture": "福島県",
    "city": "会津若松市",
    "town": "北会津町鷺林"
  },
  "9650127": {
    "zipcode": "9650127",
    "prefectureCode": "07",
    "prefectureNumber": 7,
    "prefecture": "福島県",
    "city": "会津若松市",
    "town": "北会津町宮袋新田"
  },
  "9650128": {
    "zipcode": "9650128",
    "prefectureCode": "07",
    "prefectureNumber": 7,
    "prefecture": "福島県",
    "city": "会津若松市",
    "town": "北会津町十二所"
  },
  "9650129": {
    "zipcode": "9650129",
    "prefectureCode": "07",
    "prefectureNumber": 7,
    "prefecture": "福島県",
    "city": "会津若松市",
    "town": "北会津町本田"
  },
  "9650131": {
    "zipcode": "9650131",
    "prefectureCode": "07",
    "prefectureNumber": 7,
    "prefecture": "福島県",
    "city": "会津若松市",
    "town": "北会津町中荒井"
  },
  "9650132": {
    "zipcode": "9650132",
    "prefectureCode": "07",
    "prefectureNumber": 7,
    "prefecture": "福島県",
    "city": "会津若松市",
    "town": "北会津町ほたるの森"
  },
  "9650133": {
    "zipcode": "9650133",
    "prefectureCode": "07",
    "prefectureNumber": 7,
    "prefecture": "福島県",
    "city": "会津若松市",
    "town": "北会津町二日町"
  },
  "9650134": {
    "zipcode": "9650134",
    "prefectureCode": "07",
    "prefectureNumber": 7,
    "prefecture": "福島県",
    "city": "会津若松市",
    "town": "北会津町東麻生"
  },
  "9650135": {
    "zipcode": "9650135",
    "prefectureCode": "07",
    "prefectureNumber": 7,
    "prefecture": "福島県",
    "city": "会津若松市",
    "town": "北会津町寺堀"
  },
  "9650136": {
    "zipcode": "9650136",
    "prefectureCode": "07",
    "prefectureNumber": 7,
    "prefecture": "福島県",
    "city": "会津若松市",
    "town": "北会津町今和泉"
  },
  "9650201": {
    "zipcode": "9650201",
    "prefectureCode": "07",
    "prefectureNumber": 7,
    "prefecture": "福島県",
    "city": "会津若松市",
    "town": "湊町赤井"
  },
  "9650202": {
    "zipcode": "9650202",
    "prefectureCode": "07",
    "prefectureNumber": 7,
    "prefecture": "福島県",
    "city": "会津若松市",
    "town": "湊町共和"
  },
  "9650203": {
    "zipcode": "9650203",
    "prefectureCode": "07",
    "prefectureNumber": 7,
    "prefecture": "福島県",
    "city": "会津若松市",
    "town": "湊町静潟"
  },
  "9650204": {
    "zipcode": "9650204",
    "prefectureCode": "07",
    "prefectureNumber": 7,
    "prefecture": "福島県",
    "city": "会津若松市",
    "town": "湊町原"
  },
  "9650205": {
    "zipcode": "9650205",
    "prefectureCode": "07",
    "prefectureNumber": 7,
    "prefecture": "福島県",
    "city": "会津若松市",
    "town": "湊町平潟"
  },
  "9650801": {
    "zipcode": "9650801",
    "prefectureCode": "07",
    "prefectureNumber": 7,
    "prefecture": "福島県",
    "city": "会津若松市",
    "town": "宮町"
  },
  "9650802": {
    "zipcode": "9650802",
    "prefectureCode": "07",
    "prefectureNumber": 7,
    "prefecture": "福島県",
    "city": "会津若松市",
    "town": "徒之町"
  },
  "9650803": {
    "zipcode": "9650803",
    "prefectureCode": "07",
    "prefectureNumber": 7,
    "prefecture": "福島県",
    "city": "会津若松市",
    "town": "城前"
  },
  "9650804": {
    "zipcode": "9650804",
    "prefectureCode": "07",
    "prefectureNumber": 7,
    "prefecture": "福島県",
    "city": "会津若松市",
    "town": "花春町"
  },
  "9650805": {
    "zipcode": "9650805",
    "prefectureCode": "07",
    "prefectureNumber": 7,
    "prefecture": "福島県",
    "city": "会津若松市",
    "town": "天寧寺町"
  },
  "9650806": {
    "zipcode": "9650806",
    "prefectureCode": "07",
    "prefectureNumber": 7,
    "prefecture": "福島県",
    "city": "会津若松市",
    "town": "宝町"
  },
  "9650807": {
    "zipcode": "9650807",
    "prefectureCode": "07",
    "prefectureNumber": 7,
    "prefecture": "福島県",
    "city": "会津若松市",
    "town": "城東町"
  },
  "9650808": {
    "zipcode": "9650808",
    "prefectureCode": "07",
    "prefectureNumber": 7,
    "prefecture": "福島県",
    "city": "会津若松市",
    "town": "南町"
  },
  "9650809": {
    "zipcode": "9650809",
    "prefectureCode": "07",
    "prefectureNumber": 7,
    "prefecture": "福島県",
    "city": "会津若松市",
    "town": "城南町"
  },
  "9650811": {
    "zipcode": "9650811",
    "prefectureCode": "07",
    "prefectureNumber": 7,
    "prefecture": "福島県",
    "city": "会津若松市",
    "town": "和田"
  },
  "9650812": {
    "zipcode": "9650812",
    "prefectureCode": "07",
    "prefectureNumber": 7,
    "prefecture": "福島県",
    "city": "会津若松市",
    "town": "慶山"
  },
  "9650813": {
    "zipcode": "9650813",
    "prefectureCode": "07",
    "prefectureNumber": 7,
    "prefecture": "福島県",
    "city": "会津若松市",
    "town": "東山町石山"
  },
  "9650814": {
    "zipcode": "9650814",
    "prefectureCode": "07",
    "prefectureNumber": 7,
    "prefecture": "福島県",
    "city": "会津若松市",
    "town": "東山町湯本"
  },
  "9650815": {
    "zipcode": "9650815",
    "prefectureCode": "07",
    "prefectureNumber": 7,
    "prefecture": "福島県",
    "city": "会津若松市",
    "town": "東山町湯川"
  },
  "9650816": {
    "zipcode": "9650816",
    "prefectureCode": "07",
    "prefectureNumber": 7,
    "prefecture": "福島県",
    "city": "会津若松市",
    "town": "南千石町"
  },
  "9650817": {
    "zipcode": "9650817",
    "prefectureCode": "07",
    "prefectureNumber": 7,
    "prefecture": "福島県",
    "city": "会津若松市",
    "town": "千石町"
  },
  "9650818": {
    "zipcode": "9650818",
    "prefectureCode": "07",
    "prefectureNumber": 7,
    "prefecture": "福島県",
    "city": "会津若松市",
    "town": "東千石"
  },
  "9650821": {
    "zipcode": "9650821",
    "prefectureCode": "07",
    "prefectureNumber": 7,
    "prefecture": "福島県",
    "city": "会津若松市",
    "town": "湯川南"
  },
  "9650822": {
    "zipcode": "9650822",
    "prefectureCode": "07",
    "prefectureNumber": 7,
    "prefecture": "福島県",
    "city": "会津若松市",
    "town": "花見ケ丘"
  },
  "9650823": {
    "zipcode": "9650823",
    "prefectureCode": "07",
    "prefectureNumber": 7,
    "prefecture": "福島県",
    "city": "会津若松市",
    "town": "建福寺前"
  },
  "9650824": {
    "zipcode": "9650824",
    "prefectureCode": "07",
    "prefectureNumber": 7,
    "prefecture": "福島県",
    "city": "会津若松市",
    "town": "北青木"
  },
  "9650825": {
    "zipcode": "9650825",
    "prefectureCode": "07",
    "prefectureNumber": 7,
    "prefecture": "福島県",
    "city": "会津若松市",
    "town": "門田町黒岩"
  },
  "9650826": {
    "zipcode": "9650826",
    "prefectureCode": "07",
    "prefectureNumber": 7,
    "prefecture": "福島県",
    "city": "会津若松市",
    "town": "門田町御山"
  },
  "9650827": {
    "zipcode": "9650827",
    "prefectureCode": "07",
    "prefectureNumber": 7,
    "prefecture": "福島県",
    "city": "会津若松市",
    "town": "門田町堤沢"
  },
  "9650828": {
    "zipcode": "9650828",
    "prefectureCode": "07",
    "prefectureNumber": 7,
    "prefecture": "福島県",
    "city": "会津若松市",
    "town": "門田町面川"
  },
  "9650829": {
    "zipcode": "9650829",
    "prefectureCode": "07",
    "prefectureNumber": 7,
    "prefecture": "福島県",
    "city": "会津若松市",
    "town": "門田町根岸東"
  },
  "9650830": {
    "zipcode": "9650830",
    "prefectureCode": "07",
    "prefectureNumber": 7,
    "prefecture": "福島県",
    "city": "会津若松市",
    "town": "西年貢"
  },
  "9650831": {
    "zipcode": "9650831",
    "prefectureCode": "07",
    "prefectureNumber": 7,
    "prefecture": "福島県",
    "city": "会津若松市",
    "town": "表町"
  },
  "9650832": {
    "zipcode": "9650832",
    "prefectureCode": "07",
    "prefectureNumber": 7,
    "prefecture": "福島県",
    "city": "会津若松市",
    "town": "天神町"
  },
  "9650833": {
    "zipcode": "9650833",
    "prefectureCode": "07",
    "prefectureNumber": 7,
    "prefecture": "福島県",
    "city": "会津若松市",
    "town": "明和町"
  },
  "9650834": {
    "zipcode": "9650834",
    "prefectureCode": "07",
    "prefectureNumber": 7,
    "prefecture": "福島県",
    "city": "会津若松市",
    "town": "門田町年貢町"
  },
  "9650835": {
    "zipcode": "9650835",
    "prefectureCode": "07",
    "prefectureNumber": 7,
    "prefecture": "福島県",
    "city": "会津若松市",
    "town": "館馬町"
  },
  "9650836": {
    "zipcode": "9650836",
    "prefectureCode": "07",
    "prefectureNumber": 7,
    "prefecture": "福島県",
    "city": "会津若松市",
    "town": "館脇町"
  },
  "9650837": {
    "zipcode": "9650837",
    "prefectureCode": "07",
    "prefectureNumber": 7,
    "prefecture": "福島県",
    "city": "会津若松市",
    "town": "錦町"
  },
  "9650838": {
    "zipcode": "9650838",
    "prefectureCode": "07",
    "prefectureNumber": 7,
    "prefecture": "福島県",
    "city": "会津若松市",
    "town": "古川町"
  },
  "9650839": {
    "zipcode": "9650839",
    "prefectureCode": "07",
    "prefectureNumber": 7,
    "prefecture": "福島県",
    "city": "会津若松市",
    "town": "東年貢"
  },
  "9650840": {
    "zipcode": "9650840",
    "prefectureCode": "07",
    "prefectureNumber": 7,
    "prefecture": "福島県",
    "city": "会津若松市",
    "town": "飯寺南"
  },
  "9650841": {
    "zipcode": "9650841",
    "prefectureCode": "07",
    "prefectureNumber": 7,
    "prefecture": "福島県",
    "city": "会津若松市",
    "town": "門田町日吉"
  },
  "9650842": {
    "zipcode": "9650842",
    "prefectureCode": "07",
    "prefectureNumber": 7,
    "prefecture": "福島県",
    "city": "会津若松市",
    "town": "門田町中野"
  },
  "9650843": {
    "zipcode": "9650843",
    "prefectureCode": "07",
    "prefectureNumber": 7,
    "prefecture": "福島県",
    "city": "会津若松市",
    "town": "門田町徳久"
  },
  "9650844": {
    "zipcode": "9650844",
    "prefectureCode": "07",
    "prefectureNumber": 7,
    "prefecture": "福島県",
    "city": "会津若松市",
    "town": "門田町一ノ堰"
  },
  "9650845": {
    "zipcode": "9650845",
    "prefectureCode": "07",
    "prefectureNumber": 7,
    "prefecture": "福島県",
    "city": "会津若松市",
    "town": "門田町工業団地"
  },
  "9650846": {
    "zipcode": "9650846",
    "prefectureCode": "07",
    "prefectureNumber": 7,
    "prefecture": "福島県",
    "city": "会津若松市",
    "town": "門田町飯寺"
  },
  "9650847": {
    "zipcode": "9650847",
    "prefectureCode": "07",
    "prefectureNumber": 7,
    "prefecture": "福島県",
    "city": "会津若松市",
    "town": "対馬館町"
  },
  "9650848": {
    "zipcode": "9650848",
    "prefectureCode": "07",
    "prefectureNumber": 7,
    "prefecture": "福島県",
    "city": "会津若松市",
    "town": "飯寺北"
  },
  "9650849": {
    "zipcode": "9650849",
    "prefectureCode": "07",
    "prefectureNumber": 7,
    "prefecture": "福島県",
    "city": "会津若松市",
    "town": "幕内南町"
  },
  "9650851": {
    "zipcode": "9650851",
    "prefectureCode": "07",
    "prefectureNumber": 7,
    "prefecture": "福島県",
    "city": "会津若松市",
    "town": "御旗町"
  },
  "9650852": {
    "zipcode": "9650852",
    "prefectureCode": "07",
    "prefectureNumber": 7,
    "prefecture": "福島県",
    "city": "会津若松市",
    "town": "日吉町"
  },
  "9650853": {
    "zipcode": "9650853",
    "prefectureCode": "07",
    "prefectureNumber": 7,
    "prefecture": "福島県",
    "city": "会津若松市",
    "town": "材木町"
  },
  "9650854": {
    "zipcode": "9650854",
    "prefectureCode": "07",
    "prefectureNumber": 7,
    "prefecture": "福島県",
    "city": "会津若松市",
    "town": "桜町"
  },
  "9650855": {
    "zipcode": "9650855",
    "prefectureCode": "07",
    "prefectureNumber": 7,
    "prefecture": "福島県",
    "city": "会津若松市",
    "town": "住吉町"
  },
  "9650856": {
    "zipcode": "9650856",
    "prefectureCode": "07",
    "prefectureNumber": 7,
    "prefecture": "福島県",
    "city": "会津若松市",
    "town": "幕内東町"
  },
  "9650857": {
    "zipcode": "9650857",
    "prefectureCode": "07",
    "prefectureNumber": 7,
    "prefecture": "福島県",
    "city": "会津若松市",
    "town": "柳原町"
  },
  "9650858": {
    "zipcode": "9650858",
    "prefectureCode": "07",
    "prefectureNumber": 7,
    "prefecture": "福島県",
    "city": "会津若松市",
    "town": "神指町南四合"
  },
  "9650859": {
    "zipcode": "9650859",
    "prefectureCode": "07",
    "prefectureNumber": 7,
    "prefecture": "福島県",
    "city": "会津若松市",
    "town": "神指町幕内"
  },
  "9650861": {
    "zipcode": "9650861",
    "prefectureCode": "07",
    "prefectureNumber": 7,
    "prefecture": "福島県",
    "city": "会津若松市",
    "town": "日新町"
  },
  "9650862": {
    "zipcode": "9650862",
    "prefectureCode": "07",
    "prefectureNumber": 7,
    "prefecture": "福島県",
    "city": "会津若松市",
    "town": "本町"
  },
  "9650863": {
    "zipcode": "9650863",
    "prefectureCode": "07",
    "prefectureNumber": 7,
    "prefecture": "福島県",
    "city": "会津若松市",
    "town": "湯川町"
  },
  "9650864": {
    "zipcode": "9650864",
    "prefectureCode": "07",
    "prefectureNumber": 7,
    "prefecture": "福島県",
    "city": "会津若松市",
    "town": "城西町"
  },
  "9650865": {
    "zipcode": "9650865",
    "prefectureCode": "07",
    "prefectureNumber": 7,
    "prefecture": "福島県",
    "city": "会津若松市",
    "town": "川原町"
  },
  "9650866": {
    "zipcode": "9650866",
    "prefectureCode": "07",
    "prefectureNumber": 7,
    "prefecture": "福島県",
    "city": "会津若松市",
    "town": "新横町"
  },
  "9650867": {
    "zipcode": "9650867",
    "prefectureCode": "07",
    "prefectureNumber": 7,
    "prefecture": "福島県",
    "city": "会津若松市",
    "town": "緑町"
  },
  "9650871": {
    "zipcode": "9650871",
    "prefectureCode": "07",
    "prefectureNumber": 7,
    "prefecture": "福島県",
    "city": "会津若松市",
    "town": "栄町"
  },
  "9650872": {
    "zipcode": "9650872",
    "prefectureCode": "07",
    "prefectureNumber": 7,
    "prefecture": "福島県",
    "city": "会津若松市",
    "town": "東栄町"
  },
  "9650873": {
    "zipcode": "9650873",
    "prefectureCode": "07",
    "prefectureNumber": 7,
    "prefecture": "福島県",
    "city": "会津若松市",
    "town": "追手町"
  },
  "9650874": {
    "zipcode": "9650874",
    "prefectureCode": "07",
    "prefectureNumber": 7,
    "prefecture": "福島県",
    "city": "会津若松市",
    "town": "南花畑"
  },
  "9650875": {
    "zipcode": "9650875",
    "prefectureCode": "07",
    "prefectureNumber": 7,
    "prefecture": "福島県",
    "city": "会津若松市",
    "town": "米代"
  },
  "9650876": {
    "zipcode": "9650876",
    "prefectureCode": "07",
    "prefectureNumber": 7,
    "prefecture": "福島県",
    "city": "会津若松市",
    "town": "山鹿町"
  },
  "9650877": {
    "zipcode": "9650877",
    "prefectureCode": "07",
    "prefectureNumber": 7,
    "prefecture": "福島県",
    "city": "会津若松市",
    "town": "西栄町"
  },
  "9650878": {
    "zipcode": "9650878",
    "prefectureCode": "07",
    "prefectureNumber": 7,
    "prefecture": "福島県",
    "city": "会津若松市",
    "town": "中町"
  }
}
