{
  "9660000": {
    "zipcode": "9660000",
    "prefectureCode": "07",
    "prefectureNumber": 7,
    "prefecture": "福島県",
    "city": "喜多方市",
    "town": "以下に掲載がない場合"
  },
  "9660001": {
    "zipcode": "9660001",
    "prefectureCode": "07",
    "prefectureNumber": 7,
    "prefecture": "福島県",
    "city": "喜多方市",
    "town": "岩月町入田付"
  },
  "9660002": {
    "zipcode": "9660002",
    "prefectureCode": "07",
    "prefectureNumber": 7,
    "prefecture": "福島県",
    "city": "喜多方市",
    "town": "岩月町宮津"
  },
  "9660003": {
    "zipcode": "9660003",
    "prefectureCode": "07",
    "prefectureNumber": 7,
    "prefecture": "福島県",
    "city": "喜多方市",
    "town": "岩月町橿野"
  },
  "9660004": {
    "zipcode": "9660004",
    "prefectureCode": "07",
    "prefectureNumber": 7,
    "prefecture": "福島県",
    "city": "喜多方市",
    "town": "岩月町喜多方"
  },
  "9660005": {
    "zipcode": "9660005",
    "prefectureCode": "07",
    "prefectureNumber": 7,
    "prefecture": "福島県",
    "city": "喜多方市",
    "town": "岩月町大都"
  },
  "9660006": {
    "zipcode": "9660006",
    "prefectureCode": "07",
    "prefectureNumber": 7,
    "prefecture": "福島県",
    "city": "喜多方市",
    "town": "北町上"
  },
  "9660007": {
    "zipcode": "9660007",
    "prefectureCode": "07",
    "prefectureNumber": 7,
    "prefecture": "福島県",
    "city": "喜多方市",
    "town": "東桜ガ丘"
  },
  "9660011": {
    "zipcode": "9660011",
    "prefectureCode": "07",
    "prefectureNumber": 7,
    "prefecture": "福島県",
    "city": "喜多方市",
    "town": "関柴町関柴"
  },
  "9660012": {
    "zipcode": "9660012",
    "prefectureCode": "07",
    "prefectureNumber": 7,
    "prefecture": "福島県",
    "city": "喜多方市",
    "town": "関柴町下柴"
  },
  "9660013": {
    "zipcode": "9660013",
    "prefectureCode": "07",
    "prefectureNumber": 7,
    "prefecture": "福島県",
    "city": "喜多方市",
    "town": "関柴町豊芦"
  },
  "9660014": {
    "zipcode": "9660014",
    "prefectureCode": "07",
    "prefectureNumber": 7,
    "prefecture": "福島県",
    "city": "喜多方市",
    "town": "関柴町西勝"
  },
  "9660015": {
    "zipcode": "9660015",
    "prefectureCode": "07",
    "prefectureNumber": 7,
    "prefecture": "福島県",
    "city": "喜多方市",
    "town": "関柴町上高額"
  },
  "9660016": {
    "zipcode": "9660016",
    "prefectureCode": "07",
    "prefectureNumber": 7,
    "prefecture": "福島県",
    "city": "喜多方市",
    "town": "関柴町平林"
  },
  "9660017": {
    "zipcode": "9660017",
    "prefectureCode": "07",
    "prefectureNumber": 7,
    "prefecture": "福島県",
    "city": "喜多方市",
    "town": "関柴町三津井"
  },
  "9660021": {
    "zipcode": "9660021",
    "prefectureCode": "07",
    "prefectureNumber": 7,
    "prefecture": "福島県",
    "city": "喜多方市",
    "town": "熊倉町都"
  },
  "9660022": {
    "zipcode": "9660022",
    "prefectureCode": "07",
    "prefectureNumber": 7,
    "prefecture": "福島県",
    "city": "喜多方市",
    "town": "熊倉町雄国"
  },
  "9660023": {
    "zipcode": "9660023",
    "prefectureCode": "07",
    "prefectureNumber": 7,
    "prefecture": "福島県",
    "city": "喜多方市",
    "town": "熊倉町新合"
  },
  "9660024": {
    "zipcode": "9660024",
    "prefectureCode": "07",
    "prefectureNumber": 7,
    "prefecture": "福島県",
    "city": "喜多方市",
    "town": "熊倉町熊倉"
  },
  "9660031": {
    "zipcode": "9660031",
    "prefectureCode": "07",
    "prefectureNumber": 7,
    "prefecture": "福島県",
    "city": "喜多方市",
    "town": "舞台田"
  },
  "9660032": {
    "zipcode": "9660032",
    "prefectureCode": "07",
    "prefectureNumber": 7,
    "prefecture": "福島県",
    "city": "喜多方市",
    "town": "梨子ノ木"
  },
  "9660033": {
    "zipcode": "9660033",
    "prefectureCode": "07",
    "prefectureNumber": 7,
    "prefecture": "福島県",
    "city": "喜多方市",
    "town": "瀬戸"
  },
  "9660034": {
    "zipcode": "9660034",
    "prefectureCode": "07",
    "prefectureNumber": 7,
    "prefecture": "福島県",
    "city": "喜多方市",
    "town": "二本木"
  },
  "9660035": {
    "zipcode": "9660035",
    "prefectureCode": "07",
    "prefectureNumber": 7,
    "prefecture": "福島県",
    "city": "喜多方市",
    "town": "畑台"
  },
  "9660036": {
    "zipcode": "9660036",
    "prefectureCode": "07",
    "prefectureNumber": 7,
    "prefecture": "福島県",
    "city": "喜多方市",
    "town": "柳清水"
  },
  "9660037": {
    "zipcode": "9660037",
    "prefectureCode": "07",
    "prefectureNumber": 7,
    "prefecture": "福島県",
    "city": "喜多方市",
    "town": "大豆田"
  },
  "9660038": {
    "zipcode": "9660038",
    "prefectureCode": "07",
    "prefectureNumber": 7,
    "prefecture": "福島県",
    "city": "喜多方市",
    "town": "桜町"
  },
  "9660039": {
    "zipcode": "9660039",
    "prefectureCode": "07",
    "prefectureNumber": 7,
    "prefecture": "福島県",
    "city": "喜多方市",
    "town": "加登"
  },
  "9660041": {
    "zipcode": "9660041",
    "prefectureCode": "07",
    "prefectureNumber": 7,
    "prefecture": "福島県",
    "city": "喜多方市",
    "town": "蒔田"
  },
  "9660042": {
    "zipcode": "9660042",
    "prefectureCode": "07",
    "prefectureNumber": 7,
    "prefecture": "福島県",
    "city": "喜多方市",
    "town": "下江"
  },
  "9660043": {
    "zipcode": "9660043",
    "prefectureCode": "07",
    "prefectureNumber": 7,
    "prefecture": "福島県",
    "city": "喜多方市",
    "town": "上江"
  },
  "9660044": {
    "zipcode": "9660044",
    "prefectureCode": "07",
    "prefectureNumber": 7,
    "prefecture": "福島県",
    "city": "喜多方市",
    "town": "沢ノ目"
  },
  "9660045": {
    "zipcode": "9660045",
    "prefectureCode": "07",
    "prefectureNumber": 7,
    "prefecture": "福島県",
    "city": "喜多方市",
    "town": "南原"
  },
  "9660046": {
    "zipcode": "9660046",
    "prefectureCode": "07",
    "prefectureNumber": 7,
    "prefecture": "福島県",
    "city": "喜多方市",
    "town": "原田"
  },
  "9660047": {
    "zipcode": "9660047",
    "prefectureCode": "07",
    "prefectureNumber": 7,
    "prefecture": "福島県",
    "city": "喜多方市",
    "town": "銭田"
  },
  "9660048": {
    "zipcode": "9660048",
    "prefectureCode": "07",
    "prefectureNumber": 7,
    "prefecture": "福島県",
    "city": "喜多方市",
    "town": "越巻"
  },
  "9660049": {
    "zipcode": "9660049",
    "prefectureCode": "07",
    "prefectureNumber": 7,
    "prefecture": "福島県",
    "city": "喜多方市",
    "town": "長面"
  },
  "9660051": {
    "zipcode": "9660051",
    "prefectureCode": "07",
    "prefectureNumber": 7,
    "prefecture": "福島県",
    "city": "喜多方市",
    "town": "東町"
  },
  "9660052": {
    "zipcode": "9660052",
    "prefectureCode": "07",
    "prefectureNumber": 7,
    "prefecture": "福島県",
    "city": "喜多方市",
    "town": "四百苅"
  },
  "9660053": {
    "zipcode": "9660053",
    "prefectureCode": "07",
    "prefectureNumber": 7,
    "prefecture": "福島県",
    "city": "喜多方市",
    "town": "石田"
  },
  "9660054": {
    "zipcode": "9660054",
    "prefectureCode": "07",
    "prefectureNumber": 7,
    "prefecture": "福島県",
    "city": "喜多方市",
    "town": "大谷地田"
  },
  "9660055": {
    "zipcode": "9660055",
    "prefectureCode": "07",
    "prefectureNumber": 7,
    "prefecture": "福島県",
    "city": "喜多方市",
    "town": "台"
  },
  "9660056": {
    "zipcode": "9660056",
    "prefectureCode": "07",
    "prefectureNumber": 7,
    "prefecture": "福島県",
    "city": "喜多方市",
    "town": "屋敷免"
  },
  "9660057": {
    "zipcode": "9660057",
    "prefectureCode": "07",
    "prefectureNumber": 7,
    "prefecture": "福島県",
    "city": "喜多方市",
    "town": "井戸尻"
  },
  "9660058": {
    "zipcode": "9660058",
    "prefectureCode": "07",
    "prefectureNumber": 7,
    "prefecture": "福島県",
    "city": "喜多方市",
    "town": "広面"
  },
  "9660061": {
    "zipcode": "9660061",
    "prefectureCode": "07",
    "prefectureNumber": 7,
    "prefecture": "福島県",
    "city": "喜多方市",
    "town": "馬場"
  },
  "9660062": {
    "zipcode": "9660062",
    "prefectureCode": "07",
    "prefectureNumber": 7,
    "prefecture": "福島県",
    "city": "喜多方市",
    "town": "寺南"
  },
  "9660063": {
    "zipcode": "9660063",
    "prefectureCode": "07",
    "prefectureNumber": 7,
    "prefecture": "福島県",
    "city": "喜多方市",
    "town": "五ノ神"
  },
  "9660064": {
    "zipcode": "9660064",
    "prefectureCode": "07",
    "prefectureNumber": 7,
    "prefecture": "福島県",
    "city": "喜多方市",
    "town": "惣座宮"
  },
  "9660065": {
    "zipcode": "9660065",
    "prefectureCode": "07",
    "prefectureNumber": 7,
    "prefecture": "福島県",
    "city": "喜多方市",
    "town": "中川原"
  },
  "9660066": {
    "zipcode": "9660066",
    "prefectureCode": "07",
    "prefectureNumber": 7,
    "prefecture": "福島県",
    "city": "喜多方市",
    "town": "宮西"
  },
  "9660067": {
    "zipcode": "9660067",
    "prefectureCode": "07",
    "prefectureNumber": 7,
    "prefecture": "福島県",
    "city": "喜多方市",
    "town": "村西"
  },
  "9660068": {
    "zipcode": "9660068",
    "prefectureCode": "07",
    "prefectureNumber": 7,
    "prefecture": "福島県",
    "city": "喜多方市",
    "town": "寺西"
  },
  "9660069": {
    "zipcode": "9660069",
    "prefectureCode": "07",
    "prefectureNumber": 7,
    "prefecture": "福島県",
    "city": "喜多方市",
    "town": "稲清水"
  },
  "9660071": {
    "zipcode": "9660071",
    "prefectureCode": "07",
    "prefectureNumber": 7,
    "prefecture": "福島県",
    "city": "喜多方市",
    "town": "山ノ神"
  },
  "9660072": {
    "zipcode": "9660072",
    "prefectureCode": "07",
    "prefectureNumber": 7,
    "prefecture": "福島県",
    "city": "喜多方市",
    "town": "北町"
  },
  "9660073": {
    "zipcode": "9660073",
    "prefectureCode": "07",
    "prefectureNumber": 7,
    "prefecture": "福島県",
    "city": "喜多方市",
    "town": "中町"
  },
  "9660074": {
    "zipcode": "9660074",
    "prefectureCode": "07",
    "prefectureNumber": 7,
    "prefecture": "福島県",
    "city": "喜多方市",
    "town": "南町"
  },
  "9660081": {
    "zipcode": "9660081",
    "prefectureCode": "07",
    "prefectureNumber": 7,
    "prefecture": "福島県",
    "city": "喜多方市",
    "town": "西町"
  },
  "9660082": {
    "zipcode": "9660082",
    "prefectureCode": "07",
    "prefectureNumber": 7,
    "prefecture": "福島県",
    "city": "喜多方市",
    "town": "南條"
  },
  "9660083": {
    "zipcode": "9660083",
    "prefectureCode": "07",
    "prefectureNumber": 7,
    "prefecture": "福島県",
    "city": "喜多方市",
    "town": "六枚長"
  },
  "9660084": {
    "zipcode": "9660084",
    "prefectureCode": "07",
    "prefectureNumber": 7,
    "prefecture": "福島県",
    "city": "喜多方市",
    "town": "西井戸尻"
  },
  "9660085": {
    "zipcode": "9660085",
    "prefectureCode": "07",
    "prefectureNumber": 7,
    "prefecture": "福島県",
    "city": "喜多方市",
    "town": "江中子"
  },
  "9660086": {
    "zipcode": "9660086",
    "prefectureCode": "07",
    "prefectureNumber": 7,
    "prefecture": "福島県",
    "city": "喜多方市",
    "town": "西四ツ谷"
  },
  "9660087": {
    "zipcode": "9660087",
    "prefectureCode": "07",
    "prefectureNumber": 7,
    "prefecture": "福島県",
    "city": "喜多方市",
    "town": "稲荷宮"
  },
  "9660091": {
    "zipcode": "9660091",
    "prefectureCode": "07",
    "prefectureNumber": 7,
    "prefecture": "福島県",
    "city": "喜多方市",
    "town": "青葉台"
  },
  "9660092": {
    "zipcode": "9660092",
    "prefectureCode": "07",
    "prefectureNumber": 7,
    "prefecture": "福島県",
    "city": "喜多方市",
    "town": "清水台"
  },
  "9660093": {
    "zipcode": "9660093",
    "prefectureCode": "07",
    "prefectureNumber": 7,
    "prefecture": "福島県",
    "city": "喜多方市",
    "town": "清水が丘"
  },
  "9660094": {
    "zipcode": "9660094",
    "prefectureCode": "07",
    "prefectureNumber": 7,
    "prefecture": "福島県",
    "city": "喜多方市",
    "town": "押切"
  },
  "9660095": {
    "zipcode": "9660095",
    "prefectureCode": "07",
    "prefectureNumber": 7,
    "prefecture": "福島県",
    "city": "喜多方市",
    "town": "押切東"
  },
  "9660096": {
    "zipcode": "9660096",
    "prefectureCode": "07",
    "prefectureNumber": 7,
    "prefecture": "福島県",
    "city": "喜多方市",
    "town": "押切南"
  },
  "9660097": {
    "zipcode": "9660097",
    "prefectureCode": "07",
    "prefectureNumber": 7,
    "prefecture": "福島県",
    "city": "喜多方市",
    "town": "通船場"
  },
  "9660101": {
    "zipcode": "9660101",
    "prefectureCode": "07",
    "prefectureNumber": 7,
    "prefecture": "福島県",
    "city": "喜多方市",
    "town": "熱塩加納町熱塩"
  },
  "9660102": {
    "zipcode": "9660102",
    "prefectureCode": "07",
    "prefectureNumber": 7,
    "prefecture": "福島県",
    "city": "喜多方市",
    "town": "熱塩加納町山田"
  },
  "9660103": {
    "zipcode": "9660103",
    "prefectureCode": "07",
    "prefectureNumber": 7,
    "prefecture": "福島県",
    "city": "喜多方市",
    "town": "熱塩加納町加納"
  },
  "9660104": {
    "zipcode": "9660104",
    "prefectureCode": "07",
    "prefectureNumber": 7,
    "prefecture": "福島県",
    "city": "喜多方市",
    "town": "熱塩加納町米岡"
  },
  "9660105": {
    "zipcode": "9660105",
    "prefectureCode": "07",
    "prefectureNumber": 7,
    "prefecture": "福島県",
    "city": "喜多方市",
    "town": "熱塩加納町宮川"
  },
  "9660106": {
    "zipcode": "9660106",
    "prefectureCode": "07",
    "prefectureNumber": 7,
    "prefecture": "福島県",
    "city": "喜多方市",
    "town": "熱塩加納町林際"
  },
  "9660107": {
    "zipcode": "9660107",
    "prefectureCode": "07",
    "prefectureNumber": 7,
    "prefecture": "福島県",
    "city": "喜多方市",
    "town": "熱塩加納町居廻"
  },
  "9660108": {
    "zipcode": "9660108",
    "prefectureCode": "07",
    "prefectureNumber": 7,
    "prefecture": "福島県",
    "city": "喜多方市",
    "town": "熱塩加納町相田"
  },
  "9660400": {
    "zipcode": "9660400",
    "prefectureCode": "07",
    "prefectureNumber": 7,
    "prefecture": "福島県",
    "city": "耶麻郡北塩原村",
    "town": "以下に掲載がない場合"
  },
  "9660401": {
    "zipcode": "9660401",
    "prefectureCode": "07",
    "prefectureNumber": 7,
    "prefecture": "福島県",
    "city": "耶麻郡北塩原村",
    "town": "桧原（雄子沢、雄子沢原、細野、南黄連沢、南黄連沢山、黄連沢山、黄連原山）"
  },
  "9660402": {
    "zipcode": "9660402",
    "prefectureCode": "07",
    "prefectureNumber": 7,
    "prefecture": "福島県",
    "city": "耶麻郡北塩原村",
    "town": "大塩"
  },
  "9660403": {
    "zipcode": "9660403",
    "prefectureCode": "07",
    "prefectureNumber": 7,
    "prefecture": "福島県",
    "city": "耶麻郡北塩原村",
    "town": "関屋"
  },
  "9660404": {
    "zipcode": "9660404",
    "prefectureCode": "07",
    "prefectureNumber": 7,
    "prefecture": "福島県",
    "city": "耶麻郡北塩原村",
    "town": "北山"
  },
  "9660405": {
    "zipcode": "9660405",
    "prefectureCode": "07",
    "prefectureNumber": 7,
    "prefecture": "福島県",
    "city": "耶麻郡北塩原村",
    "town": "下吉"
  },
  "9660501": {
    "zipcode": "9660501",
    "prefectureCode": "07",
    "prefectureNumber": 7,
    "prefecture": "福島県",
    "city": "耶麻郡北塩原村",
    "town": "桧原（苧畑沢、金山、五十両原、巣ノ山、滝ノ原、道前原、墓下、桧原、無縁原、早稲沢、小屋沢、水梨原、中原、楢木平原、焼桂山、館山）"
  },
  "9660801": {
    "zipcode": "9660801",
    "prefectureCode": "07",
    "prefectureNumber": 7,
    "prefecture": "福島県",
    "city": "喜多方市",
    "town": "常盤台"
  },
  "9660802": {
    "zipcode": "9660802",
    "prefectureCode": "07",
    "prefectureNumber": 7,
    "prefecture": "福島県",
    "city": "喜多方市",
    "town": "桜ガ丘"
  },
  "9660803": {
    "zipcode": "9660803",
    "prefectureCode": "07",
    "prefectureNumber": 7,
    "prefecture": "福島県",
    "city": "喜多方市",
    "town": "落合"
  },
  "9660804": {
    "zipcode": "9660804",
    "prefectureCode": "07",
    "prefectureNumber": 7,
    "prefecture": "福島県",
    "city": "喜多方市",
    "town": "沼田"
  },
  "9660805": {
    "zipcode": "9660805",
    "prefectureCode": "07",
    "prefectureNumber": 7,
    "prefecture": "福島県",
    "city": "喜多方市",
    "town": "小田付道上"
  },
  "9660806": {
    "zipcode": "9660806",
    "prefectureCode": "07",
    "prefectureNumber": 7,
    "prefecture": "福島県",
    "city": "喜多方市",
    "town": "水上"
  },
  "9660811": {
    "zipcode": "9660811",
    "prefectureCode": "07",
    "prefectureNumber": 7,
    "prefecture": "福島県",
    "city": "喜多方市",
    "town": "上川向"
  },
  "9660812": {
    "zipcode": "9660812",
    "prefectureCode": "07",
    "prefectureNumber": 7,
    "prefecture": "福島県",
    "city": "喜多方市",
    "town": "緑町"
  },
  "9660813": {
    "zipcode": "9660813",
    "prefectureCode": "07",
    "prefectureNumber": 7,
    "prefecture": "福島県",
    "city": "喜多方市",
    "town": "小田付道下"
  },
  "9660814": {
    "zipcode": "9660814",
    "prefectureCode": "07",
    "prefectureNumber": 7,
    "prefecture": "福島県",
    "city": "喜多方市",
    "town": "御清水東"
  },
  "9660815": {
    "zipcode": "9660815",
    "prefectureCode": "07",
    "prefectureNumber": 7,
    "prefecture": "福島県",
    "city": "喜多方市",
    "town": "谷地田"
  },
  "9660816": {
    "zipcode": "9660816",
    "prefectureCode": "07",
    "prefectureNumber": 7,
    "prefecture": "福島県",
    "city": "喜多方市",
    "town": "細田"
  },
  "9660817": {
    "zipcode": "9660817",
    "prefectureCode": "07",
    "prefectureNumber": 7,
    "prefecture": "福島県",
    "city": "喜多方市",
    "town": "３丁目"
  },
  "9660818": {
    "zipcode": "9660818",
    "prefectureCode": "07",
    "prefectureNumber": 7,
    "prefecture": "福島県",
    "city": "喜多方市",
    "town": "２丁目"
  },
  "9660819": {
    "zipcode": "9660819",
    "prefectureCode": "07",
    "prefectureNumber": 7,
    "prefecture": "福島県",
    "city": "喜多方市",
    "town": "１丁目"
  },
  "9660821": {
    "zipcode": "9660821",
    "prefectureCode": "07",
    "prefectureNumber": 7,
    "prefecture": "福島県",
    "city": "喜多方市",
    "town": "梅竹"
  },
  "9660822": {
    "zipcode": "9660822",
    "prefectureCode": "07",
    "prefectureNumber": 7,
    "prefecture": "福島県",
    "city": "喜多方市",
    "town": "柳原"
  },
  "9660823": {
    "zipcode": "9660823",
    "prefectureCode": "07",
    "prefectureNumber": 7,
    "prefecture": "福島県",
    "city": "喜多方市",
    "town": "東川原田"
  },
  "9660824": {
    "zipcode": "9660824",
    "prefectureCode": "07",
    "prefectureNumber": 7,
    "prefecture": "福島県",
    "city": "喜多方市",
    "town": "六百刈"
  },
  "9660825": {
    "zipcode": "9660825",
    "prefectureCode": "07",
    "prefectureNumber": 7,
    "prefecture": "福島県",
    "city": "喜多方市",
    "town": "御清水南"
  },
  "9660826": {
    "zipcode": "9660826",
    "prefectureCode": "07",
    "prefectureNumber": 7,
    "prefecture": "福島県",
    "city": "喜多方市",
    "town": "町尻東"
  },
  "9660827": {
    "zipcode": "9660827",
    "prefectureCode": "07",
    "prefectureNumber": 7,
    "prefecture": "福島県",
    "city": "喜多方市",
    "town": "沢ノ免"
  },
  "9660831": {
    "zipcode": "9660831",
    "prefectureCode": "07",
    "prefectureNumber": 7,
    "prefecture": "福島県",
    "city": "喜多方市",
    "town": "小田"
  },
  "9660832": {
    "zipcode": "9660832",
    "prefectureCode": "07",
    "prefectureNumber": 7,
    "prefecture": "福島県",
    "city": "喜多方市",
    "town": "百苅田"
  },
  "9660833": {
    "zipcode": "9660833",
    "prefectureCode": "07",
    "prefectureNumber": 7,
    "prefecture": "福島県",
    "city": "喜多方市",
    "town": "中島"
  },
  "9660834": {
    "zipcode": "9660834",
    "prefectureCode": "07",
    "prefectureNumber": 7,
    "prefecture": "福島県",
    "city": "喜多方市",
    "town": "谷地田上"
  },
  "9660835": {
    "zipcode": "9660835",
    "prefectureCode": "07",
    "prefectureNumber": 7,
    "prefecture": "福島県",
    "city": "喜多方市",
    "town": "行作"
  },
  "9660836": {
    "zipcode": "9660836",
    "prefectureCode": "07",
    "prefectureNumber": 7,
    "prefecture": "福島県",
    "city": "喜多方市",
    "town": "大坪"
  },
  "9660837": {
    "zipcode": "9660837",
    "prefectureCode": "07",
    "prefectureNumber": 7,
    "prefecture": "福島県",
    "city": "喜多方市",
    "town": "前田上"
  },
  "9660838": {
    "zipcode": "9660838",
    "prefectureCode": "07",
    "prefectureNumber": 7,
    "prefecture": "福島県",
    "city": "喜多方市",
    "town": "永久"
  },
  "9660839": {
    "zipcode": "9660839",
    "prefectureCode": "07",
    "prefectureNumber": 7,
    "prefecture": "福島県",
    "city": "喜多方市",
    "town": "大道田"
  },
  "9660841": {
    "zipcode": "9660841",
    "prefectureCode": "07",
    "prefectureNumber": 7,
    "prefecture": "福島県",
    "city": "喜多方市",
    "town": "さつきが丘"
  },
  "9660842": {
    "zipcode": "9660842",
    "prefectureCode": "07",
    "prefectureNumber": 7,
    "prefecture": "福島県",
    "city": "喜多方市",
    "town": "川下"
  },
  "9660843": {
    "zipcode": "9660843",
    "prefectureCode": "07",
    "prefectureNumber": 7,
    "prefecture": "福島県",
    "city": "喜多方市",
    "town": "東籠田"
  },
  "9660844": {
    "zipcode": "9660844",
    "prefectureCode": "07",
    "prefectureNumber": 7,
    "prefecture": "福島県",
    "city": "喜多方市",
    "town": "西籠田"
  },
  "9660845": {
    "zipcode": "9660845",
    "prefectureCode": "07",
    "prefectureNumber": 7,
    "prefecture": "福島県",
    "city": "喜多方市",
    "town": "長内"
  },
  "9660846": {
    "zipcode": "9660846",
    "prefectureCode": "07",
    "prefectureNumber": 7,
    "prefecture": "福島県",
    "city": "喜多方市",
    "town": "町田下"
  },
  "9660847": {
    "zipcode": "9660847",
    "prefectureCode": "07",
    "prefectureNumber": 7,
    "prefecture": "福島県",
    "city": "喜多方市",
    "town": "町田"
  },
  "9660848": {
    "zipcode": "9660848",
    "prefectureCode": "07",
    "prefectureNumber": 7,
    "prefecture": "福島県",
    "city": "喜多方市",
    "town": "一本木下"
  },
  "9660849": {
    "zipcode": "9660849",
    "prefectureCode": "07",
    "prefectureNumber": 7,
    "prefecture": "福島県",
    "city": "喜多方市",
    "town": "一本木上"
  },
  "9660850": {
    "zipcode": "9660850",
    "prefectureCode": "07",
    "prefectureNumber": 7,
    "prefecture": "福島県",
    "city": "喜多方市",
    "town": "下川原"
  },
  "9660851": {
    "zipcode": "9660851",
    "prefectureCode": "07",
    "prefectureNumber": 7,
    "prefecture": "福島県",
    "city": "喜多方市",
    "town": "北原"
  },
  "9660852": {
    "zipcode": "9660852",
    "prefectureCode": "07",
    "prefectureNumber": 7,
    "prefecture": "福島県",
    "city": "喜多方市",
    "town": "天満前"
  },
  "9660853": {
    "zipcode": "9660853",
    "prefectureCode": "07",
    "prefectureNumber": 7,
    "prefecture": "福島県",
    "city": "喜多方市",
    "town": "千苅"
  },
  "9660854": {
    "zipcode": "9660854",
    "prefectureCode": "07",
    "prefectureNumber": 7,
    "prefecture": "福島県",
    "city": "喜多方市",
    "town": "千苅道上"
  },
  "9660855": {
    "zipcode": "9660855",
    "prefectureCode": "07",
    "prefectureNumber": 7,
    "prefecture": "福島県",
    "city": "喜多方市",
    "town": "太子堂"
  },
  "9660856": {
    "zipcode": "9660856",
    "prefectureCode": "07",
    "prefectureNumber": 7,
    "prefecture": "福島県",
    "city": "喜多方市",
    "town": "長源段"
  },
  "9660857": {
    "zipcode": "9660857",
    "prefectureCode": "07",
    "prefectureNumber": 7,
    "prefecture": "福島県",
    "city": "喜多方市",
    "town": "町西"
  },
  "9660858": {
    "zipcode": "9660858",
    "prefectureCode": "07",
    "prefectureNumber": 7,
    "prefecture": "福島県",
    "city": "喜多方市",
    "town": "町北"
  },
  "9660859": {
    "zipcode": "9660859",
    "prefectureCode": "07",
    "prefectureNumber": 7,
    "prefecture": "福島県",
    "city": "喜多方市",
    "town": "番帳免"
  },
  "9660861": {
    "zipcode": "9660861",
    "prefectureCode": "07",
    "prefectureNumber": 7,
    "prefecture": "福島県",
    "city": "喜多方市",
    "town": "寺町"
  },
  "9660862": {
    "zipcode": "9660862",
    "prefectureCode": "07",
    "prefectureNumber": 7,
    "prefecture": "福島県",
    "city": "喜多方市",
    "town": "前田"
  },
  "9660863": {
    "zipcode": "9660863",
    "prefectureCode": "07",
    "prefectureNumber": 7,
    "prefecture": "福島県",
    "city": "喜多方市",
    "town": "町尻西"
  },
  "9660864": {
    "zipcode": "9660864",
    "prefectureCode": "07",
    "prefectureNumber": 7,
    "prefecture": "福島県",
    "city": "喜多方市",
    "town": "七百苅"
  },
  "9660865": {
    "zipcode": "9660865",
    "prefectureCode": "07",
    "prefectureNumber": 7,
    "prefecture": "福島県",
    "city": "喜多方市",
    "town": "寺田"
  },
  "9660866": {
    "zipcode": "9660866",
    "prefectureCode": "07",
    "prefectureNumber": 7,
    "prefecture": "福島県",
    "city": "喜多方市",
    "town": "古寺"
  },
  "9660867": {
    "zipcode": "9660867",
    "prefectureCode": "07",
    "prefectureNumber": 7,
    "prefecture": "福島県",
    "city": "喜多方市",
    "town": "扇田"
  },
  "9660868": {
    "zipcode": "9660868",
    "prefectureCode": "07",
    "prefectureNumber": 7,
    "prefecture": "福島県",
    "city": "喜多方市",
    "town": "市道"
  },
  "9660869": {
    "zipcode": "9660869",
    "prefectureCode": "07",
    "prefectureNumber": 7,
    "prefecture": "福島県",
    "city": "喜多方市",
    "town": "慶徳道下"
  },
  "9660871": {
    "zipcode": "9660871",
    "prefectureCode": "07",
    "prefectureNumber": 7,
    "prefecture": "福島県",
    "city": "喜多方市",
    "town": "寺町南"
  },
  "9660872": {
    "zipcode": "9660872",
    "prefectureCode": "07",
    "prefectureNumber": 7,
    "prefecture": "福島県",
    "city": "喜多方市",
    "town": "慶徳道上"
  },
  "9660873": {
    "zipcode": "9660873",
    "prefectureCode": "07",
    "prefectureNumber": 7,
    "prefecture": "福島県",
    "city": "喜多方市",
    "town": "舘野"
  },
  "9660874": {
    "zipcode": "9660874",
    "prefectureCode": "07",
    "prefectureNumber": 7,
    "prefecture": "福島県",
    "city": "喜多方市",
    "town": "窪屋敷"
  },
  "9660875": {
    "zipcode": "9660875",
    "prefectureCode": "07",
    "prefectureNumber": 7,
    "prefecture": "福島県",
    "city": "喜多方市",
    "town": "鶴巻"
  },
  "9660877": {
    "zipcode": "9660877",
    "prefectureCode": "07",
    "prefectureNumber": 7,
    "prefecture": "福島県",
    "city": "喜多方市",
    "town": "坂井道上"
  },
  "9660881": {
    "zipcode": "9660881",
    "prefectureCode": "07",
    "prefectureNumber": 7,
    "prefecture": "福島県",
    "city": "喜多方市",
    "town": "中清水"
  },
  "9660882": {
    "zipcode": "9660882",
    "prefectureCode": "07",
    "prefectureNumber": 7,
    "prefecture": "福島県",
    "city": "喜多方市",
    "town": "中寺"
  },
  "9660884": {
    "zipcode": "9660884",
    "prefectureCode": "07",
    "prefectureNumber": 7,
    "prefecture": "福島県",
    "city": "喜多方市",
    "town": "壇ノ前"
  },
  "9660887": {
    "zipcode": "9660887",
    "prefectureCode": "07",
    "prefectureNumber": 7,
    "prefecture": "福島県",
    "city": "喜多方市",
    "town": "飯田道上"
  },
  "9660891": {
    "zipcode": "9660891",
    "prefectureCode": "07",
    "prefectureNumber": 7,
    "prefecture": "福島県",
    "city": "喜多方市",
    "town": "蝦蟆渕"
  },
  "9660892": {
    "zipcode": "9660892",
    "prefectureCode": "07",
    "prefectureNumber": 7,
    "prefecture": "福島県",
    "city": "喜多方市",
    "town": "経壇"
  },
  "9660893": {
    "zipcode": "9660893",
    "prefectureCode": "07",
    "prefectureNumber": 7,
    "prefecture": "福島県",
    "city": "喜多方市",
    "town": "花園"
  },
  "9660894": {
    "zipcode": "9660894",
    "prefectureCode": "07",
    "prefectureNumber": 7,
    "prefecture": "福島県",
    "city": "喜多方市",
    "town": "御茶屋"
  },
  "9660895": {
    "zipcode": "9660895",
    "prefectureCode": "07",
    "prefectureNumber": 7,
    "prefecture": "福島県",
    "city": "喜多方市",
    "town": "東小原"
  },
  "9660896": {
    "zipcode": "9660896",
    "prefectureCode": "07",
    "prefectureNumber": 7,
    "prefecture": "福島県",
    "city": "喜多方市",
    "town": "諏訪"
  },
  "9660897": {
    "zipcode": "9660897",
    "prefectureCode": "07",
    "prefectureNumber": 7,
    "prefecture": "福島県",
    "city": "喜多方市",
    "town": "経壇東"
  },
  "9660898": {
    "zipcode": "9660898",
    "prefectureCode": "07",
    "prefectureNumber": 7,
    "prefecture": "福島県",
    "city": "喜多方市",
    "town": "見頃道上"
  },
  "9660899": {
    "zipcode": "9660899",
    "prefectureCode": "07",
    "prefectureNumber": 7,
    "prefecture": "福島県",
    "city": "喜多方市",
    "town": "樋越"
  },
  "9660901": {
    "zipcode": "9660901",
    "prefectureCode": "07",
    "prefectureNumber": 7,
    "prefecture": "福島県",
    "city": "喜多方市",
    "town": "松山町鳥見山"
  },
  "9660902": {
    "zipcode": "9660902",
    "prefectureCode": "07",
    "prefectureNumber": 7,
    "prefecture": "福島県",
    "city": "喜多方市",
    "town": "松山町村松"
  },
  "9660903": {
    "zipcode": "9660903",
    "prefectureCode": "07",
    "prefectureNumber": 7,
    "prefecture": "福島県",
    "city": "喜多方市",
    "town": "松山町大飯坂"
  },
  "9660904": {
    "zipcode": "9660904",
    "prefectureCode": "07",
    "prefectureNumber": 7,
    "prefecture": "福島県",
    "city": "喜多方市",
    "town": "大荒井"
  },
  "9660911": {
    "zipcode": "9660911",
    "prefectureCode": "07",
    "prefectureNumber": 7,
    "prefecture": "福島県",
    "city": "喜多方市",
    "town": "豊川町高堂太"
  },
  "9660912": {
    "zipcode": "9660912",
    "prefectureCode": "07",
    "prefectureNumber": 7,
    "prefecture": "福島県",
    "city": "喜多方市",
    "town": "豊川町一井"
  },
  "9660913": {
    "zipcode": "9660913",
    "prefectureCode": "07",
    "prefectureNumber": 7,
    "prefecture": "福島県",
    "city": "喜多方市",
    "town": "豊川町沢部"
  },
  "9660914": {
    "zipcode": "9660914",
    "prefectureCode": "07",
    "prefectureNumber": 7,
    "prefecture": "福島県",
    "city": "喜多方市",
    "town": "豊川町米室"
  },
  "9660915": {
    "zipcode": "9660915",
    "prefectureCode": "07",
    "prefectureNumber": 7,
    "prefecture": "福島県",
    "city": "喜多方市",
    "town": "大谷地"
  },
  "9660916": {
    "zipcode": "9660916",
    "prefectureCode": "07",
    "prefectureNumber": 7,
    "prefecture": "福島県",
    "city": "喜多方市",
    "town": "千苅道下"
  },
  "9660917": {
    "zipcode": "9660917",
    "prefectureCode": "07",
    "prefectureNumber": 7,
    "prefecture": "福島県",
    "city": "喜多方市",
    "town": "千苅中道上"
  },
  "9660921": {
    "zipcode": "9660921",
    "prefectureCode": "07",
    "prefectureNumber": 7,
    "prefecture": "福島県",
    "city": "喜多方市",
    "town": "慶徳町松舞家"
  },
  "9660922": {
    "zipcode": "9660922",
    "prefectureCode": "07",
    "prefectureNumber": 7,
    "prefecture": "福島県",
    "city": "喜多方市",
    "town": "慶徳町豊岡"
  },
  "9660923": {
    "zipcode": "9660923",
    "prefectureCode": "07",
    "prefectureNumber": 7,
    "prefecture": "福島県",
    "city": "喜多方市",
    "town": "慶徳町新宮"
  },
  "9660924": {
    "zipcode": "9660924",
    "prefectureCode": "07",
    "prefectureNumber": 7,
    "prefecture": "福島県",
    "city": "喜多方市",
    "town": "慶徳町山科"
  },
  "9660931": {
    "zipcode": "9660931",
    "prefectureCode": "07",
    "prefectureNumber": 7,
    "prefecture": "福島県",
    "city": "喜多方市",
    "town": "上三宮町上三宮"
  },
  "9660932": {
    "zipcode": "9660932",
    "prefectureCode": "07",
    "prefectureNumber": 7,
    "prefecture": "福島県",
    "city": "喜多方市",
    "town": "上三宮町吉川"
  },
  "9660933": {
    "zipcode": "9660933",
    "prefectureCode": "07",
    "prefectureNumber": 7,
    "prefecture": "福島県",
    "city": "喜多方市",
    "town": "上三宮町三谷"
  }
}
