{
  "9680000": {
    "zipcode": "9680000",
    "prefectureCode": "07",
    "prefectureNumber": 7,
    "prefecture": "福島県",
    "city": "大沼郡金山町",
    "town": "以下に掲載がない場合"
  },
  "9680001": {
    "zipcode": "9680001",
    "prefectureCode": "07",
    "prefectureNumber": 7,
    "prefecture": "福島県",
    "city": "大沼郡金山町",
    "town": "水沼"
  },
  "9680002": {
    "zipcode": "9680002",
    "prefectureCode": "07",
    "prefectureNumber": 7,
    "prefecture": "福島県",
    "city": "大沼郡金山町",
    "town": "大栗山"
  },
  "9680003": {
    "zipcode": "9680003",
    "prefectureCode": "07",
    "prefectureNumber": 7,
    "prefecture": "福島県",
    "city": "大沼郡金山町",
    "town": "沼沢"
  },
  "9680004": {
    "zipcode": "9680004",
    "prefectureCode": "07",
    "prefectureNumber": 7,
    "prefecture": "福島県",
    "city": "大沼郡金山町",
    "town": "太郎布"
  },
  "9680005": {
    "zipcode": "9680005",
    "prefectureCode": "07",
    "prefectureNumber": 7,
    "prefecture": "福島県",
    "city": "大沼郡金山町",
    "town": "大志"
  },
  "9680006": {
    "zipcode": "9680006",
    "prefectureCode": "07",
    "prefectureNumber": 7,
    "prefecture": "福島県",
    "city": "大沼郡金山町",
    "town": "中川"
  },
  "9680011": {
    "zipcode": "9680011",
    "prefectureCode": "07",
    "prefectureNumber": 7,
    "prefecture": "福島県",
    "city": "大沼郡金山町",
    "town": "川口"
  },
  "9680012": {
    "zipcode": "9680012",
    "prefectureCode": "07",
    "prefectureNumber": 7,
    "prefecture": "福島県",
    "city": "大沼郡金山町",
    "town": "小栗山"
  },
  "9680013": {
    "zipcode": "9680013",
    "prefectureCode": "07",
    "prefectureNumber": 7,
    "prefecture": "福島県",
    "city": "大沼郡金山町",
    "town": "八町"
  },
  "9680014": {
    "zipcode": "9680014",
    "prefectureCode": "07",
    "prefectureNumber": 7,
    "prefecture": "福島県",
    "city": "大沼郡金山町",
    "town": "玉梨"
  },
  "9680015": {
    "zipcode": "9680015",
    "prefectureCode": "07",
    "prefectureNumber": 7,
    "prefecture": "福島県",
    "city": "大沼郡金山町",
    "town": "西谷"
  },
  "9680016": {
    "zipcode": "9680016",
    "prefectureCode": "07",
    "prefectureNumber": 7,
    "prefecture": "福島県",
    "city": "大沼郡金山町",
    "town": "本名"
  },
  "9680100": {
    "zipcode": "9680100",
    "prefectureCode": "07",
    "prefectureNumber": 7,
    "prefecture": "福島県",
    "city": "大沼郡昭和村",
    "town": "以下に掲載がない場合"
  },
  "9680101": {
    "zipcode": "9680101",
    "prefectureCode": "07",
    "prefectureNumber": 7,
    "prefecture": "福島県",
    "city": "大沼郡昭和村",
    "town": "松山"
  },
  "9680102": {
    "zipcode": "9680102",
    "prefectureCode": "07",
    "prefectureNumber": 7,
    "prefecture": "福島県",
    "city": "大沼郡昭和村",
    "town": "野尻"
  },
  "9680103": {
    "zipcode": "9680103",
    "prefectureCode": "07",
    "prefectureNumber": 7,
    "prefecture": "福島県",
    "city": "大沼郡昭和村",
    "town": "下中津川"
  },
  "9680104": {
    "zipcode": "9680104",
    "prefectureCode": "07",
    "prefectureNumber": 7,
    "prefecture": "福島県",
    "city": "大沼郡昭和村",
    "town": "小中津川"
  },
  "9680211": {
    "zipcode": "9680211",
    "prefectureCode": "07",
    "prefectureNumber": 7,
    "prefecture": "福島県",
    "city": "大沼郡昭和村",
    "town": "小野川"
  },
  "9680212": {
    "zipcode": "9680212",
    "prefectureCode": "07",
    "prefectureNumber": 7,
    "prefecture": "福島県",
    "city": "大沼郡昭和村",
    "town": "喰丸"
  },
  "9680213": {
    "zipcode": "9680213",
    "prefectureCode": "07",
    "prefectureNumber": 7,
    "prefecture": "福島県",
    "city": "大沼郡昭和村",
    "town": "両原"
  },
  "9680214": {
    "zipcode": "9680214",
    "prefectureCode": "07",
    "prefectureNumber": 7,
    "prefecture": "福島県",
    "city": "大沼郡昭和村",
    "town": "大芦"
  },
  "9680215": {
    "zipcode": "9680215",
    "prefectureCode": "07",
    "prefectureNumber": 7,
    "prefecture": "福島県",
    "city": "大沼郡昭和村",
    "town": "佐倉"
  },
  "9680321": {
    "zipcode": "9680321",
    "prefectureCode": "07",
    "prefectureNumber": 7,
    "prefecture": "福島県",
    "city": "大沼郡金山町",
    "town": "越川"
  },
  "9680322": {
    "zipcode": "9680322",
    "prefectureCode": "07",
    "prefectureNumber": 7,
    "prefecture": "福島県",
    "city": "大沼郡金山町",
    "town": "横田"
  },
  "9680323": {
    "zipcode": "9680323",
    "prefectureCode": "07",
    "prefectureNumber": 7,
    "prefecture": "福島県",
    "city": "大沼郡金山町",
    "town": "山入"
  },
  "9680324": {
    "zipcode": "9680324",
    "prefectureCode": "07",
    "prefectureNumber": 7,
    "prefecture": "福島県",
    "city": "大沼郡金山町",
    "town": "田沢"
  },
  "9680325": {
    "zipcode": "9680325",
    "prefectureCode": "07",
    "prefectureNumber": 7,
    "prefecture": "福島県",
    "city": "大沼郡金山町",
    "town": "滝沢"
  },
  "9680326": {
    "zipcode": "9680326",
    "prefectureCode": "07",
    "prefectureNumber": 7,
    "prefecture": "福島県",
    "city": "大沼郡金山町",
    "town": "大塩"
  },
  "9680400": {
    "zipcode": "9680400",
    "prefectureCode": "07",
    "prefectureNumber": 7,
    "prefecture": "福島県",
    "city": "南会津郡只見町",
    "town": "以下に掲載がない場合"
  },
  "9680411": {
    "zipcode": "9680411",
    "prefectureCode": "07",
    "prefectureNumber": 7,
    "prefecture": "福島県",
    "city": "南会津郡只見町",
    "town": "塩沢"
  },
  "9680412": {
    "zipcode": "9680412",
    "prefectureCode": "07",
    "prefectureNumber": 7,
    "prefecture": "福島県",
    "city": "南会津郡只見町",
    "town": "十島"
  },
  "9680413": {
    "zipcode": "9680413",
    "prefectureCode": "07",
    "prefectureNumber": 7,
    "prefecture": "福島県",
    "city": "南会津郡只見町",
    "town": "寄岩"
  },
  "9680414": {
    "zipcode": "9680414",
    "prefectureCode": "07",
    "prefectureNumber": 7,
    "prefecture": "福島県",
    "city": "南会津郡只見町",
    "town": "蒲生"
  },
  "9680415": {
    "zipcode": "9680415",
    "prefectureCode": "07",
    "prefectureNumber": 7,
    "prefecture": "福島県",
    "city": "南会津郡只見町",
    "town": "叶津"
  },
  "9680421": {
    "zipcode": "9680421",
    "prefectureCode": "07",
    "prefectureNumber": 7,
    "prefecture": "福島県",
    "city": "南会津郡只見町",
    "town": "只見"
  },
  "9680422": {
    "zipcode": "9680422",
    "prefectureCode": "07",
    "prefectureNumber": 7,
    "prefecture": "福島県",
    "city": "南会津郡只見町",
    "town": "石伏"
  },
  "9680423": {
    "zipcode": "9680423",
    "prefectureCode": "07",
    "prefectureNumber": 7,
    "prefecture": "福島県",
    "city": "南会津郡只見町",
    "town": "田子倉"
  },
  "9680431": {
    "zipcode": "9680431",
    "prefectureCode": "07",
    "prefectureNumber": 7,
    "prefecture": "福島県",
    "city": "南会津郡只見町",
    "town": "楢戸"
  },
  "9680432": {
    "zipcode": "9680432",
    "prefectureCode": "07",
    "prefectureNumber": 7,
    "prefecture": "福島県",
    "city": "南会津郡只見町",
    "town": "黒沢"
  },
  "9680433": {
    "zipcode": "9680433",
    "prefectureCode": "07",
    "prefectureNumber": 7,
    "prefecture": "福島県",
    "city": "南会津郡只見町",
    "town": "福井"
  },
  "9680434": {
    "zipcode": "9680434",
    "prefectureCode": "07",
    "prefectureNumber": 7,
    "prefecture": "福島県",
    "city": "南会津郡只見町",
    "town": "小川"
  },
  "9680441": {
    "zipcode": "9680441",
    "prefectureCode": "07",
    "prefectureNumber": 7,
    "prefecture": "福島県",
    "city": "南会津郡只見町",
    "town": "黒谷"
  },
  "9680442": {
    "zipcode": "9680442",
    "prefectureCode": "07",
    "prefectureNumber": 7,
    "prefecture": "福島県",
    "city": "南会津郡只見町",
    "town": "長浜"
  },
  "9680443": {
    "zipcode": "9680443",
    "prefectureCode": "07",
    "prefectureNumber": 7,
    "prefecture": "福島県",
    "city": "南会津郡只見町",
    "town": "荒島"
  },
  "9680444": {
    "zipcode": "9680444",
    "prefectureCode": "07",
    "prefectureNumber": 7,
    "prefecture": "福島県",
    "city": "南会津郡只見町",
    "town": "熊倉"
  },
  "9680445": {
    "zipcode": "9680445",
    "prefectureCode": "07",
    "prefectureNumber": 7,
    "prefecture": "福島県",
    "city": "南会津郡只見町",
    "town": "亀岡"
  },
  "9680601": {
    "zipcode": "9680601",
    "prefectureCode": "07",
    "prefectureNumber": 7,
    "prefecture": "福島県",
    "city": "南会津郡只見町",
    "town": "小林"
  },
  "9680602": {
    "zipcode": "9680602",
    "prefectureCode": "07",
    "prefectureNumber": 7,
    "prefecture": "福島県",
    "city": "南会津郡只見町",
    "town": "大倉"
  },
  "9680603": {
    "zipcode": "9680603",
    "prefectureCode": "07",
    "prefectureNumber": 7,
    "prefecture": "福島県",
    "city": "南会津郡只見町",
    "town": "梁取"
  },
  "9680604": {
    "zipcode": "9680604",
    "prefectureCode": "07",
    "prefectureNumber": 7,
    "prefecture": "福島県",
    "city": "南会津郡只見町",
    "town": "塩ノ岐"
  },
  "9680605": {
    "zipcode": "9680605",
    "prefectureCode": "07",
    "prefectureNumber": 7,
    "prefecture": "福島県",
    "city": "南会津郡只見町",
    "town": "二軒在家"
  },
  "9680606": {
    "zipcode": "9680606",
    "prefectureCode": "07",
    "prefectureNumber": 7,
    "prefecture": "福島県",
    "city": "南会津郡只見町",
    "town": "坂田"
  },
  "9680607": {
    "zipcode": "9680607",
    "prefectureCode": "07",
    "prefectureNumber": 7,
    "prefecture": "福島県",
    "city": "南会津郡只見町",
    "town": "布沢"
  }
}
