{
  "9690100": {
    "zipcode": "9690100",
    "prefectureCode": "07",
    "prefectureNumber": 7,
    "prefecture": "福島県",
    "city": "西白河郡泉崎村",
    "town": "以下に掲載がない場合"
  },
  "9690101": {
    "zipcode": "9690101",
    "prefectureCode": "07",
    "prefectureNumber": 7,
    "prefecture": "福島県",
    "city": "西白河郡泉崎村",
    "town": "泉崎"
  },
  "9690102": {
    "zipcode": "9690102",
    "prefectureCode": "07",
    "prefectureNumber": 7,
    "prefecture": "福島県",
    "city": "西白河郡泉崎村",
    "town": "関和久（その他）"
  },
  "9690103": {
    "zipcode": "9690103",
    "prefectureCode": "07",
    "prefectureNumber": 7,
    "prefecture": "福島県",
    "city": "西白河郡泉崎村",
    "town": "北平山"
  },
  "9690104": {
    "zipcode": "9690104",
    "prefectureCode": "07",
    "prefectureNumber": 7,
    "prefecture": "福島県",
    "city": "西白河郡泉崎村",
    "town": "太田川"
  },
  "9690105": {
    "zipcode": "9690105",
    "prefectureCode": "07",
    "prefectureNumber": 7,
    "prefecture": "福島県",
    "city": "西白河郡泉崎村",
    "town": "踏瀬"
  },
  "9690106": {
    "zipcode": "9690106",
    "prefectureCode": "07",
    "prefectureNumber": 7,
    "prefecture": "福島県",
    "city": "西白河郡泉崎村",
    "town": "関和久（八雲神社）"
  },
  "9690200": {
    "zipcode": "9690200",
    "prefectureCode": "07",
    "prefectureNumber": 7,
    "prefecture": "福島県",
    "city": "西白河郡矢吹町",
    "town": "以下に掲載がない場合"
  },
  "9690201": {
    "zipcode": "9690201",
    "prefectureCode": "07",
    "prefectureNumber": 7,
    "prefecture": "福島県",
    "city": "西白河郡矢吹町",
    "town": "大町"
  },
  "9690202": {
    "zipcode": "9690202",
    "prefectureCode": "07",
    "prefectureNumber": 7,
    "prefecture": "福島県",
    "city": "西白河郡矢吹町",
    "town": "新町"
  },
  "9690203": {
    "zipcode": "9690203",
    "prefectureCode": "07",
    "prefectureNumber": 7,
    "prefecture": "福島県",
    "city": "西白河郡矢吹町",
    "town": "北浦"
  },
  "9690204": {
    "zipcode": "9690204",
    "prefectureCode": "07",
    "prefectureNumber": 7,
    "prefecture": "福島県",
    "city": "西白河郡矢吹町",
    "town": "関山"
  },
  "9690205": {
    "zipcode": "9690205",
    "prefectureCode": "07",
    "prefectureNumber": 7,
    "prefecture": "福島県",
    "city": "西白河郡矢吹町",
    "town": "五本松"
  },
  "9690206": {
    "zipcode": "9690206",
    "prefectureCode": "07",
    "prefectureNumber": 7,
    "prefecture": "福島県",
    "city": "西白河郡矢吹町",
    "town": "赤沢"
  },
  "9690211": {
    "zipcode": "9690211",
    "prefectureCode": "07",
    "prefectureNumber": 7,
    "prefecture": "福島県",
    "city": "西白河郡矢吹町",
    "town": "北町"
  },
  "9690212": {
    "zipcode": "9690212",
    "prefectureCode": "07",
    "prefectureNumber": 7,
    "prefecture": "福島県",
    "city": "西白河郡矢吹町",
    "town": "善郷内"
  },
  "9690213": {
    "zipcode": "9690213",
    "prefectureCode": "07",
    "prefectureNumber": 7,
    "prefecture": "福島県",
    "city": "西白河郡矢吹町",
    "town": "本町"
  },
  "9690221": {
    "zipcode": "9690221",
    "prefectureCode": "07",
    "prefectureNumber": 7,
    "prefecture": "福島県",
    "city": "西白河郡矢吹町",
    "town": "中町"
  },
  "9690222": {
    "zipcode": "9690222",
    "prefectureCode": "07",
    "prefectureNumber": 7,
    "prefecture": "福島県",
    "city": "西白河郡矢吹町",
    "town": "八幡町"
  },
  "9690223": {
    "zipcode": "9690223",
    "prefectureCode": "07",
    "prefectureNumber": 7,
    "prefecture": "福島県",
    "city": "西白河郡矢吹町",
    "town": "文京町"
  },
  "9690224": {
    "zipcode": "9690224",
    "prefectureCode": "07",
    "prefectureNumber": 7,
    "prefecture": "福島県",
    "city": "西白河郡矢吹町",
    "town": "大久保"
  },
  "9690225": {
    "zipcode": "9690225",
    "prefectureCode": "07",
    "prefectureNumber": 7,
    "prefecture": "福島県",
    "city": "西白河郡矢吹町",
    "town": "東長峰"
  },
  "9690226": {
    "zipcode": "9690226",
    "prefectureCode": "07",
    "prefectureNumber": 7,
    "prefecture": "福島県",
    "city": "西白河郡矢吹町",
    "town": "西長峰"
  },
  "9690227": {
    "zipcode": "9690227",
    "prefectureCode": "07",
    "prefectureNumber": 7,
    "prefecture": "福島県",
    "city": "西白河郡矢吹町",
    "town": "田町"
  },
  "9690231": {
    "zipcode": "9690231",
    "prefectureCode": "07",
    "prefectureNumber": 7,
    "prefecture": "福島県",
    "city": "西白河郡矢吹町",
    "town": "中丸"
  },
  "9690232": {
    "zipcode": "9690232",
    "prefectureCode": "07",
    "prefectureNumber": 7,
    "prefecture": "福島県",
    "city": "西白河郡矢吹町",
    "town": "本城舘"
  },
  "9690233": {
    "zipcode": "9690233",
    "prefectureCode": "07",
    "prefectureNumber": 7,
    "prefecture": "福島県",
    "city": "西白河郡矢吹町",
    "town": "花の里"
  },
  "9690234": {
    "zipcode": "9690234",
    "prefectureCode": "07",
    "prefectureNumber": 7,
    "prefecture": "福島県",
    "city": "西白河郡矢吹町",
    "town": "前田"
  },
  "9690235": {
    "zipcode": "9690235",
    "prefectureCode": "07",
    "prefectureNumber": 7,
    "prefecture": "福島県",
    "city": "西白河郡矢吹町",
    "town": "丸の内"
  },
  "9690236": {
    "zipcode": "9690236",
    "prefectureCode": "07",
    "prefectureNumber": 7,
    "prefecture": "福島県",
    "city": "西白河郡矢吹町",
    "town": "矢吹"
  },
  "9690237": {
    "zipcode": "9690237",
    "prefectureCode": "07",
    "prefectureNumber": 7,
    "prefecture": "福島県",
    "city": "西白河郡矢吹町",
    "town": "牡丹平"
  },
  "9690238": {
    "zipcode": "9690238",
    "prefectureCode": "07",
    "prefectureNumber": 7,
    "prefecture": "福島県",
    "city": "西白河郡矢吹町",
    "town": "大池"
  },
  "9690241": {
    "zipcode": "9690241",
    "prefectureCode": "07",
    "prefectureNumber": 7,
    "prefecture": "福島県",
    "city": "西白河郡矢吹町",
    "town": "天開"
  },
  "9690242": {
    "zipcode": "9690242",
    "prefectureCode": "07",
    "prefectureNumber": 7,
    "prefecture": "福島県",
    "city": "西白河郡矢吹町",
    "town": "三城目"
  },
  "9690243": {
    "zipcode": "9690243",
    "prefectureCode": "07",
    "prefectureNumber": 7,
    "prefecture": "福島県",
    "city": "西白河郡矢吹町",
    "town": "東川原"
  },
  "9690244": {
    "zipcode": "9690244",
    "prefectureCode": "07",
    "prefectureNumber": 7,
    "prefecture": "福島県",
    "city": "西白河郡矢吹町",
    "town": "谷中"
  },
  "9690245": {
    "zipcode": "9690245",
    "prefectureCode": "07",
    "prefectureNumber": 7,
    "prefecture": "福島県",
    "city": "西白河郡矢吹町",
    "town": "白山"
  },
  "9690246": {
    "zipcode": "9690246",
    "prefectureCode": "07",
    "prefectureNumber": 7,
    "prefecture": "福島県",
    "city": "西白河郡矢吹町",
    "town": "下宮崎"
  },
  "9690247": {
    "zipcode": "9690247",
    "prefectureCode": "07",
    "prefectureNumber": 7,
    "prefecture": "福島県",
    "city": "西白河郡矢吹町",
    "town": "寺の前"
  },
  "9690248": {
    "zipcode": "9690248",
    "prefectureCode": "07",
    "prefectureNumber": 7,
    "prefecture": "福島県",
    "city": "西白河郡矢吹町",
    "town": "東郷"
  },
  "9690251": {
    "zipcode": "9690251",
    "prefectureCode": "07",
    "prefectureNumber": 7,
    "prefecture": "福島県",
    "city": "西白河郡矢吹町",
    "town": "神田南"
  },
  "9690252": {
    "zipcode": "9690252",
    "prefectureCode": "07",
    "prefectureNumber": 7,
    "prefecture": "福島県",
    "city": "西白河郡矢吹町",
    "town": "東堤"
  },
  "9690253": {
    "zipcode": "9690253",
    "prefectureCode": "07",
    "prefectureNumber": 7,
    "prefecture": "福島県",
    "city": "西白河郡矢吹町",
    "town": "明新西"
  },
  "9690254": {
    "zipcode": "9690254",
    "prefectureCode": "07",
    "prefectureNumber": 7,
    "prefecture": "福島県",
    "city": "西白河郡矢吹町",
    "town": "平鉢"
  },
  "9690255": {
    "zipcode": "9690255",
    "prefectureCode": "07",
    "prefectureNumber": 7,
    "prefecture": "福島県",
    "city": "西白河郡矢吹町",
    "town": "寺内南"
  },
  "9690256": {
    "zipcode": "9690256",
    "prefectureCode": "07",
    "prefectureNumber": 7,
    "prefecture": "福島県",
    "city": "西白河郡矢吹町",
    "town": "鍋内"
  },
  "9690257": {
    "zipcode": "9690257",
    "prefectureCode": "07",
    "prefectureNumber": 7,
    "prefecture": "福島県",
    "city": "西白河郡矢吹町",
    "town": "前久保"
  },
  "9690258": {
    "zipcode": "9690258",
    "prefectureCode": "07",
    "prefectureNumber": 7,
    "prefecture": "福島県",
    "city": "西白河郡矢吹町",
    "town": "沢尻"
  },
  "9690261": {
    "zipcode": "9690261",
    "prefectureCode": "07",
    "prefectureNumber": 7,
    "prefecture": "福島県",
    "city": "西白河郡矢吹町",
    "town": "弥栄"
  },
  "9690262": {
    "zipcode": "9690262",
    "prefectureCode": "07",
    "prefectureNumber": 7,
    "prefecture": "福島県",
    "city": "西白河郡矢吹町",
    "town": "松房"
  },
  "9690263": {
    "zipcode": "9690263",
    "prefectureCode": "07",
    "prefectureNumber": 7,
    "prefecture": "福島県",
    "city": "西白河郡矢吹町",
    "town": "根宿"
  },
  "9690264": {
    "zipcode": "9690264",
    "prefectureCode": "07",
    "prefectureNumber": 7,
    "prefecture": "福島県",
    "city": "西白河郡矢吹町",
    "town": "中畑"
  },
  "9690265": {
    "zipcode": "9690265",
    "prefectureCode": "07",
    "prefectureNumber": 7,
    "prefecture": "福島県",
    "city": "西白河郡矢吹町",
    "town": "中畑南"
  },
  "9690266": {
    "zipcode": "9690266",
    "prefectureCode": "07",
    "prefectureNumber": 7,
    "prefecture": "福島県",
    "city": "西白河郡矢吹町",
    "town": "上敷面"
  },
  "9690267": {
    "zipcode": "9690267",
    "prefectureCode": "07",
    "prefectureNumber": 7,
    "prefecture": "福島県",
    "city": "西白河郡矢吹町",
    "town": "諏訪清水"
  },
  "9690268": {
    "zipcode": "9690268",
    "prefectureCode": "07",
    "prefectureNumber": 7,
    "prefecture": "福島県",
    "city": "西白河郡矢吹町",
    "town": "松倉"
  },
  "9690271": {
    "zipcode": "9690271",
    "prefectureCode": "07",
    "prefectureNumber": 7,
    "prefecture": "福島県",
    "city": "西白河郡矢吹町",
    "town": "小松"
  },
  "9690272": {
    "zipcode": "9690272",
    "prefectureCode": "07",
    "prefectureNumber": 7,
    "prefecture": "福島県",
    "city": "西白河郡矢吹町",
    "town": "曙町"
  },
  "9690281": {
    "zipcode": "9690281",
    "prefectureCode": "07",
    "prefectureNumber": 7,
    "prefecture": "福島県",
    "city": "西白河郡矢吹町",
    "town": "馬場"
  },
  "9690282": {
    "zipcode": "9690282",
    "prefectureCode": "07",
    "prefectureNumber": 7,
    "prefecture": "福島県",
    "city": "西白河郡矢吹町",
    "town": "本郷町"
  },
  "9690283": {
    "zipcode": "9690283",
    "prefectureCode": "07",
    "prefectureNumber": 7,
    "prefecture": "福島県",
    "city": "西白河郡矢吹町",
    "town": "南町"
  },
  "9690284": {
    "zipcode": "9690284",
    "prefectureCode": "07",
    "prefectureNumber": 7,
    "prefecture": "福島県",
    "city": "西白河郡矢吹町",
    "town": "舘沢"
  },
  "9690285": {
    "zipcode": "9690285",
    "prefectureCode": "07",
    "prefectureNumber": 7,
    "prefecture": "福島県",
    "city": "西白河郡矢吹町",
    "town": "花咲"
  },
  "9690286": {
    "zipcode": "9690286",
    "prefectureCode": "07",
    "prefectureNumber": 7,
    "prefecture": "福島県",
    "city": "西白河郡矢吹町",
    "town": "大和内"
  },
  "9690287": {
    "zipcode": "9690287",
    "prefectureCode": "07",
    "prefectureNumber": 7,
    "prefecture": "福島県",
    "city": "西白河郡矢吹町",
    "town": "堰の上"
  },
  "9690288": {
    "zipcode": "9690288",
    "prefectureCode": "07",
    "prefectureNumber": 7,
    "prefecture": "福島県",
    "city": "西白河郡矢吹町",
    "town": "東の内"
  },
  "9690301": {
    "zipcode": "9690301",
    "prefectureCode": "07",
    "prefectureNumber": 7,
    "prefecture": "福島県",
    "city": "白河市",
    "town": "大信上新城"
  },
  "9690302": {
    "zipcode": "9690302",
    "prefectureCode": "07",
    "prefectureNumber": 7,
    "prefecture": "福島県",
    "city": "白河市",
    "town": "大信隈戸（その他）"
  },
  "9690303": {
    "zipcode": "9690303",
    "prefectureCode": "07",
    "prefectureNumber": 7,
    "prefecture": "福島県",
    "city": "白河市",
    "town": "大信下小屋"
  },
  "9690304": {
    "zipcode": "9690304",
    "prefectureCode": "07",
    "prefectureNumber": 7,
    "prefecture": "福島県",
    "city": "白河市",
    "town": "大信下新城"
  },
  "9690305": {
    "zipcode": "9690305",
    "prefectureCode": "07",
    "prefectureNumber": 7,
    "prefecture": "福島県",
    "city": "白河市",
    "town": "大信田園町府"
  },
  "9690306": {
    "zipcode": "9690306",
    "prefectureCode": "07",
    "prefectureNumber": 7,
    "prefecture": "福島県",
    "city": "白河市",
    "town": "大信豊地"
  },
  "9690307": {
    "zipcode": "9690307",
    "prefectureCode": "07",
    "prefectureNumber": 7,
    "prefecture": "福島県",
    "city": "白河市",
    "town": "大信中新城"
  },
  "9690308": {
    "zipcode": "9690308",
    "prefectureCode": "07",
    "prefectureNumber": 7,
    "prefecture": "福島県",
    "city": "白河市",
    "town": "大信増見"
  },
  "9690309": {
    "zipcode": "9690309",
    "prefectureCode": "07",
    "prefectureNumber": 7,
    "prefecture": "福島県",
    "city": "白河市",
    "town": "大信町屋"
  },
  "9690400": {
    "zipcode": "9690400",
    "prefectureCode": "07",
    "prefectureNumber": 7,
    "prefecture": "福島県",
    "city": "岩瀬郡鏡石町",
    "town": "以下に掲載がない場合"
  },
  "9690401": {
    "zipcode": "9690401",
    "prefectureCode": "07",
    "prefectureNumber": 7,
    "prefecture": "福島県",
    "city": "岩瀬郡鏡石町",
    "town": "本町"
  },
  "9690402": {
    "zipcode": "9690402",
    "prefectureCode": "07",
    "prefectureNumber": 7,
    "prefecture": "福島県",
    "city": "岩瀬郡鏡石町",
    "town": "東河原"
  },
  "9690403": {
    "zipcode": "9690403",
    "prefectureCode": "07",
    "prefectureNumber": 7,
    "prefecture": "福島県",
    "city": "岩瀬郡鏡石町",
    "town": "堂前"
  },
  "9690404": {
    "zipcode": "9690404",
    "prefectureCode": "07",
    "prefectureNumber": 7,
    "prefecture": "福島県",
    "city": "岩瀬郡鏡石町",
    "town": "南町"
  },
  "9691100": {
    "zipcode": "9691100",
    "prefectureCode": "07",
    "prefectureNumber": 7,
    "prefecture": "福島県",
    "city": "本宮市",
    "town": "以下に掲載がない場合"
  },
  "9691101": {
    "zipcode": "9691101",
    "prefectureCode": "07",
    "prefectureNumber": 7,
    "prefecture": "福島県",
    "city": "本宮市",
    "town": "高木"
  },
  "9691103": {
    "zipcode": "9691103",
    "prefectureCode": "07",
    "prefectureNumber": 7,
    "prefecture": "福島県",
    "city": "本宮市",
    "town": "仁井田"
  },
  "9691104": {
    "zipcode": "9691104",
    "prefectureCode": "07",
    "prefectureNumber": 7,
    "prefecture": "福島県",
    "city": "本宮市",
    "town": "荒井"
  },
  "9691105": {
    "zipcode": "9691105",
    "prefectureCode": "07",
    "prefectureNumber": 7,
    "prefecture": "福島県",
    "city": "本宮市",
    "town": "関下"
  },
  "9691106": {
    "zipcode": "9691106",
    "prefectureCode": "07",
    "prefectureNumber": 7,
    "prefecture": "福島県",
    "city": "本宮市",
    "town": "岩根"
  },
  "9691107": {
    "zipcode": "9691107",
    "prefectureCode": "07",
    "prefectureNumber": 7,
    "prefecture": "福島県",
    "city": "本宮市",
    "town": "青田"
  },
  "9691108": {
    "zipcode": "9691108",
    "prefectureCode": "07",
    "prefectureNumber": 7,
    "prefecture": "福島県",
    "city": "本宮市",
    "town": "本宮堀切"
  },
  "9691109": {
    "zipcode": "9691109",
    "prefectureCode": "07",
    "prefectureNumber": 7,
    "prefecture": "福島県",
    "city": "本宮市",
    "town": "本宮富ヶ峰"
  },
  "9691111": {
    "zipcode": "9691111",
    "prefectureCode": "07",
    "prefectureNumber": 7,
    "prefecture": "福島県",
    "city": "本宮市",
    "town": "本宮作田台"
  },
  "9691112": {
    "zipcode": "9691112",
    "prefectureCode": "07",
    "prefectureNumber": 7,
    "prefecture": "福島県",
    "city": "本宮市",
    "town": "本宮大榎"
  },
  "9691113": {
    "zipcode": "9691113",
    "prefectureCode": "07",
    "prefectureNumber": 7,
    "prefecture": "福島県",
    "city": "本宮市",
    "town": "本宮坊屋敷"
  },
  "9691114": {
    "zipcode": "9691114",
    "prefectureCode": "07",
    "prefectureNumber": 7,
    "prefecture": "福島県",
    "city": "本宮市",
    "town": "本宮関根"
  },
  "9691115": {
    "zipcode": "9691115",
    "prefectureCode": "07",
    "prefectureNumber": 7,
    "prefecture": "福島県",
    "city": "本宮市",
    "town": "本宮立石"
  },
  "9691116": {
    "zipcode": "9691116",
    "prefectureCode": "07",
    "prefectureNumber": 7,
    "prefecture": "福島県",
    "city": "本宮市",
    "town": "本宮弁天"
  },
  "9691117": {
    "zipcode": "9691117",
    "prefectureCode": "07",
    "prefectureNumber": 7,
    "prefecture": "福島県",
    "city": "本宮市",
    "town": "本宮鹿ノ子田"
  },
  "9691118": {
    "zipcode": "9691118",
    "prefectureCode": "07",
    "prefectureNumber": 7,
    "prefecture": "福島県",
    "city": "本宮市",
    "town": "本宮下台"
  },
  "9691119": {
    "zipcode": "9691119",
    "prefectureCode": "07",
    "prefectureNumber": 7,
    "prefecture": "福島県",
    "city": "本宮市",
    "town": "本宮柳ノ内"
  },
  "9691121": {
    "zipcode": "9691121",
    "prefectureCode": "07",
    "prefectureNumber": 7,
    "prefecture": "福島県",
    "city": "本宮市",
    "town": "本宮舘ノ越"
  },
  "9691122": {
    "zipcode": "9691122",
    "prefectureCode": "07",
    "prefectureNumber": 7,
    "prefecture": "福島県",
    "city": "本宮市",
    "town": "本宮大町"
  },
  "9691123": {
    "zipcode": "9691123",
    "prefectureCode": "07",
    "prefectureNumber": 7,
    "prefecture": "福島県",
    "city": "本宮市",
    "town": "本宮東町裏"
  },
  "9691124": {
    "zipcode": "9691124",
    "prefectureCode": "07",
    "prefectureNumber": 7,
    "prefecture": "福島県",
    "city": "本宮市",
    "town": "本宮仲町"
  },
  "9691125": {
    "zipcode": "9691125",
    "prefectureCode": "07",
    "prefectureNumber": 7,
    "prefecture": "福島県",
    "city": "本宮市",
    "town": "本宮荒町"
  },
  "9691126": {
    "zipcode": "9691126",
    "prefectureCode": "07",
    "prefectureNumber": 7,
    "prefecture": "福島県",
    "city": "本宮市",
    "town": "本宮馬場"
  },
  "9691127": {
    "zipcode": "9691127",
    "prefectureCode": "07",
    "prefectureNumber": 7,
    "prefecture": "福島県",
    "city": "本宮市",
    "town": "本宮鉄砲町"
  },
  "9691128": {
    "zipcode": "9691128",
    "prefectureCode": "07",
    "prefectureNumber": 7,
    "prefecture": "福島県",
    "city": "本宮市",
    "town": "本宮舘町"
  },
  "9691129": {
    "zipcode": "9691129",
    "prefectureCode": "07",
    "prefectureNumber": 7,
    "prefecture": "福島県",
    "city": "本宮市",
    "town": "本宮矢来"
  },
  "9691131": {
    "zipcode": "9691131",
    "prefectureCode": "07",
    "prefectureNumber": 7,
    "prefecture": "福島県",
    "city": "本宮市",
    "town": "本宮南町裡"
  },
  "9691132": {
    "zipcode": "9691132",
    "prefectureCode": "07",
    "prefectureNumber": 7,
    "prefecture": "福島県",
    "city": "本宮市",
    "town": "本宮下町"
  },
  "9691133": {
    "zipcode": "9691133",
    "prefectureCode": "07",
    "prefectureNumber": 7,
    "prefecture": "福島県",
    "city": "本宮市",
    "town": "本宮中條"
  },
  "9691134": {
    "zipcode": "9691134",
    "prefectureCode": "07",
    "prefectureNumber": 7,
    "prefecture": "福島県",
    "city": "本宮市",
    "town": "本宮上町"
  },
  "9691135": {
    "zipcode": "9691135",
    "prefectureCode": "07",
    "prefectureNumber": 7,
    "prefecture": "福島県",
    "city": "本宮市",
    "town": "本宮蛭田"
  },
  "9691136": {
    "zipcode": "9691136",
    "prefectureCode": "07",
    "prefectureNumber": 7,
    "prefecture": "福島県",
    "city": "本宮市",
    "town": "本宮九縄"
  },
  "9691137": {
    "zipcode": "9691137",
    "prefectureCode": "07",
    "prefectureNumber": 7,
    "prefecture": "福島県",
    "city": "本宮市",
    "town": "本宮太郎丸"
  },
  "9691138": {
    "zipcode": "9691138",
    "prefectureCode": "07",
    "prefectureNumber": 7,
    "prefecture": "福島県",
    "city": "本宮市",
    "town": "本宮鳴瀬"
  },
  "9691139": {
    "zipcode": "9691139",
    "prefectureCode": "07",
    "prefectureNumber": 7,
    "prefecture": "福島県",
    "city": "本宮市",
    "town": "本宮石塚"
  },
  "9691141": {
    "zipcode": "9691141",
    "prefectureCode": "07",
    "prefectureNumber": 7,
    "prefecture": "福島県",
    "city": "本宮市",
    "town": "本宮兼谷"
  },
  "9691142": {
    "zipcode": "9691142",
    "prefectureCode": "07",
    "prefectureNumber": 7,
    "prefecture": "福島県",
    "city": "本宮市",
    "town": "本宮兼谷平"
  },
  "9691143": {
    "zipcode": "9691143",
    "prefectureCode": "07",
    "prefectureNumber": 7,
    "prefecture": "福島県",
    "city": "本宮市",
    "town": "本宮山田"
  },
  "9691144": {
    "zipcode": "9691144",
    "prefectureCode": "07",
    "prefectureNumber": 7,
    "prefecture": "福島県",
    "city": "本宮市",
    "town": "本宮大森"
  },
  "9691145": {
    "zipcode": "9691145",
    "prefectureCode": "07",
    "prefectureNumber": 7,
    "prefecture": "福島県",
    "city": "本宮市",
    "town": "本宮葭ヶ入"
  },
  "9691146": {
    "zipcode": "9691146",
    "prefectureCode": "07",
    "prefectureNumber": 7,
    "prefecture": "福島県",
    "city": "本宮市",
    "town": "本宮南山神"
  },
  "9691147": {
    "zipcode": "9691147",
    "prefectureCode": "07",
    "prefectureNumber": 7,
    "prefecture": "福島県",
    "city": "本宮市",
    "town": "本宮花町"
  },
  "9691148": {
    "zipcode": "9691148",
    "prefectureCode": "07",
    "prefectureNumber": 7,
    "prefecture": "福島県",
    "city": "本宮市",
    "town": "本宮栄田"
  },
  "9691149": {
    "zipcode": "9691149",
    "prefectureCode": "07",
    "prefectureNumber": 7,
    "prefecture": "福島県",
    "city": "本宮市",
    "town": "本宮万世"
  },
  "9691151": {
    "zipcode": "9691151",
    "prefectureCode": "07",
    "prefectureNumber": 7,
    "prefecture": "福島県",
    "city": "本宮市",
    "town": "本宮千代田"
  },
  "9691152": {
    "zipcode": "9691152",
    "prefectureCode": "07",
    "prefectureNumber": 7,
    "prefecture": "福島県",
    "city": "本宮市",
    "town": "本宮千束"
  },
  "9691153": {
    "zipcode": "9691153",
    "prefectureCode": "07",
    "prefectureNumber": 7,
    "prefecture": "福島県",
    "city": "本宮市",
    "town": "本宮塩田入"
  },
  "9691154": {
    "zipcode": "9691154",
    "prefectureCode": "07",
    "prefectureNumber": 7,
    "prefecture": "福島県",
    "city": "本宮市",
    "town": "本宮塩田"
  },
  "9691155": {
    "zipcode": "9691155",
    "prefectureCode": "07",
    "prefectureNumber": 7,
    "prefecture": "福島県",
    "city": "本宮市",
    "town": "本宮舞台"
  },
  "9691156": {
    "zipcode": "9691156",
    "prefectureCode": "07",
    "prefectureNumber": 7,
    "prefecture": "福島県",
    "city": "本宮市",
    "town": "本宮鍋田"
  },
  "9691157": {
    "zipcode": "9691157",
    "prefectureCode": "07",
    "prefectureNumber": 7,
    "prefecture": "福島県",
    "city": "本宮市",
    "town": "本宮田中"
  },
  "9691158": {
    "zipcode": "9691158",
    "prefectureCode": "07",
    "prefectureNumber": 7,
    "prefecture": "福島県",
    "city": "本宮市",
    "town": "本宮平井"
  },
  "9691159": {
    "zipcode": "9691159",
    "prefectureCode": "07",
    "prefectureNumber": 7,
    "prefecture": "福島県",
    "city": "本宮市",
    "town": "本宮広町"
  },
  "9691161": {
    "zipcode": "9691161",
    "prefectureCode": "07",
    "prefectureNumber": 7,
    "prefecture": "福島県",
    "city": "本宮市",
    "town": "本宮欠下"
  },
  "9691162": {
    "zipcode": "9691162",
    "prefectureCode": "07",
    "prefectureNumber": 7,
    "prefecture": "福島県",
    "city": "本宮市",
    "town": "本宮南河原田"
  },
  "9691163": {
    "zipcode": "9691163",
    "prefectureCode": "07",
    "prefectureNumber": 7,
    "prefecture": "福島県",
    "city": "本宮市",
    "town": "本宮白川"
  },
  "9691164": {
    "zipcode": "9691164",
    "prefectureCode": "07",
    "prefectureNumber": 7,
    "prefecture": "福島県",
    "city": "本宮市",
    "town": "本宮戸崎"
  },
  "9691165": {
    "zipcode": "9691165",
    "prefectureCode": "07",
    "prefectureNumber": 7,
    "prefecture": "福島県",
    "city": "本宮市",
    "town": "本宮中台"
  },
  "9691166": {
    "zipcode": "9691166",
    "prefectureCode": "07",
    "prefectureNumber": 7,
    "prefecture": "福島県",
    "city": "本宮市",
    "town": "本宮近江内"
  },
  "9691167": {
    "zipcode": "9691167",
    "prefectureCode": "07",
    "prefectureNumber": 7,
    "prefecture": "福島県",
    "city": "本宮市",
    "town": "本宮道屋敷"
  },
  "9691168": {
    "zipcode": "9691168",
    "prefectureCode": "07",
    "prefectureNumber": 7,
    "prefecture": "福島県",
    "city": "本宮市",
    "town": "本宮一ッ屋"
  },
  "9691169": {
    "zipcode": "9691169",
    "prefectureCode": "07",
    "prefectureNumber": 7,
    "prefecture": "福島県",
    "city": "本宮市",
    "town": "本宮小原田"
  },
  "9691171": {
    "zipcode": "9691171",
    "prefectureCode": "07",
    "prefectureNumber": 7,
    "prefecture": "福島県",
    "city": "本宮市",
    "town": "本宮樋ノ口"
  },
  "9691172": {
    "zipcode": "9691172",
    "prefectureCode": "07",
    "prefectureNumber": 7,
    "prefecture": "福島県",
    "city": "本宮市",
    "town": "本宮北ノ内"
  },
  "9691173": {
    "zipcode": "9691173",
    "prefectureCode": "07",
    "prefectureNumber": 7,
    "prefecture": "福島県",
    "city": "本宮市",
    "town": "本宮中野後"
  },
  "9691174": {
    "zipcode": "9691174",
    "prefectureCode": "07",
    "prefectureNumber": 7,
    "prefecture": "福島県",
    "city": "本宮市",
    "town": "本宮南ノ内"
  },
  "9691175": {
    "zipcode": "9691175",
    "prefectureCode": "07",
    "prefectureNumber": 7,
    "prefecture": "福島県",
    "city": "本宮市",
    "town": "本宮名郷脇"
  },
  "9691176": {
    "zipcode": "9691176",
    "prefectureCode": "07",
    "prefectureNumber": 7,
    "prefecture": "福島県",
    "city": "本宮市",
    "town": "本宮地蔵堂"
  },
  "9691201": {
    "zipcode": "9691201",
    "prefectureCode": "07",
    "prefectureNumber": 7,
    "prefecture": "福島県",
    "city": "本宮市",
    "town": "稲沢"
  },
  "9691202": {
    "zipcode": "9691202",
    "prefectureCode": "07",
    "prefectureNumber": 7,
    "prefecture": "福島県",
    "city": "本宮市",
    "town": "松沢"
  },
  "9691203": {
    "zipcode": "9691203",
    "prefectureCode": "07",
    "prefectureNumber": 7,
    "prefecture": "福島県",
    "city": "本宮市",
    "town": "白岩"
  },
  "9691204": {
    "zipcode": "9691204",
    "prefectureCode": "07",
    "prefectureNumber": 7,
    "prefecture": "福島県",
    "city": "本宮市",
    "town": "糠沢"
  },
  "9691205": {
    "zipcode": "9691205",
    "prefectureCode": "07",
    "prefectureNumber": 7,
    "prefecture": "福島県",
    "city": "本宮市",
    "town": "和田"
  },
  "9691206": {
    "zipcode": "9691206",
    "prefectureCode": "07",
    "prefectureNumber": 7,
    "prefecture": "福島県",
    "city": "本宮市",
    "town": "長屋"
  },
  "9691300": {
    "zipcode": "9691300",
    "prefectureCode": "07",
    "prefectureNumber": 7,
    "prefecture": "福島県",
    "city": "安達郡大玉村",
    "town": "以下に掲載がない場合"
  },
  "9691301": {
    "zipcode": "9691301",
    "prefectureCode": "07",
    "prefectureNumber": 7,
    "prefecture": "福島県",
    "city": "安達郡大玉村",
    "town": "大山"
  },
  "9691302": {
    "zipcode": "9691302",
    "prefectureCode": "07",
    "prefectureNumber": 7,
    "prefecture": "福島県",
    "city": "安達郡大玉村",
    "town": "玉井（その他）"
  },
  "9691401": {
    "zipcode": "9691401",
    "prefectureCode": "07",
    "prefectureNumber": 7,
    "prefecture": "福島県",
    "city": "二本松市",
    "town": "吉倉"
  },
  "9691402": {
    "zipcode": "9691402",
    "prefectureCode": "07",
    "prefectureNumber": 7,
    "prefecture": "福島県",
    "city": "二本松市",
    "town": "米沢"
  },
  "9691403": {
    "zipcode": "9691403",
    "prefectureCode": "07",
    "prefectureNumber": 7,
    "prefecture": "福島県",
    "city": "二本松市",
    "town": "渋川"
  },
  "9691404": {
    "zipcode": "9691404",
    "prefectureCode": "07",
    "prefectureNumber": 7,
    "prefecture": "福島県",
    "city": "二本松市",
    "town": "油井"
  },
  "9691405": {
    "zipcode": "9691405",
    "prefectureCode": "07",
    "prefectureNumber": 7,
    "prefecture": "福島県",
    "city": "二本松市",
    "town": "智恵子の森"
  },
  "9691511": {
    "zipcode": "9691511",
    "prefectureCode": "07",
    "prefectureNumber": 7,
    "prefecture": "福島県",
    "city": "二本松市",
    "town": "下川崎"
  },
  "9691512": {
    "zipcode": "9691512",
    "prefectureCode": "07",
    "prefectureNumber": 7,
    "prefecture": "福島県",
    "city": "二本松市",
    "town": "上川崎"
  },
  "9691513": {
    "zipcode": "9691513",
    "prefectureCode": "07",
    "prefectureNumber": 7,
    "prefecture": "福島県",
    "city": "二本松市",
    "town": "小沢"
  },
  "9691600": {
    "zipcode": "9691600",
    "prefectureCode": "07",
    "prefectureNumber": 7,
    "prefecture": "福島県",
    "city": "伊達郡桑折町",
    "town": "以下に掲載がない場合"
  },
  "9691601": {
    "zipcode": "9691601",
    "prefectureCode": "07",
    "prefectureNumber": 7,
    "prefecture": "福島県",
    "city": "伊達郡桑折町",
    "town": "北町"
  },
  "9691602": {
    "zipcode": "9691602",
    "prefectureCode": "07",
    "prefectureNumber": 7,
    "prefecture": "福島県",
    "city": "伊達郡桑折町",
    "town": "町裏"
  },
  "9691603": {
    "zipcode": "9691603",
    "prefectureCode": "07",
    "prefectureNumber": 7,
    "prefecture": "福島県",
    "city": "伊達郡桑折町",
    "town": "上町"
  },
  "9691604": {
    "zipcode": "9691604",
    "prefectureCode": "07",
    "prefectureNumber": 7,
    "prefecture": "福島県",
    "city": "伊達郡桑折町",
    "town": "堰下"
  },
  "9691605": {
    "zipcode": "9691605",
    "prefectureCode": "07",
    "prefectureNumber": 7,
    "prefecture": "福島県",
    "city": "伊達郡桑折町",
    "town": "堰合"
  },
  "9691606": {
    "zipcode": "9691606",
    "prefectureCode": "07",
    "prefectureNumber": 7,
    "prefecture": "福島県",
    "city": "伊達郡桑折町",
    "town": "東段"
  },
  "9691607": {
    "zipcode": "9691607",
    "prefectureCode": "07",
    "prefectureNumber": 7,
    "prefecture": "福島県",
    "city": "伊達郡桑折町",
    "town": "西段"
  },
  "9691608": {
    "zipcode": "9691608",
    "prefectureCode": "07",
    "prefectureNumber": 7,
    "prefecture": "福島県",
    "city": "伊達郡桑折町",
    "town": "芝堤"
  },
  "9691611": {
    "zipcode": "9691611",
    "prefectureCode": "07",
    "prefectureNumber": 7,
    "prefecture": "福島県",
    "city": "伊達郡桑折町",
    "town": "東大隅"
  },
  "9691612": {
    "zipcode": "9691612",
    "prefectureCode": "07",
    "prefectureNumber": 7,
    "prefecture": "福島県",
    "city": "伊達郡桑折町",
    "town": "西大隅"
  },
  "9691613": {
    "zipcode": "9691613",
    "prefectureCode": "07",
    "prefectureNumber": 7,
    "prefecture": "福島県",
    "city": "伊達郡桑折町",
    "town": "桑島"
  },
  "9691614": {
    "zipcode": "9691614",
    "prefectureCode": "07",
    "prefectureNumber": 7,
    "prefecture": "福島県",
    "city": "伊達郡桑折町",
    "town": "本町"
  },
  "9691615": {
    "zipcode": "9691615",
    "prefectureCode": "07",
    "prefectureNumber": 7,
    "prefecture": "福島県",
    "city": "伊達郡桑折町",
    "town": "沢"
  },
  "9691616": {
    "zipcode": "9691616",
    "prefectureCode": "07",
    "prefectureNumber": 7,
    "prefecture": "福島県",
    "city": "伊達郡桑折町",
    "town": "舘"
  },
  "9691617": {
    "zipcode": "9691617",
    "prefectureCode": "07",
    "prefectureNumber": 7,
    "prefecture": "福島県",
    "city": "伊達郡桑折町",
    "town": "陣屋"
  },
  "9691618": {
    "zipcode": "9691618",
    "prefectureCode": "07",
    "prefectureNumber": 7,
    "prefecture": "福島県",
    "city": "伊達郡桑折町",
    "town": "庫場"
  },
  "9691619": {
    "zipcode": "9691619",
    "prefectureCode": "07",
    "prefectureNumber": 7,
    "prefecture": "福島県",
    "city": "伊達郡桑折町",
    "town": "仮屋"
  },
  "9691621": {
    "zipcode": "9691621",
    "prefectureCode": "07",
    "prefectureNumber": 7,
    "prefecture": "福島県",
    "city": "伊達郡桑折町",
    "town": "道場前"
  },
  "9691622": {
    "zipcode": "9691622",
    "prefectureCode": "07",
    "prefectureNumber": 7,
    "prefecture": "福島県",
    "city": "伊達郡桑折町",
    "town": "南町"
  },
  "9691623": {
    "zipcode": "9691623",
    "prefectureCode": "07",
    "prefectureNumber": 7,
    "prefecture": "福島県",
    "city": "伊達郡桑折町",
    "town": "和尚堂"
  },
  "9691624": {
    "zipcode": "9691624",
    "prefectureCode": "07",
    "prefectureNumber": 7,
    "prefecture": "福島県",
    "city": "伊達郡桑折町",
    "town": "新和町"
  },
  "9691625": {
    "zipcode": "9691625",
    "prefectureCode": "07",
    "prefectureNumber": 7,
    "prefecture": "福島県",
    "city": "伊達郡桑折町",
    "town": "新吉町"
  },
  "9691626": {
    "zipcode": "9691626",
    "prefectureCode": "07",
    "prefectureNumber": 7,
    "prefecture": "福島県",
    "city": "伊達郡桑折町",
    "town": "寺坂"
  },
  "9691627": {
    "zipcode": "9691627",
    "prefectureCode": "07",
    "prefectureNumber": 7,
    "prefecture": "福島県",
    "city": "伊達郡桑折町",
    "town": "諏訪"
  },
  "9691628": {
    "zipcode": "9691628",
    "prefectureCode": "07",
    "prefectureNumber": 7,
    "prefecture": "福島県",
    "city": "伊達郡桑折町",
    "town": "新町"
  },
  "9691629": {
    "zipcode": "9691629",
    "prefectureCode": "07",
    "prefectureNumber": 7,
    "prefecture": "福島県",
    "city": "伊達郡桑折町",
    "town": "西町"
  },
  "9691631": {
    "zipcode": "9691631",
    "prefectureCode": "07",
    "prefectureNumber": 7,
    "prefecture": "福島県",
    "city": "伊達郡桑折町",
    "town": "薮内"
  },
  "9691632": {
    "zipcode": "9691632",
    "prefectureCode": "07",
    "prefectureNumber": 7,
    "prefecture": "福島県",
    "city": "伊達郡桑折町",
    "town": "田植"
  },
  "9691633": {
    "zipcode": "9691633",
    "prefectureCode": "07",
    "prefectureNumber": 7,
    "prefecture": "福島県",
    "city": "伊達郡桑折町",
    "town": "界"
  },
  "9691634": {
    "zipcode": "9691634",
    "prefectureCode": "07",
    "prefectureNumber": 7,
    "prefecture": "福島県",
    "city": "伊達郡桑折町",
    "town": "砂子沢"
  },
  "9691635": {
    "zipcode": "9691635",
    "prefectureCode": "07",
    "prefectureNumber": 7,
    "prefecture": "福島県",
    "city": "伊達郡桑折町",
    "town": "東八串"
  },
  "9691641": {
    "zipcode": "9691641",
    "prefectureCode": "07",
    "prefectureNumber": 7,
    "prefecture": "福島県",
    "city": "伊達郡桑折町",
    "town": "南半田"
  },
  "9691642": {
    "zipcode": "9691642",
    "prefectureCode": "07",
    "prefectureNumber": 7,
    "prefecture": "福島県",
    "city": "伊達郡桑折町",
    "town": "北半田"
  },
  "9691643": {
    "zipcode": "9691643",
    "prefectureCode": "07",
    "prefectureNumber": 7,
    "prefecture": "福島県",
    "city": "伊達郡桑折町",
    "town": "谷地"
  },
  "9691651": {
    "zipcode": "9691651",
    "prefectureCode": "07",
    "prefectureNumber": 7,
    "prefecture": "福島県",
    "city": "伊達郡桑折町",
    "town": "万正寺"
  },
  "9691652": {
    "zipcode": "9691652",
    "prefectureCode": "07",
    "prefectureNumber": 7,
    "prefecture": "福島県",
    "city": "伊達郡桑折町",
    "town": "成田"
  },
  "9691653": {
    "zipcode": "9691653",
    "prefectureCode": "07",
    "prefectureNumber": 7,
    "prefecture": "福島県",
    "city": "伊達郡桑折町",
    "town": "松原"
  },
  "9691654": {
    "zipcode": "9691654",
    "prefectureCode": "07",
    "prefectureNumber": 7,
    "prefecture": "福島県",
    "city": "伊達郡桑折町",
    "town": "平沢"
  },
  "9691661": {
    "zipcode": "9691661",
    "prefectureCode": "07",
    "prefectureNumber": 7,
    "prefecture": "福島県",
    "city": "伊達郡桑折町",
    "town": "上郡"
  },
  "9691662": {
    "zipcode": "9691662",
    "prefectureCode": "07",
    "prefectureNumber": 7,
    "prefecture": "福島県",
    "city": "伊達郡桑折町",
    "town": "下郡"
  },
  "9691663": {
    "zipcode": "9691663",
    "prefectureCode": "07",
    "prefectureNumber": 7,
    "prefecture": "福島県",
    "city": "伊達郡桑折町",
    "town": "伊達崎"
  },
  "9691700": {
    "zipcode": "9691700",
    "prefectureCode": "07",
    "prefectureNumber": 7,
    "prefecture": "福島県",
    "city": "伊達郡国見町",
    "town": "以下に掲載がない場合"
  },
  "9691701": {
    "zipcode": "9691701",
    "prefectureCode": "07",
    "prefectureNumber": 7,
    "prefecture": "福島県",
    "city": "伊達郡国見町",
    "town": "石母田"
  },
  "9691711": {
    "zipcode": "9691711",
    "prefectureCode": "07",
    "prefectureNumber": 7,
    "prefecture": "福島県",
    "city": "伊達郡国見町",
    "town": "貝田"
  },
  "9691712": {
    "zipcode": "9691712",
    "prefectureCode": "07",
    "prefectureNumber": 7,
    "prefecture": "福島県",
    "city": "伊達郡国見町",
    "town": "光明寺"
  },
  "9691713": {
    "zipcode": "9691713",
    "prefectureCode": "07",
    "prefectureNumber": 7,
    "prefecture": "福島県",
    "city": "伊達郡国見町",
    "town": "大木戸"
  },
  "9691714": {
    "zipcode": "9691714",
    "prefectureCode": "07",
    "prefectureNumber": 7,
    "prefecture": "福島県",
    "city": "伊達郡国見町",
    "town": "高城"
  },
  "9691721": {
    "zipcode": "9691721",
    "prefectureCode": "07",
    "prefectureNumber": 7,
    "prefecture": "福島県",
    "city": "伊達郡国見町",
    "town": "川内"
  },
  "9691722": {
    "zipcode": "9691722",
    "prefectureCode": "07",
    "prefectureNumber": 7,
    "prefecture": "福島県",
    "city": "伊達郡国見町",
    "town": "西大枝"
  },
  "9691731": {
    "zipcode": "9691731",
    "prefectureCode": "07",
    "prefectureNumber": 7,
    "prefecture": "福島県",
    "city": "伊達郡国見町",
    "town": "森山"
  },
  "9691741": {
    "zipcode": "9691741",
    "prefectureCode": "07",
    "prefectureNumber": 7,
    "prefecture": "福島県",
    "city": "伊達郡国見町",
    "town": "徳江"
  },
  "9691751": {
    "zipcode": "9691751",
    "prefectureCode": "07",
    "prefectureNumber": 7,
    "prefecture": "福島県",
    "city": "伊達郡国見町",
    "town": "塚野目"
  },
  "9691761": {
    "zipcode": "9691761",
    "prefectureCode": "07",
    "prefectureNumber": 7,
    "prefecture": "福島県",
    "city": "伊達郡国見町",
    "town": "藤田"
  },
  "9691771": {
    "zipcode": "9691771",
    "prefectureCode": "07",
    "prefectureNumber": 7,
    "prefecture": "福島県",
    "city": "伊達郡国見町",
    "town": "山崎"
  },
  "9691780": {
    "zipcode": "9691780",
    "prefectureCode": "07",
    "prefectureNumber": 7,
    "prefecture": "福島県",
    "city": "伊達郡国見町",
    "town": "新内谷"
  },
  "9691781": {
    "zipcode": "9691781",
    "prefectureCode": "07",
    "prefectureNumber": 7,
    "prefecture": "福島県",
    "city": "伊達郡国見町",
    "town": "内谷"
  },
  "9691782": {
    "zipcode": "9691782",
    "prefectureCode": "07",
    "prefectureNumber": 7,
    "prefecture": "福島県",
    "city": "伊達郡国見町",
    "town": "泉田"
  },
  "9691783": {
    "zipcode": "9691783",
    "prefectureCode": "07",
    "prefectureNumber": 7,
    "prefecture": "福島県",
    "city": "伊達郡国見町",
    "town": "鳥取"
  },
  "9691784": {
    "zipcode": "9691784",
    "prefectureCode": "07",
    "prefectureNumber": 7,
    "prefecture": "福島県",
    "city": "伊達郡国見町",
    "town": "小坂"
  },
  "9691785": {
    "zipcode": "9691785",
    "prefectureCode": "07",
    "prefectureNumber": 7,
    "prefecture": "福島県",
    "city": "伊達郡国見町",
    "town": "板橋南"
  },
  "9691786": {
    "zipcode": "9691786",
    "prefectureCode": "07",
    "prefectureNumber": 7,
    "prefecture": "福島県",
    "city": "伊達郡国見町",
    "town": "新泉田"
  },
  "9691787": {
    "zipcode": "9691787",
    "prefectureCode": "07",
    "prefectureNumber": 7,
    "prefecture": "福島県",
    "city": "伊達郡国見町",
    "town": "新小坂"
  },
  "9691788": {
    "zipcode": "9691788",
    "prefectureCode": "07",
    "prefectureNumber": 7,
    "prefecture": "福島県",
    "city": "伊達郡国見町",
    "town": "小坂南"
  },
  "9691789": {
    "zipcode": "9691789",
    "prefectureCode": "07",
    "prefectureNumber": 7,
    "prefecture": "福島県",
    "city": "伊達郡国見町",
    "town": "新鳥取"
  },
  "9692271": {
    "zipcode": "9692271",
    "prefectureCode": "07",
    "prefectureNumber": 7,
    "prefecture": "福島県",
    "city": "耶麻郡猪苗代町",
    "town": "中小松"
  },
  "9692272": {
    "zipcode": "9692272",
    "prefectureCode": "07",
    "prefectureNumber": 7,
    "prefecture": "福島県",
    "city": "耶麻郡猪苗代町",
    "town": "金田"
  },
  "9692273": {
    "zipcode": "9692273",
    "prefectureCode": "07",
    "prefectureNumber": 7,
    "prefecture": "福島県",
    "city": "耶麻郡猪苗代町",
    "town": "関都"
  },
  "9692274": {
    "zipcode": "9692274",
    "prefectureCode": "07",
    "prefectureNumber": 7,
    "prefecture": "福島県",
    "city": "耶麻郡猪苗代町",
    "town": "壺楊"
  },
  "9692275": {
    "zipcode": "9692275",
    "prefectureCode": "07",
    "prefectureNumber": 7,
    "prefecture": "福島県",
    "city": "耶麻郡猪苗代町",
    "town": "山潟"
  },
  "9692661": {
    "zipcode": "9692661",
    "prefectureCode": "07",
    "prefectureNumber": 7,
    "prefecture": "福島県",
    "city": "耶麻郡猪苗代町",
    "town": "三郷"
  },
  "9692662": {
    "zipcode": "9692662",
    "prefectureCode": "07",
    "prefectureNumber": 7,
    "prefecture": "福島県",
    "city": "耶麻郡猪苗代町",
    "town": "八幡"
  },
  "9692663": {
    "zipcode": "9692663",
    "prefectureCode": "07",
    "prefectureNumber": 7,
    "prefecture": "福島県",
    "city": "耶麻郡猪苗代町",
    "town": "川桁"
  },
  "9692701": {
    "zipcode": "9692701",
    "prefectureCode": "07",
    "prefectureNumber": 7,
    "prefecture": "福島県",
    "city": "耶麻郡北塩原村",
    "town": "桧原（秋元、荒砂沢山、裏磐梯、大府平、大府平原、小野川、小野川原、剣ケ峯、狐鷹森、五色沼、甚九郎沢山、甚九郎山、曽原山、寺沢山、蛇平原山、湯平山、簗部沢山）"
  },
  "9692751": {
    "zipcode": "9692751",
    "prefectureCode": "07",
    "prefectureNumber": 7,
    "prefecture": "福島県",
    "city": "耶麻郡猪苗代町",
    "town": "若宮"
  },
  "9692752": {
    "zipcode": "9692752",
    "prefectureCode": "07",
    "prefectureNumber": 7,
    "prefecture": "福島県",
    "city": "耶麻郡猪苗代町",
    "town": "蚕養"
  },
  "9693100": {
    "zipcode": "9693100",
    "prefectureCode": "07",
    "prefectureNumber": 7,
    "prefecture": "福島県",
    "city": "耶麻郡猪苗代町",
    "town": "以下に掲載がない場合"
  },
  "9693101": {
    "zipcode": "9693101",
    "prefectureCode": "07",
    "prefectureNumber": 7,
    "prefecture": "福島県",
    "city": "耶麻郡猪苗代町",
    "town": "山神原"
  },
  "9693102": {
    "zipcode": "9693102",
    "prefectureCode": "07",
    "prefectureNumber": 7,
    "prefecture": "福島県",
    "city": "耶麻郡猪苗代町",
    "town": "見禰山"
  },
  "9693103": {
    "zipcode": "9693103",
    "prefectureCode": "07",
    "prefectureNumber": 7,
    "prefecture": "福島県",
    "city": "耶麻郡猪苗代町",
    "town": "町島田"
  },
  "9693111": {
    "zipcode": "9693111",
    "prefectureCode": "07",
    "prefectureNumber": 7,
    "prefecture": "福島県",
    "city": "耶麻郡猪苗代町",
    "town": "村東"
  },
  "9693112": {
    "zipcode": "9693112",
    "prefectureCode": "07",
    "prefectureNumber": 7,
    "prefecture": "福島県",
    "city": "耶麻郡猪苗代町",
    "town": "弁才天西"
  },
  "9693113": {
    "zipcode": "9693113",
    "prefectureCode": "07",
    "prefectureNumber": 7,
    "prefecture": "福島県",
    "city": "耶麻郡猪苗代町",
    "town": "南半坂"
  },
  "9693121": {
    "zipcode": "9693121",
    "prefectureCode": "07",
    "prefectureNumber": 7,
    "prefecture": "福島県",
    "city": "耶麻郡猪苗代町",
    "town": "横マクリ"
  },
  "9693122": {
    "zipcode": "9693122",
    "prefectureCode": "07",
    "prefectureNumber": 7,
    "prefecture": "福島県",
    "city": "耶麻郡猪苗代町",
    "town": "本町"
  },
  "9693123": {
    "zipcode": "9693123",
    "prefectureCode": "07",
    "prefectureNumber": 7,
    "prefecture": "福島県",
    "city": "耶麻郡猪苗代町",
    "town": "鶴田"
  },
  "9693131": {
    "zipcode": "9693131",
    "prefectureCode": "07",
    "prefectureNumber": 7,
    "prefecture": "福島県",
    "city": "耶麻郡猪苗代町",
    "town": "村南"
  },
  "9693132": {
    "zipcode": "9693132",
    "prefectureCode": "07",
    "prefectureNumber": 7,
    "prefecture": "福島県",
    "city": "耶麻郡猪苗代町",
    "town": "堅田"
  },
  "9693133": {
    "zipcode": "9693133",
    "prefectureCode": "07",
    "prefectureNumber": 7,
    "prefecture": "福島県",
    "city": "耶麻郡猪苗代町",
    "town": "千代田"
  },
  "9693141": {
    "zipcode": "9693141",
    "prefectureCode": "07",
    "prefectureNumber": 7,
    "prefecture": "福島県",
    "city": "耶麻郡猪苗代町",
    "town": "六角"
  },
  "9693281": {
    "zipcode": "9693281",
    "prefectureCode": "07",
    "prefectureNumber": 7,
    "prefecture": "福島県",
    "city": "耶麻郡猪苗代町",
    "town": "西葉山"
  },
  "9693282": {
    "zipcode": "9693282",
    "prefectureCode": "07",
    "prefectureNumber": 7,
    "prefecture": "福島県",
    "city": "耶麻郡猪苗代町",
    "town": "酸奨沢"
  },
  "9693283": {
    "zipcode": "9693283",
    "prefectureCode": "07",
    "prefectureNumber": 7,
    "prefecture": "福島県",
    "city": "耶麻郡猪苗代町",
    "town": "長田"
  },
  "9693284": {
    "zipcode": "9693284",
    "prefectureCode": "07",
    "prefectureNumber": 7,
    "prefecture": "福島県",
    "city": "耶麻郡猪苗代町",
    "town": "三ツ和"
  },
  "9693285": {
    "zipcode": "9693285",
    "prefectureCode": "07",
    "prefectureNumber": 7,
    "prefecture": "福島県",
    "city": "耶麻郡猪苗代町",
    "town": "翁沢"
  },
  "9693286": {
    "zipcode": "9693286",
    "prefectureCode": "07",
    "prefectureNumber": 7,
    "prefecture": "福島県",
    "city": "耶麻郡猪苗代町",
    "town": "磐根"
  },
  "9693287": {
    "zipcode": "9693287",
    "prefectureCode": "07",
    "prefectureNumber": 7,
    "prefecture": "福島県",
    "city": "耶麻郡猪苗代町",
    "town": "不動"
  },
  "9693288": {
    "zipcode": "9693288",
    "prefectureCode": "07",
    "prefectureNumber": 7,
    "prefecture": "福島県",
    "city": "耶麻郡猪苗代町",
    "town": "綿場"
  },
  "9693300": {
    "zipcode": "9693300",
    "prefectureCode": "07",
    "prefectureNumber": 7,
    "prefecture": "福島県",
    "city": "耶麻郡磐梯町",
    "town": "以下に掲載がない場合"
  },
  "9693301": {
    "zipcode": "9693301",
    "prefectureCode": "07",
    "prefectureNumber": 7,
    "prefecture": "福島県",
    "city": "耶麻郡磐梯町",
    "town": "磐梯"
  },
  "9693302": {
    "zipcode": "9693302",
    "prefectureCode": "07",
    "prefectureNumber": 7,
    "prefecture": "福島県",
    "city": "耶麻郡磐梯町",
    "town": "更科"
  },
  "9693303": {
    "zipcode": "9693303",
    "prefectureCode": "07",
    "prefectureNumber": 7,
    "prefecture": "福島県",
    "city": "耶麻郡磐梯町",
    "town": "赤枝"
  },
  "9693304": {
    "zipcode": "9693304",
    "prefectureCode": "07",
    "prefectureNumber": 7,
    "prefecture": "福島県",
    "city": "耶麻郡磐梯町",
    "town": "大谷"
  },
  "9693401": {
    "zipcode": "9693401",
    "prefectureCode": "07",
    "prefectureNumber": 7,
    "prefecture": "福島県",
    "city": "会津若松市",
    "town": "河東町岡田"
  },
  "9693402": {
    "zipcode": "9693402",
    "prefectureCode": "07",
    "prefectureNumber": 7,
    "prefecture": "福島県",
    "city": "会津若松市",
    "town": "河東町福島"
  },
  "9693411": {
    "zipcode": "9693411",
    "prefectureCode": "07",
    "prefectureNumber": 7,
    "prefecture": "福島県",
    "city": "会津若松市",
    "town": "河東町大田原"
  },
  "9693412": {
    "zipcode": "9693412",
    "prefectureCode": "07",
    "prefectureNumber": 7,
    "prefecture": "福島県",
    "city": "会津若松市",
    "town": "河東町代田"
  },
  "9693421": {
    "zipcode": "9693421",
    "prefectureCode": "07",
    "prefectureNumber": 7,
    "prefecture": "福島県",
    "city": "会津若松市",
    "town": "河東町熊野堂"
  },
  "9693422": {
    "zipcode": "9693422",
    "prefectureCode": "07",
    "prefectureNumber": 7,
    "prefecture": "福島県",
    "city": "会津若松市",
    "town": "河東町広野"
  },
  "9693431": {
    "zipcode": "9693431",
    "prefectureCode": "07",
    "prefectureNumber": 7,
    "prefecture": "福島県",
    "city": "会津若松市",
    "town": "河東町東長原"
  },
  "9693441": {
    "zipcode": "9693441",
    "prefectureCode": "07",
    "prefectureNumber": 7,
    "prefecture": "福島県",
    "city": "会津若松市",
    "town": "河東町南高野"
  },
  "9693451": {
    "zipcode": "9693451",
    "prefectureCode": "07",
    "prefectureNumber": 7,
    "prefecture": "福島県",
    "city": "会津若松市",
    "town": "河東町八田"
  },
  "9693461": {
    "zipcode": "9693461",
    "prefectureCode": "07",
    "prefectureNumber": 7,
    "prefecture": "福島県",
    "city": "会津若松市",
    "town": "河東町浅山"
  },
  "9693462": {
    "zipcode": "9693462",
    "prefectureCode": "07",
    "prefectureNumber": 7,
    "prefecture": "福島県",
    "city": "会津若松市",
    "town": "河東町金田"
  },
  "9693463": {
    "zipcode": "9693463",
    "prefectureCode": "07",
    "prefectureNumber": 7,
    "prefecture": "福島県",
    "city": "会津若松市",
    "town": "河東町倉橋"
  },
  "9693464": {
    "zipcode": "9693464",
    "prefectureCode": "07",
    "prefectureNumber": 7,
    "prefecture": "福島県",
    "city": "会津若松市",
    "town": "河東町工業団地"
  },
  "9693471": {
    "zipcode": "9693471",
    "prefectureCode": "07",
    "prefectureNumber": 7,
    "prefecture": "福島県",
    "city": "会津若松市",
    "town": "河東町広田"
  },
  "9693481": {
    "zipcode": "9693481",
    "prefectureCode": "07",
    "prefectureNumber": 7,
    "prefecture": "福島県",
    "city": "会津若松市",
    "town": "河東町郡山"
  },
  "9693482": {
    "zipcode": "9693482",
    "prefectureCode": "07",
    "prefectureNumber": 7,
    "prefecture": "福島県",
    "city": "会津若松市",
    "town": "河東町谷沢"
  },
  "9693500": {
    "zipcode": "9693500",
    "prefectureCode": "07",
    "prefectureNumber": 7,
    "prefecture": "福島県",
    "city": "河沼郡湯川村",
    "town": "以下に掲載がない場合"
  },
  "9693501": {
    "zipcode": "9693501",
    "prefectureCode": "07",
    "prefectureNumber": 7,
    "prefecture": "福島県",
    "city": "喜多方市",
    "town": "塩川町三吉"
  },
  "9693502": {
    "zipcode": "9693502",
    "prefectureCode": "07",
    "prefectureNumber": 7,
    "prefecture": "福島県",
    "city": "喜多方市",
    "town": "塩川町常世"
  },
  "9693503": {
    "zipcode": "9693503",
    "prefectureCode": "07",
    "prefectureNumber": 7,
    "prefecture": "福島県",
    "city": "喜多方市",
    "town": "塩川町五合"
  },
  "9693504": {
    "zipcode": "9693504",
    "prefectureCode": "07",
    "prefectureNumber": 7,
    "prefecture": "福島県",
    "city": "喜多方市",
    "town": "塩川町中屋沢"
  },
  "9693505": {
    "zipcode": "9693505",
    "prefectureCode": "07",
    "prefectureNumber": 7,
    "prefecture": "福島県",
    "city": "喜多方市",
    "town": "塩川町金橋"
  },
  "9693506": {
    "zipcode": "9693506",
    "prefectureCode": "07",
    "prefectureNumber": 7,
    "prefecture": "福島県",
    "city": "喜多方市",
    "town": "塩川町窪"
  },
  "9693511": {
    "zipcode": "9693511",
    "prefectureCode": "07",
    "prefectureNumber": 7,
    "prefecture": "福島県",
    "city": "喜多方市",
    "town": "塩川町町北"
  },
  "9693512": {
    "zipcode": "9693512",
    "prefectureCode": "07",
    "prefectureNumber": 7,
    "prefecture": "福島県",
    "city": "喜多方市",
    "town": "塩川町東栄町"
  },
  "9693513": {
    "zipcode": "9693513",
    "prefectureCode": "07",
    "prefectureNumber": 7,
    "prefecture": "福島県",
    "city": "喜多方市",
    "town": "塩川町中町"
  },
  "9693514": {
    "zipcode": "9693514",
    "prefectureCode": "07",
    "prefectureNumber": 7,
    "prefecture": "福島県",
    "city": "喜多方市",
    "town": "塩川町新町"
  },
  "9693515": {
    "zipcode": "9693515",
    "prefectureCode": "07",
    "prefectureNumber": 7,
    "prefecture": "福島県",
    "city": "喜多方市",
    "town": "塩川町米沢町"
  },
  "9693520": {
    "zipcode": "9693520",
    "prefectureCode": "07",
    "prefectureNumber": 7,
    "prefecture": "福島県",
    "city": "喜多方市",
    "town": "塩川町古戸城"
  },
  "9693521": {
    "zipcode": "9693521",
    "prefectureCode": "07",
    "prefectureNumber": 7,
    "prefecture": "福島県",
    "city": "喜多方市",
    "town": "塩川町身神"
  },
  "9693522": {
    "zipcode": "9693522",
    "prefectureCode": "07",
    "prefectureNumber": 7,
    "prefecture": "福島県",
    "city": "喜多方市",
    "town": "塩川町新丁"
  },
  "9693523": {
    "zipcode": "9693523",
    "prefectureCode": "07",
    "prefectureNumber": 7,
    "prefecture": "福島県",
    "city": "喜多方市",
    "town": "塩川町反町"
  },
  "9693524": {
    "zipcode": "9693524",
    "prefectureCode": "07",
    "prefectureNumber": 7,
    "prefecture": "福島県",
    "city": "喜多方市",
    "town": "塩川町舘ノ内"
  },
  "9693525": {
    "zipcode": "9693525",
    "prefectureCode": "07",
    "prefectureNumber": 7,
    "prefecture": "福島県",
    "city": "喜多方市",
    "town": "塩川町諏訪前"
  },
  "9693526": {
    "zipcode": "9693526",
    "prefectureCode": "07",
    "prefectureNumber": 7,
    "prefecture": "福島県",
    "city": "喜多方市",
    "town": "塩川町諏訪町"
  },
  "9693527": {
    "zipcode": "9693527",
    "prefectureCode": "07",
    "prefectureNumber": 7,
    "prefecture": "福島県",
    "city": "喜多方市",
    "town": "塩川町御殿場"
  },
  "9693528": {
    "zipcode": "9693528",
    "prefectureCode": "07",
    "prefectureNumber": 7,
    "prefecture": "福島県",
    "city": "喜多方市",
    "town": "塩川町諏訪北"
  },
  "9693529": {
    "zipcode": "9693529",
    "prefectureCode": "07",
    "prefectureNumber": 7,
    "prefecture": "福島県",
    "city": "喜多方市",
    "town": "塩川町下前田"
  },
  "9693531": {
    "zipcode": "9693531",
    "prefectureCode": "07",
    "prefectureNumber": 7,
    "prefecture": "福島県",
    "city": "喜多方市",
    "town": "塩川町新井田谷地"
  },
  "9693532": {
    "zipcode": "9693532",
    "prefectureCode": "07",
    "prefectureNumber": 7,
    "prefecture": "福島県",
    "city": "喜多方市",
    "town": "塩川町藤ノ木"
  },
  "9693533": {
    "zipcode": "9693533",
    "prefectureCode": "07",
    "prefectureNumber": 7,
    "prefecture": "福島県",
    "city": "喜多方市",
    "town": "塩川町新江木"
  },
  "9693534": {
    "zipcode": "9693534",
    "prefectureCode": "07",
    "prefectureNumber": 7,
    "prefecture": "福島県",
    "city": "喜多方市",
    "town": "塩川町西ノ新田"
  },
  "9693535": {
    "zipcode": "9693535",
    "prefectureCode": "07",
    "prefectureNumber": 7,
    "prefecture": "福島県",
    "city": "喜多方市",
    "town": "塩川町会知"
  },
  "9693536": {
    "zipcode": "9693536",
    "prefectureCode": "07",
    "prefectureNumber": 7,
    "prefecture": "福島県",
    "city": "喜多方市",
    "town": "塩川町大田木"
  },
  "9693537": {
    "zipcode": "9693537",
    "prefectureCode": "07",
    "prefectureNumber": 7,
    "prefecture": "福島県",
    "city": "喜多方市",
    "town": "塩川町四奈川"
  },
  "9693538": {
    "zipcode": "9693538",
    "prefectureCode": "07",
    "prefectureNumber": 7,
    "prefecture": "福島県",
    "city": "喜多方市",
    "town": "塩川町天沼"
  },
  "9693539": {
    "zipcode": "9693539",
    "prefectureCode": "07",
    "prefectureNumber": 7,
    "prefecture": "福島県",
    "city": "喜多方市",
    "town": "塩川町吉沖"
  },
  "9693541": {
    "zipcode": "9693541",
    "prefectureCode": "07",
    "prefectureNumber": 7,
    "prefecture": "福島県",
    "city": "河沼郡湯川村",
    "town": "浜崎"
  },
  "9693542": {
    "zipcode": "9693542",
    "prefectureCode": "07",
    "prefectureNumber": 7,
    "prefecture": "福島県",
    "city": "河沼郡湯川村",
    "town": "湊"
  },
  "9693543": {
    "zipcode": "9693543",
    "prefectureCode": "07",
    "prefectureNumber": 7,
    "prefecture": "福島県",
    "city": "河沼郡湯川村",
    "town": "笈川"
  },
  "9693544": {
    "zipcode": "9693544",
    "prefectureCode": "07",
    "prefectureNumber": 7,
    "prefecture": "福島県",
    "city": "河沼郡湯川村",
    "town": "清水田"
  },
  "9693545": {
    "zipcode": "9693545",
    "prefectureCode": "07",
    "prefectureNumber": 7,
    "prefecture": "福島県",
    "city": "河沼郡湯川村",
    "town": "桜町"
  },
  "9693546": {
    "zipcode": "9693546",
    "prefectureCode": "07",
    "prefectureNumber": 7,
    "prefecture": "福島県",
    "city": "河沼郡湯川村",
    "town": "美田園"
  },
  "9693551": {
    "zipcode": "9693551",
    "prefectureCode": "07",
    "prefectureNumber": 7,
    "prefecture": "福島県",
    "city": "河沼郡湯川村",
    "town": "堂畑"
  },
  "9693552": {
    "zipcode": "9693552",
    "prefectureCode": "07",
    "prefectureNumber": 7,
    "prefecture": "福島県",
    "city": "河沼郡湯川村",
    "town": "三川"
  },
  "9693553": {
    "zipcode": "9693553",
    "prefectureCode": "07",
    "prefectureNumber": 7,
    "prefecture": "福島県",
    "city": "河沼郡湯川村",
    "town": "田川"
  },
  "9693554": {
    "zipcode": "9693554",
    "prefectureCode": "07",
    "prefectureNumber": 7,
    "prefecture": "福島県",
    "city": "河沼郡湯川村",
    "town": "熊ノ目"
  },
  "9693555": {
    "zipcode": "9693555",
    "prefectureCode": "07",
    "prefectureNumber": 7,
    "prefecture": "福島県",
    "city": "河沼郡湯川村",
    "town": "佐野目"
  },
  "9693556": {
    "zipcode": "9693556",
    "prefectureCode": "07",
    "prefectureNumber": 7,
    "prefecture": "福島県",
    "city": "河沼郡湯川村",
    "town": "勝常"
  },
  "9694101": {
    "zipcode": "9694101",
    "prefectureCode": "07",
    "prefectureNumber": 7,
    "prefecture": "福島県",
    "city": "喜多方市",
    "town": "山都町小舟寺"
  },
  "9694102": {
    "zipcode": "9694102",
    "prefectureCode": "07",
    "prefectureNumber": 7,
    "prefecture": "福島県",
    "city": "喜多方市",
    "town": "山都町一川"
  },
  "9694103": {
    "zipcode": "9694103",
    "prefectureCode": "07",
    "prefectureNumber": 7,
    "prefecture": "福島県",
    "city": "喜多方市",
    "town": "山都町木幡"
  },
  "9694104": {
    "zipcode": "9694104",
    "prefectureCode": "07",
    "prefectureNumber": 7,
    "prefecture": "福島県",
    "city": "喜多方市",
    "town": "山都町蓬莱"
  },
  "9694105": {
    "zipcode": "9694105",
    "prefectureCode": "07",
    "prefectureNumber": 7,
    "prefecture": "福島県",
    "city": "喜多方市",
    "town": "山都町三津合"
  },
  "9694106": {
    "zipcode": "9694106",
    "prefectureCode": "07",
    "prefectureNumber": 7,
    "prefecture": "福島県",
    "city": "喜多方市",
    "town": "山都町朝倉"
  },
  "9694107": {
    "zipcode": "9694107",
    "prefectureCode": "07",
    "prefectureNumber": 7,
    "prefecture": "福島県",
    "city": "喜多方市",
    "town": "山都町相川"
  },
  "9694108": {
    "zipcode": "9694108",
    "prefectureCode": "07",
    "prefectureNumber": 7,
    "prefecture": "福島県",
    "city": "喜多方市",
    "town": "山都町一ノ木"
  },
  "9694109": {
    "zipcode": "9694109",
    "prefectureCode": "07",
    "prefectureNumber": 7,
    "prefecture": "福島県",
    "city": "喜多方市",
    "town": "山都町早稲谷"
  },
  "9694111": {
    "zipcode": "9694111",
    "prefectureCode": "07",
    "prefectureNumber": 7,
    "prefecture": "福島県",
    "city": "喜多方市",
    "town": "山都町蔵ノ後"
  },
  "9694112": {
    "zipcode": "9694112",
    "prefectureCode": "07",
    "prefectureNumber": 7,
    "prefecture": "福島県",
    "city": "喜多方市",
    "town": "山都町上ノ原道東"
  },
  "9694113": {
    "zipcode": "9694113",
    "prefectureCode": "07",
    "prefectureNumber": 7,
    "prefecture": "福島県",
    "city": "喜多方市",
    "town": "山都町上ノ原道西"
  },
  "9694114": {
    "zipcode": "9694114",
    "prefectureCode": "07",
    "prefectureNumber": 7,
    "prefecture": "福島県",
    "city": "喜多方市",
    "town": "山都町小山"
  },
  "9694115": {
    "zipcode": "9694115",
    "prefectureCode": "07",
    "prefectureNumber": 7,
    "prefecture": "福島県",
    "city": "喜多方市",
    "town": "山都町五十苅"
  },
  "9694116": {
    "zipcode": "9694116",
    "prefectureCode": "07",
    "prefectureNumber": 7,
    "prefecture": "福島県",
    "city": "喜多方市",
    "town": "山都町清水上"
  },
  "9694117": {
    "zipcode": "9694117",
    "prefectureCode": "07",
    "prefectureNumber": 7,
    "prefecture": "福島県",
    "city": "喜多方市",
    "town": "山都町清水尻"
  },
  "9694118": {
    "zipcode": "9694118",
    "prefectureCode": "07",
    "prefectureNumber": 7,
    "prefecture": "福島県",
    "city": "喜多方市",
    "town": "山都町古屋敷"
  },
  "9694119": {
    "zipcode": "9694119",
    "prefectureCode": "07",
    "prefectureNumber": 7,
    "prefecture": "福島県",
    "city": "喜多方市",
    "town": "山都町江戸塚"
  },
  "9694121": {
    "zipcode": "9694121",
    "prefectureCode": "07",
    "prefectureNumber": 7,
    "prefecture": "福島県",
    "city": "喜多方市",
    "town": "山都町太田"
  },
  "9694122": {
    "zipcode": "9694122",
    "prefectureCode": "07",
    "prefectureNumber": 7,
    "prefecture": "福島県",
    "city": "喜多方市",
    "town": "山都町木曽"
  },
  "9694123": {
    "zipcode": "9694123",
    "prefectureCode": "07",
    "prefectureNumber": 7,
    "prefecture": "福島県",
    "city": "喜多方市",
    "town": "山都町中新田"
  },
  "9694124": {
    "zipcode": "9694124",
    "prefectureCode": "07",
    "prefectureNumber": 7,
    "prefecture": "福島県",
    "city": "喜多方市",
    "town": "山都町墓ノ後"
  },
  "9694125": {
    "zipcode": "9694125",
    "prefectureCode": "07",
    "prefectureNumber": 7,
    "prefecture": "福島県",
    "city": "喜多方市",
    "town": "山都町弥左エ門田"
  },
  "9694126": {
    "zipcode": "9694126",
    "prefectureCode": "07",
    "prefectureNumber": 7,
    "prefecture": "福島県",
    "city": "喜多方市",
    "town": "山都町馬放場"
  },
  "9694127": {
    "zipcode": "9694127",
    "prefectureCode": "07",
    "prefectureNumber": 7,
    "prefecture": "福島県",
    "city": "喜多方市",
    "town": "山都町久祢花"
  },
  "9694130": {
    "zipcode": "9694130",
    "prefectureCode": "07",
    "prefectureNumber": 7,
    "prefecture": "福島県",
    "city": "喜多方市",
    "town": "山都町松ノ前"
  },
  "9694131": {
    "zipcode": "9694131",
    "prefectureCode": "07",
    "prefectureNumber": 7,
    "prefecture": "福島県",
    "city": "喜多方市",
    "town": "山都町広野"
  },
  "9694132": {
    "zipcode": "9694132",
    "prefectureCode": "07",
    "prefectureNumber": 7,
    "prefecture": "福島県",
    "city": "喜多方市",
    "town": "山都町三ノ宮"
  },
  "9694133": {
    "zipcode": "9694133",
    "prefectureCode": "07",
    "prefectureNumber": 7,
    "prefecture": "福島県",
    "city": "喜多方市",
    "town": "山都町広葎田"
  },
  "9694134": {
    "zipcode": "9694134",
    "prefectureCode": "07",
    "prefectureNumber": 7,
    "prefecture": "福島県",
    "city": "喜多方市",
    "town": "山都町葎田"
  },
  "9694135": {
    "zipcode": "9694135",
    "prefectureCode": "07",
    "prefectureNumber": 7,
    "prefecture": "福島県",
    "city": "喜多方市",
    "town": "山都町広中新田"
  },
  "9694136": {
    "zipcode": "9694136",
    "prefectureCode": "07",
    "prefectureNumber": 7,
    "prefecture": "福島県",
    "city": "喜多方市",
    "town": "山都町町尻"
  },
  "9694137": {
    "zipcode": "9694137",
    "prefectureCode": "07",
    "prefectureNumber": 7,
    "prefecture": "福島県",
    "city": "喜多方市",
    "town": "山都町中野"
  },
  "9694138": {
    "zipcode": "9694138",
    "prefectureCode": "07",
    "prefectureNumber": 7,
    "prefecture": "福島県",
    "city": "喜多方市",
    "town": "山都町蛇崩"
  },
  "9694139": {
    "zipcode": "9694139",
    "prefectureCode": "07",
    "prefectureNumber": 7,
    "prefecture": "福島県",
    "city": "喜多方市",
    "town": "山都町北松ノ前"
  },
  "9694140": {
    "zipcode": "9694140",
    "prefectureCode": "07",
    "prefectureNumber": 7,
    "prefecture": "福島県",
    "city": "喜多方市",
    "town": "山都町石打場下"
  },
  "9694141": {
    "zipcode": "9694141",
    "prefectureCode": "07",
    "prefectureNumber": 7,
    "prefecture": "福島県",
    "city": "喜多方市",
    "town": "山都町田向"
  },
  "9694142": {
    "zipcode": "9694142",
    "prefectureCode": "07",
    "prefectureNumber": 7,
    "prefecture": "福島県",
    "city": "喜多方市",
    "town": "山都町七十苅"
  },
  "9694143": {
    "zipcode": "9694143",
    "prefectureCode": "07",
    "prefectureNumber": 7,
    "prefecture": "福島県",
    "city": "喜多方市",
    "town": "山都町沢田"
  },
  "9694144": {
    "zipcode": "9694144",
    "prefectureCode": "07",
    "prefectureNumber": 7,
    "prefecture": "福島県",
    "city": "喜多方市",
    "town": "山都町殿戸"
  },
  "9694145": {
    "zipcode": "9694145",
    "prefectureCode": "07",
    "prefectureNumber": 7,
    "prefecture": "福島県",
    "city": "喜多方市",
    "town": "山都町西原"
  },
  "9694146": {
    "zipcode": "9694146",
    "prefectureCode": "07",
    "prefectureNumber": 7,
    "prefecture": "福島県",
    "city": "喜多方市",
    "town": "山都町広古屋敷"
  },
  "9694147": {
    "zipcode": "9694147",
    "prefectureCode": "07",
    "prefectureNumber": 7,
    "prefecture": "福島県",
    "city": "喜多方市",
    "town": "山都町石堀古"
  },
  "9694148": {
    "zipcode": "9694148",
    "prefectureCode": "07",
    "prefectureNumber": 7,
    "prefecture": "福島県",
    "city": "喜多方市",
    "town": "山都町岩渕"
  },
  "9694149": {
    "zipcode": "9694149",
    "prefectureCode": "07",
    "prefectureNumber": 7,
    "prefecture": "福島県",
    "city": "喜多方市",
    "town": "山都町谷地"
  },
  "9694151": {
    "zipcode": "9694151",
    "prefectureCode": "07",
    "prefectureNumber": 7,
    "prefecture": "福島県",
    "city": "喜多方市",
    "town": "山都町大山中"
  },
  "9694152": {
    "zipcode": "9694152",
    "prefectureCode": "07",
    "prefectureNumber": 7,
    "prefecture": "福島県",
    "city": "喜多方市",
    "town": "山都町上ノ山平"
  },
  "9694153": {
    "zipcode": "9694153",
    "prefectureCode": "07",
    "prefectureNumber": 7,
    "prefecture": "福島県",
    "city": "喜多方市",
    "town": "山都町下殿戸"
  },
  "9694154": {
    "zipcode": "9694154",
    "prefectureCode": "07",
    "prefectureNumber": 7,
    "prefecture": "福島県",
    "city": "喜多方市",
    "town": "山都町舘原"
  },
  "9694155": {
    "zipcode": "9694155",
    "prefectureCode": "07",
    "prefectureNumber": 7,
    "prefecture": "福島県",
    "city": "喜多方市",
    "town": "山都町入海"
  },
  "9694156": {
    "zipcode": "9694156",
    "prefectureCode": "07",
    "prefectureNumber": 7,
    "prefecture": "福島県",
    "city": "喜多方市",
    "town": "山都町西川"
  },
  "9694157": {
    "zipcode": "9694157",
    "prefectureCode": "07",
    "prefectureNumber": 7,
    "prefecture": "福島県",
    "city": "喜多方市",
    "town": "山都町小松"
  },
  "9694161": {
    "zipcode": "9694161",
    "prefectureCode": "07",
    "prefectureNumber": 7,
    "prefecture": "福島県",
    "city": "喜多方市",
    "town": "山都町中石打場"
  },
  "9694162": {
    "zipcode": "9694162",
    "prefectureCode": "07",
    "prefectureNumber": 7,
    "prefecture": "福島県",
    "city": "喜多方市",
    "town": "山都町上新田"
  },
  "9694163": {
    "zipcode": "9694163",
    "prefectureCode": "07",
    "prefectureNumber": 7,
    "prefecture": "福島県",
    "city": "喜多方市",
    "town": "山都町下石打場"
  },
  "9694164": {
    "zipcode": "9694164",
    "prefectureCode": "07",
    "prefectureNumber": 7,
    "prefecture": "福島県",
    "city": "喜多方市",
    "town": "山都町上石打場"
  },
  "9694165": {
    "zipcode": "9694165",
    "prefectureCode": "07",
    "prefectureNumber": 7,
    "prefecture": "福島県",
    "city": "喜多方市",
    "town": "山都町三ツ山"
  },
  "9694166": {
    "zipcode": "9694166",
    "prefectureCode": "07",
    "prefectureNumber": 7,
    "prefecture": "福島県",
    "city": "喜多方市",
    "town": "山都町沢尻"
  },
  "9694167": {
    "zipcode": "9694167",
    "prefectureCode": "07",
    "prefectureNumber": 7,
    "prefecture": "福島県",
    "city": "喜多方市",
    "town": "山都町大林"
  },
  "9694168": {
    "zipcode": "9694168",
    "prefectureCode": "07",
    "prefectureNumber": 7,
    "prefecture": "福島県",
    "city": "喜多方市",
    "town": "山都町金子沢"
  },
  "9694169": {
    "zipcode": "9694169",
    "prefectureCode": "07",
    "prefectureNumber": 7,
    "prefecture": "福島県",
    "city": "喜多方市",
    "town": "山都町山中"
  },
  "9694301": {
    "zipcode": "9694301",
    "prefectureCode": "07",
    "prefectureNumber": 7,
    "prefecture": "福島県",
    "city": "喜多方市",
    "town": "高郷町上郷"
  },
  "9694302": {
    "zipcode": "9694302",
    "prefectureCode": "07",
    "prefectureNumber": 7,
    "prefecture": "福島県",
    "city": "喜多方市",
    "town": "高郷町峯"
  },
  "9694303": {
    "zipcode": "9694303",
    "prefectureCode": "07",
    "prefectureNumber": 7,
    "prefecture": "福島県",
    "city": "喜多方市",
    "town": "高郷町揚津"
  },
  "9694304": {
    "zipcode": "9694304",
    "prefectureCode": "07",
    "prefectureNumber": 7,
    "prefecture": "福島県",
    "city": "喜多方市",
    "town": "高郷町磐見"
  },
  "9694311": {
    "zipcode": "9694311",
    "prefectureCode": "07",
    "prefectureNumber": 7,
    "prefecture": "福島県",
    "city": "喜多方市",
    "town": "高郷町西羽賀"
  },
  "9694312": {
    "zipcode": "9694312",
    "prefectureCode": "07",
    "prefectureNumber": 7,
    "prefecture": "福島県",
    "city": "喜多方市",
    "town": "高郷町池ノ原"
  },
  "9694313": {
    "zipcode": "9694313",
    "prefectureCode": "07",
    "prefectureNumber": 7,
    "prefecture": "福島県",
    "city": "喜多方市",
    "town": "高郷町塩坪"
  },
  "9694314": {
    "zipcode": "9694314",
    "prefectureCode": "07",
    "prefectureNumber": 7,
    "prefecture": "福島県",
    "city": "喜多方市",
    "town": "高郷町川井"
  },
  "9694315": {
    "zipcode": "9694315",
    "prefectureCode": "07",
    "prefectureNumber": 7,
    "prefecture": "福島県",
    "city": "喜多方市",
    "town": "高郷町夏井"
  },
  "9694316": {
    "zipcode": "9694316",
    "prefectureCode": "07",
    "prefectureNumber": 7,
    "prefecture": "福島県",
    "city": "喜多方市",
    "town": "高郷町大田賀"
  },
  "9694400": {
    "zipcode": "9694400",
    "prefectureCode": "07",
    "prefectureNumber": 7,
    "prefecture": "福島県",
    "city": "耶麻郡西会津町",
    "town": "以下に掲載がない場合"
  },
  "9694401": {
    "zipcode": "9694401",
    "prefectureCode": "07",
    "prefectureNumber": 7,
    "prefecture": "福島県",
    "city": "耶麻郡西会津町",
    "town": "登世島"
  },
  "9694402": {
    "zipcode": "9694402",
    "prefectureCode": "07",
    "prefectureNumber": 7,
    "prefecture": "福島県",
    "city": "耶麻郡西会津町",
    "town": "尾野本"
  },
  "9694403": {
    "zipcode": "9694403",
    "prefectureCode": "07",
    "prefectureNumber": 7,
    "prefecture": "福島県",
    "city": "耶麻郡西会津町",
    "town": "束松"
  },
  "9694404": {
    "zipcode": "9694404",
    "prefectureCode": "07",
    "prefectureNumber": 7,
    "prefecture": "福島県",
    "city": "耶麻郡西会津町",
    "town": "睦合"
  },
  "9694405": {
    "zipcode": "9694405",
    "prefectureCode": "07",
    "prefectureNumber": 7,
    "prefecture": "福島県",
    "city": "耶麻郡西会津町",
    "town": "下谷"
  },
  "9694406": {
    "zipcode": "9694406",
    "prefectureCode": "07",
    "prefectureNumber": 7,
    "prefecture": "福島県",
    "city": "耶麻郡西会津町",
    "town": "野沢"
  },
  "9694511": {
    "zipcode": "9694511",
    "prefectureCode": "07",
    "prefectureNumber": 7,
    "prefecture": "福島県",
    "city": "耶麻郡西会津町",
    "town": "群岡"
  },
  "9694512": {
    "zipcode": "9694512",
    "prefectureCode": "07",
    "prefectureNumber": 7,
    "prefecture": "福島県",
    "city": "耶麻郡西会津町",
    "town": "上野尻"
  },
  "9694513": {
    "zipcode": "9694513",
    "prefectureCode": "07",
    "prefectureNumber": 7,
    "prefecture": "福島県",
    "city": "耶麻郡西会津町",
    "town": "宝坂屋敷"
  },
  "9694514": {
    "zipcode": "9694514",
    "prefectureCode": "07",
    "prefectureNumber": 7,
    "prefecture": "福島県",
    "city": "耶麻郡西会津町",
    "town": "宝坂宝坂"
  },
  "9694515": {
    "zipcode": "9694515",
    "prefectureCode": "07",
    "prefectureNumber": 7,
    "prefecture": "福島県",
    "city": "耶麻郡西会津町",
    "town": "下野尻"
  },
  "9694621": {
    "zipcode": "9694621",
    "prefectureCode": "07",
    "prefectureNumber": 7,
    "prefecture": "福島県",
    "city": "耶麻郡西会津町",
    "town": "新郷冨士"
  },
  "9694622": {
    "zipcode": "9694622",
    "prefectureCode": "07",
    "prefectureNumber": 7,
    "prefecture": "福島県",
    "city": "耶麻郡西会津町",
    "town": "新郷笹川"
  },
  "9694623": {
    "zipcode": "9694623",
    "prefectureCode": "07",
    "prefectureNumber": 7,
    "prefecture": "福島県",
    "city": "耶麻郡西会津町",
    "town": "新郷豊洲"
  },
  "9694624": {
    "zipcode": "9694624",
    "prefectureCode": "07",
    "prefectureNumber": 7,
    "prefecture": "福島県",
    "city": "耶麻郡西会津町",
    "town": "新郷三河"
  },
  "9694731": {
    "zipcode": "9694731",
    "prefectureCode": "07",
    "prefectureNumber": 7,
    "prefecture": "福島県",
    "city": "耶麻郡西会津町",
    "town": "奥川飯根"
  },
  "9694732": {
    "zipcode": "9694732",
    "prefectureCode": "07",
    "prefectureNumber": 7,
    "prefecture": "福島県",
    "city": "耶麻郡西会津町",
    "town": "奥川飯沢"
  },
  "9694733": {
    "zipcode": "9694733",
    "prefectureCode": "07",
    "prefectureNumber": 7,
    "prefecture": "福島県",
    "city": "耶麻郡西会津町",
    "town": "奥川大綱木"
  },
  "9694734": {
    "zipcode": "9694734",
    "prefectureCode": "07",
    "prefectureNumber": 7,
    "prefecture": "福島県",
    "city": "耶麻郡西会津町",
    "town": "奥川飯里"
  },
  "9694735": {
    "zipcode": "9694735",
    "prefectureCode": "07",
    "prefectureNumber": 7,
    "prefecture": "福島県",
    "city": "耶麻郡西会津町",
    "town": "奥川豊島"
  },
  "9694736": {
    "zipcode": "9694736",
    "prefectureCode": "07",
    "prefectureNumber": 7,
    "prefecture": "福島県",
    "city": "耶麻郡西会津町",
    "town": "奥川元島"
  },
  "9694737": {
    "zipcode": "9694737",
    "prefectureCode": "07",
    "prefectureNumber": 7,
    "prefecture": "福島県",
    "city": "耶麻郡西会津町",
    "town": "奥川高陽根"
  },
  "9695111": {
    "zipcode": "9695111",
    "prefectureCode": "07",
    "prefectureNumber": 7,
    "prefecture": "福島県",
    "city": "会津若松市",
    "town": "大戸町石村"
  },
  "9695112": {
    "zipcode": "9695112",
    "prefectureCode": "07",
    "prefectureNumber": 7,
    "prefecture": "福島県",
    "city": "会津若松市",
    "town": "大戸町下雨屋"
  },
  "9695113": {
    "zipcode": "9695113",
    "prefectureCode": "07",
    "prefectureNumber": 7,
    "prefecture": "福島県",
    "city": "会津若松市",
    "town": "大戸町宮内"
  },
  "9695114": {
    "zipcode": "9695114",
    "prefectureCode": "07",
    "prefectureNumber": 7,
    "prefecture": "福島県",
    "city": "会津若松市",
    "town": "大戸町上雨屋"
  },
  "9695121": {
    "zipcode": "9695121",
    "prefectureCode": "07",
    "prefectureNumber": 7,
    "prefecture": "福島県",
    "city": "会津若松市",
    "town": "大戸町上三寄南原"
  },
  "9695122": {
    "zipcode": "9695122",
    "prefectureCode": "07",
    "prefectureNumber": 7,
    "prefecture": "福島県",
    "city": "会津若松市",
    "town": "大戸町上三寄香塩"
  },
  "9695123": {
    "zipcode": "9695123",
    "prefectureCode": "07",
    "prefectureNumber": 7,
    "prefecture": "福島県",
    "city": "会津若松市",
    "town": "大戸町上三寄丙"
  },
  "9695131": {
    "zipcode": "9695131",
    "prefectureCode": "07",
    "prefectureNumber": 7,
    "prefecture": "福島県",
    "city": "会津若松市",
    "town": "大戸町高川"
  },
  "9695132": {
    "zipcode": "9695132",
    "prefectureCode": "07",
    "prefectureNumber": 7,
    "prefecture": "福島県",
    "city": "会津若松市",
    "town": "大戸町上小塩"
  },
  "9695133": {
    "zipcode": "9695133",
    "prefectureCode": "07",
    "prefectureNumber": 7,
    "prefecture": "福島県",
    "city": "会津若松市",
    "town": "大戸町大川"
  },
  "9695141": {
    "zipcode": "9695141",
    "prefectureCode": "07",
    "prefectureNumber": 7,
    "prefecture": "福島県",
    "city": "会津若松市",
    "town": "大戸町小谷川端"
  },
  "9695142": {
    "zipcode": "9695142",
    "prefectureCode": "07",
    "prefectureNumber": 7,
    "prefecture": "福島県",
    "city": "会津若松市",
    "town": "大戸町小谷坂下"
  },
  "9695143": {
    "zipcode": "9695143",
    "prefectureCode": "07",
    "prefectureNumber": 7,
    "prefecture": "福島県",
    "city": "会津若松市",
    "town": "大戸町小谷原"
  },
  "9695144": {
    "zipcode": "9695144",
    "prefectureCode": "07",
    "prefectureNumber": 7,
    "prefecture": "福島県",
    "city": "会津若松市",
    "town": "大戸町小谷西村"
  },
  "9695145": {
    "zipcode": "9695145",
    "prefectureCode": "07",
    "prefectureNumber": 7,
    "prefecture": "福島県",
    "city": "会津若松市",
    "town": "大戸町小谷平沢"
  },
  "9695146": {
    "zipcode": "9695146",
    "prefectureCode": "07",
    "prefectureNumber": 7,
    "prefecture": "福島県",
    "city": "会津若松市",
    "town": "大戸町小谷湯ノ平"
  },
  "9695147": {
    "zipcode": "9695147",
    "prefectureCode": "07",
    "prefectureNumber": 7,
    "prefecture": "福島県",
    "city": "会津若松市",
    "town": "大戸町芦牧"
  },
  "9695201": {
    "zipcode": "9695201",
    "prefectureCode": "07",
    "prefectureNumber": 7,
    "prefecture": "福島県",
    "city": "南会津郡下郷町",
    "town": "高陦"
  },
  "9695202": {
    "zipcode": "9695202",
    "prefectureCode": "07",
    "prefectureNumber": 7,
    "prefecture": "福島県",
    "city": "南会津郡下郷町",
    "town": "枝松"
  },
  "9695203": {
    "zipcode": "9695203",
    "prefectureCode": "07",
    "prefectureNumber": 7,
    "prefecture": "福島県",
    "city": "南会津郡下郷町",
    "town": "白岩"
  },
  "9695204": {
    "zipcode": "9695204",
    "prefectureCode": "07",
    "prefectureNumber": 7,
    "prefecture": "福島県",
    "city": "南会津郡下郷町",
    "town": "弥五島"
  },
  "9695205": {
    "zipcode": "9695205",
    "prefectureCode": "07",
    "prefectureNumber": 7,
    "prefecture": "福島県",
    "city": "南会津郡下郷町",
    "town": "大沢"
  },
  "9695206": {
    "zipcode": "9695206",
    "prefectureCode": "07",
    "prefectureNumber": 7,
    "prefecture": "福島県",
    "city": "南会津郡下郷町",
    "town": "湯野上"
  },
  "9695207": {
    "zipcode": "9695207",
    "prefectureCode": "07",
    "prefectureNumber": 7,
    "prefecture": "福島県",
    "city": "南会津郡下郷町",
    "town": "大内"
  },
  "9695208": {
    "zipcode": "9695208",
    "prefectureCode": "07",
    "prefectureNumber": 7,
    "prefecture": "福島県",
    "city": "南会津郡下郷町",
    "town": "小沼崎"
  },
  "9695300": {
    "zipcode": "9695300",
    "prefectureCode": "07",
    "prefectureNumber": 7,
    "prefecture": "福島県",
    "city": "南会津郡下郷町",
    "town": "以下に掲載がない場合"
  },
  "9695311": {
    "zipcode": "9695311",
    "prefectureCode": "07",
    "prefectureNumber": 7,
    "prefecture": "福島県",
    "city": "南会津郡下郷町",
    "town": "豊成"
  },
  "9695312": {
    "zipcode": "9695312",
    "prefectureCode": "07",
    "prefectureNumber": 7,
    "prefecture": "福島県",
    "city": "南会津郡下郷町",
    "town": "戸赤"
  },
  "9695313": {
    "zipcode": "9695313",
    "prefectureCode": "07",
    "prefectureNumber": 7,
    "prefecture": "福島県",
    "city": "南会津郡下郷町",
    "town": "原"
  },
  "9695314": {
    "zipcode": "9695314",
    "prefectureCode": "07",
    "prefectureNumber": 7,
    "prefecture": "福島県",
    "city": "南会津郡下郷町",
    "town": "日影"
  },
  "9695315": {
    "zipcode": "9695315",
    "prefectureCode": "07",
    "prefectureNumber": 7,
    "prefecture": "福島県",
    "city": "南会津郡下郷町",
    "town": "荒石"
  },
  "9695316": {
    "zipcode": "9695316",
    "prefectureCode": "07",
    "prefectureNumber": 7,
    "prefecture": "福島県",
    "city": "南会津郡下郷町",
    "town": "石井"
  },
  "9695317": {
    "zipcode": "9695317",
    "prefectureCode": "07",
    "prefectureNumber": 7,
    "prefecture": "福島県",
    "city": "南会津郡下郷町",
    "town": "志源行"
  },
  "9695318": {
    "zipcode": "9695318",
    "prefectureCode": "07",
    "prefectureNumber": 7,
    "prefecture": "福島県",
    "city": "南会津郡下郷町",
    "town": "磯上"
  },
  "9695321": {
    "zipcode": "9695321",
    "prefectureCode": "07",
    "prefectureNumber": 7,
    "prefecture": "福島県",
    "city": "南会津郡下郷町",
    "town": "沢口"
  },
  "9695322": {
    "zipcode": "9695322",
    "prefectureCode": "07",
    "prefectureNumber": 7,
    "prefecture": "福島県",
    "city": "南会津郡下郷町",
    "town": "領毛"
  },
  "9695323": {
    "zipcode": "9695323",
    "prefectureCode": "07",
    "prefectureNumber": 7,
    "prefecture": "福島県",
    "city": "南会津郡下郷町",
    "town": "桑取火"
  },
  "9695324": {
    "zipcode": "9695324",
    "prefectureCode": "07",
    "prefectureNumber": 7,
    "prefecture": "福島県",
    "city": "南会津郡下郷町",
    "town": "安張"
  },
  "9695325": {
    "zipcode": "9695325",
    "prefectureCode": "07",
    "prefectureNumber": 7,
    "prefecture": "福島県",
    "city": "南会津郡下郷町",
    "town": "中山"
  },
  "9695326": {
    "zipcode": "9695326",
    "prefectureCode": "07",
    "prefectureNumber": 7,
    "prefecture": "福島県",
    "city": "南会津郡下郷町",
    "town": "栄富"
  },
  "9695331": {
    "zipcode": "9695331",
    "prefectureCode": "07",
    "prefectureNumber": 7,
    "prefecture": "福島県",
    "city": "南会津郡下郷町",
    "town": "澳田"
  },
  "9695332": {
    "zipcode": "9695332",
    "prefectureCode": "07",
    "prefectureNumber": 7,
    "prefecture": "福島県",
    "city": "南会津郡下郷町",
    "town": "中妻"
  },
  "9695333": {
    "zipcode": "9695333",
    "prefectureCode": "07",
    "prefectureNumber": 7,
    "prefecture": "福島県",
    "city": "南会津郡下郷町",
    "town": "合川"
  },
  "9695334": {
    "zipcode": "9695334",
    "prefectureCode": "07",
    "prefectureNumber": 7,
    "prefecture": "福島県",
    "city": "南会津郡下郷町",
    "town": "大松川"
  },
  "9695335": {
    "zipcode": "9695335",
    "prefectureCode": "07",
    "prefectureNumber": 7,
    "prefecture": "福島県",
    "city": "南会津郡下郷町",
    "town": "南倉沢"
  },
  "9695341": {
    "zipcode": "9695341",
    "prefectureCode": "07",
    "prefectureNumber": 7,
    "prefecture": "福島県",
    "city": "南会津郡下郷町",
    "town": "野際新田"
  },
  "9695342": {
    "zipcode": "9695342",
    "prefectureCode": "07",
    "prefectureNumber": 7,
    "prefecture": "福島県",
    "city": "南会津郡下郷町",
    "town": "音金"
  },
  "9695343": {
    "zipcode": "9695343",
    "prefectureCode": "07",
    "prefectureNumber": 7,
    "prefecture": "福島県",
    "city": "南会津郡下郷町",
    "town": "落合"
  },
  "9695344": {
    "zipcode": "9695344",
    "prefectureCode": "07",
    "prefectureNumber": 7,
    "prefecture": "福島県",
    "city": "南会津郡下郷町",
    "town": "沢田"
  },
  "9695345": {
    "zipcode": "9695345",
    "prefectureCode": "07",
    "prefectureNumber": 7,
    "prefecture": "福島県",
    "city": "南会津郡下郷町",
    "town": "塩生"
  },
  "9696001": {
    "zipcode": "9696001",
    "prefectureCode": "07",
    "prefectureNumber": 7,
    "prefecture": "福島県",
    "city": "会津若松市",
    "town": "北会津町天満"
  },
  "9696002": {
    "zipcode": "9696002",
    "prefectureCode": "07",
    "prefectureNumber": 7,
    "prefecture": "福島県",
    "city": "会津若松市",
    "town": "北会津町麻生新田"
  },
  "9696003": {
    "zipcode": "9696003",
    "prefectureCode": "07",
    "prefectureNumber": 7,
    "prefecture": "福島県",
    "city": "会津若松市",
    "town": "北会津町西麻生"
  },
  "9696004": {
    "zipcode": "9696004",
    "prefectureCode": "07",
    "prefectureNumber": 7,
    "prefecture": "福島県",
    "city": "会津若松市",
    "town": "北会津町古麻生"
  },
  "9696005": {
    "zipcode": "9696005",
    "prefectureCode": "07",
    "prefectureNumber": 7,
    "prefecture": "福島県",
    "city": "会津若松市",
    "town": "北会津町松野"
  },
  "9696006": {
    "zipcode": "9696006",
    "prefectureCode": "07",
    "prefectureNumber": 7,
    "prefecture": "福島県",
    "city": "会津若松市",
    "town": "北会津町新在家"
  },
  "9696007": {
    "zipcode": "9696007",
    "prefectureCode": "07",
    "prefectureNumber": 7,
    "prefecture": "福島県",
    "city": "会津若松市",
    "town": "北会津町北後庵"
  },
  "9696008": {
    "zipcode": "9696008",
    "prefectureCode": "07",
    "prefectureNumber": 7,
    "prefecture": "福島県",
    "city": "会津若松市",
    "town": "北会津町大島"
  },
  "9696011": {
    "zipcode": "9696011",
    "prefectureCode": "07",
    "prefectureNumber": 7,
    "prefecture": "福島県",
    "city": "会津若松市",
    "town": "北会津町西後庵"
  },
  "9696012": {
    "zipcode": "9696012",
    "prefectureCode": "07",
    "prefectureNumber": 7,
    "prefecture": "福島県",
    "city": "会津若松市",
    "town": "北会津町金屋"
  },
  "9696013": {
    "zipcode": "9696013",
    "prefectureCode": "07",
    "prefectureNumber": 7,
    "prefecture": "福島県",
    "city": "会津若松市",
    "town": "北会津町下野"
  },
  "9696015": {
    "zipcode": "9696015",
    "prefectureCode": "07",
    "prefectureNumber": 7,
    "prefecture": "福島県",
    "city": "会津若松市",
    "town": "北会津町水季の里"
  },
  "9696021": {
    "zipcode": "9696021",
    "prefectureCode": "07",
    "prefectureNumber": 7,
    "prefecture": "福島県",
    "city": "大沼郡会津美里町",
    "town": "舘ノ廻甲"
  },
  "9696022": {
    "zipcode": "9696022",
    "prefectureCode": "07",
    "prefectureNumber": 7,
    "prefecture": "福島県",
    "city": "大沼郡会津美里町",
    "town": "大道上甲"
  },
  "9696023": {
    "zipcode": "9696023",
    "prefectureCode": "07",
    "prefectureNumber": 7,
    "prefecture": "福島県",
    "city": "大沼郡会津美里町",
    "town": "近右エ門田"
  },
  "9696024": {
    "zipcode": "9696024",
    "prefectureCode": "07",
    "prefectureNumber": 7,
    "prefecture": "福島県",
    "city": "大沼郡会津美里町",
    "town": "川原町北甲"
  },
  "9696025": {
    "zipcode": "9696025",
    "prefectureCode": "07",
    "prefectureNumber": 7,
    "prefecture": "福島県",
    "city": "大沼郡会津美里町",
    "town": "権現堂甲"
  },
  "9696026": {
    "zipcode": "9696026",
    "prefectureCode": "07",
    "prefectureNumber": 7,
    "prefecture": "福島県",
    "city": "大沼郡会津美里町",
    "town": "本郷前川原甲"
  },
  "9696027": {
    "zipcode": "9696027",
    "prefectureCode": "07",
    "prefectureNumber": 7,
    "prefecture": "福島県",
    "city": "大沼郡会津美里町",
    "town": "荒井甲"
  },
  "9696028": {
    "zipcode": "9696028",
    "prefectureCode": "07",
    "prefectureNumber": 7,
    "prefecture": "福島県",
    "city": "大沼郡会津美里町",
    "town": "旱泥甲"
  },
  "9696029": {
    "zipcode": "9696029",
    "prefectureCode": "07",
    "prefectureNumber": 7,
    "prefecture": "福島県",
    "city": "大沼郡会津美里町",
    "town": "三本松甲"
  },
  "9696031": {
    "zipcode": "9696031",
    "prefectureCode": "07",
    "prefectureNumber": 7,
    "prefecture": "福島県",
    "city": "大沼郡会津美里町",
    "town": "広面"
  },
  "9696032": {
    "zipcode": "9696032",
    "prefectureCode": "07",
    "prefectureNumber": 7,
    "prefecture": "福島県",
    "city": "大沼郡会津美里町",
    "town": "竹原"
  },
  "9696033": {
    "zipcode": "9696033",
    "prefectureCode": "07",
    "prefectureNumber": 7,
    "prefecture": "福島県",
    "city": "大沼郡会津美里町",
    "town": "堰向"
  },
  "9696034": {
    "zipcode": "9696034",
    "prefectureCode": "07",
    "prefectureNumber": 7,
    "prefecture": "福島県",
    "city": "大沼郡会津美里町",
    "town": "堰向甲"
  },
  "9696035": {
    "zipcode": "9696035",
    "prefectureCode": "07",
    "prefectureNumber": 7,
    "prefecture": "福島県",
    "city": "大沼郡会津美里町",
    "town": "中樋"
  },
  "9696036": {
    "zipcode": "9696036",
    "prefectureCode": "07",
    "prefectureNumber": 7,
    "prefecture": "福島県",
    "city": "大沼郡会津美里町",
    "town": "上野川原"
  },
  "9696037": {
    "zipcode": "9696037",
    "prefectureCode": "07",
    "prefectureNumber": 7,
    "prefecture": "福島県",
    "city": "大沼郡会津美里町",
    "town": "家西甲"
  },
  "9696038": {
    "zipcode": "9696038",
    "prefectureCode": "07",
    "prefectureNumber": 7,
    "prefecture": "福島県",
    "city": "大沼郡会津美里町",
    "town": "御用地甲"
  },
  "9696041": {
    "zipcode": "9696041",
    "prefectureCode": "07",
    "prefectureNumber": 7,
    "prefecture": "福島県",
    "city": "大沼郡会津美里町",
    "town": "川原町"
  },
  "9696042": {
    "zipcode": "9696042",
    "prefectureCode": "07",
    "prefectureNumber": 7,
    "prefecture": "福島県",
    "city": "大沼郡会津美里町",
    "town": "瀬戸町甲"
  },
  "9696043": {
    "zipcode": "9696043",
    "prefectureCode": "07",
    "prefectureNumber": 7,
    "prefecture": "福島県",
    "city": "大沼郡会津美里町",
    "town": "松原際甲"
  },
  "9696044": {
    "zipcode": "9696044",
    "prefectureCode": "07",
    "prefectureNumber": 7,
    "prefecture": "福島県",
    "city": "大沼郡会津美里町",
    "town": "瀬戸屋前"
  },
  "9696045": {
    "zipcode": "9696045",
    "prefectureCode": "07",
    "prefectureNumber": 7,
    "prefecture": "福島県",
    "city": "大沼郡会津美里町",
    "town": "北浦甲"
  },
  "9696046": {
    "zipcode": "9696046",
    "prefectureCode": "07",
    "prefectureNumber": 7,
    "prefecture": "福島県",
    "city": "大沼郡会津美里町",
    "town": "石切畑甲"
  },
  "9696047": {
    "zipcode": "9696047",
    "prefectureCode": "07",
    "prefectureNumber": 7,
    "prefecture": "福島県",
    "city": "大沼郡会津美里町",
    "town": "北川原甲"
  },
  "9696051": {
    "zipcode": "9696051",
    "prefectureCode": "07",
    "prefectureNumber": 7,
    "prefecture": "福島県",
    "city": "大沼郡会津美里町",
    "town": "思堀"
  },
  "9696052": {
    "zipcode": "9696052",
    "prefectureCode": "07",
    "prefectureNumber": 7,
    "prefecture": "福島県",
    "city": "大沼郡会津美里町",
    "town": "黒川"
  },
  "9696053": {
    "zipcode": "9696053",
    "prefectureCode": "07",
    "prefectureNumber": 7,
    "prefecture": "福島県",
    "city": "大沼郡会津美里町",
    "town": "仲塚甲"
  },
  "9696054": {
    "zipcode": "9696054",
    "prefectureCode": "07",
    "prefectureNumber": 7,
    "prefecture": "福島県",
    "city": "大沼郡会津美里町",
    "town": "惣印南"
  },
  "9696055": {
    "zipcode": "9696055",
    "prefectureCode": "07",
    "prefectureNumber": 7,
    "prefecture": "福島県",
    "city": "大沼郡会津美里町",
    "town": "惣印甲"
  },
  "9696056": {
    "zipcode": "9696056",
    "prefectureCode": "07",
    "prefectureNumber": 7,
    "prefecture": "福島県",
    "city": "大沼郡会津美里町",
    "town": "惣印東"
  },
  "9696057": {
    "zipcode": "9696057",
    "prefectureCode": "07",
    "prefectureNumber": 7,
    "prefecture": "福島県",
    "city": "大沼郡会津美里町",
    "town": "大川端甲"
  },
  "9696058": {
    "zipcode": "9696058",
    "prefectureCode": "07",
    "prefectureNumber": 7,
    "prefecture": "福島県",
    "city": "大沼郡会津美里町",
    "town": "的場甲"
  },
  "9696059": {
    "zipcode": "9696059",
    "prefectureCode": "07",
    "prefectureNumber": 7,
    "prefecture": "福島県",
    "city": "大沼郡会津美里町",
    "town": "六日町甲"
  },
  "9696061": {
    "zipcode": "9696061",
    "prefectureCode": "07",
    "prefectureNumber": 7,
    "prefecture": "福島県",
    "city": "大沼郡会津美里町",
    "town": "上町甲"
  },
  "9696062": {
    "zipcode": "9696062",
    "prefectureCode": "07",
    "prefectureNumber": 7,
    "prefecture": "福島県",
    "city": "大沼郡会津美里町",
    "town": "御用地"
  },
  "9696063": {
    "zipcode": "9696063",
    "prefectureCode": "07",
    "prefectureNumber": 7,
    "prefecture": "福島県",
    "city": "大沼郡会津美里町",
    "town": "御用地跡甲"
  },
  "9696064": {
    "zipcode": "9696064",
    "prefectureCode": "07",
    "prefectureNumber": 7,
    "prefecture": "福島県",
    "city": "大沼郡会津美里町",
    "town": "向川原"
  },
  "9696065": {
    "zipcode": "9696065",
    "prefectureCode": "07",
    "prefectureNumber": 7,
    "prefecture": "福島県",
    "city": "大沼郡会津美里町",
    "town": "本郷入口道上甲"
  },
  "9696066": {
    "zipcode": "9696066",
    "prefectureCode": "07",
    "prefectureNumber": 7,
    "prefecture": "福島県",
    "city": "大沼郡会津美里町",
    "town": "本郷入口中道上甲"
  },
  "9696067": {
    "zipcode": "9696067",
    "prefectureCode": "07",
    "prefectureNumber": 7,
    "prefecture": "福島県",
    "city": "大沼郡会津美里町",
    "town": "梁場上甲"
  },
  "9696068": {
    "zipcode": "9696068",
    "prefectureCode": "07",
    "prefectureNumber": 7,
    "prefecture": "福島県",
    "city": "大沼郡会津美里町",
    "town": "車川原甲"
  },
  "9696069": {
    "zipcode": "9696069",
    "prefectureCode": "07",
    "prefectureNumber": 7,
    "prefecture": "福島県",
    "city": "大沼郡会津美里町",
    "town": "船場甲"
  },
  "9696071": {
    "zipcode": "9696071",
    "prefectureCode": "07",
    "prefectureNumber": 7,
    "prefecture": "福島県",
    "city": "大沼郡会津美里町",
    "town": "本郷上"
  },
  "9696072": {
    "zipcode": "9696072",
    "prefectureCode": "07",
    "prefectureNumber": 7,
    "prefecture": "福島県",
    "city": "大沼郡会津美里町",
    "town": "真々川甲"
  },
  "9696073": {
    "zipcode": "9696073",
    "prefectureCode": "07",
    "prefectureNumber": 7,
    "prefecture": "福島県",
    "city": "大沼郡会津美里町",
    "town": "寺ノ前甲"
  },
  "9696074": {
    "zipcode": "9696074",
    "prefectureCode": "07",
    "prefectureNumber": 7,
    "prefecture": "福島県",
    "city": "大沼郡会津美里町",
    "town": "中道下甲"
  },
  "9696075": {
    "zipcode": "9696075",
    "prefectureCode": "07",
    "prefectureNumber": 7,
    "prefecture": "福島県",
    "city": "大沼郡会津美里町",
    "town": "本郷道東"
  },
  "9696076": {
    "zipcode": "9696076",
    "prefectureCode": "07",
    "prefectureNumber": 7,
    "prefecture": "福島県",
    "city": "大沼郡会津美里町",
    "town": "本郷道東甲"
  },
  "9696077": {
    "zipcode": "9696077",
    "prefectureCode": "07",
    "prefectureNumber": 7,
    "prefecture": "福島県",
    "city": "大沼郡会津美里町",
    "town": "東谷地甲"
  },
  "9696078": {
    "zipcode": "9696078",
    "prefectureCode": "07",
    "prefectureNumber": 7,
    "prefecture": "福島県",
    "city": "大沼郡会津美里町",
    "town": "蛭ケ窪"
  },
  "9696079": {
    "zipcode": "9696079",
    "prefectureCode": "07",
    "prefectureNumber": 7,
    "prefecture": "福島県",
    "city": "大沼郡会津美里町",
    "town": "三日町甲"
  },
  "9696081": {
    "zipcode": "9696081",
    "prefectureCode": "07",
    "prefectureNumber": 7,
    "prefecture": "福島県",
    "city": "大沼郡会津美里町",
    "town": "三日町上"
  },
  "9696082": {
    "zipcode": "9696082",
    "prefectureCode": "07",
    "prefectureNumber": 7,
    "prefecture": "福島県",
    "city": "大沼郡会津美里町",
    "town": "三日町上甲"
  },
  "9696083": {
    "zipcode": "9696083",
    "prefectureCode": "07",
    "prefectureNumber": 7,
    "prefecture": "福島県",
    "city": "大沼郡会津美里町",
    "town": "三日町道上甲"
  },
  "9696084": {
    "zipcode": "9696084",
    "prefectureCode": "07",
    "prefectureNumber": 7,
    "prefecture": "福島県",
    "city": "大沼郡会津美里町",
    "town": "本郷高田町甲"
  },
  "9696085": {
    "zipcode": "9696085",
    "prefectureCode": "07",
    "prefectureNumber": 7,
    "prefecture": "福島県",
    "city": "大沼郡会津美里町",
    "town": "西谷地"
  },
  "9696086": {
    "zipcode": "9696086",
    "prefectureCode": "07",
    "prefectureNumber": 7,
    "prefecture": "福島県",
    "city": "大沼郡会津美里町",
    "town": "西谷地甲"
  },
  "9696087": {
    "zipcode": "9696087",
    "prefectureCode": "07",
    "prefectureNumber": 7,
    "prefecture": "福島県",
    "city": "大沼郡会津美里町",
    "town": "本郷道西"
  },
  "9696101": {
    "zipcode": "9696101",
    "prefectureCode": "07",
    "prefectureNumber": 7,
    "prefecture": "福島県",
    "city": "大沼郡会津美里町",
    "town": "駅前"
  },
  "9696102": {
    "zipcode": "9696102",
    "prefectureCode": "07",
    "prefectureNumber": 7,
    "prefecture": "福島県",
    "city": "大沼郡会津美里町",
    "town": "思堀向"
  },
  "9696103": {
    "zipcode": "9696103",
    "prefectureCode": "07",
    "prefectureNumber": 7,
    "prefecture": "福島県",
    "city": "大沼郡会津美里町",
    "town": "上村北"
  },
  "9696104": {
    "zipcode": "9696104",
    "prefectureCode": "07",
    "prefectureNumber": 7,
    "prefecture": "福島県",
    "city": "大沼郡会津美里町",
    "town": "上村西道下"
  },
  "9696105": {
    "zipcode": "9696105",
    "prefectureCode": "07",
    "prefectureNumber": 7,
    "prefecture": "福島県",
    "city": "大沼郡会津美里町",
    "town": "上村南"
  },
  "9696106": {
    "zipcode": "9696106",
    "prefectureCode": "07",
    "prefectureNumber": 7,
    "prefecture": "福島県",
    "city": "大沼郡会津美里町",
    "town": "黒川内"
  },
  "9696107": {
    "zipcode": "9696107",
    "prefectureCode": "07",
    "prefectureNumber": 7,
    "prefecture": "福島県",
    "city": "大沼郡会津美里町",
    "town": "新用地"
  },
  "9696108": {
    "zipcode": "9696108",
    "prefectureCode": "07",
    "prefectureNumber": 7,
    "prefecture": "福島県",
    "city": "大沼郡会津美里町",
    "town": "堰下"
  },
  "9696109": {
    "zipcode": "9696109",
    "prefectureCode": "07",
    "prefectureNumber": 7,
    "prefecture": "福島県",
    "city": "大沼郡会津美里町",
    "town": "宗頤町"
  },
  "9696111": {
    "zipcode": "9696111",
    "prefectureCode": "07",
    "prefectureNumber": 7,
    "prefecture": "福島県",
    "city": "大沼郡会津美里町",
    "town": "家西"
  },
  "9696112": {
    "zipcode": "9696112",
    "prefectureCode": "07",
    "prefectureNumber": 7,
    "prefecture": "福島県",
    "city": "大沼郡会津美里町",
    "town": "家東甲"
  },
  "9696113": {
    "zipcode": "9696113",
    "prefectureCode": "07",
    "prefectureNumber": 7,
    "prefecture": "福島県",
    "city": "大沼郡会津美里町",
    "town": "車川原"
  },
  "9696114": {
    "zipcode": "9696114",
    "prefectureCode": "07",
    "prefectureNumber": 7,
    "prefecture": "福島県",
    "city": "大沼郡会津美里町",
    "town": "御用地跡"
  },
  "9696115": {
    "zipcode": "9696115",
    "prefectureCode": "07",
    "prefectureNumber": 7,
    "prefecture": "福島県",
    "city": "大沼郡会津美里町",
    "town": "新町"
  },
  "9696116": {
    "zipcode": "9696116",
    "prefectureCode": "07",
    "prefectureNumber": 7,
    "prefecture": "福島県",
    "city": "大沼郡会津美里町",
    "town": "瀬戸町"
  },
  "9696117": {
    "zipcode": "9696117",
    "prefectureCode": "07",
    "prefectureNumber": 7,
    "prefecture": "福島県",
    "city": "大沼郡会津美里町",
    "town": "本郷入口道上"
  },
  "9696118": {
    "zipcode": "9696118",
    "prefectureCode": "07",
    "prefectureNumber": 7,
    "prefecture": "福島県",
    "city": "大沼郡会津美里町",
    "town": "向川原甲"
  },
  "9696119": {
    "zipcode": "9696119",
    "prefectureCode": "07",
    "prefectureNumber": 7,
    "prefecture": "福島県",
    "city": "大沼郡会津美里町",
    "town": "梁場上"
  },
  "9696121": {
    "zipcode": "9696121",
    "prefectureCode": "07",
    "prefectureNumber": 7,
    "prefecture": "福島県",
    "city": "大沼郡会津美里町",
    "town": "延命寺前"
  },
  "9696122": {
    "zipcode": "9696122",
    "prefectureCode": "07",
    "prefectureNumber": 7,
    "prefecture": "福島県",
    "city": "大沼郡会津美里町",
    "town": "寺ノ前"
  },
  "9696123": {
    "zipcode": "9696123",
    "prefectureCode": "07",
    "prefectureNumber": 7,
    "prefecture": "福島県",
    "city": "大沼郡会津美里町",
    "town": "中道下"
  },
  "9696124": {
    "zipcode": "9696124",
    "prefectureCode": "07",
    "prefectureNumber": 7,
    "prefecture": "福島県",
    "city": "大沼郡会津美里町",
    "town": "東谷地"
  },
  "9696125": {
    "zipcode": "9696125",
    "prefectureCode": "07",
    "prefectureNumber": 7,
    "prefecture": "福島県",
    "city": "大沼郡会津美里町",
    "town": "本郷"
  },
  "9696126": {
    "zipcode": "9696126",
    "prefectureCode": "07",
    "prefectureNumber": 7,
    "prefecture": "福島県",
    "city": "大沼郡会津美里町",
    "town": "本郷甲"
  },
  "9696127": {
    "zipcode": "9696127",
    "prefectureCode": "07",
    "prefectureNumber": 7,
    "prefecture": "福島県",
    "city": "大沼郡会津美里町",
    "town": "本郷上甲"
  },
  "9696128": {
    "zipcode": "9696128",
    "prefectureCode": "07",
    "prefectureNumber": 7,
    "prefecture": "福島県",
    "city": "大沼郡会津美里町",
    "town": "真々川"
  },
  "9696129": {
    "zipcode": "9696129",
    "prefectureCode": "07",
    "prefectureNumber": 7,
    "prefecture": "福島県",
    "city": "大沼郡会津美里町",
    "town": "本郷道西甲"
  },
  "9696131": {
    "zipcode": "9696131",
    "prefectureCode": "07",
    "prefectureNumber": 7,
    "prefecture": "福島県",
    "city": "大沼郡会津美里町",
    "town": "大石"
  },
  "9696132": {
    "zipcode": "9696132",
    "prefectureCode": "07",
    "prefectureNumber": 7,
    "prefecture": "福島県",
    "city": "大沼郡会津美里町",
    "town": "本郷高田町"
  },
  "9696133": {
    "zipcode": "9696133",
    "prefectureCode": "07",
    "prefectureNumber": 7,
    "prefecture": "福島県",
    "city": "大沼郡会津美里町",
    "town": "船場"
  },
  "9696134": {
    "zipcode": "9696134",
    "prefectureCode": "07",
    "prefectureNumber": 7,
    "prefecture": "福島県",
    "city": "大沼郡会津美里町",
    "town": "三日町"
  },
  "9696135": {
    "zipcode": "9696135",
    "prefectureCode": "07",
    "prefectureNumber": 7,
    "prefecture": "福島県",
    "city": "大沼郡会津美里町",
    "town": "穂馬"
  },
  "9696141": {
    "zipcode": "9696141",
    "prefectureCode": "07",
    "prefectureNumber": 7,
    "prefecture": "福島県",
    "city": "大沼郡会津美里町",
    "town": "大八郷"
  },
  "9696142": {
    "zipcode": "9696142",
    "prefectureCode": "07",
    "prefectureNumber": 7,
    "prefecture": "福島県",
    "city": "大沼郡会津美里町",
    "town": "村上"
  },
  "9696143": {
    "zipcode": "9696143",
    "prefectureCode": "07",
    "prefectureNumber": 7,
    "prefecture": "福島県",
    "city": "大沼郡会津美里町",
    "town": "氷玉"
  },
  "9696144": {
    "zipcode": "9696144",
    "prefectureCode": "07",
    "prefectureNumber": 7,
    "prefecture": "福島県",
    "city": "大沼郡会津美里町",
    "town": "福重岡"
  },
  "9696145": {
    "zipcode": "9696145",
    "prefectureCode": "07",
    "prefectureNumber": 7,
    "prefecture": "福島県",
    "city": "大沼郡会津美里町",
    "town": "山南"
  },
  "9696146": {
    "zipcode": "9696146",
    "prefectureCode": "07",
    "prefectureNumber": 7,
    "prefecture": "福島県",
    "city": "大沼郡会津美里町",
    "town": "横堀下"
  },
  "9696151": {
    "zipcode": "9696151",
    "prefectureCode": "07",
    "prefectureNumber": 7,
    "prefecture": "福島県",
    "city": "大沼郡会津美里町",
    "town": "石切畑"
  },
  "9696152": {
    "zipcode": "9696152",
    "prefectureCode": "07",
    "prefectureNumber": 7,
    "prefecture": "福島県",
    "city": "大沼郡会津美里町",
    "town": "川原町甲"
  },
  "9696154": {
    "zipcode": "9696154",
    "prefectureCode": "07",
    "prefectureNumber": 7,
    "prefecture": "福島県",
    "city": "大沼郡会津美里町",
    "town": "北浦"
  },
  "9696155": {
    "zipcode": "9696155",
    "prefectureCode": "07",
    "prefectureNumber": 7,
    "prefecture": "福島県",
    "city": "大沼郡会津美里町",
    "town": "北川原"
  },
  "9696156": {
    "zipcode": "9696156",
    "prefectureCode": "07",
    "prefectureNumber": 7,
    "prefecture": "福島県",
    "city": "大沼郡会津美里町",
    "town": "瀬戸屋前甲"
  },
  "9696157": {
    "zipcode": "9696157",
    "prefectureCode": "07",
    "prefectureNumber": 7,
    "prefecture": "福島県",
    "city": "大沼郡会津美里町",
    "town": "本屋敷"
  },
  "9696158": {
    "zipcode": "9696158",
    "prefectureCode": "07",
    "prefectureNumber": 7,
    "prefecture": "福島県",
    "city": "大沼郡会津美里町",
    "town": "松原際"
  },
  "9696159": {
    "zipcode": "9696159",
    "prefectureCode": "07",
    "prefectureNumber": 7,
    "prefecture": "福島県",
    "city": "大沼郡会津美里町",
    "town": "川原町北"
  },
  "9696161": {
    "zipcode": "9696161",
    "prefectureCode": "07",
    "prefectureNumber": 7,
    "prefecture": "福島県",
    "city": "大沼郡会津美里町",
    "town": "荒井前"
  },
  "9696162": {
    "zipcode": "9696162",
    "prefectureCode": "07",
    "prefectureNumber": 7,
    "prefecture": "福島県",
    "city": "大沼郡会津美里町",
    "town": "杉"
  },
  "9696163": {
    "zipcode": "9696163",
    "prefectureCode": "07",
    "prefectureNumber": 7,
    "prefecture": "福島県",
    "city": "大沼郡会津美里町",
    "town": "黒沢"
  },
  "9696164": {
    "zipcode": "9696164",
    "prefectureCode": "07",
    "prefectureNumber": 7,
    "prefecture": "福島県",
    "city": "大沼郡会津美里町",
    "town": "本郷道上"
  },
  "9696165": {
    "zipcode": "9696165",
    "prefectureCode": "07",
    "prefectureNumber": 7,
    "prefecture": "福島県",
    "city": "大沼郡会津美里町",
    "town": "山道下"
  },
  "9696166": {
    "zipcode": "9696166",
    "prefectureCode": "07",
    "prefectureNumber": 7,
    "prefecture": "福島県",
    "city": "大沼郡会津美里町",
    "town": "下川原"
  },
  "9696171": {
    "zipcode": "9696171",
    "prefectureCode": "07",
    "prefectureNumber": 7,
    "prefecture": "福島県",
    "city": "大沼郡会津美里町",
    "town": "荒井"
  },
  "9696172": {
    "zipcode": "9696172",
    "prefectureCode": "07",
    "prefectureNumber": 7,
    "prefecture": "福島県",
    "city": "大沼郡会津美里町",
    "town": "本郷村西"
  },
  "9696173": {
    "zipcode": "9696173",
    "prefectureCode": "07",
    "prefectureNumber": 7,
    "prefecture": "福島県",
    "city": "大沼郡会津美里町",
    "town": "大道上"
  },
  "9696174": {
    "zipcode": "9696174",
    "prefectureCode": "07",
    "prefectureNumber": 7,
    "prefecture": "福島県",
    "city": "大沼郡会津美里町",
    "town": "権現堂"
  },
  "9696175": {
    "zipcode": "9696175",
    "prefectureCode": "07",
    "prefectureNumber": 7,
    "prefecture": "福島県",
    "city": "大沼郡会津美里町",
    "town": "舘ノ廻"
  },
  "9696176": {
    "zipcode": "9696176",
    "prefectureCode": "07",
    "prefectureNumber": 7,
    "prefecture": "福島県",
    "city": "大沼郡会津美里町",
    "town": "旱泥"
  },
  "9696177": {
    "zipcode": "9696177",
    "prefectureCode": "07",
    "prefectureNumber": 7,
    "prefecture": "福島県",
    "city": "大沼郡会津美里町",
    "town": "本郷前川原"
  },
  "9696180": {
    "zipcode": "9696180",
    "prefectureCode": "07",
    "prefectureNumber": 7,
    "prefecture": "福島県",
    "city": "会津若松市",
    "town": "北会津町両堂"
  },
  "9696182": {
    "zipcode": "9696182",
    "prefectureCode": "07",
    "prefectureNumber": 7,
    "prefecture": "福島県",
    "city": "会津若松市",
    "town": "北会津町柏原"
  },
  "9696183": {
    "zipcode": "9696183",
    "prefectureCode": "07",
    "prefectureNumber": 7,
    "prefecture": "福島県",
    "city": "会津若松市",
    "town": "北会津町上米塚"
  },
  "9696184": {
    "zipcode": "9696184",
    "prefectureCode": "07",
    "prefectureNumber": 7,
    "prefecture": "福島県",
    "city": "会津若松市",
    "town": "北会津町三本松"
  },
  "9696185": {
    "zipcode": "9696185",
    "prefectureCode": "07",
    "prefectureNumber": 7,
    "prefecture": "福島県",
    "city": "会津若松市",
    "town": "北会津町下米塚"
  },
  "9696186": {
    "zipcode": "9696186",
    "prefectureCode": "07",
    "prefectureNumber": 7,
    "prefecture": "福島県",
    "city": "会津若松市",
    "town": "北会津町古館"
  },
  "9696188": {
    "zipcode": "9696188",
    "prefectureCode": "07",
    "prefectureNumber": 7,
    "prefecture": "福島県",
    "city": "会津若松市",
    "town": "北会津町東小松"
  },
  "9696189": {
    "zipcode": "9696189",
    "prefectureCode": "07",
    "prefectureNumber": 7,
    "prefecture": "福島県",
    "city": "会津若松市",
    "town": "北会津町小松"
  },
  "9696200": {
    "zipcode": "9696200",
    "prefectureCode": "07",
    "prefectureNumber": 7,
    "prefecture": "福島県",
    "city": "大沼郡会津美里町",
    "town": "以下に掲載がない場合"
  },
  "9696201": {
    "zipcode": "9696201",
    "prefectureCode": "07",
    "prefectureNumber": 7,
    "prefecture": "福島県",
    "city": "大沼郡会津美里町",
    "town": "安田乙"
  },
  "9696202": {
    "zipcode": "9696202",
    "prefectureCode": "07",
    "prefectureNumber": 7,
    "prefecture": "福島県",
    "city": "大沼郡会津美里町",
    "town": "村前"
  },
  "9696203": {
    "zipcode": "9696203",
    "prefectureCode": "07",
    "prefectureNumber": 7,
    "prefecture": "福島県",
    "city": "大沼郡会津美里町",
    "town": "水戸"
  },
  "9696204": {
    "zipcode": "9696204",
    "prefectureCode": "07",
    "prefectureNumber": 7,
    "prefecture": "福島県",
    "city": "大沼郡会津美里町",
    "town": "宮ノ腰"
  },
  "9696205": {
    "zipcode": "9696205",
    "prefectureCode": "07",
    "prefectureNumber": 7,
    "prefecture": "福島県",
    "city": "大沼郡会津美里町",
    "town": "御田"
  },
  "9696206": {
    "zipcode": "9696206",
    "prefectureCode": "07",
    "prefectureNumber": 7,
    "prefecture": "福島県",
    "city": "大沼郡会津美里町",
    "town": "葭添"
  },
  "9696207": {
    "zipcode": "9696207",
    "prefectureCode": "07",
    "prefectureNumber": 7,
    "prefecture": "福島県",
    "city": "大沼郡会津美里町",
    "town": "宮里"
  },
  "9696211": {
    "zipcode": "9696211",
    "prefectureCode": "07",
    "prefectureNumber": 7,
    "prefecture": "福島県",
    "city": "大沼郡会津美里町",
    "town": "橋丸"
  },
  "9696212": {
    "zipcode": "9696212",
    "prefectureCode": "07",
    "prefectureNumber": 7,
    "prefecture": "福島県",
    "city": "大沼郡会津美里町",
    "town": "藤家館"
  },
  "9696213": {
    "zipcode": "9696213",
    "prefectureCode": "07",
    "prefectureNumber": 7,
    "prefecture": "福島県",
    "city": "大沼郡会津美里町",
    "town": "勝原"
  },
  "9696214": {
    "zipcode": "9696214",
    "prefectureCode": "07",
    "prefectureNumber": 7,
    "prefecture": "福島県",
    "city": "大沼郡会津美里町",
    "town": "冨川"
  },
  "9696215": {
    "zipcode": "9696215",
    "prefectureCode": "07",
    "prefectureNumber": 7,
    "prefecture": "福島県",
    "city": "大沼郡会津美里町",
    "town": "下堀"
  },
  "9696221": {
    "zipcode": "9696221",
    "prefectureCode": "07",
    "prefectureNumber": 7,
    "prefecture": "福島県",
    "city": "大沼郡会津美里町",
    "town": "旭館端"
  },
  "9696222": {
    "zipcode": "9696222",
    "prefectureCode": "07",
    "prefectureNumber": 7,
    "prefecture": "福島県",
    "city": "大沼郡会津美里町",
    "town": "旭市川"
  },
  "9696223": {
    "zipcode": "9696223",
    "prefectureCode": "07",
    "prefectureNumber": 7,
    "prefecture": "福島県",
    "city": "大沼郡会津美里町",
    "town": "旭寺入"
  },
  "9696224": {
    "zipcode": "9696224",
    "prefectureCode": "07",
    "prefectureNumber": 7,
    "prefecture": "福島県",
    "city": "大沼郡会津美里町",
    "town": "旭無量"
  },
  "9696225": {
    "zipcode": "9696225",
    "prefectureCode": "07",
    "prefectureNumber": 7,
    "prefecture": "福島県",
    "city": "大沼郡会津美里町",
    "town": "旭三寄"
  },
  "9696226": {
    "zipcode": "9696226",
    "prefectureCode": "07",
    "prefectureNumber": 7,
    "prefecture": "福島県",
    "city": "大沼郡会津美里町",
    "town": "旭杉原"
  },
  "9696231": {
    "zipcode": "9696231",
    "prefectureCode": "07",
    "prefectureNumber": 7,
    "prefecture": "福島県",
    "city": "大沼郡会津美里町",
    "town": "尾岐窪"
  },
  "9696232": {
    "zipcode": "9696232",
    "prefectureCode": "07",
    "prefectureNumber": 7,
    "prefecture": "福島県",
    "city": "大沼郡会津美里町",
    "town": "東尾岐"
  },
  "9696241": {
    "zipcode": "9696241",
    "prefectureCode": "07",
    "prefectureNumber": 7,
    "prefecture": "福島県",
    "city": "大沼郡会津美里町",
    "town": "吉田"
  },
  "9696242": {
    "zipcode": "9696242",
    "prefectureCode": "07",
    "prefectureNumber": 7,
    "prefecture": "福島県",
    "city": "大沼郡会津美里町",
    "town": "大室"
  },
  "9696243": {
    "zipcode": "9696243",
    "prefectureCode": "07",
    "prefectureNumber": 7,
    "prefecture": "福島県",
    "city": "大沼郡会津美里町",
    "town": "宮川"
  },
  "9696244": {
    "zipcode": "9696244",
    "prefectureCode": "07",
    "prefectureNumber": 7,
    "prefecture": "福島県",
    "city": "大沼郡会津美里町",
    "town": "西尾"
  },
  "9696245": {
    "zipcode": "9696245",
    "prefectureCode": "07",
    "prefectureNumber": 7,
    "prefecture": "福島県",
    "city": "大沼郡会津美里町",
    "town": "西本"
  },
  "9696251": {
    "zipcode": "9696251",
    "prefectureCode": "07",
    "prefectureNumber": 7,
    "prefecture": "福島県",
    "city": "大沼郡会津美里町",
    "town": "永井野"
  },
  "9696252": {
    "zipcode": "9696252",
    "prefectureCode": "07",
    "prefectureNumber": 7,
    "prefecture": "福島県",
    "city": "大沼郡会津美里町",
    "town": "松岸"
  },
  "9696253": {
    "zipcode": "9696253",
    "prefectureCode": "07",
    "prefectureNumber": 7,
    "prefecture": "福島県",
    "city": "大沼郡会津美里町",
    "town": "杉屋"
  },
  "9696254": {
    "zipcode": "9696254",
    "prefectureCode": "07",
    "prefectureNumber": 7,
    "prefecture": "福島県",
    "city": "大沼郡会津美里町",
    "town": "荻窪"
  },
  "9696255": {
    "zipcode": "9696255",
    "prefectureCode": "07",
    "prefectureNumber": 7,
    "prefecture": "福島県",
    "city": "大沼郡会津美里町",
    "town": "松沢"
  },
  "9696256": {
    "zipcode": "9696256",
    "prefectureCode": "07",
    "prefectureNumber": 7,
    "prefecture": "福島県",
    "city": "大沼郡会津美里町",
    "town": "上戸原"
  },
  "9696261": {
    "zipcode": "9696261",
    "prefectureCode": "07",
    "prefectureNumber": 7,
    "prefecture": "福島県",
    "city": "大沼郡会津美里町",
    "town": "東川原"
  },
  "9696262": {
    "zipcode": "9696262",
    "prefectureCode": "07",
    "prefectureNumber": 7,
    "prefecture": "福島県",
    "city": "大沼郡会津美里町",
    "town": "法憧寺南甲"
  },
  "9696263": {
    "zipcode": "9696263",
    "prefectureCode": "07",
    "prefectureNumber": 7,
    "prefecture": "福島県",
    "city": "大沼郡会津美里町",
    "town": "文珠東"
  },
  "9696264": {
    "zipcode": "9696264",
    "prefectureCode": "07",
    "prefectureNumber": 7,
    "prefecture": "福島県",
    "city": "大沼郡会津美里町",
    "town": "高田甲"
  },
  "9696265": {
    "zipcode": "9696265",
    "prefectureCode": "07",
    "prefectureNumber": 7,
    "prefecture": "福島県",
    "city": "大沼郡会津美里町",
    "town": "六地蔵"
  },
  "9696266": {
    "zipcode": "9696266",
    "prefectureCode": "07",
    "prefectureNumber": 7,
    "prefecture": "福島県",
    "city": "大沼郡会津美里町",
    "town": "竜興寺北"
  },
  "9696267": {
    "zipcode": "9696267",
    "prefectureCode": "07",
    "prefectureNumber": 7,
    "prefecture": "福島県",
    "city": "大沼郡会津美里町",
    "town": "西裏"
  },
  "9696268": {
    "zipcode": "9696268",
    "prefectureCode": "07",
    "prefectureNumber": 7,
    "prefecture": "福島県",
    "city": "大沼郡会津美里町",
    "town": "柳台甲"
  },
  "9696269": {
    "zipcode": "9696269",
    "prefectureCode": "07",
    "prefectureNumber": 7,
    "prefecture": "福島県",
    "city": "大沼郡会津美里町",
    "town": "新布才地"
  },
  "9696271": {
    "zipcode": "9696271",
    "prefectureCode": "07",
    "prefectureNumber": 7,
    "prefecture": "福島県",
    "city": "大沼郡会津美里町",
    "town": "沼ノ上"
  },
  "9696272": {
    "zipcode": "9696272",
    "prefectureCode": "07",
    "prefectureNumber": 7,
    "prefecture": "福島県",
    "city": "大沼郡会津美里町",
    "town": "赤留"
  },
  "9696273": {
    "zipcode": "9696273",
    "prefectureCode": "07",
    "prefectureNumber": 7,
    "prefecture": "福島県",
    "city": "大沼郡会津美里町",
    "town": "八木沢"
  },
  "9696274": {
    "zipcode": "9696274",
    "prefectureCode": "07",
    "prefectureNumber": 7,
    "prefecture": "福島県",
    "city": "大沼郡会津美里町",
    "town": "雀林"
  },
  "9696301": {
    "zipcode": "9696301",
    "prefectureCode": "07",
    "prefectureNumber": 7,
    "prefecture": "福島県",
    "city": "大沼郡会津美里町",
    "town": "杉甲"
  },
  "9696302": {
    "zipcode": "9696302",
    "prefectureCode": "07",
    "prefectureNumber": 7,
    "prefecture": "福島県",
    "city": "大沼郡会津美里町",
    "town": "山道下甲"
  },
  "9696303": {
    "zipcode": "9696303",
    "prefectureCode": "07",
    "prefectureNumber": 7,
    "prefecture": "福島県",
    "city": "大沼郡会津美里町",
    "town": "山道上"
  },
  "9696304": {
    "zipcode": "9696304",
    "prefectureCode": "07",
    "prefectureNumber": 7,
    "prefecture": "福島県",
    "city": "大沼郡会津美里町",
    "town": "黒沢甲"
  },
  "9696305": {
    "zipcode": "9696305",
    "prefectureCode": "07",
    "prefectureNumber": 7,
    "prefecture": "福島県",
    "city": "大沼郡会津美里町",
    "town": "延命寺前甲"
  },
  "9696306": {
    "zipcode": "9696306",
    "prefectureCode": "07",
    "prefectureNumber": 7,
    "prefecture": "福島県",
    "city": "大沼郡会津美里町",
    "town": "延命寺前乙"
  },
  "9696307": {
    "zipcode": "9696307",
    "prefectureCode": "07",
    "prefectureNumber": 7,
    "prefecture": "福島県",
    "city": "大沼郡会津美里町",
    "town": "石田甲"
  },
  "9696311": {
    "zipcode": "9696311",
    "prefectureCode": "07",
    "prefectureNumber": 7,
    "prefecture": "福島県",
    "city": "大沼郡会津美里町",
    "town": "清水台"
  },
  "9696312": {
    "zipcode": "9696312",
    "prefectureCode": "07",
    "prefectureNumber": 7,
    "prefecture": "福島県",
    "city": "大沼郡会津美里町",
    "town": "清水台甲"
  },
  "9696313": {
    "zipcode": "9696313",
    "prefectureCode": "07",
    "prefectureNumber": 7,
    "prefecture": "福島県",
    "city": "大沼郡会津美里町",
    "town": "下川原甲"
  },
  "9696314": {
    "zipcode": "9696314",
    "prefectureCode": "07",
    "prefectureNumber": 7,
    "prefecture": "福島県",
    "city": "大沼郡会津美里町",
    "town": "清水川甲"
  },
  "9696315": {
    "zipcode": "9696315",
    "prefectureCode": "07",
    "prefectureNumber": 7,
    "prefecture": "福島県",
    "city": "大沼郡会津美里町",
    "town": "蛇ノ宮甲"
  },
  "9696316": {
    "zipcode": "9696316",
    "prefectureCode": "07",
    "prefectureNumber": 7,
    "prefecture": "福島県",
    "city": "大沼郡会津美里町",
    "town": "北原"
  },
  "9696317": {
    "zipcode": "9696317",
    "prefectureCode": "07",
    "prefectureNumber": 7,
    "prefecture": "福島県",
    "city": "大沼郡会津美里町",
    "town": "北原甲"
  },
  "9696318": {
    "zipcode": "9696318",
    "prefectureCode": "07",
    "prefectureNumber": 7,
    "prefecture": "福島県",
    "city": "大沼郡会津美里町",
    "town": "北原乙"
  },
  "9696321": {
    "zipcode": "9696321",
    "prefectureCode": "07",
    "prefectureNumber": 7,
    "prefecture": "福島県",
    "city": "大沼郡会津美里町",
    "town": "丸山北"
  },
  "9696322": {
    "zipcode": "9696322",
    "prefectureCode": "07",
    "prefectureNumber": 7,
    "prefecture": "福島県",
    "city": "大沼郡会津美里町",
    "town": "丸山北甲"
  },
  "9696323": {
    "zipcode": "9696323",
    "prefectureCode": "07",
    "prefectureNumber": 7,
    "prefecture": "福島県",
    "city": "大沼郡会津美里町",
    "town": "丸山"
  },
  "9696324": {
    "zipcode": "9696324",
    "prefectureCode": "07",
    "prefectureNumber": 7,
    "prefecture": "福島県",
    "city": "大沼郡会津美里町",
    "town": "丸山乙"
  },
  "9696325": {
    "zipcode": "9696325",
    "prefectureCode": "07",
    "prefectureNumber": 7,
    "prefecture": "福島県",
    "city": "大沼郡会津美里町",
    "town": "宮後"
  },
  "9696326": {
    "zipcode": "9696326",
    "prefectureCode": "07",
    "prefectureNumber": 7,
    "prefecture": "福島県",
    "city": "大沼郡会津美里町",
    "town": "宮後甲"
  },
  "9696327": {
    "zipcode": "9696327",
    "prefectureCode": "07",
    "prefectureNumber": 7,
    "prefecture": "福島県",
    "city": "大沼郡会津美里町",
    "town": "宮後乙"
  },
  "9696328": {
    "zipcode": "9696328",
    "prefectureCode": "07",
    "prefectureNumber": 7,
    "prefecture": "福島県",
    "city": "大沼郡会津美里町",
    "town": "山南乙"
  },
  "9696331": {
    "zipcode": "9696331",
    "prefectureCode": "07",
    "prefectureNumber": 7,
    "prefecture": "福島県",
    "city": "大沼郡会津美里町",
    "town": "本郷村西甲"
  },
  "9696332": {
    "zipcode": "9696332",
    "prefectureCode": "07",
    "prefectureNumber": 7,
    "prefecture": "福島県",
    "city": "大沼郡会津美里町",
    "town": "本郷村西乙"
  },
  "9696333": {
    "zipcode": "9696333",
    "prefectureCode": "07",
    "prefectureNumber": 7,
    "prefecture": "福島県",
    "city": "大沼郡会津美里町",
    "town": "大八郷乙"
  },
  "9696334": {
    "zipcode": "9696334",
    "prefectureCode": "07",
    "prefectureNumber": 7,
    "prefecture": "福島県",
    "city": "大沼郡会津美里町",
    "town": "本郷村東乙"
  },
  "9696335": {
    "zipcode": "9696335",
    "prefectureCode": "07",
    "prefectureNumber": 7,
    "prefecture": "福島県",
    "city": "大沼郡会津美里町",
    "town": "村上乙"
  },
  "9696336": {
    "zipcode": "9696336",
    "prefectureCode": "07",
    "prefectureNumber": 7,
    "prefecture": "福島県",
    "city": "大沼郡会津美里町",
    "town": "本郷千苅"
  },
  "9696337": {
    "zipcode": "9696337",
    "prefectureCode": "07",
    "prefectureNumber": 7,
    "prefecture": "福島県",
    "city": "大沼郡会津美里町",
    "town": "本郷千苅乙"
  },
  "9696338": {
    "zipcode": "9696338",
    "prefectureCode": "07",
    "prefectureNumber": 7,
    "prefecture": "福島県",
    "city": "大沼郡会津美里町",
    "town": "橋本乙"
  },
  "9696341": {
    "zipcode": "9696341",
    "prefectureCode": "07",
    "prefectureNumber": 7,
    "prefecture": "福島県",
    "city": "大沼郡会津美里町",
    "town": "横堀下乙"
  },
  "9696342": {
    "zipcode": "9696342",
    "prefectureCode": "07",
    "prefectureNumber": 7,
    "prefecture": "福島県",
    "city": "大沼郡会津美里町",
    "town": "倉田"
  },
  "9696343": {
    "zipcode": "9696343",
    "prefectureCode": "07",
    "prefectureNumber": 7,
    "prefecture": "福島県",
    "city": "大沼郡会津美里町",
    "town": "沖田"
  },
  "9696351": {
    "zipcode": "9696351",
    "prefectureCode": "07",
    "prefectureNumber": 7,
    "prefecture": "福島県",
    "city": "大沼郡会津美里町",
    "town": "穴田"
  },
  "9696352": {
    "zipcode": "9696352",
    "prefectureCode": "07",
    "prefectureNumber": 7,
    "prefecture": "福島県",
    "city": "大沼郡会津美里町",
    "town": "穴田乙"
  },
  "9696353": {
    "zipcode": "9696353",
    "prefectureCode": "07",
    "prefectureNumber": 7,
    "prefecture": "福島県",
    "city": "大沼郡会津美里町",
    "town": "堂ノ前"
  },
  "9696354": {
    "zipcode": "9696354",
    "prefectureCode": "07",
    "prefectureNumber": 7,
    "prefecture": "福島県",
    "city": "大沼郡会津美里町",
    "town": "堂ノ前甲"
  },
  "9696355": {
    "zipcode": "9696355",
    "prefectureCode": "07",
    "prefectureNumber": 7,
    "prefecture": "福島県",
    "city": "大沼郡会津美里町",
    "town": "西沖"
  },
  "9696356": {
    "zipcode": "9696356",
    "prefectureCode": "07",
    "prefectureNumber": 7,
    "prefecture": "福島県",
    "city": "大沼郡会津美里町",
    "town": "稗田乙"
  },
  "9696401": {
    "zipcode": "9696401",
    "prefectureCode": "07",
    "prefectureNumber": 7,
    "prefecture": "福島県",
    "city": "大沼郡会津美里町",
    "town": "和田目"
  },
  "9696402": {
    "zipcode": "9696402",
    "prefectureCode": "07",
    "prefectureNumber": 7,
    "prefecture": "福島県",
    "city": "大沼郡会津美里町",
    "town": "新屋敷"
  },
  "9696403": {
    "zipcode": "9696403",
    "prefectureCode": "07",
    "prefectureNumber": 7,
    "prefecture": "福島県",
    "city": "大沼郡会津美里町",
    "town": "鶴野辺"
  },
  "9696404": {
    "zipcode": "9696404",
    "prefectureCode": "07",
    "prefectureNumber": 7,
    "prefecture": "福島県",
    "city": "大沼郡会津美里町",
    "town": "境野"
  },
  "9696405": {
    "zipcode": "9696405",
    "prefectureCode": "07",
    "prefectureNumber": 7,
    "prefecture": "福島県",
    "city": "大沼郡会津美里町",
    "town": "米田"
  },
  "9696406": {
    "zipcode": "9696406",
    "prefectureCode": "07",
    "prefectureNumber": 7,
    "prefecture": "福島県",
    "city": "大沼郡会津美里町",
    "town": "佐賀瀬川"
  },
  "9696407": {
    "zipcode": "9696407",
    "prefectureCode": "07",
    "prefectureNumber": 7,
    "prefecture": "福島県",
    "city": "大沼郡会津美里町",
    "town": "上平"
  },
  "9696408": {
    "zipcode": "9696408",
    "prefectureCode": "07",
    "prefectureNumber": 7,
    "prefecture": "福島県",
    "city": "大沼郡会津美里町",
    "town": "沼田"
  },
  "9696409": {
    "zipcode": "9696409",
    "prefectureCode": "07",
    "prefectureNumber": 7,
    "prefecture": "福島県",
    "city": "大沼郡会津美里町",
    "town": "小沢"
  },
  "9696411": {
    "zipcode": "9696411",
    "prefectureCode": "07",
    "prefectureNumber": 7,
    "prefecture": "福島県",
    "city": "大沼郡会津美里町",
    "town": "立石田"
  },
  "9696500": {
    "zipcode": "9696500",
    "prefectureCode": "07",
    "prefectureNumber": 7,
    "prefecture": "福島県",
    "city": "河沼郡会津坂下町",
    "town": "以下に掲載がない場合"
  },
  "9696501": {
    "zipcode": "9696501",
    "prefectureCode": "07",
    "prefectureNumber": 7,
    "prefecture": "福島県",
    "city": "河沼郡会津坂下町",
    "town": "長井"
  },
  "9696502": {
    "zipcode": "9696502",
    "prefectureCode": "07",
    "prefectureNumber": 7,
    "prefecture": "福島県",
    "city": "河沼郡会津坂下町",
    "town": "津尻"
  },
  "9696503": {
    "zipcode": "9696503",
    "prefectureCode": "07",
    "prefectureNumber": 7,
    "prefecture": "福島県",
    "city": "河沼郡会津坂下町",
    "town": "宇内"
  },
  "9696504": {
    "zipcode": "9696504",
    "prefectureCode": "07",
    "prefectureNumber": 7,
    "prefecture": "福島県",
    "city": "河沼郡会津坂下町",
    "town": "八日沢"
  },
  "9696505": {
    "zipcode": "9696505",
    "prefectureCode": "07",
    "prefectureNumber": 7,
    "prefecture": "福島県",
    "city": "河沼郡会津坂下町",
    "town": "新舘"
  },
  "9696506": {
    "zipcode": "9696506",
    "prefectureCode": "07",
    "prefectureNumber": 7,
    "prefecture": "福島県",
    "city": "河沼郡会津坂下町",
    "town": "見明"
  },
  "9696507": {
    "zipcode": "9696507",
    "prefectureCode": "07",
    "prefectureNumber": 7,
    "prefecture": "福島県",
    "city": "河沼郡会津坂下町",
    "town": "大上"
  },
  "9696511": {
    "zipcode": "9696511",
    "prefectureCode": "07",
    "prefectureNumber": 7,
    "prefecture": "福島県",
    "city": "河沼郡会津坂下町",
    "town": "青木"
  },
  "9696512": {
    "zipcode": "9696512",
    "prefectureCode": "07",
    "prefectureNumber": 7,
    "prefecture": "福島県",
    "city": "河沼郡会津坂下町",
    "town": "沼越"
  },
  "9696513": {
    "zipcode": "9696513",
    "prefectureCode": "07",
    "prefectureNumber": 7,
    "prefecture": "福島県",
    "city": "河沼郡会津坂下町",
    "town": "立川"
  },
  "9696514": {
    "zipcode": "9696514",
    "prefectureCode": "07",
    "prefectureNumber": 7,
    "prefecture": "福島県",
    "city": "河沼郡会津坂下町",
    "town": "五香"
  },
  "9696515": {
    "zipcode": "9696515",
    "prefectureCode": "07",
    "prefectureNumber": 7,
    "prefecture": "福島県",
    "city": "河沼郡会津坂下町",
    "town": "福原前"
  },
  "9696516": {
    "zipcode": "9696516",
    "prefectureCode": "07",
    "prefectureNumber": 7,
    "prefecture": "福島県",
    "city": "河沼郡会津坂下町",
    "town": "中泉"
  },
  "9696517": {
    "zipcode": "9696517",
    "prefectureCode": "07",
    "prefectureNumber": 7,
    "prefecture": "福島県",
    "city": "河沼郡会津坂下町",
    "town": "合川"
  },
  "9696518": {
    "zipcode": "9696518",
    "prefectureCode": "07",
    "prefectureNumber": 7,
    "prefecture": "福島県",
    "city": "河沼郡会津坂下町",
    "town": "青津"
  },
  "9696519": {
    "zipcode": "9696519",
    "prefectureCode": "07",
    "prefectureNumber": 7,
    "prefecture": "福島県",
    "city": "河沼郡会津坂下町",
    "town": "三谷"
  },
  "9696521": {
    "zipcode": "9696521",
    "prefectureCode": "07",
    "prefectureNumber": 7,
    "prefecture": "福島県",
    "city": "河沼郡会津坂下町",
    "town": "金上"
  },
  "9696522": {
    "zipcode": "9696522",
    "prefectureCode": "07",
    "prefectureNumber": 7,
    "prefecture": "福島県",
    "city": "河沼郡会津坂下町",
    "town": "宮古"
  },
  "9696523": {
    "zipcode": "9696523",
    "prefectureCode": "07",
    "prefectureNumber": 7,
    "prefecture": "福島県",
    "city": "河沼郡会津坂下町",
    "town": "海老細"
  },
  "9696524": {
    "zipcode": "9696524",
    "prefectureCode": "07",
    "prefectureNumber": 7,
    "prefecture": "福島県",
    "city": "河沼郡会津坂下町",
    "town": "束原"
  },
  "9696525": {
    "zipcode": "9696525",
    "prefectureCode": "07",
    "prefectureNumber": 7,
    "prefecture": "福島県",
    "city": "河沼郡会津坂下町",
    "town": "開津"
  },
  "9696526": {
    "zipcode": "9696526",
    "prefectureCode": "07",
    "prefectureNumber": 7,
    "prefecture": "福島県",
    "city": "河沼郡会津坂下町",
    "town": "五ノ併"
  },
  "9696527": {
    "zipcode": "9696527",
    "prefectureCode": "07",
    "prefectureNumber": 7,
    "prefecture": "福島県",
    "city": "河沼郡会津坂下町",
    "town": "福原"
  },
  "9696528": {
    "zipcode": "9696528",
    "prefectureCode": "07",
    "prefectureNumber": 7,
    "prefecture": "福島県",
    "city": "河沼郡会津坂下町",
    "town": "新開津"
  },
  "9696531": {
    "zipcode": "9696531",
    "prefectureCode": "07",
    "prefectureNumber": 7,
    "prefecture": "福島県",
    "city": "河沼郡会津坂下町",
    "town": "東上口甲"
  },
  "9696532": {
    "zipcode": "9696532",
    "prefectureCode": "07",
    "prefectureNumber": 7,
    "prefecture": "福島県",
    "city": "河沼郡会津坂下町",
    "town": "道下丙"
  },
  "9696533": {
    "zipcode": "9696533",
    "prefectureCode": "07",
    "prefectureNumber": 7,
    "prefecture": "福島県",
    "city": "河沼郡会津坂下町",
    "town": "台ノ下"
  },
  "9696534": {
    "zipcode": "9696534",
    "prefectureCode": "07",
    "prefectureNumber": 7,
    "prefecture": "福島県",
    "city": "河沼郡会津坂下町",
    "town": "原道東甲"
  },
  "9696535": {
    "zipcode": "9696535",
    "prefectureCode": "07",
    "prefectureNumber": 7,
    "prefecture": "福島県",
    "city": "河沼郡会津坂下町",
    "town": "東屋敷添乙"
  },
  "9696536": {
    "zipcode": "9696536",
    "prefectureCode": "07",
    "prefectureNumber": 7,
    "prefecture": "福島県",
    "city": "河沼郡会津坂下町",
    "town": "市中一番甲"
  },
  "9696537": {
    "zipcode": "9696537",
    "prefectureCode": "07",
    "prefectureNumber": 7,
    "prefecture": "福島県",
    "city": "河沼郡会津坂下町",
    "town": "西ノ宮乙"
  },
  "9696538": {
    "zipcode": "9696538",
    "prefectureCode": "07",
    "prefectureNumber": 7,
    "prefecture": "福島県",
    "city": "河沼郡会津坂下町",
    "town": "上沼ノ上丙"
  },
  "9696539": {
    "zipcode": "9696539",
    "prefectureCode": "07",
    "prefectureNumber": 7,
    "prefecture": "福島県",
    "city": "河沼郡会津坂下町",
    "town": "古市乙"
  },
  "9696541": {
    "zipcode": "9696541",
    "prefectureCode": "07",
    "prefectureNumber": 7,
    "prefecture": "福島県",
    "city": "河沼郡会津坂下町",
    "town": "四十石"
  },
  "9696542": {
    "zipcode": "9696542",
    "prefectureCode": "07",
    "prefectureNumber": 7,
    "prefecture": "福島県",
    "city": "河沼郡会津坂下町",
    "town": "古屋敷甲"
  },
  "9696543": {
    "zipcode": "9696543",
    "prefectureCode": "07",
    "prefectureNumber": 7,
    "prefecture": "福島県",
    "city": "河沼郡会津坂下町",
    "town": "市中二番甲"
  },
  "9696544": {
    "zipcode": "9696544",
    "prefectureCode": "07",
    "prefectureNumber": 7,
    "prefecture": "福島県",
    "city": "河沼郡会津坂下町",
    "town": "東南町裏甲"
  },
  "9696545": {
    "zipcode": "9696545",
    "prefectureCode": "07",
    "prefectureNumber": 7,
    "prefecture": "福島県",
    "city": "河沼郡会津坂下町",
    "town": "五反田"
  },
  "9696546": {
    "zipcode": "9696546",
    "prefectureCode": "07",
    "prefectureNumber": 7,
    "prefecture": "福島県",
    "city": "河沼郡会津坂下町",
    "town": "曲田"
  },
  "9696547": {
    "zipcode": "9696547",
    "prefectureCode": "07",
    "prefectureNumber": 7,
    "prefecture": "福島県",
    "city": "河沼郡会津坂下町",
    "town": "市中三番甲"
  },
  "9696548": {
    "zipcode": "9696548",
    "prefectureCode": "07",
    "prefectureNumber": 7,
    "prefecture": "福島県",
    "city": "河沼郡会津坂下町",
    "town": "茶屋町甲"
  },
  "9696549": {
    "zipcode": "9696549",
    "prefectureCode": "07",
    "prefectureNumber": 7,
    "prefecture": "福島県",
    "city": "河沼郡会津坂下町",
    "town": "古町川尻"
  },
  "9696551": {
    "zipcode": "9696551",
    "prefectureCode": "07",
    "prefectureNumber": 7,
    "prefecture": "福島県",
    "city": "河沼郡会津坂下町",
    "town": "舘ノ下"
  },
  "9696552": {
    "zipcode": "9696552",
    "prefectureCode": "07",
    "prefectureNumber": 7,
    "prefecture": "福島県",
    "city": "河沼郡会津坂下町",
    "town": "舘ノ内甲"
  },
  "9696553": {
    "zipcode": "9696553",
    "prefectureCode": "07",
    "prefectureNumber": 7,
    "prefecture": "福島県",
    "city": "河沼郡会津坂下町",
    "town": "西南町裏甲"
  },
  "9696554": {
    "zipcode": "9696554",
    "prefectureCode": "07",
    "prefectureNumber": 7,
    "prefecture": "福島県",
    "city": "河沼郡会津坂下町",
    "town": "松ノ目"
  },
  "9696555": {
    "zipcode": "9696555",
    "prefectureCode": "07",
    "prefectureNumber": 7,
    "prefecture": "福島県",
    "city": "河沼郡会津坂下町",
    "town": "沢ノ目"
  },
  "9696556": {
    "zipcode": "9696556",
    "prefectureCode": "07",
    "prefectureNumber": 7,
    "prefecture": "福島県",
    "city": "河沼郡会津坂下町",
    "town": "逆水"
  },
  "9696557": {
    "zipcode": "9696557",
    "prefectureCode": "07",
    "prefectureNumber": 7,
    "prefecture": "福島県",
    "city": "河沼郡会津坂下町",
    "town": "市中四番甲"
  },
  "9696561": {
    "zipcode": "9696561",
    "prefectureCode": "07",
    "prefectureNumber": 7,
    "prefecture": "福島県",
    "city": "河沼郡会津坂下町",
    "town": "大道"
  },
  "9696562": {
    "zipcode": "9696562",
    "prefectureCode": "07",
    "prefectureNumber": 7,
    "prefecture": "福島県",
    "city": "河沼郡会津坂下町",
    "town": "中岡甲"
  },
  "9696563": {
    "zipcode": "9696563",
    "prefectureCode": "07",
    "prefectureNumber": 7,
    "prefecture": "福島県",
    "city": "河沼郡会津坂下町",
    "town": "市中新町甲"
  },
  "9696564": {
    "zipcode": "9696564",
    "prefectureCode": "07",
    "prefectureNumber": 7,
    "prefecture": "福島県",
    "city": "河沼郡会津坂下町",
    "town": "中岩田"
  },
  "9696565": {
    "zipcode": "9696565",
    "prefectureCode": "07",
    "prefectureNumber": 7,
    "prefecture": "福島県",
    "city": "河沼郡会津坂下町",
    "town": "惣六"
  },
  "9696566": {
    "zipcode": "9696566",
    "prefectureCode": "07",
    "prefectureNumber": 7,
    "prefecture": "福島県",
    "city": "河沼郡会津坂下町",
    "town": "稲荷塚"
  },
  "9696567": {
    "zipcode": "9696567",
    "prefectureCode": "07",
    "prefectureNumber": 7,
    "prefecture": "福島県",
    "city": "河沼郡会津坂下町",
    "town": "沼田甲"
  },
  "9696571": {
    "zipcode": "9696571",
    "prefectureCode": "07",
    "prefectureNumber": 7,
    "prefecture": "福島県",
    "city": "河沼郡会津坂下町",
    "town": "白狐"
  },
  "9696572": {
    "zipcode": "9696572",
    "prefectureCode": "07",
    "prefectureNumber": 7,
    "prefecture": "福島県",
    "city": "河沼郡会津坂下町",
    "town": "羽林"
  },
  "9696573": {
    "zipcode": "9696573",
    "prefectureCode": "07",
    "prefectureNumber": 7,
    "prefecture": "福島県",
    "city": "河沼郡会津坂下町",
    "town": "大沖"
  },
  "9696574": {
    "zipcode": "9696574",
    "prefectureCode": "07",
    "prefectureNumber": 7,
    "prefecture": "福島県",
    "city": "河沼郡会津坂下町",
    "town": "樋島"
  },
  "9696575": {
    "zipcode": "9696575",
    "prefectureCode": "07",
    "prefectureNumber": 7,
    "prefecture": "福島県",
    "city": "河沼郡会津坂下町",
    "town": "勝大"
  },
  "9696576": {
    "zipcode": "9696576",
    "prefectureCode": "07",
    "prefectureNumber": 7,
    "prefecture": "福島県",
    "city": "河沼郡会津坂下町",
    "town": "牛川"
  },
  "9696581": {
    "zipcode": "9696581",
    "prefectureCode": "07",
    "prefectureNumber": 7,
    "prefecture": "福島県",
    "city": "河沼郡会津坂下町",
    "town": "片門"
  },
  "9696582": {
    "zipcode": "9696582",
    "prefectureCode": "07",
    "prefectureNumber": 7,
    "prefecture": "福島県",
    "city": "河沼郡会津坂下町",
    "town": "高寺"
  },
  "9696583": {
    "zipcode": "9696583",
    "prefectureCode": "07",
    "prefectureNumber": 7,
    "prefecture": "福島県",
    "city": "河沼郡会津坂下町",
    "town": "気多宮"
  },
  "9696584": {
    "zipcode": "9696584",
    "prefectureCode": "07",
    "prefectureNumber": 7,
    "prefecture": "福島県",
    "city": "河沼郡会津坂下町",
    "town": "塔寺"
  },
  "9696585": {
    "zipcode": "9696585",
    "prefectureCode": "07",
    "prefectureNumber": 7,
    "prefecture": "福島県",
    "city": "河沼郡会津坂下町",
    "town": "船杉"
  },
  "9696586": {
    "zipcode": "9696586",
    "prefectureCode": "07",
    "prefectureNumber": 7,
    "prefecture": "福島県",
    "city": "河沼郡会津坂下町",
    "town": "坂本"
  },
  "9696587": {
    "zipcode": "9696587",
    "prefectureCode": "07",
    "prefectureNumber": 7,
    "prefecture": "福島県",
    "city": "河沼郡会津坂下町",
    "town": "束松"
  },
  "9697200": {
    "zipcode": "9697200",
    "prefectureCode": "07",
    "prefectureNumber": 7,
    "prefecture": "福島県",
    "city": "河沼郡柳津町",
    "town": "以下に掲載がない場合"
  },
  "9697201": {
    "zipcode": "9697201",
    "prefectureCode": "07",
    "prefectureNumber": 7,
    "prefecture": "福島県",
    "city": "河沼郡柳津町",
    "town": "柳津"
  },
  "9697202": {
    "zipcode": "9697202",
    "prefectureCode": "07",
    "prefectureNumber": 7,
    "prefecture": "福島県",
    "city": "河沼郡柳津町",
    "town": "大柳"
  },
  "9697203": {
    "zipcode": "9697203",
    "prefectureCode": "07",
    "prefectureNumber": 7,
    "prefecture": "福島県",
    "city": "河沼郡柳津町",
    "town": "軽井沢"
  },
  "9697204": {
    "zipcode": "9697204",
    "prefectureCode": "07",
    "prefectureNumber": 7,
    "prefecture": "福島県",
    "city": "河沼郡柳津町",
    "town": "猪倉野"
  },
  "9697205": {
    "zipcode": "9697205",
    "prefectureCode": "07",
    "prefectureNumber": 7,
    "prefecture": "福島県",
    "city": "河沼郡柳津町",
    "town": "郷戸"
  },
  "9697206": {
    "zipcode": "9697206",
    "prefectureCode": "07",
    "prefectureNumber": 7,
    "prefecture": "福島県",
    "city": "河沼郡柳津町",
    "town": "飯谷"
  },
  "9697207": {
    "zipcode": "9697207",
    "prefectureCode": "07",
    "prefectureNumber": 7,
    "prefecture": "福島県",
    "city": "河沼郡柳津町",
    "town": "小椿"
  },
  "9697208": {
    "zipcode": "9697208",
    "prefectureCode": "07",
    "prefectureNumber": 7,
    "prefecture": "福島県",
    "city": "河沼郡柳津町",
    "town": "藤"
  },
  "9697209": {
    "zipcode": "9697209",
    "prefectureCode": "07",
    "prefectureNumber": 7,
    "prefecture": "福島県",
    "city": "河沼郡柳津町",
    "town": "細八"
  },
  "9697311": {
    "zipcode": "9697311",
    "prefectureCode": "07",
    "prefectureNumber": 7,
    "prefecture": "福島県",
    "city": "河沼郡柳津町",
    "town": "湯八木沢"
  },
  "9697312": {
    "zipcode": "9697312",
    "prefectureCode": "07",
    "prefectureNumber": 7,
    "prefecture": "福島県",
    "city": "河沼郡柳津町",
    "town": "久保田"
  },
  "9697313": {
    "zipcode": "9697313",
    "prefectureCode": "07",
    "prefectureNumber": 7,
    "prefecture": "福島県",
    "city": "河沼郡柳津町",
    "town": "五畳敷"
  },
  "9697314": {
    "zipcode": "9697314",
    "prefectureCode": "07",
    "prefectureNumber": 7,
    "prefecture": "福島県",
    "city": "河沼郡柳津町",
    "town": "牧沢"
  },
  "9697315": {
    "zipcode": "9697315",
    "prefectureCode": "07",
    "prefectureNumber": 7,
    "prefecture": "福島県",
    "city": "河沼郡柳津町",
    "town": "四つ谷"
  },
  "9697321": {
    "zipcode": "9697321",
    "prefectureCode": "07",
    "prefectureNumber": 7,
    "prefecture": "福島県",
    "city": "河沼郡柳津町",
    "town": "砂子原"
  },
  "9697322": {
    "zipcode": "9697322",
    "prefectureCode": "07",
    "prefectureNumber": 7,
    "prefecture": "福島県",
    "city": "河沼郡柳津町",
    "town": "黒沢"
  },
  "9697323": {
    "zipcode": "9697323",
    "prefectureCode": "07",
    "prefectureNumber": 7,
    "prefecture": "福島県",
    "city": "河沼郡柳津町",
    "town": "芋小屋"
  },
  "9697324": {
    "zipcode": "9697324",
    "prefectureCode": "07",
    "prefectureNumber": 7,
    "prefecture": "福島県",
    "city": "河沼郡柳津町",
    "town": "胄中"
  },
  "9697325": {
    "zipcode": "9697325",
    "prefectureCode": "07",
    "prefectureNumber": 7,
    "prefecture": "福島県",
    "city": "河沼郡柳津町",
    "town": "大成沢"
  },
  "9697326": {
    "zipcode": "9697326",
    "prefectureCode": "07",
    "prefectureNumber": 7,
    "prefecture": "福島県",
    "city": "河沼郡柳津町",
    "town": "琵琶首"
  },
  "9697401": {
    "zipcode": "9697401",
    "prefectureCode": "07",
    "prefectureNumber": 7,
    "prefecture": "福島県",
    "city": "大沼郡三島町",
    "town": "西方"
  },
  "9697402": {
    "zipcode": "9697402",
    "prefectureCode": "07",
    "prefectureNumber": 7,
    "prefecture": "福島県",
    "city": "大沼郡三島町",
    "town": "名入"
  },
  "9697403": {
    "zipcode": "9697403",
    "prefectureCode": "07",
    "prefectureNumber": 7,
    "prefecture": "福島県",
    "city": "大沼郡三島町",
    "town": "小山"
  },
  "9697404": {
    "zipcode": "9697404",
    "prefectureCode": "07",
    "prefectureNumber": 7,
    "prefecture": "福島県",
    "city": "大沼郡三島町",
    "town": "高清水"
  },
  "9697405": {
    "zipcode": "9697405",
    "prefectureCode": "07",
    "prefectureNumber": 7,
    "prefecture": "福島県",
    "city": "大沼郡三島町",
    "town": "滝原"
  },
  "9697406": {
    "zipcode": "9697406",
    "prefectureCode": "07",
    "prefectureNumber": 7,
    "prefecture": "福島県",
    "city": "大沼郡三島町",
    "town": "早戸"
  },
  "9697407": {
    "zipcode": "9697407",
    "prefectureCode": "07",
    "prefectureNumber": 7,
    "prefecture": "福島県",
    "city": "大沼郡三島町",
    "town": "大石田"
  },
  "9697413": {
    "zipcode": "9697413",
    "prefectureCode": "07",
    "prefectureNumber": 7,
    "prefecture": "福島県",
    "city": "大沼郡三島町",
    "town": "桧原（小和瀬）"
  },
  "9697500": {
    "zipcode": "9697500",
    "prefectureCode": "07",
    "prefectureNumber": 7,
    "prefecture": "福島県",
    "city": "大沼郡三島町",
    "town": "以下に掲載がない場合"
  },
  "9697511": {
    "zipcode": "9697511",
    "prefectureCode": "07",
    "prefectureNumber": 7,
    "prefecture": "福島県",
    "city": "大沼郡三島町",
    "town": "宮下"
  },
  "9697512": {
    "zipcode": "9697512",
    "prefectureCode": "07",
    "prefectureNumber": 7,
    "prefecture": "福島県",
    "city": "大沼郡三島町",
    "town": "桑原"
  },
  "9697513": {
    "zipcode": "9697513",
    "prefectureCode": "07",
    "prefectureNumber": 7,
    "prefecture": "福島県",
    "city": "大沼郡三島町",
    "town": "桧原（その他）"
  },
  "9697514": {
    "zipcode": "9697514",
    "prefectureCode": "07",
    "prefectureNumber": 7,
    "prefecture": "福島県",
    "city": "大沼郡三島町",
    "town": "滝谷"
  },
  "9697515": {
    "zipcode": "9697515",
    "prefectureCode": "07",
    "prefectureNumber": 7,
    "prefecture": "福島県",
    "city": "大沼郡三島町",
    "town": "川井"
  },
  "9697516": {
    "zipcode": "9697516",
    "prefectureCode": "07",
    "prefectureNumber": 7,
    "prefecture": "福島県",
    "city": "大沼郡三島町",
    "town": "大登"
  },
  "9697517": {
    "zipcode": "9697517",
    "prefectureCode": "07",
    "prefectureNumber": 7,
    "prefecture": "福島県",
    "city": "大沼郡三島町",
    "town": "大谷"
  },
  "9697518": {
    "zipcode": "9697518",
    "prefectureCode": "07",
    "prefectureNumber": 7,
    "prefecture": "福島県",
    "city": "大沼郡三島町",
    "town": "浅岐"
  },
  "9697519": {
    "zipcode": "9697519",
    "prefectureCode": "07",
    "prefectureNumber": 7,
    "prefecture": "福島県",
    "city": "大沼郡三島町",
    "town": "間方"
  }
}
