{
  "9700000": {
    "zipcode": "9700000",
    "prefectureCode": "07",
    "prefectureNumber": 7,
    "prefecture": "福島県",
    "city": "いわき市",
    "town": "以下に掲載がない場合"
  },
  "9700101": {
    "zipcode": "9700101",
    "prefectureCode": "07",
    "prefectureNumber": 7,
    "prefecture": "福島県",
    "city": "いわき市",
    "town": "平下神谷"
  },
  "9700102": {
    "zipcode": "9700102",
    "prefectureCode": "07",
    "prefectureNumber": 7,
    "prefecture": "福島県",
    "city": "いわき市",
    "town": "平下大越"
  },
  "9700103": {
    "zipcode": "9700103",
    "prefectureCode": "07",
    "prefectureNumber": 7,
    "prefecture": "福島県",
    "city": "いわき市",
    "town": "平藤間"
  },
  "9700104": {
    "zipcode": "9700104",
    "prefectureCode": "07",
    "prefectureNumber": 7,
    "prefecture": "福島県",
    "city": "いわき市",
    "town": "平上大越"
  },
  "9700105": {
    "zipcode": "9700105",
    "prefectureCode": "07",
    "prefectureNumber": 7,
    "prefecture": "福島県",
    "city": "いわき市",
    "town": "平菅波"
  },
  "9700106": {
    "zipcode": "9700106",
    "prefectureCode": "07",
    "prefectureNumber": 7,
    "prefecture": "福島県",
    "city": "いわき市",
    "town": "平山崎"
  },
  "9700107": {
    "zipcode": "9700107",
    "prefectureCode": "07",
    "prefectureNumber": 7,
    "prefecture": "福島県",
    "city": "いわき市",
    "town": "平荒田目"
  },
  "9700111": {
    "zipcode": "9700111",
    "prefectureCode": "07",
    "prefectureNumber": 7,
    "prefecture": "福島県",
    "city": "いわき市",
    "town": "平原高野"
  },
  "9700112": {
    "zipcode": "9700112",
    "prefectureCode": "07",
    "prefectureNumber": 7,
    "prefecture": "福島県",
    "city": "いわき市",
    "town": "平泉崎"
  },
  "9700113": {
    "zipcode": "9700113",
    "prefectureCode": "07",
    "prefectureNumber": 7,
    "prefecture": "福島県",
    "city": "いわき市",
    "town": "平絹谷"
  },
  "9700114": {
    "zipcode": "9700114",
    "prefectureCode": "07",
    "prefectureNumber": 7,
    "prefecture": "福島県",
    "city": "いわき市",
    "town": "平水品"
  },
  "9700115": {
    "zipcode": "9700115",
    "prefectureCode": "07",
    "prefectureNumber": 7,
    "prefecture": "福島県",
    "city": "いわき市",
    "town": "平北神谷"
  },
  "9700116": {
    "zipcode": "9700116",
    "prefectureCode": "07",
    "prefectureNumber": 7,
    "prefecture": "福島県",
    "city": "いわき市",
    "town": "平馬目"
  },
  "9700221": {
    "zipcode": "9700221",
    "prefectureCode": "07",
    "prefectureNumber": 7,
    "prefecture": "福島県",
    "city": "いわき市",
    "town": "平下高久"
  },
  "9700222": {
    "zipcode": "9700222",
    "prefectureCode": "07",
    "prefectureNumber": 7,
    "prefecture": "福島県",
    "city": "いわき市",
    "town": "平沼ノ内諏訪原"
  },
  "9700223": {
    "zipcode": "9700223",
    "prefectureCode": "07",
    "prefectureNumber": 7,
    "prefecture": "福島県",
    "city": "いわき市",
    "town": "平薄磯"
  },
  "9700224": {
    "zipcode": "9700224",
    "prefectureCode": "07",
    "prefectureNumber": 7,
    "prefecture": "福島県",
    "city": "いわき市",
    "town": "平豊間"
  },
  "9700225": {
    "zipcode": "9700225",
    "prefectureCode": "07",
    "prefectureNumber": 7,
    "prefecture": "福島県",
    "city": "いわき市",
    "town": "平上山口"
  },
  "9700226": {
    "zipcode": "9700226",
    "prefectureCode": "07",
    "prefectureNumber": 7,
    "prefecture": "福島県",
    "city": "いわき市",
    "town": "平下山口"
  },
  "9700227": {
    "zipcode": "9700227",
    "prefectureCode": "07",
    "prefectureNumber": 7,
    "prefecture": "福島県",
    "city": "いわき市",
    "town": "平鶴ケ井"
  },
  "9700228": {
    "zipcode": "9700228",
    "prefectureCode": "07",
    "prefectureNumber": 7,
    "prefecture": "福島県",
    "city": "いわき市",
    "town": "平神谷作"
  },
  "9700229": {
    "zipcode": "9700229",
    "prefectureCode": "07",
    "prefectureNumber": 7,
    "prefecture": "福島県",
    "city": "いわき市",
    "town": "薄磯"
  },
  "9700311": {
    "zipcode": "9700311",
    "prefectureCode": "07",
    "prefectureNumber": 7,
    "prefecture": "福島県",
    "city": "いわき市",
    "town": "江名"
  },
  "9700312": {
    "zipcode": "9700312",
    "prefectureCode": "07",
    "prefectureNumber": 7,
    "prefecture": "福島県",
    "city": "いわき市",
    "town": "折戸"
  },
  "9700313": {
    "zipcode": "9700313",
    "prefectureCode": "07",
    "prefectureNumber": 7,
    "prefecture": "福島県",
    "city": "いわき市",
    "town": "中之作"
  },
  "9700314": {
    "zipcode": "9700314",
    "prefectureCode": "07",
    "prefectureNumber": 7,
    "prefecture": "福島県",
    "city": "いわき市",
    "town": "洋向台"
  },
  "9700315": {
    "zipcode": "9700315",
    "prefectureCode": "07",
    "prefectureNumber": 7,
    "prefecture": "福島県",
    "city": "いわき市",
    "town": "永崎"
  },
  "9700316": {
    "zipcode": "9700316",
    "prefectureCode": "07",
    "prefectureNumber": 7,
    "prefecture": "福島県",
    "city": "いわき市",
    "town": "小名浜下神白"
  },
  "9700317": {
    "zipcode": "9700317",
    "prefectureCode": "07",
    "prefectureNumber": 7,
    "prefecture": "福島県",
    "city": "いわき市",
    "town": "小名浜上神白"
  },
  "9701141": {
    "zipcode": "9701141",
    "prefectureCode": "07",
    "prefectureNumber": 7,
    "prefecture": "福島県",
    "city": "いわき市",
    "town": "好間町愛谷"
  },
  "9701142": {
    "zipcode": "9701142",
    "prefectureCode": "07",
    "prefectureNumber": 7,
    "prefecture": "福島県",
    "city": "いわき市",
    "town": "好間町今新田"
  },
  "9701143": {
    "zipcode": "9701143",
    "prefectureCode": "07",
    "prefectureNumber": 7,
    "prefecture": "福島県",
    "city": "いわき市",
    "town": "好間町小谷作"
  },
  "9701144": {
    "zipcode": "9701144",
    "prefectureCode": "07",
    "prefectureNumber": 7,
    "prefecture": "福島県",
    "city": "いわき市",
    "town": "好間工業団地"
  },
  "9701145": {
    "zipcode": "9701145",
    "prefectureCode": "07",
    "prefectureNumber": 7,
    "prefecture": "福島県",
    "city": "いわき市",
    "town": "好間町北好間"
  },
  "9701146": {
    "zipcode": "9701146",
    "prefectureCode": "07",
    "prefectureNumber": 7,
    "prefecture": "福島県",
    "city": "いわき市",
    "town": "好間町榊小屋"
  },
  "9701147": {
    "zipcode": "9701147",
    "prefectureCode": "07",
    "prefectureNumber": 7,
    "prefecture": "福島県",
    "city": "いわき市",
    "town": "好間町大利"
  },
  "9701151": {
    "zipcode": "9701151",
    "prefectureCode": "07",
    "prefectureNumber": 7,
    "prefecture": "福島県",
    "city": "いわき市",
    "town": "好間町下好間"
  },
  "9701152": {
    "zipcode": "9701152",
    "prefectureCode": "07",
    "prefectureNumber": 7,
    "prefecture": "福島県",
    "city": "いわき市",
    "town": "好間町中好間"
  },
  "9701153": {
    "zipcode": "9701153",
    "prefectureCode": "07",
    "prefectureNumber": 7,
    "prefecture": "福島県",
    "city": "いわき市",
    "town": "好間町上好間"
  },
  "9701261": {
    "zipcode": "9701261",
    "prefectureCode": "07",
    "prefectureNumber": 7,
    "prefecture": "福島県",
    "city": "いわき市",
    "town": "三和町渡戸（その他）"
  },
  "9701262": {
    "zipcode": "9701262",
    "prefectureCode": "07",
    "prefectureNumber": 7,
    "prefecture": "福島県",
    "city": "いわき市",
    "town": "三和町上永井"
  },
  "9701263": {
    "zipcode": "9701263",
    "prefectureCode": "07",
    "prefectureNumber": 7,
    "prefecture": "福島県",
    "city": "いわき市",
    "town": "三和町下永井"
  },
  "9701264": {
    "zipcode": "9701264",
    "prefectureCode": "07",
    "prefectureNumber": 7,
    "prefecture": "福島県",
    "city": "いわき市",
    "town": "三和町合戸"
  },
  "9701361": {
    "zipcode": "9701361",
    "prefectureCode": "07",
    "prefectureNumber": 7,
    "prefecture": "福島県",
    "city": "いわき市",
    "town": "三和町渡戸（川前）"
  },
  "9701371": {
    "zipcode": "9701371",
    "prefectureCode": "07",
    "prefectureNumber": 7,
    "prefecture": "福島県",
    "city": "いわき市",
    "town": "三和町中寺"
  },
  "9701372": {
    "zipcode": "9701372",
    "prefectureCode": "07",
    "prefectureNumber": 7,
    "prefecture": "福島県",
    "city": "いわき市",
    "town": "三和町下市萱"
  },
  "9701373": {
    "zipcode": "9701373",
    "prefectureCode": "07",
    "prefectureNumber": 7,
    "prefecture": "福島県",
    "city": "いわき市",
    "town": "三和町上市萱"
  },
  "9701374": {
    "zipcode": "9701374",
    "prefectureCode": "07",
    "prefectureNumber": 7,
    "prefecture": "福島県",
    "city": "いわき市",
    "town": "三和町上三坂"
  },
  "9701375": {
    "zipcode": "9701375",
    "prefectureCode": "07",
    "prefectureNumber": 7,
    "prefecture": "福島県",
    "city": "いわき市",
    "town": "三和町中三坂"
  },
  "9701376": {
    "zipcode": "9701376",
    "prefectureCode": "07",
    "prefectureNumber": 7,
    "prefecture": "福島県",
    "city": "いわき市",
    "town": "三和町下三坂"
  },
  "9701377": {
    "zipcode": "9701377",
    "prefectureCode": "07",
    "prefectureNumber": 7,
    "prefecture": "福島県",
    "city": "いわき市",
    "town": "三和町差塩"
  },
  "9708001": {
    "zipcode": "9708001",
    "prefectureCode": "07",
    "prefectureNumber": 7,
    "prefecture": "福島県",
    "city": "いわき市",
    "town": "平上平窪"
  },
  "9708002": {
    "zipcode": "9708002",
    "prefectureCode": "07",
    "prefectureNumber": 7,
    "prefecture": "福島県",
    "city": "いわき市",
    "town": "平中平窪"
  },
  "9708003": {
    "zipcode": "9708003",
    "prefectureCode": "07",
    "prefectureNumber": 7,
    "prefecture": "福島県",
    "city": "いわき市",
    "town": "平下平窪"
  },
  "9708004": {
    "zipcode": "9708004",
    "prefectureCode": "07",
    "prefectureNumber": 7,
    "prefecture": "福島県",
    "city": "いわき市",
    "town": "平下平窪中島町"
  },
  "9708005": {
    "zipcode": "9708005",
    "prefectureCode": "07",
    "prefectureNumber": 7,
    "prefecture": "福島県",
    "city": "いわき市",
    "town": "平下平窪古川町"
  },
  "9708006": {
    "zipcode": "9708006",
    "prefectureCode": "07",
    "prefectureNumber": 7,
    "prefecture": "福島県",
    "city": "いわき市",
    "town": "平下平窪山土内町"
  },
  "9708007": {
    "zipcode": "9708007",
    "prefectureCode": "07",
    "prefectureNumber": 7,
    "prefecture": "福島県",
    "city": "いわき市",
    "town": "平中平窪新町"
  },
  "9708008": {
    "zipcode": "9708008",
    "prefectureCode": "07",
    "prefectureNumber": 7,
    "prefecture": "福島県",
    "city": "いわき市",
    "town": "平中平窪細田町"
  },
  "9708011": {
    "zipcode": "9708011",
    "prefectureCode": "07",
    "prefectureNumber": 7,
    "prefecture": "福島県",
    "city": "いわき市",
    "town": "平上片寄"
  },
  "9708012": {
    "zipcode": "9708012",
    "prefectureCode": "07",
    "prefectureNumber": 7,
    "prefecture": "福島県",
    "city": "いわき市",
    "town": "平下片寄"
  },
  "9708013": {
    "zipcode": "9708013",
    "prefectureCode": "07",
    "prefectureNumber": 7,
    "prefecture": "福島県",
    "city": "いわき市",
    "town": "平大室"
  },
  "9708014": {
    "zipcode": "9708014",
    "prefectureCode": "07",
    "prefectureNumber": 7,
    "prefecture": "福島県",
    "city": "いわき市",
    "town": "平幕ノ内"
  },
  "9708015": {
    "zipcode": "9708015",
    "prefectureCode": "07",
    "prefectureNumber": 7,
    "prefecture": "福島県",
    "city": "いわき市",
    "town": "好間町川中子"
  },
  "9708016": {
    "zipcode": "9708016",
    "prefectureCode": "07",
    "prefectureNumber": 7,
    "prefecture": "福島県",
    "city": "いわき市",
    "town": "平中塩"
  },
  "9708017": {
    "zipcode": "9708017",
    "prefectureCode": "07",
    "prefectureNumber": 7,
    "prefecture": "福島県",
    "city": "いわき市",
    "town": "石森"
  },
  "9708018": {
    "zipcode": "9708018",
    "prefectureCode": "07",
    "prefectureNumber": 7,
    "prefecture": "福島県",
    "city": "いわき市",
    "town": "平四ツ波"
  },
  "9708021": {
    "zipcode": "9708021",
    "prefectureCode": "07",
    "prefectureNumber": 7,
    "prefecture": "福島県",
    "city": "いわき市",
    "town": "平中神谷"
  },
  "9708022": {
    "zipcode": "9708022",
    "prefectureCode": "07",
    "prefectureNumber": 7,
    "prefecture": "福島県",
    "city": "いわき市",
    "town": "平塩"
  },
  "9708023": {
    "zipcode": "9708023",
    "prefectureCode": "07",
    "prefectureNumber": 7,
    "prefecture": "福島県",
    "city": "いわき市",
    "town": "平鎌田"
  },
  "9708024": {
    "zipcode": "9708024",
    "prefectureCode": "07",
    "prefectureNumber": 7,
    "prefecture": "福島県",
    "city": "いわき市",
    "town": "平北白土"
  },
  "9708025": {
    "zipcode": "9708025",
    "prefectureCode": "07",
    "prefectureNumber": 7,
    "prefecture": "福島県",
    "city": "いわき市",
    "town": "平南白土"
  },
  "9708026": {
    "zipcode": "9708026",
    "prefectureCode": "07",
    "prefectureNumber": 7,
    "prefecture": "福島県",
    "city": "いわき市",
    "town": "平"
  },
  "9708027": {
    "zipcode": "9708027",
    "prefectureCode": "07",
    "prefectureNumber": 7,
    "prefecture": "福島県",
    "city": "いわき市",
    "town": "平鯨岡"
  },
  "9708028": {
    "zipcode": "9708028",
    "prefectureCode": "07",
    "prefectureNumber": 7,
    "prefecture": "福島県",
    "city": "いわき市",
    "town": "平上神谷"
  },
  "9708031": {
    "zipcode": "9708031",
    "prefectureCode": "07",
    "prefectureNumber": 7,
    "prefecture": "福島県",
    "city": "いわき市",
    "town": "平中山"
  },
  "9708032": {
    "zipcode": "9708032",
    "prefectureCode": "07",
    "prefectureNumber": 7,
    "prefecture": "福島県",
    "city": "いわき市",
    "town": "平下荒川"
  },
  "9708033": {
    "zipcode": "9708033",
    "prefectureCode": "07",
    "prefectureNumber": 7,
    "prefecture": "福島県",
    "city": "いわき市",
    "town": "自由ケ丘"
  },
  "9708034": {
    "zipcode": "9708034",
    "prefectureCode": "07",
    "prefectureNumber": 7,
    "prefecture": "福島県",
    "city": "いわき市",
    "town": "平上荒川"
  },
  "9708035": {
    "zipcode": "9708035",
    "prefectureCode": "07",
    "prefectureNumber": 7,
    "prefecture": "福島県",
    "city": "いわき市",
    "town": "明治団地"
  },
  "9708036": {
    "zipcode": "9708036",
    "prefectureCode": "07",
    "prefectureNumber": 7,
    "prefecture": "福島県",
    "city": "いわき市",
    "town": "平谷川瀬"
  },
  "9708041": {
    "zipcode": "9708041",
    "prefectureCode": "07",
    "prefectureNumber": 7,
    "prefecture": "福島県",
    "city": "いわき市",
    "town": "平小泉"
  },
  "9708042": {
    "zipcode": "9708042",
    "prefectureCode": "07",
    "prefectureNumber": 7,
    "prefecture": "福島県",
    "city": "いわき市",
    "town": "平上高久"
  },
  "9708043": {
    "zipcode": "9708043",
    "prefectureCode": "07",
    "prefectureNumber": 7,
    "prefecture": "福島県",
    "city": "いわき市",
    "town": "中央台鹿島"
  },
  "9708044": {
    "zipcode": "9708044",
    "prefectureCode": "07",
    "prefectureNumber": 7,
    "prefecture": "福島県",
    "city": "いわき市",
    "town": "中央台飯野"
  },
  "9708045": {
    "zipcode": "9708045",
    "prefectureCode": "07",
    "prefectureNumber": 7,
    "prefecture": "福島県",
    "city": "いわき市",
    "town": "郷ケ丘"
  },
  "9708046": {
    "zipcode": "9708046",
    "prefectureCode": "07",
    "prefectureNumber": 7,
    "prefecture": "福島県",
    "city": "いわき市",
    "town": "平吉野谷"
  },
  "9708047": {
    "zipcode": "9708047",
    "prefectureCode": "07",
    "prefectureNumber": 7,
    "prefecture": "福島県",
    "city": "いわき市",
    "town": "中央台高久"
  },
  "9708051": {
    "zipcode": "9708051",
    "prefectureCode": "07",
    "prefectureNumber": 7,
    "prefecture": "福島県",
    "city": "いわき市",
    "town": "平六町目"
  },
  "9708052": {
    "zipcode": "9708052",
    "prefectureCode": "07",
    "prefectureNumber": 7,
    "prefecture": "福島県",
    "city": "いわき市",
    "town": "平祢宜町"
  },
  "9708053": {
    "zipcode": "9708053",
    "prefectureCode": "07",
    "prefectureNumber": 7,
    "prefecture": "福島県",
    "city": "いわき市",
    "town": "平正月町"
  },
  "9708054": {
    "zipcode": "9708054",
    "prefectureCode": "07",
    "prefectureNumber": 7,
    "prefecture": "福島県",
    "city": "いわき市",
    "town": "平鎌田町"
  }
}
