{
  "9718101": {
    "zipcode": "9718101",
    "prefectureCode": "07",
    "prefectureNumber": 7,
    "prefecture": "福島県",
    "city": "いわき市",
    "town": "小名浜"
  },
  "9718102": {
    "zipcode": "9718102",
    "prefectureCode": "07",
    "prefectureNumber": 7,
    "prefecture": "福島県",
    "city": "いわき市",
    "town": "小名浜港ケ丘"
  },
  "9718111": {
    "zipcode": "9718111",
    "prefectureCode": "07",
    "prefectureNumber": 7,
    "prefecture": "福島県",
    "city": "いわき市",
    "town": "小名浜大原"
  },
  "9718112": {
    "zipcode": "9718112",
    "prefectureCode": "07",
    "prefectureNumber": 7,
    "prefecture": "福島県",
    "city": "いわき市",
    "town": "小名浜南富岡"
  },
  "9718121": {
    "zipcode": "9718121",
    "prefectureCode": "07",
    "prefectureNumber": 7,
    "prefecture": "福島県",
    "city": "いわき市",
    "town": "小名浜岩出"
  },
  "9718122": {
    "zipcode": "9718122",
    "prefectureCode": "07",
    "prefectureNumber": 7,
    "prefecture": "福島県",
    "city": "いわき市",
    "town": "小名浜林城"
  },
  "9718123": {
    "zipcode": "9718123",
    "prefectureCode": "07",
    "prefectureNumber": 7,
    "prefecture": "福島県",
    "city": "いわき市",
    "town": "小名浜相子島"
  },
  "9718124": {
    "zipcode": "9718124",
    "prefectureCode": "07",
    "prefectureNumber": 7,
    "prefecture": "福島県",
    "city": "いわき市",
    "town": "小名浜住吉"
  },
  "9718125": {
    "zipcode": "9718125",
    "prefectureCode": "07",
    "prefectureNumber": 7,
    "prefecture": "福島県",
    "city": "いわき市",
    "town": "小名浜島"
  },
  "9718126": {
    "zipcode": "9718126",
    "prefectureCode": "07",
    "prefectureNumber": 7,
    "prefecture": "福島県",
    "city": "いわき市",
    "town": "小名浜野田"
  },
  "9718127": {
    "zipcode": "9718127",
    "prefectureCode": "07",
    "prefectureNumber": 7,
    "prefecture": "福島県",
    "city": "いわき市",
    "town": "小名浜玉川町"
  },
  "9718131": {
    "zipcode": "9718131",
    "prefectureCode": "07",
    "prefectureNumber": 7,
    "prefecture": "福島県",
    "city": "いわき市",
    "town": "常磐上矢田町"
  },
  "9718132": {
    "zipcode": "9718132",
    "prefectureCode": "07",
    "prefectureNumber": 7,
    "prefecture": "福島県",
    "city": "いわき市",
    "town": "鹿島町下矢田"
  },
  "9718133": {
    "zipcode": "9718133",
    "prefectureCode": "07",
    "prefectureNumber": 7,
    "prefecture": "福島県",
    "city": "いわき市",
    "town": "鹿島町米田"
  },
  "9718134": {
    "zipcode": "9718134",
    "prefectureCode": "07",
    "prefectureNumber": 7,
    "prefecture": "福島県",
    "city": "いわき市",
    "town": "鹿島町飯田"
  },
  "9718135": {
    "zipcode": "9718135",
    "prefectureCode": "07",
    "prefectureNumber": 7,
    "prefecture": "福島県",
    "city": "いわき市",
    "town": "小名浜金成"
  },
  "9718136": {
    "zipcode": "9718136",
    "prefectureCode": "07",
    "prefectureNumber": 7,
    "prefecture": "福島県",
    "city": "いわき市",
    "town": "常磐三沢町"
  },
  "9718137": {
    "zipcode": "9718137",
    "prefectureCode": "07",
    "prefectureNumber": 7,
    "prefecture": "福島県",
    "city": "いわき市",
    "town": "常磐松久須根町"
  },
  "9718138": {
    "zipcode": "9718138",
    "prefectureCode": "07",
    "prefectureNumber": 7,
    "prefecture": "福島県",
    "city": "いわき市",
    "town": "若葉台"
  },
  "9718139": {
    "zipcode": "9718139",
    "prefectureCode": "07",
    "prefectureNumber": 7,
    "prefecture": "福島県",
    "city": "いわき市",
    "town": "鹿島町鹿島"
  },
  "9718141": {
    "zipcode": "9718141",
    "prefectureCode": "07",
    "prefectureNumber": 7,
    "prefecture": "福島県",
    "city": "いわき市",
    "town": "鹿島町走熊"
  },
  "9718142": {
    "zipcode": "9718142",
    "prefectureCode": "07",
    "prefectureNumber": 7,
    "prefecture": "福島県",
    "city": "いわき市",
    "town": "鹿島町上蔵持"
  },
  "9718143": {
    "zipcode": "9718143",
    "prefectureCode": "07",
    "prefectureNumber": 7,
    "prefecture": "福島県",
    "city": "いわき市",
    "town": "鹿島町下蔵持"
  },
  "9718144": {
    "zipcode": "9718144",
    "prefectureCode": "07",
    "prefectureNumber": 7,
    "prefecture": "福島県",
    "city": "いわき市",
    "town": "鹿島町久保"
  },
  "9718145": {
    "zipcode": "9718145",
    "prefectureCode": "07",
    "prefectureNumber": 7,
    "prefecture": "福島県",
    "city": "いわき市",
    "town": "鹿島町船戸"
  },
  "9718146": {
    "zipcode": "9718146",
    "prefectureCode": "07",
    "prefectureNumber": 7,
    "prefecture": "福島県",
    "city": "いわき市",
    "town": "鹿島町御代"
  },
  "9718151": {
    "zipcode": "9718151",
    "prefectureCode": "07",
    "prefectureNumber": 7,
    "prefecture": "福島県",
    "city": "いわき市",
    "town": "小名浜岡小名"
  },
  "9718152": {
    "zipcode": "9718152",
    "prefectureCode": "07",
    "prefectureNumber": 7,
    "prefecture": "福島県",
    "city": "いわき市",
    "town": "湘南台"
  },
  "9718161": {
    "zipcode": "9718161",
    "prefectureCode": "07",
    "prefectureNumber": 7,
    "prefecture": "福島県",
    "city": "いわき市",
    "town": "小名浜諏訪町"
  },
  "9718162": {
    "zipcode": "9718162",
    "prefectureCode": "07",
    "prefectureNumber": 7,
    "prefecture": "福島県",
    "city": "いわき市",
    "town": "小名浜花畑町"
  },
  "9718163": {
    "zipcode": "9718163",
    "prefectureCode": "07",
    "prefectureNumber": 7,
    "prefecture": "福島県",
    "city": "いわき市",
    "town": "小名浜中町境"
  },
  "9718164": {
    "zipcode": "9718164",
    "prefectureCode": "07",
    "prefectureNumber": 7,
    "prefecture": "福島県",
    "city": "いわき市",
    "town": "小名浜西町"
  },
  "9718165": {
    "zipcode": "9718165",
    "prefectureCode": "07",
    "prefectureNumber": 7,
    "prefecture": "福島県",
    "city": "いわき市",
    "town": "小名浜愛宕町"
  },
  "9718166": {
    "zipcode": "9718166",
    "prefectureCode": "07",
    "prefectureNumber": 7,
    "prefecture": "福島県",
    "city": "いわき市",
    "town": "小名浜愛宕上"
  },
  "9718167": {
    "zipcode": "9718167",
    "prefectureCode": "07",
    "prefectureNumber": 7,
    "prefecture": "福島県",
    "city": "いわき市",
    "town": "小名浜西君ケ塚町"
  },
  "9718168": {
    "zipcode": "9718168",
    "prefectureCode": "07",
    "prefectureNumber": 7,
    "prefecture": "福島県",
    "city": "いわき市",
    "town": "小名浜君ケ塚町"
  },
  "9718169": {
    "zipcode": "9718169",
    "prefectureCode": "07",
    "prefectureNumber": 7,
    "prefecture": "福島県",
    "city": "いわき市",
    "town": "小名浜南君ケ塚町"
  },
  "9718171": {
    "zipcode": "9718171",
    "prefectureCode": "07",
    "prefectureNumber": 7,
    "prefecture": "福島県",
    "city": "いわき市",
    "town": "泉ケ丘"
  },
  "9718172": {
    "zipcode": "9718172",
    "prefectureCode": "07",
    "prefectureNumber": 7,
    "prefecture": "福島県",
    "city": "いわき市",
    "town": "泉玉露"
  },
  "9718181": {
    "zipcode": "9718181",
    "prefectureCode": "07",
    "prefectureNumber": 7,
    "prefecture": "福島県",
    "city": "いわき市",
    "town": "泉町本谷"
  },
  "9718182": {
    "zipcode": "9718182",
    "prefectureCode": "07",
    "prefectureNumber": 7,
    "prefecture": "福島県",
    "city": "いわき市",
    "town": "泉町滝尻"
  },
  "9718183": {
    "zipcode": "9718183",
    "prefectureCode": "07",
    "prefectureNumber": 7,
    "prefecture": "福島県",
    "city": "いわき市",
    "town": "泉町下川"
  },
  "9718184": {
    "zipcode": "9718184",
    "prefectureCode": "07",
    "prefectureNumber": 7,
    "prefecture": "福島県",
    "city": "いわき市",
    "town": "泉町黒須野"
  },
  "9718185": {
    "zipcode": "9718185",
    "prefectureCode": "07",
    "prefectureNumber": 7,
    "prefecture": "福島県",
    "city": "いわき市",
    "town": "泉町"
  },
  "9718186": {
    "zipcode": "9718186",
    "prefectureCode": "07",
    "prefectureNumber": 7,
    "prefecture": "福島県",
    "city": "いわき市",
    "town": "泉町玉露"
  },
  "9718187": {
    "zipcode": "9718187",
    "prefectureCode": "07",
    "prefectureNumber": 7,
    "prefecture": "福島県",
    "city": "いわき市",
    "town": "葉山"
  },
  "9718188": {
    "zipcode": "9718188",
    "prefectureCode": "07",
    "prefectureNumber": 7,
    "prefecture": "福島県",
    "city": "いわき市",
    "town": "泉もえぎ台"
  },
  "9718189": {
    "zipcode": "9718189",
    "prefectureCode": "07",
    "prefectureNumber": 7,
    "prefecture": "福島県",
    "city": "いわき市",
    "town": "泉滝尻"
  }
}
