{
  "9720161": {
    "zipcode": "9720161",
    "prefectureCode": "07",
    "prefectureNumber": 7,
    "prefecture": "福島県",
    "city": "いわき市",
    "town": "遠野町上遠野"
  },
  "9720162": {
    "zipcode": "9720162",
    "prefectureCode": "07",
    "prefectureNumber": 7,
    "prefecture": "福島県",
    "city": "いわき市",
    "town": "遠野町滝"
  },
  "9720163": {
    "zipcode": "9720163",
    "prefectureCode": "07",
    "prefectureNumber": 7,
    "prefecture": "福島県",
    "city": "いわき市",
    "town": "遠野町根岸"
  },
  "9720164": {
    "zipcode": "9720164",
    "prefectureCode": "07",
    "prefectureNumber": 7,
    "prefecture": "福島県",
    "city": "いわき市",
    "town": "遠野町深山田"
  },
  "9720251": {
    "zipcode": "9720251",
    "prefectureCode": "07",
    "prefectureNumber": 7,
    "prefecture": "福島県",
    "city": "いわき市",
    "town": "遠野町入遠野"
  },
  "9720252": {
    "zipcode": "9720252",
    "prefectureCode": "07",
    "prefectureNumber": 7,
    "prefecture": "福島県",
    "city": "いわき市",
    "town": "遠野町上根本"
  },
  "9720253": {
    "zipcode": "9720253",
    "prefectureCode": "07",
    "prefectureNumber": 7,
    "prefecture": "福島県",
    "city": "いわき市",
    "town": "遠野町大平"
  },
  "9728301": {
    "zipcode": "9728301",
    "prefectureCode": "07",
    "prefectureNumber": 7,
    "prefecture": "福島県",
    "city": "いわき市",
    "town": "草木台"
  },
  "9728311": {
    "zipcode": "9728311",
    "prefectureCode": "07",
    "prefectureNumber": 7,
    "prefecture": "福島県",
    "city": "いわき市",
    "town": "常磐水野谷町"
  },
  "9728312": {
    "zipcode": "9728312",
    "prefectureCode": "07",
    "prefectureNumber": 7,
    "prefecture": "福島県",
    "city": "いわき市",
    "town": "常磐下船尾町"
  },
  "9728313": {
    "zipcode": "9728313",
    "prefectureCode": "07",
    "prefectureNumber": 7,
    "prefecture": "福島県",
    "city": "いわき市",
    "town": "常磐岩ケ岡町"
  },
  "9728314": {
    "zipcode": "9728314",
    "prefectureCode": "07",
    "prefectureNumber": 7,
    "prefecture": "福島県",
    "city": "いわき市",
    "town": "常磐馬玉町"
  },
  "9728315": {
    "zipcode": "9728315",
    "prefectureCode": "07",
    "prefectureNumber": 7,
    "prefecture": "福島県",
    "city": "いわき市",
    "town": "常磐長孫町"
  },
  "9728316": {
    "zipcode": "9728316",
    "prefectureCode": "07",
    "prefectureNumber": 7,
    "prefecture": "福島県",
    "city": "いわき市",
    "town": "常磐西郷町"
  },
  "9728317": {
    "zipcode": "9728317",
    "prefectureCode": "07",
    "prefectureNumber": 7,
    "prefecture": "福島県",
    "city": "いわき市",
    "town": "常磐下湯長谷町"
  },
  "9728318": {
    "zipcode": "9728318",
    "prefectureCode": "07",
    "prefectureNumber": 7,
    "prefecture": "福島県",
    "city": "いわき市",
    "town": "常磐関船町"
  },
  "9728321": {
    "zipcode": "9728321",
    "prefectureCode": "07",
    "prefectureNumber": 7,
    "prefecture": "福島県",
    "city": "いわき市",
    "town": "常磐湯本町"
  },
  "9728322": {
    "zipcode": "9728322",
    "prefectureCode": "07",
    "prefectureNumber": 7,
    "prefecture": "福島県",
    "city": "いわき市",
    "town": "常磐上湯長谷町"
  },
  "9728323": {
    "zipcode": "9728323",
    "prefectureCode": "07",
    "prefectureNumber": 7,
    "prefecture": "福島県",
    "city": "いわき市",
    "town": "常磐松が台"
  },
  "9728324": {
    "zipcode": "9728324",
    "prefectureCode": "07",
    "prefectureNumber": 7,
    "prefecture": "福島県",
    "city": "いわき市",
    "town": "桜ケ丘"
  },
  "9728325": {
    "zipcode": "9728325",
    "prefectureCode": "07",
    "prefectureNumber": 7,
    "prefecture": "福島県",
    "city": "いわき市",
    "town": "常磐白鳥町"
  },
  "9728326": {
    "zipcode": "9728326",
    "prefectureCode": "07",
    "prefectureNumber": 7,
    "prefecture": "福島県",
    "city": "いわき市",
    "town": "常磐藤原町"
  },
  "9728331": {
    "zipcode": "9728331",
    "prefectureCode": "07",
    "prefectureNumber": 7,
    "prefecture": "福島県",
    "city": "いわき市",
    "town": "渡辺町泉田"
  },
  "9728332": {
    "zipcode": "9728332",
    "prefectureCode": "07",
    "prefectureNumber": 7,
    "prefecture": "福島県",
    "city": "いわき市",
    "town": "渡辺町昼野"
  },
  "9728333": {
    "zipcode": "9728333",
    "prefectureCode": "07",
    "prefectureNumber": 7,
    "prefecture": "福島県",
    "city": "いわき市",
    "town": "渡辺町洞"
  },
  "9728334": {
    "zipcode": "9728334",
    "prefectureCode": "07",
    "prefectureNumber": 7,
    "prefecture": "福島県",
    "city": "いわき市",
    "town": "渡辺町田部"
  },
  "9728335": {
    "zipcode": "9728335",
    "prefectureCode": "07",
    "prefectureNumber": 7,
    "prefecture": "福島県",
    "city": "いわき市",
    "town": "渡辺町松小屋"
  },
  "9728336": {
    "zipcode": "9728336",
    "prefectureCode": "07",
    "prefectureNumber": 7,
    "prefecture": "福島県",
    "city": "いわき市",
    "town": "渡辺町上釜戸"
  },
  "9728337": {
    "zipcode": "9728337",
    "prefectureCode": "07",
    "prefectureNumber": 7,
    "prefecture": "福島県",
    "city": "いわき市",
    "town": "渡辺町中釜戸"
  },
  "9728338": {
    "zipcode": "9728338",
    "prefectureCode": "07",
    "prefectureNumber": 7,
    "prefecture": "福島県",
    "city": "いわき市",
    "town": "中部工業団地"
  }
}
