{
  "9738401": {
    "zipcode": "9738401",
    "prefectureCode": "07",
    "prefectureNumber": 7,
    "prefecture": "福島県",
    "city": "いわき市",
    "town": "内郷小島町"
  },
  "9738402": {
    "zipcode": "9738402",
    "prefectureCode": "07",
    "prefectureNumber": 7,
    "prefecture": "福島県",
    "city": "いわき市",
    "town": "内郷御厩町"
  },
  "9738403": {
    "zipcode": "9738403",
    "prefectureCode": "07",
    "prefectureNumber": 7,
    "prefecture": "福島県",
    "city": "いわき市",
    "town": "内郷綴町"
  },
  "9738404": {
    "zipcode": "9738404",
    "prefectureCode": "07",
    "prefectureNumber": 7,
    "prefecture": "福島県",
    "city": "いわき市",
    "town": "内郷内町"
  },
  "9738405": {
    "zipcode": "9738405",
    "prefectureCode": "07",
    "prefectureNumber": 7,
    "prefecture": "福島県",
    "city": "いわき市",
    "town": "内郷白水町"
  },
  "9738406": {
    "zipcode": "9738406",
    "prefectureCode": "07",
    "prefectureNumber": 7,
    "prefecture": "福島県",
    "city": "いわき市",
    "town": "内郷高野町"
  },
  "9738407": {
    "zipcode": "9738407",
    "prefectureCode": "07",
    "prefectureNumber": 7,
    "prefecture": "福島県",
    "city": "いわき市",
    "town": "内郷宮町"
  },
  "9738408": {
    "zipcode": "9738408",
    "prefectureCode": "07",
    "prefectureNumber": 7,
    "prefecture": "福島県",
    "city": "いわき市",
    "town": "内郷高坂町"
  },
  "9738409": {
    "zipcode": "9738409",
    "prefectureCode": "07",
    "prefectureNumber": 7,
    "prefecture": "福島県",
    "city": "いわき市",
    "town": "内郷御台境町"
  },
  "9738411": {
    "zipcode": "9738411",
    "prefectureCode": "07",
    "prefectureNumber": 7,
    "prefecture": "福島県",
    "city": "いわき市",
    "town": "小島町"
  },
  "9738412": {
    "zipcode": "9738412",
    "prefectureCode": "07",
    "prefectureNumber": 7,
    "prefecture": "福島県",
    "city": "いわき市",
    "town": "平成"
  }
}
