{
  "9750000": {
    "zipcode": "9750000",
    "prefectureCode": "07",
    "prefectureNumber": 7,
    "prefecture": "福島県",
    "city": "南相馬市",
    "town": "以下に掲載がない場合"
  },
  "9750001": {
    "zipcode": "9750001",
    "prefectureCode": "07",
    "prefectureNumber": 7,
    "prefecture": "福島県",
    "city": "南相馬市",
    "town": "原町区大町"
  },
  "9750002": {
    "zipcode": "9750002",
    "prefectureCode": "07",
    "prefectureNumber": 7,
    "prefecture": "福島県",
    "city": "南相馬市",
    "town": "原町区東町"
  },
  "9750003": {
    "zipcode": "9750003",
    "prefectureCode": "07",
    "prefectureNumber": 7,
    "prefecture": "福島県",
    "city": "南相馬市",
    "town": "原町区栄町"
  },
  "9750004": {
    "zipcode": "9750004",
    "prefectureCode": "07",
    "prefectureNumber": 7,
    "prefecture": "福島県",
    "city": "南相馬市",
    "town": "原町区旭町"
  },
  "9750005": {
    "zipcode": "9750005",
    "prefectureCode": "07",
    "prefectureNumber": 7,
    "prefecture": "福島県",
    "city": "南相馬市",
    "town": "原町区二見町"
  },
  "9750006": {
    "zipcode": "9750006",
    "prefectureCode": "07",
    "prefectureNumber": 7,
    "prefecture": "福島県",
    "city": "南相馬市",
    "town": "原町区橋本町"
  },
  "9750007": {
    "zipcode": "9750007",
    "prefectureCode": "07",
    "prefectureNumber": 7,
    "prefecture": "福島県",
    "city": "南相馬市",
    "town": "原町区南町"
  },
  "9750008": {
    "zipcode": "9750008",
    "prefectureCode": "07",
    "prefectureNumber": 7,
    "prefecture": "福島県",
    "city": "南相馬市",
    "town": "原町区本町"
  },
  "9750011": {
    "zipcode": "9750011",
    "prefectureCode": "07",
    "prefectureNumber": 7,
    "prefecture": "福島県",
    "city": "南相馬市",
    "town": "原町区小川町"
  },
  "9750012": {
    "zipcode": "9750012",
    "prefectureCode": "07",
    "prefectureNumber": 7,
    "prefecture": "福島県",
    "city": "南相馬市",
    "town": "原町区三島町"
  },
  "9750013": {
    "zipcode": "9750013",
    "prefectureCode": "07",
    "prefectureNumber": 7,
    "prefecture": "福島県",
    "city": "南相馬市",
    "town": "原町区上町"
  },
  "9750014": {
    "zipcode": "9750014",
    "prefectureCode": "07",
    "prefectureNumber": 7,
    "prefecture": "福島県",
    "city": "南相馬市",
    "town": "原町区西町"
  },
  "9750015": {
    "zipcode": "9750015",
    "prefectureCode": "07",
    "prefectureNumber": 7,
    "prefecture": "福島県",
    "city": "南相馬市",
    "town": "原町区国見町"
  },
  "9750016": {
    "zipcode": "9750016",
    "prefectureCode": "07",
    "prefectureNumber": 7,
    "prefecture": "福島県",
    "city": "南相馬市",
    "town": "原町区仲町"
  },
  "9750017": {
    "zipcode": "9750017",
    "prefectureCode": "07",
    "prefectureNumber": 7,
    "prefecture": "福島県",
    "city": "南相馬市",
    "town": "原町区牛越"
  },
  "9750018": {
    "zipcode": "9750018",
    "prefectureCode": "07",
    "prefectureNumber": 7,
    "prefecture": "福島県",
    "city": "南相馬市",
    "town": "原町区北町"
  },
  "9750021": {
    "zipcode": "9750021",
    "prefectureCode": "07",
    "prefectureNumber": 7,
    "prefecture": "福島県",
    "city": "南相馬市",
    "town": "原町区金沢"
  },
  "9750022": {
    "zipcode": "9750022",
    "prefectureCode": "07",
    "prefectureNumber": 7,
    "prefecture": "福島県",
    "city": "南相馬市",
    "town": "原町区北泉"
  },
  "9750023": {
    "zipcode": "9750023",
    "prefectureCode": "07",
    "prefectureNumber": 7,
    "prefecture": "福島県",
    "city": "南相馬市",
    "town": "原町区泉"
  },
  "9750024": {
    "zipcode": "9750024",
    "prefectureCode": "07",
    "prefectureNumber": 7,
    "prefecture": "福島県",
    "city": "南相馬市",
    "town": "原町区下北高平"
  },
  "9750025": {
    "zipcode": "9750025",
    "prefectureCode": "07",
    "prefectureNumber": 7,
    "prefecture": "福島県",
    "city": "南相馬市",
    "town": "原町区下高平"
  },
  "9750026": {
    "zipcode": "9750026",
    "prefectureCode": "07",
    "prefectureNumber": 7,
    "prefecture": "福島県",
    "city": "南相馬市",
    "town": "原町区上高平"
  },
  "9750027": {
    "zipcode": "9750027",
    "prefectureCode": "07",
    "prefectureNumber": 7,
    "prefecture": "福島県",
    "city": "南相馬市",
    "town": "原町区上北高平"
  },
  "9750031": {
    "zipcode": "9750031",
    "prefectureCode": "07",
    "prefectureNumber": 7,
    "prefecture": "福島県",
    "city": "南相馬市",
    "town": "原町区錦町"
  },
  "9750032": {
    "zipcode": "9750032",
    "prefectureCode": "07",
    "prefectureNumber": 7,
    "prefecture": "福島県",
    "city": "南相馬市",
    "town": "原町区桜井町"
  },
  "9750033": {
    "zipcode": "9750033",
    "prefectureCode": "07",
    "prefectureNumber": 7,
    "prefecture": "福島県",
    "city": "南相馬市",
    "town": "原町区高見町"
  },
  "9750034": {
    "zipcode": "9750034",
    "prefectureCode": "07",
    "prefectureNumber": 7,
    "prefecture": "福島県",
    "city": "南相馬市",
    "town": "原町区上渋佐"
  },
  "9750035": {
    "zipcode": "9750035",
    "prefectureCode": "07",
    "prefectureNumber": 7,
    "prefecture": "福島県",
    "city": "南相馬市",
    "town": "原町区下渋佐"
  },
  "9750036": {
    "zipcode": "9750036",
    "prefectureCode": "07",
    "prefectureNumber": 7,
    "prefecture": "福島県",
    "city": "南相馬市",
    "town": "原町区萱浜"
  },
  "9750037": {
    "zipcode": "9750037",
    "prefectureCode": "07",
    "prefectureNumber": 7,
    "prefecture": "福島県",
    "city": "南相馬市",
    "town": "原町区北原"
  },
  "9750038": {
    "zipcode": "9750038",
    "prefectureCode": "07",
    "prefectureNumber": 7,
    "prefecture": "福島県",
    "city": "南相馬市",
    "town": "原町区日の出町"
  },
  "9750039": {
    "zipcode": "9750039",
    "prefectureCode": "07",
    "prefectureNumber": 7,
    "prefecture": "福島県",
    "city": "南相馬市",
    "town": "原町区青葉町"
  },
  "9750041": {
    "zipcode": "9750041",
    "prefectureCode": "07",
    "prefectureNumber": 7,
    "prefecture": "福島県",
    "city": "南相馬市",
    "town": "原町区下太田"
  },
  "9750042": {
    "zipcode": "9750042",
    "prefectureCode": "07",
    "prefectureNumber": 7,
    "prefecture": "福島県",
    "city": "南相馬市",
    "town": "原町区雫"
  },
  "9750043": {
    "zipcode": "9750043",
    "prefectureCode": "07",
    "prefectureNumber": 7,
    "prefecture": "福島県",
    "city": "南相馬市",
    "town": "原町区小浜"
  },
  "9750044": {
    "zipcode": "9750044",
    "prefectureCode": "07",
    "prefectureNumber": 7,
    "prefecture": "福島県",
    "city": "南相馬市",
    "town": "原町区下江井"
  },
  "9750045": {
    "zipcode": "9750045",
    "prefectureCode": "07",
    "prefectureNumber": 7,
    "prefecture": "福島県",
    "city": "南相馬市",
    "town": "原町区小沢"
  },
  "9750046": {
    "zipcode": "9750046",
    "prefectureCode": "07",
    "prefectureNumber": 7,
    "prefecture": "福島県",
    "city": "南相馬市",
    "town": "原町区堤谷"
  },
  "9750047": {
    "zipcode": "9750047",
    "prefectureCode": "07",
    "prefectureNumber": 7,
    "prefecture": "福島県",
    "city": "南相馬市",
    "town": "原町区江井"
  },
  "9750048": {
    "zipcode": "9750048",
    "prefectureCode": "07",
    "prefectureNumber": 7,
    "prefecture": "福島県",
    "city": "南相馬市",
    "town": "原町区米々沢"
  },
  "9750049": {
    "zipcode": "9750049",
    "prefectureCode": "07",
    "prefectureNumber": 7,
    "prefecture": "福島県",
    "city": "南相馬市",
    "town": "原町区大甕"
  },
  "9750051": {
    "zipcode": "9750051",
    "prefectureCode": "07",
    "prefectureNumber": 7,
    "prefecture": "福島県",
    "city": "南相馬市",
    "town": "原町区牛来"
  },
  "9750052": {
    "zipcode": "9750052",
    "prefectureCode": "07",
    "prefectureNumber": 7,
    "prefecture": "福島県",
    "city": "南相馬市",
    "town": "原町区中太田"
  },
  "9750053": {
    "zipcode": "9750053",
    "prefectureCode": "07",
    "prefectureNumber": 7,
    "prefecture": "福島県",
    "city": "南相馬市",
    "town": "原町区益田"
  },
  "9750054": {
    "zipcode": "9750054",
    "prefectureCode": "07",
    "prefectureNumber": 7,
    "prefecture": "福島県",
    "city": "南相馬市",
    "town": "原町区高"
  },
  "9750055": {
    "zipcode": "9750055",
    "prefectureCode": "07",
    "prefectureNumber": 7,
    "prefecture": "福島県",
    "city": "南相馬市",
    "town": "原町区小木さく"
  },
  "9750056": {
    "zipcode": "9750056",
    "prefectureCode": "07",
    "prefectureNumber": 7,
    "prefecture": "福島県",
    "city": "南相馬市",
    "town": "原町区鶴谷"
  },
  "9750057": {
    "zipcode": "9750057",
    "prefectureCode": "07",
    "prefectureNumber": 7,
    "prefecture": "福島県",
    "city": "南相馬市",
    "town": "原町区矢川原"
  },
  "9750058": {
    "zipcode": "9750058",
    "prefectureCode": "07",
    "prefectureNumber": 7,
    "prefecture": "福島県",
    "city": "南相馬市",
    "town": "原町区片倉"
  },
  "9750059": {
    "zipcode": "9750059",
    "prefectureCode": "07",
    "prefectureNumber": 7,
    "prefecture": "福島県",
    "city": "南相馬市",
    "town": "原町区上太田"
  },
  "9750061": {
    "zipcode": "9750061",
    "prefectureCode": "07",
    "prefectureNumber": 7,
    "prefecture": "福島県",
    "city": "南相馬市",
    "town": "原町区大木戸"
  },
  "9750062": {
    "zipcode": "9750062",
    "prefectureCode": "07",
    "prefectureNumber": 7,
    "prefecture": "福島県",
    "city": "南相馬市",
    "town": "原町区本陣前"
  },
  "9750063": {
    "zipcode": "9750063",
    "prefectureCode": "07",
    "prefectureNumber": 7,
    "prefecture": "福島県",
    "city": "南相馬市",
    "town": "原町区馬場"
  },
  "9750064": {
    "zipcode": "9750064",
    "prefectureCode": "07",
    "prefectureNumber": 7,
    "prefecture": "福島県",
    "city": "南相馬市",
    "town": "原町区押釜"
  },
  "9750065": {
    "zipcode": "9750065",
    "prefectureCode": "07",
    "prefectureNumber": 7,
    "prefecture": "福島県",
    "city": "南相馬市",
    "town": "原町区陣ケ崎"
  },
  "9750071": {
    "zipcode": "9750071",
    "prefectureCode": "07",
    "prefectureNumber": 7,
    "prefecture": "福島県",
    "city": "南相馬市",
    "town": "原町区深野"
  },
  "9750072": {
    "zipcode": "9750072",
    "prefectureCode": "07",
    "prefectureNumber": 7,
    "prefecture": "福島県",
    "city": "南相馬市",
    "town": "原町区北長野"
  },
  "9750073": {
    "zipcode": "9750073",
    "prefectureCode": "07",
    "prefectureNumber": 7,
    "prefecture": "福島県",
    "city": "南相馬市",
    "town": "原町区北新田"
  },
  "9750074": {
    "zipcode": "9750074",
    "prefectureCode": "07",
    "prefectureNumber": 7,
    "prefecture": "福島県",
    "city": "南相馬市",
    "town": "原町区長野"
  },
  "9750075": {
    "zipcode": "9750075",
    "prefectureCode": "07",
    "prefectureNumber": 7,
    "prefecture": "福島県",
    "city": "南相馬市",
    "town": "原町区石神"
  },
  "9750076": {
    "zipcode": "9750076",
    "prefectureCode": "07",
    "prefectureNumber": 7,
    "prefecture": "福島県",
    "city": "南相馬市",
    "town": "原町区信田沢"
  },
  "9750077": {
    "zipcode": "9750077",
    "prefectureCode": "07",
    "prefectureNumber": 7,
    "prefecture": "福島県",
    "city": "南相馬市",
    "town": "原町区高倉"
  },
  "9750078": {
    "zipcode": "9750078",
    "prefectureCode": "07",
    "prefectureNumber": 7,
    "prefecture": "福島県",
    "city": "南相馬市",
    "town": "原町区大谷"
  },
  "9750079": {
    "zipcode": "9750079",
    "prefectureCode": "07",
    "prefectureNumber": 7,
    "prefecture": "福島県",
    "city": "南相馬市",
    "town": "原町区大原"
  }
}
