{
  "9790141": {
    "zipcode": "9790141",
    "prefectureCode": "07",
    "prefectureNumber": 7,
    "prefecture": "福島県",
    "city": "いわき市",
    "town": "勿来町（窪田）"
  },
  "9790142": {
    "zipcode": "9790142",
    "prefectureCode": "07",
    "prefectureNumber": 7,
    "prefecture": "福島県",
    "city": "いわき市",
    "town": "勿来町（酒井）"
  },
  "9790143": {
    "zipcode": "9790143",
    "prefectureCode": "07",
    "prefectureNumber": 7,
    "prefecture": "福島県",
    "city": "いわき市",
    "town": "勿来町（白米）"
  },
  "9790144": {
    "zipcode": "9790144",
    "prefectureCode": "07",
    "prefectureNumber": 7,
    "prefecture": "福島県",
    "city": "いわき市",
    "town": "勿来町（大高）"
  },
  "9790145": {
    "zipcode": "9790145",
    "prefectureCode": "07",
    "prefectureNumber": 7,
    "prefecture": "福島県",
    "city": "いわき市",
    "town": "勿来町（四沢）"
  },
  "9790146": {
    "zipcode": "9790146",
    "prefectureCode": "07",
    "prefectureNumber": 7,
    "prefecture": "福島県",
    "city": "いわき市",
    "town": "勿来町（関田）"
  },
  "9790147": {
    "zipcode": "9790147",
    "prefectureCode": "07",
    "prefectureNumber": 7,
    "prefecture": "福島県",
    "city": "いわき市",
    "town": "勿来町（九面）"
  },
  "9790151": {
    "zipcode": "9790151",
    "prefectureCode": "07",
    "prefectureNumber": 7,
    "prefecture": "福島県",
    "city": "いわき市",
    "town": "瀬戸町"
  },
  "9790152": {
    "zipcode": "9790152",
    "prefectureCode": "07",
    "prefectureNumber": 7,
    "prefecture": "福島県",
    "city": "いわき市",
    "town": "山玉町"
  },
  "9790153": {
    "zipcode": "9790153",
    "prefectureCode": "07",
    "prefectureNumber": 7,
    "prefecture": "福島県",
    "city": "いわき市",
    "town": "川部町"
  },
  "9790154": {
    "zipcode": "9790154",
    "prefectureCode": "07",
    "prefectureNumber": 7,
    "prefecture": "福島県",
    "city": "いわき市",
    "town": "沼部町"
  },
  "9790155": {
    "zipcode": "9790155",
    "prefectureCode": "07",
    "prefectureNumber": 7,
    "prefecture": "福島県",
    "city": "いわき市",
    "town": "三沢町"
  },
  "9790201": {
    "zipcode": "9790201",
    "prefectureCode": "07",
    "prefectureNumber": 7,
    "prefecture": "福島県",
    "city": "いわき市",
    "town": "四倉町"
  },
  "9790202": {
    "zipcode": "9790202",
    "prefectureCode": "07",
    "prefectureNumber": 7,
    "prefecture": "福島県",
    "city": "いわき市",
    "town": "四倉町上仁井田"
  },
  "9790203": {
    "zipcode": "9790203",
    "prefectureCode": "07",
    "prefectureNumber": 7,
    "prefecture": "福島県",
    "city": "いわき市",
    "town": "四倉町下仁井田"
  },
  "9790204": {
    "zipcode": "9790204",
    "prefectureCode": "07",
    "prefectureNumber": 7,
    "prefecture": "福島県",
    "city": "いわき市",
    "town": "四倉町細谷"
  },
  "9790205": {
    "zipcode": "9790205",
    "prefectureCode": "07",
    "prefectureNumber": 7,
    "prefecture": "福島県",
    "city": "いわき市",
    "town": "四倉町大森"
  },
  "9790206": {
    "zipcode": "9790206",
    "prefectureCode": "07",
    "prefectureNumber": 7,
    "prefecture": "福島県",
    "city": "いわき市",
    "town": "四倉町狐塚"
  },
  "9790207": {
    "zipcode": "9790207",
    "prefectureCode": "07",
    "prefectureNumber": 7,
    "prefecture": "福島県",
    "city": "いわき市",
    "town": "四倉町塩木"
  },
  "9790211": {
    "zipcode": "9790211",
    "prefectureCode": "07",
    "prefectureNumber": 7,
    "prefecture": "福島県",
    "city": "いわき市",
    "town": "四倉町白岩"
  },
  "9790212": {
    "zipcode": "9790212",
    "prefectureCode": "07",
    "prefectureNumber": 7,
    "prefecture": "福島県",
    "city": "いわき市",
    "town": "四倉町戸田"
  },
  "9790213": {
    "zipcode": "9790213",
    "prefectureCode": "07",
    "prefectureNumber": 7,
    "prefecture": "福島県",
    "city": "いわき市",
    "town": "四倉町名木"
  },
  "9790214": {
    "zipcode": "9790214",
    "prefectureCode": "07",
    "prefectureNumber": 7,
    "prefecture": "福島県",
    "city": "いわき市",
    "town": "四倉町長友"
  },
  "9790215": {
    "zipcode": "9790215",
    "prefectureCode": "07",
    "prefectureNumber": 7,
    "prefecture": "福島県",
    "city": "いわき市",
    "town": "四倉町中島"
  },
  "9790216": {
    "zipcode": "9790216",
    "prefectureCode": "07",
    "prefectureNumber": 7,
    "prefecture": "福島県",
    "city": "いわき市",
    "town": "四倉町玉山"
  },
  "9790221": {
    "zipcode": "9790221",
    "prefectureCode": "07",
    "prefectureNumber": 7,
    "prefecture": "福島県",
    "city": "いわき市",
    "town": "四倉町上岡"
  },
  "9790222": {
    "zipcode": "9790222",
    "prefectureCode": "07",
    "prefectureNumber": 7,
    "prefecture": "福島県",
    "city": "いわき市",
    "town": "四倉町八茎"
  },
  "9790223": {
    "zipcode": "9790223",
    "prefectureCode": "07",
    "prefectureNumber": 7,
    "prefecture": "福島県",
    "city": "いわき市",
    "town": "四倉町山田小湊"
  },
  "9790224": {
    "zipcode": "9790224",
    "prefectureCode": "07",
    "prefectureNumber": 7,
    "prefecture": "福島県",
    "city": "いわき市",
    "town": "四倉町薬王寺"
  },
  "9790225": {
    "zipcode": "9790225",
    "prefectureCode": "07",
    "prefectureNumber": 7,
    "prefecture": "福島県",
    "city": "いわき市",
    "town": "四倉町下柳生"
  },
  "9790226": {
    "zipcode": "9790226",
    "prefectureCode": "07",
    "prefectureNumber": 7,
    "prefecture": "福島県",
    "city": "いわき市",
    "town": "四倉町上柳生"
  },
  "9790227": {
    "zipcode": "9790227",
    "prefectureCode": "07",
    "prefectureNumber": 7,
    "prefecture": "福島県",
    "city": "いわき市",
    "town": "四倉町駒込"
  },
  "9790331": {
    "zipcode": "9790331",
    "prefectureCode": "07",
    "prefectureNumber": 7,
    "prefecture": "福島県",
    "city": "いわき市",
    "town": "久之浜町末続"
  },
  "9790332": {
    "zipcode": "9790332",
    "prefectureCode": "07",
    "prefectureNumber": 7,
    "prefecture": "福島県",
    "city": "いわき市",
    "town": "久之浜町金ケ沢"
  },
  "9790333": {
    "zipcode": "9790333",
    "prefectureCode": "07",
    "prefectureNumber": 7,
    "prefecture": "福島県",
    "city": "いわき市",
    "town": "久之浜町久之浜"
  },
  "9790334": {
    "zipcode": "9790334",
    "prefectureCode": "07",
    "prefectureNumber": 7,
    "prefecture": "福島県",
    "city": "いわき市",
    "town": "久之浜町西"
  },
  "9790335": {
    "zipcode": "9790335",
    "prefectureCode": "07",
    "prefectureNumber": 7,
    "prefecture": "福島県",
    "city": "いわき市",
    "town": "久之浜町田之網"
  },
  "9790336": {
    "zipcode": "9790336",
    "prefectureCode": "07",
    "prefectureNumber": 7,
    "prefecture": "福島県",
    "city": "いわき市",
    "town": "大久町小山田"
  },
  "9790337": {
    "zipcode": "9790337",
    "prefectureCode": "07",
    "prefectureNumber": 7,
    "prefecture": "福島県",
    "city": "いわき市",
    "town": "大久町小久"
  },
  "9790338": {
    "zipcode": "9790338",
    "prefectureCode": "07",
    "prefectureNumber": 7,
    "prefecture": "福島県",
    "city": "いわき市",
    "town": "大久町大久"
  },
  "9790400": {
    "zipcode": "9790400",
    "prefectureCode": "07",
    "prefectureNumber": 7,
    "prefecture": "福島県",
    "city": "双葉郡広野町",
    "town": "以下に掲載がない場合"
  },
  "9790401": {
    "zipcode": "9790401",
    "prefectureCode": "07",
    "prefectureNumber": 7,
    "prefecture": "福島県",
    "city": "双葉郡広野町",
    "town": "上北迫"
  },
  "9790402": {
    "zipcode": "9790402",
    "prefectureCode": "07",
    "prefectureNumber": 7,
    "prefecture": "福島県",
    "city": "双葉郡広野町",
    "town": "下北迫"
  },
  "9790403": {
    "zipcode": "9790403",
    "prefectureCode": "07",
    "prefectureNumber": 7,
    "prefecture": "福島県",
    "city": "双葉郡広野町",
    "town": "下浅見川"
  },
  "9790404": {
    "zipcode": "9790404",
    "prefectureCode": "07",
    "prefectureNumber": 7,
    "prefecture": "福島県",
    "city": "双葉郡広野町",
    "town": "折木"
  },
  "9790405": {
    "zipcode": "9790405",
    "prefectureCode": "07",
    "prefectureNumber": 7,
    "prefecture": "福島県",
    "city": "双葉郡広野町",
    "town": "夕筋"
  },
  "9790406": {
    "zipcode": "9790406",
    "prefectureCode": "07",
    "prefectureNumber": 7,
    "prefecture": "福島県",
    "city": "双葉郡広野町",
    "town": "上浅見川"
  },
  "9790407": {
    "zipcode": "9790407",
    "prefectureCode": "07",
    "prefectureNumber": 7,
    "prefecture": "福島県",
    "city": "双葉郡広野町",
    "town": "広洋台"
  },
  "9790408": {
    "zipcode": "9790408",
    "prefectureCode": "07",
    "prefectureNumber": 7,
    "prefecture": "福島県",
    "city": "双葉郡広野町",
    "town": "中央台"
  },
  "9790511": {
    "zipcode": "9790511",
    "prefectureCode": "07",
    "prefectureNumber": 7,
    "prefecture": "福島県",
    "city": "双葉郡楢葉町",
    "town": "前原"
  },
  "9790512": {
    "zipcode": "9790512",
    "prefectureCode": "07",
    "prefectureNumber": 7,
    "prefecture": "福島県",
    "city": "双葉郡楢葉町",
    "town": "山田浜"
  },
  "9790513": {
    "zipcode": "9790513",
    "prefectureCode": "07",
    "prefectureNumber": 7,
    "prefecture": "福島県",
    "city": "双葉郡楢葉町",
    "town": "山田岡"
  },
  "9790514": {
    "zipcode": "9790514",
    "prefectureCode": "07",
    "prefectureNumber": 7,
    "prefecture": "福島県",
    "city": "双葉郡楢葉町",
    "town": "下小塙"
  },
  "9790515": {
    "zipcode": "9790515",
    "prefectureCode": "07",
    "prefectureNumber": 7,
    "prefecture": "福島県",
    "city": "双葉郡楢葉町",
    "town": "上小塙"
  },
  "9790600": {
    "zipcode": "9790600",
    "prefectureCode": "07",
    "prefectureNumber": 7,
    "prefecture": "福島県",
    "city": "双葉郡楢葉町",
    "town": "以下に掲載がない場合"
  },
  "9790601": {
    "zipcode": "9790601",
    "prefectureCode": "07",
    "prefectureNumber": 7,
    "prefecture": "福島県",
    "city": "双葉郡楢葉町",
    "town": "波倉"
  },
  "9790602": {
    "zipcode": "9790602",
    "prefectureCode": "07",
    "prefectureNumber": 7,
    "prefecture": "福島県",
    "city": "双葉郡楢葉町",
    "town": "下繁岡"
  },
  "9790603": {
    "zipcode": "9790603",
    "prefectureCode": "07",
    "prefectureNumber": 7,
    "prefecture": "福島県",
    "city": "双葉郡楢葉町",
    "town": "井出"
  },
  "9790604": {
    "zipcode": "9790604",
    "prefectureCode": "07",
    "prefectureNumber": 7,
    "prefecture": "福島県",
    "city": "双葉郡楢葉町",
    "town": "北田"
  },
  "9790605": {
    "zipcode": "9790605",
    "prefectureCode": "07",
    "prefectureNumber": 7,
    "prefecture": "福島県",
    "city": "双葉郡楢葉町",
    "town": "大谷"
  },
  "9790606": {
    "zipcode": "9790606",
    "prefectureCode": "07",
    "prefectureNumber": 7,
    "prefecture": "福島県",
    "city": "双葉郡楢葉町",
    "town": "上繁岡"
  },
  "9790622": {
    "zipcode": "9790622",
    "prefectureCode": "07",
    "prefectureNumber": 7,
    "prefecture": "福島県",
    "city": "双葉郡富岡町",
    "town": "毛萱（前川原２３２〜２４４、３１１、３１２、３３７〜８６２番地〔東京電力福島第二原子力発電所構内〕）"
  },
  "9791100": {
    "zipcode": "9791100",
    "prefectureCode": "07",
    "prefectureNumber": 7,
    "prefecture": "福島県",
    "city": "双葉郡富岡町",
    "town": "以下に掲載がない場合"
  },
  "9791101": {
    "zipcode": "9791101",
    "prefectureCode": "07",
    "prefectureNumber": 7,
    "prefecture": "福島県",
    "city": "双葉郡富岡町",
    "town": "小良ケ浜"
  },
  "9791111": {
    "zipcode": "9791111",
    "prefectureCode": "07",
    "prefectureNumber": 7,
    "prefecture": "福島県",
    "city": "双葉郡富岡町",
    "town": "小浜"
  },
  "9791112": {
    "zipcode": "9791112",
    "prefectureCode": "07",
    "prefectureNumber": 7,
    "prefecture": "福島県",
    "city": "双葉郡富岡町",
    "town": "中央"
  },
  "9791113": {
    "zipcode": "9791113",
    "prefectureCode": "07",
    "prefectureNumber": 7,
    "prefecture": "福島県",
    "city": "双葉郡富岡町",
    "town": "曲田"
  },
  "9791121": {
    "zipcode": "9791121",
    "prefectureCode": "07",
    "prefectureNumber": 7,
    "prefecture": "福島県",
    "city": "双葉郡富岡町",
    "town": "仏浜"
  },
  "9791122": {
    "zipcode": "9791122",
    "prefectureCode": "07",
    "prefectureNumber": 7,
    "prefecture": "福島県",
    "city": "双葉郡富岡町",
    "town": "毛萱（その他）"
  },
  "9791123": {
    "zipcode": "9791123",
    "prefectureCode": "07",
    "prefectureNumber": 7,
    "prefecture": "福島県",
    "city": "双葉郡富岡町",
    "town": "駅前"
  },
  "9791131": {
    "zipcode": "9791131",
    "prefectureCode": "07",
    "prefectureNumber": 7,
    "prefecture": "福島県",
    "city": "双葉郡富岡町",
    "town": "上郡山"
  },
  "9791132": {
    "zipcode": "9791132",
    "prefectureCode": "07",
    "prefectureNumber": 7,
    "prefecture": "福島県",
    "city": "双葉郡富岡町",
    "town": "下郡山"
  },
  "9791141": {
    "zipcode": "9791141",
    "prefectureCode": "07",
    "prefectureNumber": 7,
    "prefecture": "福島県",
    "city": "双葉郡富岡町",
    "town": "上手岡"
  },
  "9791151": {
    "zipcode": "9791151",
    "prefectureCode": "07",
    "prefectureNumber": 7,
    "prefecture": "福島県",
    "city": "双葉郡富岡町",
    "town": "本岡"
  },
  "9791152": {
    "zipcode": "9791152",
    "prefectureCode": "07",
    "prefectureNumber": 7,
    "prefecture": "福島県",
    "city": "双葉郡富岡町",
    "town": "本町"
  },
  "9791161": {
    "zipcode": "9791161",
    "prefectureCode": "07",
    "prefectureNumber": 7,
    "prefecture": "福島県",
    "city": "双葉郡富岡町",
    "town": "夜の森"
  },
  "9791162": {
    "zipcode": "9791162",
    "prefectureCode": "07",
    "prefectureNumber": 7,
    "prefecture": "福島県",
    "city": "双葉郡富岡町",
    "town": "桜"
  },
  "9791171": {
    "zipcode": "9791171",
    "prefectureCode": "07",
    "prefectureNumber": 7,
    "prefecture": "福島県",
    "city": "双葉郡富岡町",
    "town": "大菅"
  },
  "9791200": {
    "zipcode": "9791200",
    "prefectureCode": "07",
    "prefectureNumber": 7,
    "prefecture": "福島県",
    "city": "双葉郡川内村",
    "town": "以下に掲載がない場合"
  },
  "9791201": {
    "zipcode": "9791201",
    "prefectureCode": "07",
    "prefectureNumber": 7,
    "prefecture": "福島県",
    "city": "双葉郡川内村",
    "town": "上川内"
  },
  "9791202": {
    "zipcode": "9791202",
    "prefectureCode": "07",
    "prefectureNumber": 7,
    "prefecture": "福島県",
    "city": "双葉郡川内村",
    "town": "下川内"
  },
  "9791300": {
    "zipcode": "9791300",
    "prefectureCode": "07",
    "prefectureNumber": 7,
    "prefecture": "福島県",
    "city": "双葉郡大熊町",
    "town": "以下に掲載がない場合"
  },
  "9791301": {
    "zipcode": "9791301",
    "prefectureCode": "07",
    "prefectureNumber": 7,
    "prefecture": "福島県",
    "city": "双葉郡大熊町",
    "town": "夫沢"
  },
  "9791302": {
    "zipcode": "9791302",
    "prefectureCode": "07",
    "prefectureNumber": 7,
    "prefecture": "福島県",
    "city": "双葉郡大熊町",
    "town": "小入野"
  },
  "9791303": {
    "zipcode": "9791303",
    "prefectureCode": "07",
    "prefectureNumber": 7,
    "prefecture": "福島県",
    "city": "双葉郡大熊町",
    "town": "熊川"
  },
  "9791304": {
    "zipcode": "9791304",
    "prefectureCode": "07",
    "prefectureNumber": 7,
    "prefecture": "福島県",
    "city": "双葉郡大熊町",
    "town": "小良浜"
  },
  "9791305": {
    "zipcode": "9791305",
    "prefectureCode": "07",
    "prefectureNumber": 7,
    "prefecture": "福島県",
    "city": "双葉郡大熊町",
    "town": "熊"
  },
  "9791306": {
    "zipcode": "9791306",
    "prefectureCode": "07",
    "prefectureNumber": 7,
    "prefecture": "福島県",
    "city": "双葉郡大熊町",
    "town": "大川原"
  },
  "9791307": {
    "zipcode": "9791307",
    "prefectureCode": "07",
    "prefectureNumber": 7,
    "prefecture": "福島県",
    "city": "双葉郡大熊町",
    "town": "野上"
  },
  "9791308": {
    "zipcode": "9791308",
    "prefectureCode": "07",
    "prefectureNumber": 7,
    "prefecture": "福島県",
    "city": "双葉郡大熊町",
    "town": "下野上"
  },
  "9791400": {
    "zipcode": "9791400",
    "prefectureCode": "07",
    "prefectureNumber": 7,
    "prefecture": "福島県",
    "city": "双葉郡双葉町",
    "town": "以下に掲載がない場合"
  },
  "9791401": {
    "zipcode": "9791401",
    "prefectureCode": "07",
    "prefectureNumber": 7,
    "prefecture": "福島県",
    "city": "双葉郡双葉町",
    "town": "中野"
  },
  "9791402": {
    "zipcode": "9791402",
    "prefectureCode": "07",
    "prefectureNumber": 7,
    "prefecture": "福島県",
    "city": "双葉郡双葉町",
    "town": "中浜"
  },
  "9791411": {
    "zipcode": "9791411",
    "prefectureCode": "07",
    "prefectureNumber": 7,
    "prefecture": "福島県",
    "city": "双葉郡双葉町",
    "town": "郡山"
  },
  "9791412": {
    "zipcode": "9791412",
    "prefectureCode": "07",
    "prefectureNumber": 7,
    "prefecture": "福島県",
    "city": "双葉郡双葉町",
    "town": "細谷"
  },
  "9791421": {
    "zipcode": "9791421",
    "prefectureCode": "07",
    "prefectureNumber": 7,
    "prefecture": "福島県",
    "city": "双葉郡双葉町",
    "town": "前田"
  },
  "9791422": {
    "zipcode": "9791422",
    "prefectureCode": "07",
    "prefectureNumber": 7,
    "prefecture": "福島県",
    "city": "双葉郡双葉町",
    "town": "水沢"
  },
  "9791423": {
    "zipcode": "9791423",
    "prefectureCode": "07",
    "prefectureNumber": 7,
    "prefecture": "福島県",
    "city": "双葉郡双葉町",
    "town": "目迫"
  },
  "9791431": {
    "zipcode": "9791431",
    "prefectureCode": "07",
    "prefectureNumber": 7,
    "prefecture": "福島県",
    "city": "双葉郡双葉町",
    "town": "山田"
  },
  "9791432": {
    "zipcode": "9791432",
    "prefectureCode": "07",
    "prefectureNumber": 7,
    "prefecture": "福島県",
    "city": "双葉郡双葉町",
    "town": "松迫"
  },
  "9791433": {
    "zipcode": "9791433",
    "prefectureCode": "07",
    "prefectureNumber": 7,
    "prefecture": "福島県",
    "city": "双葉郡双葉町",
    "town": "石熊"
  },
  "9791441": {
    "zipcode": "9791441",
    "prefectureCode": "07",
    "prefectureNumber": 7,
    "prefecture": "福島県",
    "city": "双葉郡双葉町",
    "town": "下羽鳥"
  },
  "9791442": {
    "zipcode": "9791442",
    "prefectureCode": "07",
    "prefectureNumber": 7,
    "prefecture": "福島県",
    "city": "双葉郡双葉町",
    "town": "上羽鳥"
  },
  "9791451": {
    "zipcode": "9791451",
    "prefectureCode": "07",
    "prefectureNumber": 7,
    "prefecture": "福島県",
    "city": "双葉郡双葉町",
    "town": "渋川"
  },
  "9791452": {
    "zipcode": "9791452",
    "prefectureCode": "07",
    "prefectureNumber": 7,
    "prefecture": "福島県",
    "city": "双葉郡双葉町",
    "town": "松倉"
  },
  "9791453": {
    "zipcode": "9791453",
    "prefectureCode": "07",
    "prefectureNumber": 7,
    "prefecture": "福島県",
    "city": "双葉郡双葉町",
    "town": "寺沢"
  },
  "9791461": {
    "zipcode": "9791461",
    "prefectureCode": "07",
    "prefectureNumber": 7,
    "prefecture": "福島県",
    "city": "双葉郡双葉町",
    "town": "両竹"
  },
  "9791462": {
    "zipcode": "9791462",
    "prefectureCode": "07",
    "prefectureNumber": 7,
    "prefecture": "福島県",
    "city": "双葉郡双葉町",
    "town": "中田"
  },
  "9791463": {
    "zipcode": "9791463",
    "prefectureCode": "07",
    "prefectureNumber": 7,
    "prefecture": "福島県",
    "city": "双葉郡双葉町",
    "town": "鴻草"
  },
  "9791471": {
    "zipcode": "9791471",
    "prefectureCode": "07",
    "prefectureNumber": 7,
    "prefecture": "福島県",
    "city": "双葉郡双葉町",
    "town": "長塚"
  },
  "9791472": {
    "zipcode": "9791472",
    "prefectureCode": "07",
    "prefectureNumber": 7,
    "prefecture": "福島県",
    "city": "双葉郡双葉町",
    "town": "新山"
  },
  "9791500": {
    "zipcode": "9791500",
    "prefectureCode": "07",
    "prefectureNumber": 7,
    "prefecture": "福島県",
    "city": "双葉郡浪江町",
    "town": "以下に掲載がない場合"
  },
  "9791501": {
    "zipcode": "9791501",
    "prefectureCode": "07",
    "prefectureNumber": 7,
    "prefecture": "福島県",
    "city": "双葉郡浪江町",
    "town": "立野"
  },
  "9791502": {
    "zipcode": "9791502",
    "prefectureCode": "07",
    "prefectureNumber": 7,
    "prefecture": "福島県",
    "city": "双葉郡浪江町",
    "town": "藤橋"
  },
  "9791503": {
    "zipcode": "9791503",
    "prefectureCode": "07",
    "prefectureNumber": 7,
    "prefecture": "福島県",
    "city": "双葉郡浪江町",
    "town": "西台"
  },
  "9791504": {
    "zipcode": "9791504",
    "prefectureCode": "07",
    "prefectureNumber": 7,
    "prefecture": "福島県",
    "city": "双葉郡浪江町",
    "town": "酒田"
  },
  "9791505": {
    "zipcode": "9791505",
    "prefectureCode": "07",
    "prefectureNumber": 7,
    "prefecture": "福島県",
    "city": "双葉郡浪江町",
    "town": "苅宿"
  },
  "9791506": {
    "zipcode": "9791506",
    "prefectureCode": "07",
    "prefectureNumber": 7,
    "prefecture": "福島県",
    "city": "双葉郡浪江町",
    "town": "室原（その他）"
  },
  "9791511": {
    "zipcode": "9791511",
    "prefectureCode": "07",
    "prefectureNumber": 7,
    "prefecture": "福島県",
    "city": "双葉郡浪江町",
    "town": "棚塩"
  },
  "9791512": {
    "zipcode": "9791512",
    "prefectureCode": "07",
    "prefectureNumber": 7,
    "prefecture": "福島県",
    "city": "双葉郡浪江町",
    "town": "北幾世橋"
  },
  "9791513": {
    "zipcode": "9791513",
    "prefectureCode": "07",
    "prefectureNumber": 7,
    "prefecture": "福島県",
    "city": "双葉郡浪江町",
    "town": "幾世橋"
  },
  "9791521": {
    "zipcode": "9791521",
    "prefectureCode": "07",
    "prefectureNumber": 7,
    "prefecture": "福島県",
    "city": "双葉郡浪江町",
    "town": "権現堂"
  },
  "9791522": {
    "zipcode": "9791522",
    "prefectureCode": "07",
    "prefectureNumber": 7,
    "prefecture": "福島県",
    "city": "双葉郡浪江町",
    "town": "請戸"
  },
  "9791523": {
    "zipcode": "9791523",
    "prefectureCode": "07",
    "prefectureNumber": 7,
    "prefecture": "福島県",
    "city": "双葉郡浪江町",
    "town": "中浜"
  },
  "9791524": {
    "zipcode": "9791524",
    "prefectureCode": "07",
    "prefectureNumber": 7,
    "prefecture": "福島県",
    "city": "双葉郡浪江町",
    "town": "両竹"
  },
  "9791525": {
    "zipcode": "9791525",
    "prefectureCode": "07",
    "prefectureNumber": 7,
    "prefecture": "福島県",
    "city": "双葉郡浪江町",
    "town": "高瀬"
  },
  "9791526": {
    "zipcode": "9791526",
    "prefectureCode": "07",
    "prefectureNumber": 7,
    "prefecture": "福島県",
    "city": "双葉郡浪江町",
    "town": "牛渡"
  },
  "9791531": {
    "zipcode": "9791531",
    "prefectureCode": "07",
    "prefectureNumber": 7,
    "prefecture": "福島県",
    "city": "双葉郡浪江町",
    "town": "川添"
  },
  "9791532": {
    "zipcode": "9791532",
    "prefectureCode": "07",
    "prefectureNumber": 7,
    "prefecture": "福島県",
    "city": "双葉郡浪江町",
    "town": "樋渡"
  },
  "9791533": {
    "zipcode": "9791533",
    "prefectureCode": "07",
    "prefectureNumber": 7,
    "prefecture": "福島県",
    "city": "双葉郡浪江町",
    "town": "酒井"
  },
  "9791534": {
    "zipcode": "9791534",
    "prefectureCode": "07",
    "prefectureNumber": 7,
    "prefecture": "福島県",
    "city": "双葉郡浪江町",
    "town": "谷津田"
  },
  "9791535": {
    "zipcode": "9791535",
    "prefectureCode": "07",
    "prefectureNumber": 7,
    "prefecture": "福島県",
    "city": "双葉郡浪江町",
    "town": "井手"
  },
  "9791536": {
    "zipcode": "9791536",
    "prefectureCode": "07",
    "prefectureNumber": 7,
    "prefecture": "福島県",
    "city": "双葉郡浪江町",
    "town": "加倉"
  },
  "9791541": {
    "zipcode": "9791541",
    "prefectureCode": "07",
    "prefectureNumber": 7,
    "prefecture": "福島県",
    "city": "双葉郡浪江町",
    "town": "田尻"
  },
  "9791542": {
    "zipcode": "9791542",
    "prefectureCode": "07",
    "prefectureNumber": 7,
    "prefecture": "福島県",
    "city": "双葉郡浪江町",
    "town": "末森"
  },
  "9791543": {
    "zipcode": "9791543",
    "prefectureCode": "07",
    "prefectureNumber": 7,
    "prefecture": "福島県",
    "city": "双葉郡浪江町",
    "town": "小野田"
  },
  "9791544": {
    "zipcode": "9791544",
    "prefectureCode": "07",
    "prefectureNumber": 7,
    "prefecture": "福島県",
    "city": "双葉郡浪江町",
    "town": "大堀"
  },
  "9791545": {
    "zipcode": "9791545",
    "prefectureCode": "07",
    "prefectureNumber": 7,
    "prefecture": "福島県",
    "city": "双葉郡浪江町",
    "town": "小丸"
  },
  "9791600": {
    "zipcode": "9791600",
    "prefectureCode": "07",
    "prefectureNumber": 7,
    "prefecture": "福島県",
    "city": "双葉郡葛尾村",
    "town": "以下に掲載がない場合"
  },
  "9791601": {
    "zipcode": "9791601",
    "prefectureCode": "07",
    "prefectureNumber": 7,
    "prefecture": "福島県",
    "city": "双葉郡葛尾村",
    "town": "葛尾"
  },
  "9791602": {
    "zipcode": "9791602",
    "prefectureCode": "07",
    "prefectureNumber": 7,
    "prefecture": "福島県",
    "city": "双葉郡葛尾村",
    "town": "落合"
  },
  "9791603": {
    "zipcode": "9791603",
    "prefectureCode": "07",
    "prefectureNumber": 7,
    "prefecture": "福島県",
    "city": "双葉郡葛尾村",
    "town": "野川"
  },
  "9791604": {
    "zipcode": "9791604",
    "prefectureCode": "07",
    "prefectureNumber": 7,
    "prefecture": "福島県",
    "city": "双葉郡葛尾村",
    "town": "上野川"
  },
  "9791706": {
    "zipcode": "9791706",
    "prefectureCode": "07",
    "prefectureNumber": 7,
    "prefecture": "福島県",
    "city": "双葉郡浪江町",
    "town": "室原（小伝谷６７）"
  },
  "9791751": {
    "zipcode": "9791751",
    "prefectureCode": "07",
    "prefectureNumber": 7,
    "prefecture": "福島県",
    "city": "双葉郡浪江町",
    "town": "赤宇木"
  },
  "9791752": {
    "zipcode": "9791752",
    "prefectureCode": "07",
    "prefectureNumber": 7,
    "prefecture": "福島県",
    "city": "双葉郡浪江町",
    "town": "昼曽根"
  },
  "9791753": {
    "zipcode": "9791753",
    "prefectureCode": "07",
    "prefectureNumber": 7,
    "prefecture": "福島県",
    "city": "双葉郡浪江町",
    "town": "川房"
  },
  "9791754": {
    "zipcode": "9791754",
    "prefectureCode": "07",
    "prefectureNumber": 7,
    "prefecture": "福島県",
    "city": "双葉郡浪江町",
    "town": "南津島"
  },
  "9791755": {
    "zipcode": "9791755",
    "prefectureCode": "07",
    "prefectureNumber": 7,
    "prefecture": "福島県",
    "city": "双葉郡浪江町",
    "town": "羽附"
  },
  "9791756": {
    "zipcode": "9791756",
    "prefectureCode": "07",
    "prefectureNumber": 7,
    "prefecture": "福島県",
    "city": "双葉郡浪江町",
    "town": "下津島"
  },
  "9791757": {
    "zipcode": "9791757",
    "prefectureCode": "07",
    "prefectureNumber": 7,
    "prefecture": "福島県",
    "city": "双葉郡浪江町",
    "town": "津島"
  },
  "9792101": {
    "zipcode": "9792101",
    "prefectureCode": "07",
    "prefectureNumber": 7,
    "prefecture": "福島県",
    "city": "南相馬市",
    "town": "小高区片草"
  },
  "9792102": {
    "zipcode": "9792102",
    "prefectureCode": "07",
    "prefectureNumber": 7,
    "prefecture": "福島県",
    "city": "南相馬市",
    "town": "小高区小高"
  },
  "9792103": {
    "zipcode": "9792103",
    "prefectureCode": "07",
    "prefectureNumber": 7,
    "prefecture": "福島県",
    "city": "南相馬市",
    "town": "小高区大井"
  },
  "9792104": {
    "zipcode": "9792104",
    "prefectureCode": "07",
    "prefectureNumber": 7,
    "prefecture": "福島県",
    "city": "南相馬市",
    "town": "小高区塚原"
  },
  "9792111": {
    "zipcode": "9792111",
    "prefectureCode": "07",
    "prefectureNumber": 7,
    "prefecture": "福島県",
    "city": "南相馬市",
    "town": "小高区仲町"
  },
  "9792112": {
    "zipcode": "9792112",
    "prefectureCode": "07",
    "prefectureNumber": 7,
    "prefecture": "福島県",
    "city": "南相馬市",
    "town": "小高区田町"
  },
  "9792113": {
    "zipcode": "9792113",
    "prefectureCode": "07",
    "prefectureNumber": 7,
    "prefecture": "福島県",
    "city": "南相馬市",
    "town": "小高区関場"
  },
  "9792114": {
    "zipcode": "9792114",
    "prefectureCode": "07",
    "prefectureNumber": 7,
    "prefecture": "福島県",
    "city": "南相馬市",
    "town": "小高区西町"
  },
  "9792115": {
    "zipcode": "9792115",
    "prefectureCode": "07",
    "prefectureNumber": 7,
    "prefecture": "福島県",
    "city": "南相馬市",
    "town": "小高区上町"
  },
  "9792121": {
    "zipcode": "9792121",
    "prefectureCode": "07",
    "prefectureNumber": 7,
    "prefecture": "福島県",
    "city": "南相馬市",
    "town": "小高区東町"
  },
  "9792122": {
    "zipcode": "9792122",
    "prefectureCode": "07",
    "prefectureNumber": 7,
    "prefecture": "福島県",
    "city": "南相馬市",
    "town": "小高区南町"
  },
  "9792123": {
    "zipcode": "9792123",
    "prefectureCode": "07",
    "prefectureNumber": 7,
    "prefecture": "福島県",
    "city": "南相馬市",
    "town": "小高区大町"
  },
  "9792124": {
    "zipcode": "9792124",
    "prefectureCode": "07",
    "prefectureNumber": 7,
    "prefecture": "福島県",
    "city": "南相馬市",
    "town": "小高区本町"
  },
  "9792131": {
    "zipcode": "9792131",
    "prefectureCode": "07",
    "prefectureNumber": 7,
    "prefecture": "福島県",
    "city": "南相馬市",
    "town": "小高区福岡"
  },
  "9792132": {
    "zipcode": "9792132",
    "prefectureCode": "07",
    "prefectureNumber": 7,
    "prefecture": "福島県",
    "city": "南相馬市",
    "town": "小高区水谷"
  },
  "9792133": {
    "zipcode": "9792133",
    "prefectureCode": "07",
    "prefectureNumber": 7,
    "prefecture": "福島県",
    "city": "南相馬市",
    "town": "小高区泉沢"
  },
  "9792134": {
    "zipcode": "9792134",
    "prefectureCode": "07",
    "prefectureNumber": 7,
    "prefecture": "福島県",
    "city": "南相馬市",
    "town": "小高区岡田"
  },
  "9792141": {
    "zipcode": "9792141",
    "prefectureCode": "07",
    "prefectureNumber": 7,
    "prefecture": "福島県",
    "city": "南相馬市",
    "town": "小高区村上"
  },
  "9792142": {
    "zipcode": "9792142",
    "prefectureCode": "07",
    "prefectureNumber": 7,
    "prefecture": "福島県",
    "city": "南相馬市",
    "town": "小高区角部内"
  },
  "9792143": {
    "zipcode": "9792143",
    "prefectureCode": "07",
    "prefectureNumber": 7,
    "prefecture": "福島県",
    "city": "南相馬市",
    "town": "小高区蛯沢"
  },
  "9792144": {
    "zipcode": "9792144",
    "prefectureCode": "07",
    "prefectureNumber": 7,
    "prefecture": "福島県",
    "city": "南相馬市",
    "town": "小高区井田川"
  },
  "9792145": {
    "zipcode": "9792145",
    "prefectureCode": "07",
    "prefectureNumber": 7,
    "prefecture": "福島県",
    "city": "南相馬市",
    "town": "小高区浦尻"
  },
  "9792146": {
    "zipcode": "9792146",
    "prefectureCode": "07",
    "prefectureNumber": 7,
    "prefecture": "福島県",
    "city": "南相馬市",
    "town": "小高区下浦"
  },
  "9792147": {
    "zipcode": "9792147",
    "prefectureCode": "07",
    "prefectureNumber": 7,
    "prefecture": "福島県",
    "city": "南相馬市",
    "town": "小高区女場"
  },
  "9792151": {
    "zipcode": "9792151",
    "prefectureCode": "07",
    "prefectureNumber": 7,
    "prefecture": "福島県",
    "city": "南相馬市",
    "town": "小高区耳谷"
  },
  "9792152": {
    "zipcode": "9792152",
    "prefectureCode": "07",
    "prefectureNumber": 7,
    "prefecture": "福島県",
    "city": "南相馬市",
    "town": "小高区行津"
  },
  "9792153": {
    "zipcode": "9792153",
    "prefectureCode": "07",
    "prefectureNumber": 7,
    "prefecture": "福島県",
    "city": "南相馬市",
    "town": "小高区上浦"
  },
  "9792154": {
    "zipcode": "9792154",
    "prefectureCode": "07",
    "prefectureNumber": 7,
    "prefecture": "福島県",
    "city": "南相馬市",
    "town": "小高区神山"
  },
  "9792155": {
    "zipcode": "9792155",
    "prefectureCode": "07",
    "prefectureNumber": 7,
    "prefecture": "福島県",
    "city": "南相馬市",
    "town": "小高区上根沢"
  },
  "9792156": {
    "zipcode": "9792156",
    "prefectureCode": "07",
    "prefectureNumber": 7,
    "prefecture": "福島県",
    "city": "南相馬市",
    "town": "小高区小屋木"
  },
  "9792157": {
    "zipcode": "9792157",
    "prefectureCode": "07",
    "prefectureNumber": 7,
    "prefecture": "福島県",
    "city": "南相馬市",
    "town": "小高区吉名"
  },
  "9792161": {
    "zipcode": "9792161",
    "prefectureCode": "07",
    "prefectureNumber": 7,
    "prefecture": "福島県",
    "city": "南相馬市",
    "town": "小高区藤木"
  },
  "9792162": {
    "zipcode": "9792162",
    "prefectureCode": "07",
    "prefectureNumber": 7,
    "prefecture": "福島県",
    "city": "南相馬市",
    "town": "小高区飯崎"
  },
  "9792163": {
    "zipcode": "9792163",
    "prefectureCode": "07",
    "prefectureNumber": 7,
    "prefecture": "福島県",
    "city": "南相馬市",
    "town": "小高区大田和"
  },
  "9792164": {
    "zipcode": "9792164",
    "prefectureCode": "07",
    "prefectureNumber": 7,
    "prefecture": "福島県",
    "city": "南相馬市",
    "town": "小高区川房"
  },
  "9792165": {
    "zipcode": "9792165",
    "prefectureCode": "07",
    "prefectureNumber": 7,
    "prefecture": "福島県",
    "city": "南相馬市",
    "town": "小高区金谷"
  },
  "9792171": {
    "zipcode": "9792171",
    "prefectureCode": "07",
    "prefectureNumber": 7,
    "prefecture": "福島県",
    "city": "南相馬市",
    "town": "小高区北鳩原"
  },
  "9792172": {
    "zipcode": "9792172",
    "prefectureCode": "07",
    "prefectureNumber": 7,
    "prefecture": "福島県",
    "city": "南相馬市",
    "town": "小高区南鳩原"
  },
  "9792173": {
    "zipcode": "9792173",
    "prefectureCode": "07",
    "prefectureNumber": 7,
    "prefecture": "福島県",
    "city": "南相馬市",
    "town": "小高区小谷"
  },
  "9792174": {
    "zipcode": "9792174",
    "prefectureCode": "07",
    "prefectureNumber": 7,
    "prefecture": "福島県",
    "city": "南相馬市",
    "town": "小高区大富"
  },
  "9792175": {
    "zipcode": "9792175",
    "prefectureCode": "07",
    "prefectureNumber": 7,
    "prefecture": "福島県",
    "city": "南相馬市",
    "town": "小高区羽倉"
  },
  "9792301": {
    "zipcode": "9792301",
    "prefectureCode": "07",
    "prefectureNumber": 7,
    "prefecture": "福島県",
    "city": "南相馬市",
    "town": "鹿島区永渡"
  },
  "9792302": {
    "zipcode": "9792302",
    "prefectureCode": "07",
    "prefectureNumber": 7,
    "prefecture": "福島県",
    "city": "南相馬市",
    "town": "鹿島区南柚木"
  },
  "9792303": {
    "zipcode": "9792303",
    "prefectureCode": "07",
    "prefectureNumber": 7,
    "prefecture": "福島県",
    "city": "南相馬市",
    "town": "鹿島区北屋形"
  },
  "9792304": {
    "zipcode": "9792304",
    "prefectureCode": "07",
    "prefectureNumber": 7,
    "prefecture": "福島県",
    "city": "南相馬市",
    "town": "鹿島区南屋形"
  },
  "9792305": {
    "zipcode": "9792305",
    "prefectureCode": "07",
    "prefectureNumber": 7,
    "prefecture": "福島県",
    "city": "南相馬市",
    "town": "鹿島区永田"
  },
  "9792311": {
    "zipcode": "9792311",
    "prefectureCode": "07",
    "prefectureNumber": 7,
    "prefecture": "福島県",
    "city": "南相馬市",
    "town": "鹿島区北海老"
  },
  "9792312": {
    "zipcode": "9792312",
    "prefectureCode": "07",
    "prefectureNumber": 7,
    "prefecture": "福島県",
    "city": "南相馬市",
    "town": "鹿島区南海老"
  },
  "9792313": {
    "zipcode": "9792313",
    "prefectureCode": "07",
    "prefectureNumber": 7,
    "prefecture": "福島県",
    "city": "南相馬市",
    "town": "鹿島区北右田"
  },
  "9792314": {
    "zipcode": "9792314",
    "prefectureCode": "07",
    "prefectureNumber": 7,
    "prefecture": "福島県",
    "city": "南相馬市",
    "town": "鹿島区南右田"
  },
  "9792321": {
    "zipcode": "9792321",
    "prefectureCode": "07",
    "prefectureNumber": 7,
    "prefecture": "福島県",
    "city": "南相馬市",
    "town": "鹿島区小島田"
  },
  "9792322": {
    "zipcode": "9792322",
    "prefectureCode": "07",
    "prefectureNumber": 7,
    "prefecture": "福島県",
    "city": "南相馬市",
    "town": "鹿島区大内"
  },
  "9792323": {
    "zipcode": "9792323",
    "prefectureCode": "07",
    "prefectureNumber": 7,
    "prefecture": "福島県",
    "city": "南相馬市",
    "town": "鹿島区烏崎"
  },
  "9792324": {
    "zipcode": "9792324",
    "prefectureCode": "07",
    "prefectureNumber": 7,
    "prefecture": "福島県",
    "city": "南相馬市",
    "town": "鹿島区川子"
  },
  "9792331": {
    "zipcode": "9792331",
    "prefectureCode": "07",
    "prefectureNumber": 7,
    "prefecture": "福島県",
    "city": "南相馬市",
    "town": "鹿島区江垂"
  },
  "9792332": {
    "zipcode": "9792332",
    "prefectureCode": "07",
    "prefectureNumber": 7,
    "prefecture": "福島県",
    "city": "南相馬市",
    "town": "鹿島区塩崎"
  },
  "9792333": {
    "zipcode": "9792333",
    "prefectureCode": "07",
    "prefectureNumber": 7,
    "prefecture": "福島県",
    "city": "南相馬市",
    "town": "鹿島区寺内"
  },
  "9792334": {
    "zipcode": "9792334",
    "prefectureCode": "07",
    "prefectureNumber": 7,
    "prefecture": "福島県",
    "city": "南相馬市",
    "town": "鹿島区西町"
  },
  "9792335": {
    "zipcode": "9792335",
    "prefectureCode": "07",
    "prefectureNumber": 7,
    "prefecture": "福島県",
    "city": "南相馬市",
    "town": "鹿島区鹿島"
  },
  "9792336": {
    "zipcode": "9792336",
    "prefectureCode": "07",
    "prefectureNumber": 7,
    "prefecture": "福島県",
    "city": "南相馬市",
    "town": "鹿島区あさひ"
  },
  "9792441": {
    "zipcode": "9792441",
    "prefectureCode": "07",
    "prefectureNumber": 7,
    "prefecture": "福島県",
    "city": "南相馬市",
    "town": "鹿島区角川原"
  },
  "9792442": {
    "zipcode": "9792442",
    "prefectureCode": "07",
    "prefectureNumber": 7,
    "prefecture": "福島県",
    "city": "南相馬市",
    "town": "鹿島区横手"
  },
  "9792443": {
    "zipcode": "9792443",
    "prefectureCode": "07",
    "prefectureNumber": 7,
    "prefecture": "福島県",
    "city": "南相馬市",
    "town": "鹿島区牛河内"
  },
  "9792444": {
    "zipcode": "9792444",
    "prefectureCode": "07",
    "prefectureNumber": 7,
    "prefecture": "福島県",
    "city": "南相馬市",
    "town": "鹿島区岡和田"
  },
  "9792451": {
    "zipcode": "9792451",
    "prefectureCode": "07",
    "prefectureNumber": 7,
    "prefecture": "福島県",
    "city": "南相馬市",
    "town": "鹿島区浮田"
  },
  "9792452": {
    "zipcode": "9792452",
    "prefectureCode": "07",
    "prefectureNumber": 7,
    "prefecture": "福島県",
    "city": "南相馬市",
    "town": "鹿島区小山田"
  },
  "9792453": {
    "zipcode": "9792453",
    "prefectureCode": "07",
    "prefectureNumber": 7,
    "prefecture": "福島県",
    "city": "南相馬市",
    "town": "鹿島区小池"
  },
  "9792454": {
    "zipcode": "9792454",
    "prefectureCode": "07",
    "prefectureNumber": 7,
    "prefecture": "福島県",
    "city": "南相馬市",
    "town": "鹿島区橲原"
  },
  "9792461": {
    "zipcode": "9792461",
    "prefectureCode": "07",
    "prefectureNumber": 7,
    "prefecture": "福島県",
    "city": "南相馬市",
    "town": "鹿島区山下"
  },
  "9792462": {
    "zipcode": "9792462",
    "prefectureCode": "07",
    "prefectureNumber": 7,
    "prefecture": "福島県",
    "city": "南相馬市",
    "town": "鹿島区上栃窪"
  },
  "9792463": {
    "zipcode": "9792463",
    "prefectureCode": "07",
    "prefectureNumber": 7,
    "prefecture": "福島県",
    "city": "南相馬市",
    "town": "鹿島区栃窪"
  },
  "9792464": {
    "zipcode": "9792464",
    "prefectureCode": "07",
    "prefectureNumber": 7,
    "prefecture": "福島県",
    "city": "南相馬市",
    "town": "鹿島区御山"
  },
  "9792501": {
    "zipcode": "9792501",
    "prefectureCode": "07",
    "prefectureNumber": 7,
    "prefecture": "福島県",
    "city": "相馬市",
    "town": "磯部"
  },
  "9792511": {
    "zipcode": "9792511",
    "prefectureCode": "07",
    "prefectureNumber": 7,
    "prefecture": "福島県",
    "city": "相馬市",
    "town": "蒲庭"
  },
  "9792512": {
    "zipcode": "9792512",
    "prefectureCode": "07",
    "prefectureNumber": 7,
    "prefecture": "福島県",
    "city": "相馬市",
    "town": "柚木"
  },
  "9792521": {
    "zipcode": "9792521",
    "prefectureCode": "07",
    "prefectureNumber": 7,
    "prefecture": "福島県",
    "city": "相馬市",
    "town": "赤木"
  },
  "9792522": {
    "zipcode": "9792522",
    "prefectureCode": "07",
    "prefectureNumber": 7,
    "prefecture": "福島県",
    "city": "相馬市",
    "town": "日下石"
  },
  "9792531": {
    "zipcode": "9792531",
    "prefectureCode": "07",
    "prefectureNumber": 7,
    "prefecture": "福島県",
    "city": "相馬市",
    "town": "立谷"
  },
  "9792532": {
    "zipcode": "9792532",
    "prefectureCode": "07",
    "prefectureNumber": 7,
    "prefecture": "福島県",
    "city": "相馬市",
    "town": "富沢"
  },
  "9792533": {
    "zipcode": "9792533",
    "prefectureCode": "07",
    "prefectureNumber": 7,
    "prefecture": "福島県",
    "city": "相馬市",
    "town": "坪田"
  },
  "9792541": {
    "zipcode": "9792541",
    "prefectureCode": "07",
    "prefectureNumber": 7,
    "prefecture": "福島県",
    "city": "相馬市",
    "town": "今田"
  },
  "9792542": {
    "zipcode": "9792542",
    "prefectureCode": "07",
    "prefectureNumber": 7,
    "prefecture": "福島県",
    "city": "相馬市",
    "town": "成田"
  },
  "9792611": {
    "zipcode": "9792611",
    "prefectureCode": "07",
    "prefectureNumber": 7,
    "prefecture": "福島県",
    "city": "相馬郡新地町",
    "town": "駒ケ嶺"
  },
  "9792700": {
    "zipcode": "9792700",
    "prefectureCode": "07",
    "prefectureNumber": 7,
    "prefecture": "福島県",
    "city": "相馬郡新地町",
    "town": "以下に掲載がない場合"
  },
  "9792701": {
    "zipcode": "9792701",
    "prefectureCode": "07",
    "prefectureNumber": 7,
    "prefecture": "福島県",
    "city": "相馬郡新地町",
    "town": "埓木崎"
  },
  "9792702": {
    "zipcode": "9792702",
    "prefectureCode": "07",
    "prefectureNumber": 7,
    "prefecture": "福島県",
    "city": "相馬郡新地町",
    "town": "谷地小屋"
  },
  "9792703": {
    "zipcode": "9792703",
    "prefectureCode": "07",
    "prefectureNumber": 7,
    "prefecture": "福島県",
    "city": "相馬郡新地町",
    "town": "小川"
  },
  "9792704": {
    "zipcode": "9792704",
    "prefectureCode": "07",
    "prefectureNumber": 7,
    "prefecture": "福島県",
    "city": "相馬郡新地町",
    "town": "大戸浜"
  },
  "9792705": {
    "zipcode": "9792705",
    "prefectureCode": "07",
    "prefectureNumber": 7,
    "prefecture": "福島県",
    "city": "相馬郡新地町",
    "town": "今泉"
  },
  "9792706": {
    "zipcode": "9792706",
    "prefectureCode": "07",
    "prefectureNumber": 7,
    "prefecture": "福島県",
    "city": "相馬郡新地町",
    "town": "杉目"
  },
  "9792707": {
    "zipcode": "9792707",
    "prefectureCode": "07",
    "prefectureNumber": 7,
    "prefecture": "福島県",
    "city": "相馬郡新地町",
    "town": "真弓"
  },
  "9792708": {
    "zipcode": "9792708",
    "prefectureCode": "07",
    "prefectureNumber": 7,
    "prefecture": "福島県",
    "city": "相馬郡新地町",
    "town": "福田"
  },
  "9792709": {
    "zipcode": "9792709",
    "prefectureCode": "07",
    "prefectureNumber": 7,
    "prefecture": "福島県",
    "city": "相馬郡新地町",
    "town": "駅前"
  },
  "9792711": {
    "zipcode": "9792711",
    "prefectureCode": "07",
    "prefectureNumber": 7,
    "prefecture": "福島県",
    "city": "相馬郡新地町",
    "town": "中島"
  },
  "9793111": {
    "zipcode": "9793111",
    "prefectureCode": "07",
    "prefectureNumber": 7,
    "prefecture": "福島県",
    "city": "いわき市",
    "town": "小川町柴原"
  },
  "9793112": {
    "zipcode": "9793112",
    "prefectureCode": "07",
    "prefectureNumber": 7,
    "prefecture": "福島県",
    "city": "いわき市",
    "town": "小川町上平"
  },
  "9793113": {
    "zipcode": "9793113",
    "prefectureCode": "07",
    "prefectureNumber": 7,
    "prefecture": "福島県",
    "city": "いわき市",
    "town": "小川町三島"
  },
  "9793114": {
    "zipcode": "9793114",
    "prefectureCode": "07",
    "prefectureNumber": 7,
    "prefecture": "福島県",
    "city": "いわき市",
    "town": "小川町関場"
  },
  "9793115": {
    "zipcode": "9793115",
    "prefectureCode": "07",
    "prefectureNumber": 7,
    "prefecture": "福島県",
    "city": "いわき市",
    "town": "小川町下小川"
  },
  "9793121": {
    "zipcode": "9793121",
    "prefectureCode": "07",
    "prefectureNumber": 7,
    "prefecture": "福島県",
    "city": "いわき市",
    "town": "小川町西小川"
  },
  "9793122": {
    "zipcode": "9793122",
    "prefectureCode": "07",
    "prefectureNumber": 7,
    "prefecture": "福島県",
    "city": "いわき市",
    "town": "小川町高萩"
  },
  "9793123": {
    "zipcode": "9793123",
    "prefectureCode": "07",
    "prefectureNumber": 7,
    "prefecture": "福島県",
    "city": "いわき市",
    "town": "小川町塩田"
  },
  "9793124": {
    "zipcode": "9793124",
    "prefectureCode": "07",
    "prefectureNumber": 7,
    "prefecture": "福島県",
    "city": "いわき市",
    "town": "小川町上小川"
  },
  "9793125": {
    "zipcode": "9793125",
    "prefectureCode": "07",
    "prefectureNumber": 7,
    "prefecture": "福島県",
    "city": "いわき市",
    "town": "小川町福岡"
  },
  "9793131": {
    "zipcode": "9793131",
    "prefectureCode": "07",
    "prefectureNumber": 7,
    "prefecture": "福島県",
    "city": "いわき市",
    "town": "平赤井"
  },
  "9793132": {
    "zipcode": "9793132",
    "prefectureCode": "07",
    "prefectureNumber": 7,
    "prefecture": "福島県",
    "city": "いわき市",
    "town": "平赤井比良"
  },
  "9793201": {
    "zipcode": "9793201",
    "prefectureCode": "07",
    "prefectureNumber": 7,
    "prefecture": "福島県",
    "city": "いわき市",
    "town": "川前町川前"
  },
  "9793202": {
    "zipcode": "9793202",
    "prefectureCode": "07",
    "prefectureNumber": 7,
    "prefecture": "福島県",
    "city": "いわき市",
    "town": "川前町下桶売"
  },
  "9793203": {
    "zipcode": "9793203",
    "prefectureCode": "07",
    "prefectureNumber": 7,
    "prefecture": "福島県",
    "city": "いわき市",
    "town": "川前町上桶売"
  },
  "9793204": {
    "zipcode": "9793204",
    "prefectureCode": "07",
    "prefectureNumber": 7,
    "prefecture": "福島県",
    "city": "いわき市",
    "town": "川前町小白井"
  }
}
