{
  "9800000": {
    "zipcode": "9800000",
    "prefectureCode": "04",
    "prefectureNumber": 4,
    "prefecture": "宮城県",
    "city": "仙台市青葉区",
    "town": "以下に掲載がない場合"
  },
  "9800001": {
    "zipcode": "9800001",
    "prefectureCode": "04",
    "prefectureNumber": 4,
    "prefecture": "宮城県",
    "city": "仙台市青葉区",
    "town": "中江"
  },
  "9800002": {
    "zipcode": "9800002",
    "prefectureCode": "04",
    "prefectureNumber": 4,
    "prefecture": "宮城県",
    "city": "仙台市青葉区",
    "town": "福沢町"
  },
  "9800003": {
    "zipcode": "9800003",
    "prefectureCode": "04",
    "prefectureNumber": 4,
    "prefecture": "宮城県",
    "city": "仙台市青葉区",
    "town": "小田原（４〜８丁目）"
  },
  "9800004": {
    "zipcode": "9800004",
    "prefectureCode": "04",
    "prefectureNumber": 4,
    "prefecture": "宮城県",
    "city": "仙台市青葉区",
    "town": "宮町"
  },
  "9800005": {
    "zipcode": "9800005",
    "prefectureCode": "04",
    "prefectureNumber": 4,
    "prefecture": "宮城県",
    "city": "仙台市青葉区",
    "town": "梅田町"
  },
  "9800011": {
    "zipcode": "9800011",
    "prefectureCode": "04",
    "prefectureNumber": 4,
    "prefecture": "宮城県",
    "city": "仙台市青葉区",
    "town": "上杉"
  },
  "9800012": {
    "zipcode": "9800012",
    "prefectureCode": "04",
    "prefectureNumber": 4,
    "prefecture": "宮城県",
    "city": "仙台市青葉区",
    "town": "錦町"
  },
  "9800013": {
    "zipcode": "9800013",
    "prefectureCode": "04",
    "prefectureNumber": 4,
    "prefecture": "宮城県",
    "city": "仙台市青葉区",
    "town": "花京院"
  },
  "9800014": {
    "zipcode": "9800014",
    "prefectureCode": "04",
    "prefectureNumber": 4,
    "prefecture": "宮城県",
    "city": "仙台市青葉区",
    "town": "本町"
  },
  "9800021": {
    "zipcode": "9800021",
    "prefectureCode": "04",
    "prefectureNumber": 4,
    "prefecture": "宮城県",
    "city": "仙台市青葉区",
    "town": "中央（次のビルを除く）"
  },
  "9800022": {
    "zipcode": "9800022",
    "prefectureCode": "04",
    "prefectureNumber": 4,
    "prefecture": "宮城県",
    "city": "仙台市青葉区",
    "town": "五橋（１、２丁目）"
  },
  "9800023": {
    "zipcode": "9800023",
    "prefectureCode": "04",
    "prefectureNumber": 4,
    "prefecture": "宮城県",
    "city": "仙台市青葉区",
    "town": "北目町"
  },
  "9800065": {
    "zipcode": "9800065",
    "prefectureCode": "04",
    "prefectureNumber": 4,
    "prefecture": "宮城県",
    "city": "仙台市青葉区",
    "town": "土樋（１丁目「１１を除く」）"
  },
  "9800801": {
    "zipcode": "9800801",
    "prefectureCode": "04",
    "prefectureNumber": 4,
    "prefecture": "宮城県",
    "city": "仙台市青葉区",
    "town": "木町通"
  },
  "9800802": {
    "zipcode": "9800802",
    "prefectureCode": "04",
    "prefectureNumber": 4,
    "prefecture": "宮城県",
    "city": "仙台市青葉区",
    "town": "二日町"
  },
  "9800803": {
    "zipcode": "9800803",
    "prefectureCode": "04",
    "prefectureNumber": 4,
    "prefecture": "宮城県",
    "city": "仙台市青葉区",
    "town": "国分町"
  },
  "9800804": {
    "zipcode": "9800804",
    "prefectureCode": "04",
    "prefectureNumber": 4,
    "prefecture": "宮城県",
    "city": "仙台市青葉区",
    "town": "大町"
  },
  "9800805": {
    "zipcode": "9800805",
    "prefectureCode": "04",
    "prefectureNumber": 4,
    "prefecture": "宮城県",
    "city": "仙台市青葉区",
    "town": "大手町"
  },
  "9800811": {
    "zipcode": "9800811",
    "prefectureCode": "04",
    "prefectureNumber": 4,
    "prefecture": "宮城県",
    "city": "仙台市青葉区",
    "town": "一番町"
  },
  "9800812": {
    "zipcode": "9800812",
    "prefectureCode": "04",
    "prefectureNumber": 4,
    "prefecture": "宮城県",
    "city": "仙台市青葉区",
    "town": "片平"
  },
  "9800813": {
    "zipcode": "9800813",
    "prefectureCode": "04",
    "prefectureNumber": 4,
    "prefecture": "宮城県",
    "city": "仙台市青葉区",
    "town": "米ケ袋"
  },
  "9800814": {
    "zipcode": "9800814",
    "prefectureCode": "04",
    "prefectureNumber": 4,
    "prefecture": "宮城県",
    "city": "仙台市青葉区",
    "town": "霊屋下"
  },
  "9800815": {
    "zipcode": "9800815",
    "prefectureCode": "04",
    "prefectureNumber": 4,
    "prefecture": "宮城県",
    "city": "仙台市青葉区",
    "town": "花壇"
  },
  "9800821": {
    "zipcode": "9800821",
    "prefectureCode": "04",
    "prefectureNumber": 4,
    "prefecture": "宮城県",
    "city": "仙台市青葉区",
    "town": "春日町"
  },
  "9800822": {
    "zipcode": "9800822",
    "prefectureCode": "04",
    "prefectureNumber": 4,
    "prefecture": "宮城県",
    "city": "仙台市青葉区",
    "town": "立町"
  },
  "9800823": {
    "zipcode": "9800823",
    "prefectureCode": "04",
    "prefectureNumber": 4,
    "prefecture": "宮城県",
    "city": "仙台市青葉区",
    "town": "桜ケ岡公園"
  },
  "9800824": {
    "zipcode": "9800824",
    "prefectureCode": "04",
    "prefectureNumber": 4,
    "prefecture": "宮城県",
    "city": "仙台市青葉区",
    "town": "支倉町"
  },
  "9800845": {
    "zipcode": "9800845",
    "prefectureCode": "04",
    "prefectureNumber": 4,
    "prefecture": "宮城県",
    "city": "仙台市青葉区",
    "town": "荒巻（その他）"
  },
  "9800851": {
    "zipcode": "9800851",
    "prefectureCode": "04",
    "prefectureNumber": 4,
    "prefecture": "宮城県",
    "city": "仙台市青葉区",
    "town": "川内明神横丁"
  },
  "9800852": {
    "zipcode": "9800852",
    "prefectureCode": "04",
    "prefectureNumber": 4,
    "prefecture": "宮城県",
    "city": "仙台市青葉区",
    "town": "川内川前丁"
  },
  "9800853": {
    "zipcode": "9800853",
    "prefectureCode": "04",
    "prefectureNumber": 4,
    "prefecture": "宮城県",
    "city": "仙台市青葉区",
    "town": "川内大工町"
  },
  "9800854": {
    "zipcode": "9800854",
    "prefectureCode": "04",
    "prefectureNumber": 4,
    "prefecture": "宮城県",
    "city": "仙台市青葉区",
    "town": "川内中ノ瀬町"
  },
  "9800855": {
    "zipcode": "9800855",
    "prefectureCode": "04",
    "prefectureNumber": 4,
    "prefecture": "宮城県",
    "city": "仙台市青葉区",
    "town": "川内澱橋通"
  },
  "9800856": {
    "zipcode": "9800856",
    "prefectureCode": "04",
    "prefectureNumber": 4,
    "prefecture": "宮城県",
    "city": "仙台市青葉区",
    "town": "青葉山"
  },
  "9800861": {
    "zipcode": "9800861",
    "prefectureCode": "04",
    "prefectureNumber": 4,
    "prefecture": "宮城県",
    "city": "仙台市青葉区",
    "town": "川内元支倉"
  },
  "9800862": {
    "zipcode": "9800862",
    "prefectureCode": "04",
    "prefectureNumber": 4,
    "prefecture": "宮城県",
    "city": "仙台市青葉区",
    "town": "川内"
  },
  "9800863": {
    "zipcode": "9800863",
    "prefectureCode": "04",
    "prefectureNumber": 4,
    "prefecture": "宮城県",
    "city": "仙台市青葉区",
    "town": "川内追廻"
  },
  "9800864": {
    "zipcode": "9800864",
    "prefectureCode": "04",
    "prefectureNumber": 4,
    "prefecture": "宮城県",
    "city": "仙台市青葉区",
    "town": "川内山屋敷"
  },
  "9800865": {
    "zipcode": "9800865",
    "prefectureCode": "04",
    "prefectureNumber": 4,
    "prefecture": "宮城県",
    "city": "仙台市青葉区",
    "town": "川内亀岡町"
  },
  "9800866": {
    "zipcode": "9800866",
    "prefectureCode": "04",
    "prefectureNumber": 4,
    "prefecture": "宮城県",
    "city": "仙台市青葉区",
    "town": "川内三十人町"
  },
  "9800867": {
    "zipcode": "9800867",
    "prefectureCode": "04",
    "prefectureNumber": 4,
    "prefecture": "宮城県",
    "city": "仙台市青葉区",
    "town": "川内亀岡北裏丁"
  },
  "9800871": {
    "zipcode": "9800871",
    "prefectureCode": "04",
    "prefectureNumber": 4,
    "prefecture": "宮城県",
    "city": "仙台市青葉区",
    "town": "八幡"
  },
  "9800872": {
    "zipcode": "9800872",
    "prefectureCode": "04",
    "prefectureNumber": 4,
    "prefecture": "宮城県",
    "city": "仙台市青葉区",
    "town": "星陵町"
  },
  "9800873": {
    "zipcode": "9800873",
    "prefectureCode": "04",
    "prefectureNumber": 4,
    "prefecture": "宮城県",
    "city": "仙台市青葉区",
    "town": "広瀬町"
  },
  "9800874": {
    "zipcode": "9800874",
    "prefectureCode": "04",
    "prefectureNumber": 4,
    "prefecture": "宮城県",
    "city": "仙台市青葉区",
    "town": "角五郎"
  },
  "9806001": {
    "zipcode": "9806001",
    "prefectureCode": "04",
    "prefectureNumber": 4,
    "prefecture": "宮城県",
    "city": "仙台市青葉区",
    "town": "中央ＳＳ３０住友生命仙台中央ビル（１階）"
  },
  "9806002": {
    "zipcode": "9806002",
    "prefectureCode": "04",
    "prefectureNumber": 4,
    "prefecture": "宮城県",
    "city": "仙台市青葉区",
    "town": "中央ＳＳ３０住友生命仙台中央ビル（２階）"
  },
  "9806003": {
    "zipcode": "9806003",
    "prefectureCode": "04",
    "prefectureNumber": 4,
    "prefecture": "宮城県",
    "city": "仙台市青葉区",
    "town": "中央ＳＳ３０住友生命仙台中央ビル（３階）"
  },
  "9806004": {
    "zipcode": "9806004",
    "prefectureCode": "04",
    "prefectureNumber": 4,
    "prefecture": "宮城県",
    "city": "仙台市青葉区",
    "town": "中央ＳＳ３０住友生命仙台中央ビル（４階）"
  },
  "9806005": {
    "zipcode": "9806005",
    "prefectureCode": "04",
    "prefectureNumber": 4,
    "prefecture": "宮城県",
    "city": "仙台市青葉区",
    "town": "中央ＳＳ３０住友生命仙台中央ビル（５階）"
  },
  "9806006": {
    "zipcode": "9806006",
    "prefectureCode": "04",
    "prefectureNumber": 4,
    "prefecture": "宮城県",
    "city": "仙台市青葉区",
    "town": "中央ＳＳ３０住友生命仙台中央ビル（６階）"
  },
  "9806007": {
    "zipcode": "9806007",
    "prefectureCode": "04",
    "prefectureNumber": 4,
    "prefecture": "宮城県",
    "city": "仙台市青葉区",
    "town": "中央ＳＳ３０住友生命仙台中央ビル（７階）"
  },
  "9806008": {
    "zipcode": "9806008",
    "prefectureCode": "04",
    "prefectureNumber": 4,
    "prefecture": "宮城県",
    "city": "仙台市青葉区",
    "town": "中央ＳＳ３０住友生命仙台中央ビル（８階）"
  },
  "9806009": {
    "zipcode": "9806009",
    "prefectureCode": "04",
    "prefectureNumber": 4,
    "prefecture": "宮城県",
    "city": "仙台市青葉区",
    "town": "中央ＳＳ３０住友生命仙台中央ビル（９階）"
  },
  "9806010": {
    "zipcode": "9806010",
    "prefectureCode": "04",
    "prefectureNumber": 4,
    "prefecture": "宮城県",
    "city": "仙台市青葉区",
    "town": "中央ＳＳ３０住友生命仙台中央ビル（１０階）"
  },
  "9806011": {
    "zipcode": "9806011",
    "prefectureCode": "04",
    "prefectureNumber": 4,
    "prefecture": "宮城県",
    "city": "仙台市青葉区",
    "town": "中央ＳＳ３０住友生命仙台中央ビル（１１階）"
  },
  "9806012": {
    "zipcode": "9806012",
    "prefectureCode": "04",
    "prefectureNumber": 4,
    "prefecture": "宮城県",
    "city": "仙台市青葉区",
    "town": "中央ＳＳ３０住友生命仙台中央ビル（１２階）"
  },
  "9806013": {
    "zipcode": "9806013",
    "prefectureCode": "04",
    "prefectureNumber": 4,
    "prefecture": "宮城県",
    "city": "仙台市青葉区",
    "town": "中央ＳＳ３０住友生命仙台中央ビル（１３階）"
  },
  "9806014": {
    "zipcode": "9806014",
    "prefectureCode": "04",
    "prefectureNumber": 4,
    "prefecture": "宮城県",
    "city": "仙台市青葉区",
    "town": "中央ＳＳ３０住友生命仙台中央ビル（１４階）"
  },
  "9806015": {
    "zipcode": "9806015",
    "prefectureCode": "04",
    "prefectureNumber": 4,
    "prefecture": "宮城県",
    "city": "仙台市青葉区",
    "town": "中央ＳＳ３０住友生命仙台中央ビル（１５階）"
  },
  "9806016": {
    "zipcode": "9806016",
    "prefectureCode": "04",
    "prefectureNumber": 4,
    "prefecture": "宮城県",
    "city": "仙台市青葉区",
    "town": "中央ＳＳ３０住友生命仙台中央ビル（１６階）"
  },
  "9806017": {
    "zipcode": "9806017",
    "prefectureCode": "04",
    "prefectureNumber": 4,
    "prefecture": "宮城県",
    "city": "仙台市青葉区",
    "town": "中央ＳＳ３０住友生命仙台中央ビル（１７階）"
  },
  "9806018": {
    "zipcode": "9806018",
    "prefectureCode": "04",
    "prefectureNumber": 4,
    "prefecture": "宮城県",
    "city": "仙台市青葉区",
    "town": "中央ＳＳ３０住友生命仙台中央ビル（１８階）"
  },
  "9806019": {
    "zipcode": "9806019",
    "prefectureCode": "04",
    "prefectureNumber": 4,
    "prefecture": "宮城県",
    "city": "仙台市青葉区",
    "town": "中央ＳＳ３０住友生命仙台中央ビル（１９階）"
  },
  "9806020": {
    "zipcode": "9806020",
    "prefectureCode": "04",
    "prefectureNumber": 4,
    "prefecture": "宮城県",
    "city": "仙台市青葉区",
    "town": "中央ＳＳ３０住友生命仙台中央ビル（２０階）"
  },
  "9806021": {
    "zipcode": "9806021",
    "prefectureCode": "04",
    "prefectureNumber": 4,
    "prefecture": "宮城県",
    "city": "仙台市青葉区",
    "town": "中央ＳＳ３０住友生命仙台中央ビル（２１階）"
  },
  "9806022": {
    "zipcode": "9806022",
    "prefectureCode": "04",
    "prefectureNumber": 4,
    "prefecture": "宮城県",
    "city": "仙台市青葉区",
    "town": "中央ＳＳ３０住友生命仙台中央ビル（２２階）"
  },
  "9806023": {
    "zipcode": "9806023",
    "prefectureCode": "04",
    "prefectureNumber": 4,
    "prefecture": "宮城県",
    "city": "仙台市青葉区",
    "town": "中央ＳＳ３０住友生命仙台中央ビル（２３階）"
  },
  "9806024": {
    "zipcode": "9806024",
    "prefectureCode": "04",
    "prefectureNumber": 4,
    "prefecture": "宮城県",
    "city": "仙台市青葉区",
    "town": "中央ＳＳ３０住友生命仙台中央ビル（２４階）"
  },
  "9806025": {
    "zipcode": "9806025",
    "prefectureCode": "04",
    "prefectureNumber": 4,
    "prefecture": "宮城県",
    "city": "仙台市青葉区",
    "town": "中央ＳＳ３０住友生命仙台中央ビル（２５階）"
  },
  "9806026": {
    "zipcode": "9806026",
    "prefectureCode": "04",
    "prefectureNumber": 4,
    "prefecture": "宮城県",
    "city": "仙台市青葉区",
    "town": "中央ＳＳ３０住友生命仙台中央ビル（２６階）"
  },
  "9806027": {
    "zipcode": "9806027",
    "prefectureCode": "04",
    "prefectureNumber": 4,
    "prefecture": "宮城県",
    "city": "仙台市青葉区",
    "town": "中央ＳＳ３０住友生命仙台中央ビル（２７階）"
  },
  "9806028": {
    "zipcode": "9806028",
    "prefectureCode": "04",
    "prefectureNumber": 4,
    "prefecture": "宮城県",
    "city": "仙台市青葉区",
    "town": "中央ＳＳ３０住友生命仙台中央ビル（２８階）"
  },
  "9806029": {
    "zipcode": "9806029",
    "prefectureCode": "04",
    "prefectureNumber": 4,
    "prefecture": "宮城県",
    "city": "仙台市青葉区",
    "town": "中央ＳＳ３０住友生命仙台中央ビル（２９階）"
  },
  "9806030": {
    "zipcode": "9806030",
    "prefectureCode": "04",
    "prefectureNumber": 4,
    "prefecture": "宮城県",
    "city": "仙台市青葉区",
    "town": "中央ＳＳ３０住友生命仙台中央ビル（３０階）"
  },
  "9806090": {
    "zipcode": "9806090",
    "prefectureCode": "04",
    "prefectureNumber": 4,
    "prefecture": "宮城県",
    "city": "仙台市青葉区",
    "town": "中央ＳＳ３０住友生命仙台中央ビル（地階・階層不明）"
  },
  "9806101": {
    "zipcode": "9806101",
    "prefectureCode": "04",
    "prefectureNumber": 4,
    "prefecture": "宮城県",
    "city": "仙台市青葉区",
    "town": "中央アエル（１階）"
  },
  "9806102": {
    "zipcode": "9806102",
    "prefectureCode": "04",
    "prefectureNumber": 4,
    "prefecture": "宮城県",
    "city": "仙台市青葉区",
    "town": "中央アエル（２階）"
  },
  "9806103": {
    "zipcode": "9806103",
    "prefectureCode": "04",
    "prefectureNumber": 4,
    "prefecture": "宮城県",
    "city": "仙台市青葉区",
    "town": "中央アエル（３階）"
  },
  "9806104": {
    "zipcode": "9806104",
    "prefectureCode": "04",
    "prefectureNumber": 4,
    "prefecture": "宮城県",
    "city": "仙台市青葉区",
    "town": "中央アエル（４階）"
  },
  "9806105": {
    "zipcode": "9806105",
    "prefectureCode": "04",
    "prefectureNumber": 4,
    "prefecture": "宮城県",
    "city": "仙台市青葉区",
    "town": "中央アエル（５階）"
  },
  "9806106": {
    "zipcode": "9806106",
    "prefectureCode": "04",
    "prefectureNumber": 4,
    "prefecture": "宮城県",
    "city": "仙台市青葉区",
    "town": "中央アエル（６階）"
  },
  "9806107": {
    "zipcode": "9806107",
    "prefectureCode": "04",
    "prefectureNumber": 4,
    "prefecture": "宮城県",
    "city": "仙台市青葉区",
    "town": "中央アエル（７階）"
  },
  "9806108": {
    "zipcode": "9806108",
    "prefectureCode": "04",
    "prefectureNumber": 4,
    "prefecture": "宮城県",
    "city": "仙台市青葉区",
    "town": "中央アエル（８階）"
  },
  "9806109": {
    "zipcode": "9806109",
    "prefectureCode": "04",
    "prefectureNumber": 4,
    "prefecture": "宮城県",
    "city": "仙台市青葉区",
    "town": "中央アエル（９階）"
  },
  "9806110": {
    "zipcode": "9806110",
    "prefectureCode": "04",
    "prefectureNumber": 4,
    "prefecture": "宮城県",
    "city": "仙台市青葉区",
    "town": "中央アエル（１０階）"
  },
  "9806111": {
    "zipcode": "9806111",
    "prefectureCode": "04",
    "prefectureNumber": 4,
    "prefecture": "宮城県",
    "city": "仙台市青葉区",
    "town": "中央アエル（１１階）"
  },
  "9806112": {
    "zipcode": "9806112",
    "prefectureCode": "04",
    "prefectureNumber": 4,
    "prefecture": "宮城県",
    "city": "仙台市青葉区",
    "town": "中央アエル（１２階）"
  },
  "9806113": {
    "zipcode": "9806113",
    "prefectureCode": "04",
    "prefectureNumber": 4,
    "prefecture": "宮城県",
    "city": "仙台市青葉区",
    "town": "中央アエル（１３階）"
  },
  "9806114": {
    "zipcode": "9806114",
    "prefectureCode": "04",
    "prefectureNumber": 4,
    "prefecture": "宮城県",
    "city": "仙台市青葉区",
    "town": "中央アエル（１４階）"
  },
  "9806115": {
    "zipcode": "9806115",
    "prefectureCode": "04",
    "prefectureNumber": 4,
    "prefecture": "宮城県",
    "city": "仙台市青葉区",
    "town": "中央アエル（１５階）"
  },
  "9806116": {
    "zipcode": "9806116",
    "prefectureCode": "04",
    "prefectureNumber": 4,
    "prefecture": "宮城県",
    "city": "仙台市青葉区",
    "town": "中央アエル（１６階）"
  },
  "9806117": {
    "zipcode": "9806117",
    "prefectureCode": "04",
    "prefectureNumber": 4,
    "prefecture": "宮城県",
    "city": "仙台市青葉区",
    "town": "中央アエル（１７階）"
  },
  "9806118": {
    "zipcode": "9806118",
    "prefectureCode": "04",
    "prefectureNumber": 4,
    "prefecture": "宮城県",
    "city": "仙台市青葉区",
    "town": "中央アエル（１８階）"
  },
  "9806119": {
    "zipcode": "9806119",
    "prefectureCode": "04",
    "prefectureNumber": 4,
    "prefecture": "宮城県",
    "city": "仙台市青葉区",
    "town": "中央アエル（１９階）"
  },
  "9806120": {
    "zipcode": "9806120",
    "prefectureCode": "04",
    "prefectureNumber": 4,
    "prefecture": "宮城県",
    "city": "仙台市青葉区",
    "town": "中央アエル（２０階）"
  },
  "9806121": {
    "zipcode": "9806121",
    "prefectureCode": "04",
    "prefectureNumber": 4,
    "prefecture": "宮城県",
    "city": "仙台市青葉区",
    "town": "中央アエル（２１階）"
  },
  "9806122": {
    "zipcode": "9806122",
    "prefectureCode": "04",
    "prefectureNumber": 4,
    "prefecture": "宮城県",
    "city": "仙台市青葉区",
    "town": "中央アエル（２２階）"
  },
  "9806123": {
    "zipcode": "9806123",
    "prefectureCode": "04",
    "prefectureNumber": 4,
    "prefecture": "宮城県",
    "city": "仙台市青葉区",
    "town": "中央アエル（２３階）"
  },
  "9806124": {
    "zipcode": "9806124",
    "prefectureCode": "04",
    "prefectureNumber": 4,
    "prefecture": "宮城県",
    "city": "仙台市青葉区",
    "town": "中央アエル（２４階）"
  },
  "9806125": {
    "zipcode": "9806125",
    "prefectureCode": "04",
    "prefectureNumber": 4,
    "prefecture": "宮城県",
    "city": "仙台市青葉区",
    "town": "中央アエル（２５階）"
  },
  "9806126": {
    "zipcode": "9806126",
    "prefectureCode": "04",
    "prefectureNumber": 4,
    "prefecture": "宮城県",
    "city": "仙台市青葉区",
    "town": "中央アエル（２６階）"
  },
  "9806127": {
    "zipcode": "9806127",
    "prefectureCode": "04",
    "prefectureNumber": 4,
    "prefecture": "宮城県",
    "city": "仙台市青葉区",
    "town": "中央アエル（２７階）"
  },
  "9806128": {
    "zipcode": "9806128",
    "prefectureCode": "04",
    "prefectureNumber": 4,
    "prefecture": "宮城県",
    "city": "仙台市青葉区",
    "town": "中央アエル（２８階）"
  },
  "9806129": {
    "zipcode": "9806129",
    "prefectureCode": "04",
    "prefectureNumber": 4,
    "prefecture": "宮城県",
    "city": "仙台市青葉区",
    "town": "中央アエル（２９階）"
  },
  "9806130": {
    "zipcode": "9806130",
    "prefectureCode": "04",
    "prefectureNumber": 4,
    "prefecture": "宮城県",
    "city": "仙台市青葉区",
    "town": "中央アエル（３０階）"
  },
  "9806131": {
    "zipcode": "9806131",
    "prefectureCode": "04",
    "prefectureNumber": 4,
    "prefecture": "宮城県",
    "city": "仙台市青葉区",
    "town": "中央アエル（３１階）"
  },
  "9806190": {
    "zipcode": "9806190",
    "prefectureCode": "04",
    "prefectureNumber": 4,
    "prefecture": "宮城県",
    "city": "仙台市青葉区",
    "town": "中央アエル（地階・階層不明）"
  }
}
