{
  "9820000": {
    "zipcode": "9820000",
    "prefectureCode": "04",
    "prefectureNumber": 4,
    "prefecture": "宮城県",
    "city": "仙台市太白区",
    "town": "以下に掲載がない場合"
  },
  "9820001": {
    "zipcode": "9820001",
    "prefectureCode": "04",
    "prefectureNumber": 4,
    "prefecture": "宮城県",
    "city": "仙台市太白区",
    "town": "八本松"
  },
  "9820002": {
    "zipcode": "9820002",
    "prefectureCode": "04",
    "prefectureNumber": 4,
    "prefecture": "宮城県",
    "city": "仙台市太白区",
    "town": "飯田"
  },
  "9820003": {
    "zipcode": "9820003",
    "prefectureCode": "04",
    "prefectureNumber": 4,
    "prefecture": "宮城県",
    "city": "仙台市太白区",
    "town": "郡山"
  },
  "9820004": {
    "zipcode": "9820004",
    "prefectureCode": "04",
    "prefectureNumber": 4,
    "prefecture": "宮城県",
    "city": "仙台市太白区",
    "town": "東大野田"
  },
  "9820005": {
    "zipcode": "9820005",
    "prefectureCode": "04",
    "prefectureNumber": 4,
    "prefecture": "宮城県",
    "city": "仙台市太白区",
    "town": "諏訪町"
  },
  "9820006": {
    "zipcode": "9820006",
    "prefectureCode": "04",
    "prefectureNumber": 4,
    "prefecture": "宮城県",
    "city": "仙台市太白区",
    "town": "東郡山"
  },
  "9820007": {
    "zipcode": "9820007",
    "prefectureCode": "04",
    "prefectureNumber": 4,
    "prefecture": "宮城県",
    "city": "仙台市太白区",
    "town": "あすと長町"
  },
  "9820011": {
    "zipcode": "9820011",
    "prefectureCode": "04",
    "prefectureNumber": 4,
    "prefecture": "宮城県",
    "city": "仙台市太白区",
    "town": "長町"
  },
  "9820012": {
    "zipcode": "9820012",
    "prefectureCode": "04",
    "prefectureNumber": 4,
    "prefecture": "宮城県",
    "city": "仙台市太白区",
    "town": "長町南"
  },
  "9820013": {
    "zipcode": "9820013",
    "prefectureCode": "04",
    "prefectureNumber": 4,
    "prefecture": "宮城県",
    "city": "仙台市太白区",
    "town": "太子堂"
  },
  "9820014": {
    "zipcode": "9820014",
    "prefectureCode": "04",
    "prefectureNumber": 4,
    "prefecture": "宮城県",
    "city": "仙台市太白区",
    "town": "大野田"
  },
  "9820015": {
    "zipcode": "9820015",
    "prefectureCode": "04",
    "prefectureNumber": 4,
    "prefecture": "宮城県",
    "city": "仙台市太白区",
    "town": "南大野田"
  },
  "9820021": {
    "zipcode": "9820021",
    "prefectureCode": "04",
    "prefectureNumber": 4,
    "prefecture": "宮城県",
    "city": "仙台市太白区",
    "town": "緑ケ丘"
  },
  "9820022": {
    "zipcode": "9820022",
    "prefectureCode": "04",
    "prefectureNumber": 4,
    "prefecture": "宮城県",
    "city": "仙台市太白区",
    "town": "鹿野本町"
  },
  "9820023": {
    "zipcode": "9820023",
    "prefectureCode": "04",
    "prefectureNumber": 4,
    "prefecture": "宮城県",
    "city": "仙台市太白区",
    "town": "鹿野"
  },
  "9820024": {
    "zipcode": "9820024",
    "prefectureCode": "04",
    "prefectureNumber": 4,
    "prefecture": "宮城県",
    "city": "仙台市太白区",
    "town": "砂押南町"
  },
  "9820025": {
    "zipcode": "9820025",
    "prefectureCode": "04",
    "prefectureNumber": 4,
    "prefecture": "宮城県",
    "city": "仙台市太白区",
    "town": "砂押町"
  },
  "9820026": {
    "zipcode": "9820026",
    "prefectureCode": "04",
    "prefectureNumber": 4,
    "prefecture": "宮城県",
    "city": "仙台市太白区",
    "town": "土手内"
  },
  "9820027": {
    "zipcode": "9820027",
    "prefectureCode": "04",
    "prefectureNumber": 4,
    "prefecture": "宮城県",
    "city": "仙台市太白区",
    "town": "大塒町"
  },
  "9820031": {
    "zipcode": "9820031",
    "prefectureCode": "04",
    "prefectureNumber": 4,
    "prefecture": "宮城県",
    "city": "仙台市太白区",
    "town": "泉崎"
  },
  "9820032": {
    "zipcode": "9820032",
    "prefectureCode": "04",
    "prefectureNumber": 4,
    "prefecture": "宮城県",
    "city": "仙台市太白区",
    "town": "富沢"
  },
  "9820033": {
    "zipcode": "9820033",
    "prefectureCode": "04",
    "prefectureNumber": 4,
    "prefecture": "宮城県",
    "city": "仙台市太白区",
    "town": "富田"
  },
  "9820034": {
    "zipcode": "9820034",
    "prefectureCode": "04",
    "prefectureNumber": 4,
    "prefecture": "宮城県",
    "city": "仙台市太白区",
    "town": "西多賀"
  },
  "9820035": {
    "zipcode": "9820035",
    "prefectureCode": "04",
    "prefectureNumber": 4,
    "prefecture": "宮城県",
    "city": "仙台市太白区",
    "town": "大谷地"
  },
  "9820036": {
    "zipcode": "9820036",
    "prefectureCode": "04",
    "prefectureNumber": 4,
    "prefecture": "宮城県",
    "city": "仙台市太白区",
    "town": "富沢南"
  },
  "9820037": {
    "zipcode": "9820037",
    "prefectureCode": "04",
    "prefectureNumber": 4,
    "prefecture": "宮城県",
    "city": "仙台市太白区",
    "town": "富沢西"
  },
  "9820211": {
    "zipcode": "9820211",
    "prefectureCode": "04",
    "prefectureNumber": 4,
    "prefecture": "宮城県",
    "city": "仙台市太白区",
    "town": "佐保山"
  },
  "9820212": {
    "zipcode": "9820212",
    "prefectureCode": "04",
    "prefectureNumber": 4,
    "prefecture": "宮城県",
    "city": "仙台市太白区",
    "town": "太白"
  },
  "9820213": {
    "zipcode": "9820213",
    "prefectureCode": "04",
    "prefectureNumber": 4,
    "prefecture": "宮城県",
    "city": "仙台市太白区",
    "town": "山田自由ケ丘"
  },
  "9820214": {
    "zipcode": "9820214",
    "prefectureCode": "04",
    "prefectureNumber": 4,
    "prefecture": "宮城県",
    "city": "仙台市太白区",
    "town": "山田（山田山２４−２）"
  },
  "9820215": {
    "zipcode": "9820215",
    "prefectureCode": "04",
    "prefectureNumber": 4,
    "prefecture": "宮城県",
    "city": "仙台市太白区",
    "town": "旗立"
  },
  "9820221": {
    "zipcode": "9820221",
    "prefectureCode": "04",
    "prefectureNumber": 4,
    "prefecture": "宮城県",
    "city": "仙台市太白区",
    "town": "日本平"
  },
  "9820222": {
    "zipcode": "9820222",
    "prefectureCode": "04",
    "prefectureNumber": 4,
    "prefecture": "宮城県",
    "city": "仙台市太白区",
    "town": "人来田"
  },
  "9820231": {
    "zipcode": "9820231",
    "prefectureCode": "04",
    "prefectureNumber": 4,
    "prefecture": "宮城県",
    "city": "仙台市太白区",
    "town": "坪沼"
  },
  "9820241": {
    "zipcode": "9820241",
    "prefectureCode": "04",
    "prefectureNumber": 4,
    "prefecture": "宮城県",
    "city": "仙台市太白区",
    "town": "秋保町湯元"
  },
  "9820242": {
    "zipcode": "9820242",
    "prefectureCode": "04",
    "prefectureNumber": 4,
    "prefecture": "宮城県",
    "city": "仙台市太白区",
    "town": "秋保町境野"
  },
  "9820243": {
    "zipcode": "9820243",
    "prefectureCode": "04",
    "prefectureNumber": 4,
    "prefecture": "宮城県",
    "city": "仙台市太白区",
    "town": "秋保町長袋"
  },
  "9820244": {
    "zipcode": "9820244",
    "prefectureCode": "04",
    "prefectureNumber": 4,
    "prefecture": "宮城県",
    "city": "仙台市太白区",
    "town": "秋保町馬場"
  },
  "9820245": {
    "zipcode": "9820245",
    "prefectureCode": "04",
    "prefectureNumber": 4,
    "prefecture": "宮城県",
    "city": "仙台市太白区",
    "town": "秋保町湯向"
  },
  "9820251": {
    "zipcode": "9820251",
    "prefectureCode": "04",
    "prefectureNumber": 4,
    "prefecture": "宮城県",
    "city": "仙台市太白区",
    "town": "茂庭"
  },
  "9820252": {
    "zipcode": "9820252",
    "prefectureCode": "04",
    "prefectureNumber": 4,
    "prefecture": "宮城県",
    "city": "仙台市太白区",
    "town": "茂庭台"
  },
  "9820801": {
    "zipcode": "9820801",
    "prefectureCode": "04",
    "prefectureNumber": 4,
    "prefecture": "宮城県",
    "city": "仙台市太白区",
    "town": "八木山本町"
  },
  "9820802": {
    "zipcode": "9820802",
    "prefectureCode": "04",
    "prefectureNumber": 4,
    "prefecture": "宮城県",
    "city": "仙台市太白区",
    "town": "八木山東"
  },
  "9820803": {
    "zipcode": "9820803",
    "prefectureCode": "04",
    "prefectureNumber": 4,
    "prefecture": "宮城県",
    "city": "仙台市太白区",
    "town": "金剛沢"
  },
  "9820804": {
    "zipcode": "9820804",
    "prefectureCode": "04",
    "prefectureNumber": 4,
    "prefecture": "宮城県",
    "city": "仙台市太白区",
    "town": "鈎取"
  },
  "9820805": {
    "zipcode": "9820805",
    "prefectureCode": "04",
    "prefectureNumber": 4,
    "prefecture": "宮城県",
    "city": "仙台市太白区",
    "town": "鈎取本町"
  },
  "9820806": {
    "zipcode": "9820806",
    "prefectureCode": "04",
    "prefectureNumber": 4,
    "prefecture": "宮城県",
    "city": "仙台市太白区",
    "town": "御堂平"
  },
  "9820807": {
    "zipcode": "9820807",
    "prefectureCode": "04",
    "prefectureNumber": 4,
    "prefecture": "宮城県",
    "city": "仙台市太白区",
    "town": "八木山南"
  },
  "9820811": {
    "zipcode": "9820811",
    "prefectureCode": "04",
    "prefectureNumber": 4,
    "prefecture": "宮城県",
    "city": "仙台市太白区",
    "town": "ひより台"
  },
  "9820812": {
    "zipcode": "9820812",
    "prefectureCode": "04",
    "prefectureNumber": 4,
    "prefecture": "宮城県",
    "city": "仙台市太白区",
    "town": "上野山"
  },
  "9820813": {
    "zipcode": "9820813",
    "prefectureCode": "04",
    "prefectureNumber": 4,
    "prefecture": "宮城県",
    "city": "仙台市太白区",
    "town": "山田北前町"
  },
  "9820814": {
    "zipcode": "9820814",
    "prefectureCode": "04",
    "prefectureNumber": 4,
    "prefecture": "宮城県",
    "city": "仙台市太白区",
    "town": "山田（その他）"
  },
  "9820815": {
    "zipcode": "9820815",
    "prefectureCode": "04",
    "prefectureNumber": 4,
    "prefecture": "宮城県",
    "city": "仙台市太白区",
    "town": "山田上ノ台町"
  },
  "9820816": {
    "zipcode": "9820816",
    "prefectureCode": "04",
    "prefectureNumber": 4,
    "prefecture": "宮城県",
    "city": "仙台市太白区",
    "town": "山田本町"
  },
  "9820817": {
    "zipcode": "9820817",
    "prefectureCode": "04",
    "prefectureNumber": 4,
    "prefecture": "宮城県",
    "city": "仙台市太白区",
    "town": "羽黒台"
  },
  "9820818": {
    "zipcode": "9820818",
    "prefectureCode": "04",
    "prefectureNumber": 4,
    "prefecture": "宮城県",
    "city": "仙台市太白区",
    "town": "山田新町"
  },
  "9820821": {
    "zipcode": "9820821",
    "prefectureCode": "04",
    "prefectureNumber": 4,
    "prefecture": "宮城県",
    "city": "仙台市太白区",
    "town": "松が丘"
  },
  "9820822": {
    "zipcode": "9820822",
    "prefectureCode": "04",
    "prefectureNumber": 4,
    "prefecture": "宮城県",
    "city": "仙台市太白区",
    "town": "若葉町"
  },
  "9820823": {
    "zipcode": "9820823",
    "prefectureCode": "04",
    "prefectureNumber": 4,
    "prefecture": "宮城県",
    "city": "仙台市太白区",
    "town": "恵和町"
  },
  "9820824": {
    "zipcode": "9820824",
    "prefectureCode": "04",
    "prefectureNumber": 4,
    "prefecture": "宮城県",
    "city": "仙台市太白区",
    "town": "芦の口"
  },
  "9820825": {
    "zipcode": "9820825",
    "prefectureCode": "04",
    "prefectureNumber": 4,
    "prefecture": "宮城県",
    "city": "仙台市太白区",
    "town": "西の平"
  },
  "9820826": {
    "zipcode": "9820826",
    "prefectureCode": "04",
    "prefectureNumber": 4,
    "prefecture": "宮城県",
    "city": "仙台市太白区",
    "town": "三神峯"
  },
  "9820831": {
    "zipcode": "9820831",
    "prefectureCode": "04",
    "prefectureNumber": 4,
    "prefecture": "宮城県",
    "city": "仙台市太白区",
    "town": "八木山香澄町"
  },
  "9820832": {
    "zipcode": "9820832",
    "prefectureCode": "04",
    "prefectureNumber": 4,
    "prefecture": "宮城県",
    "city": "仙台市太白区",
    "town": "八木山緑町"
  },
  "9820833": {
    "zipcode": "9820833",
    "prefectureCode": "04",
    "prefectureNumber": 4,
    "prefecture": "宮城県",
    "city": "仙台市太白区",
    "town": "八木山弥生町"
  },
  "9820834": {
    "zipcode": "9820834",
    "prefectureCode": "04",
    "prefectureNumber": 4,
    "prefecture": "宮城県",
    "city": "仙台市太白区",
    "town": "青山"
  },
  "9820835": {
    "zipcode": "9820835",
    "prefectureCode": "04",
    "prefectureNumber": 4,
    "prefecture": "宮城県",
    "city": "仙台市太白区",
    "town": "桜木町"
  },
  "9820836": {
    "zipcode": "9820836",
    "prefectureCode": "04",
    "prefectureNumber": 4,
    "prefecture": "宮城県",
    "city": "仙台市太白区",
    "town": "八木山松波町"
  },
  "9820837": {
    "zipcode": "9820837",
    "prefectureCode": "04",
    "prefectureNumber": 4,
    "prefecture": "宮城県",
    "city": "仙台市太白区",
    "town": "長町（越路）"
  },
  "9820841": {
    "zipcode": "9820841",
    "prefectureCode": "04",
    "prefectureNumber": 4,
    "prefecture": "宮城県",
    "city": "仙台市太白区",
    "town": "向山"
  },
  "9820842": {
    "zipcode": "9820842",
    "prefectureCode": "04",
    "prefectureNumber": 4,
    "prefecture": "宮城県",
    "city": "仙台市太白区",
    "town": "越路"
  },
  "9820843": {
    "zipcode": "9820843",
    "prefectureCode": "04",
    "prefectureNumber": 4,
    "prefecture": "宮城県",
    "city": "仙台市太白区",
    "town": "茂ケ崎"
  },
  "9820844": {
    "zipcode": "9820844",
    "prefectureCode": "04",
    "prefectureNumber": 4,
    "prefecture": "宮城県",
    "city": "仙台市太白区",
    "town": "根岸町"
  },
  "9820845": {
    "zipcode": "9820845",
    "prefectureCode": "04",
    "prefectureNumber": 4,
    "prefecture": "宮城県",
    "city": "仙台市太白区",
    "town": "門前町"
  },
  "9820846": {
    "zipcode": "9820846",
    "prefectureCode": "04",
    "prefectureNumber": 4,
    "prefecture": "宮城県",
    "city": "仙台市太白区",
    "town": "二ツ沢"
  },
  "9820847": {
    "zipcode": "9820847",
    "prefectureCode": "04",
    "prefectureNumber": 4,
    "prefecture": "宮城県",
    "city": "仙台市太白区",
    "town": "長嶺"
  },
  "9820848": {
    "zipcode": "9820848",
    "prefectureCode": "04",
    "prefectureNumber": 4,
    "prefecture": "宮城県",
    "city": "仙台市太白区",
    "town": "萩ケ丘"
  }
}
