{
  "9840000": {
    "zipcode": "9840000",
    "prefectureCode": "04",
    "prefectureNumber": 4,
    "prefecture": "宮城県",
    "city": "仙台市若林区",
    "town": "以下に掲載がない場合"
  },
  "9840001": {
    "zipcode": "9840001",
    "prefectureCode": "04",
    "prefectureNumber": 4,
    "prefecture": "宮城県",
    "city": "仙台市若林区",
    "town": "鶴代町"
  },
  "9840002": {
    "zipcode": "9840002",
    "prefectureCode": "04",
    "prefectureNumber": 4,
    "prefecture": "宮城県",
    "city": "仙台市若林区",
    "town": "卸町東"
  },
  "9840003": {
    "zipcode": "9840003",
    "prefectureCode": "04",
    "prefectureNumber": 4,
    "prefecture": "宮城県",
    "city": "仙台市若林区",
    "town": "六丁の目北町"
  },
  "9840004": {
    "zipcode": "9840004",
    "prefectureCode": "04",
    "prefectureNumber": 4,
    "prefecture": "宮城県",
    "city": "仙台市若林区",
    "town": "六丁の目東町"
  },
  "9840011": {
    "zipcode": "9840011",
    "prefectureCode": "04",
    "prefectureNumber": 4,
    "prefecture": "宮城県",
    "city": "仙台市若林区",
    "town": "六丁の目西町"
  },
  "9840012": {
    "zipcode": "9840012",
    "prefectureCode": "04",
    "prefectureNumber": 4,
    "prefecture": "宮城県",
    "city": "仙台市若林区",
    "town": "六丁の目中町"
  },
  "9840013": {
    "zipcode": "9840013",
    "prefectureCode": "04",
    "prefectureNumber": 4,
    "prefecture": "宮城県",
    "city": "仙台市若林区",
    "town": "六丁の目南町"
  },
  "9840014": {
    "zipcode": "9840014",
    "prefectureCode": "04",
    "prefectureNumber": 4,
    "prefecture": "宮城県",
    "city": "仙台市若林区",
    "town": "六丁の目元町"
  },
  "9840015": {
    "zipcode": "9840015",
    "prefectureCode": "04",
    "prefectureNumber": 4,
    "prefecture": "宮城県",
    "city": "仙台市若林区",
    "town": "卸町"
  },
  "9840016": {
    "zipcode": "9840016",
    "prefectureCode": "04",
    "prefectureNumber": 4,
    "prefecture": "宮城県",
    "city": "仙台市若林区",
    "town": "蒲町東"
  },
  "9840017": {
    "zipcode": "9840017",
    "prefectureCode": "04",
    "prefectureNumber": 4,
    "prefecture": "宮城県",
    "city": "仙台市若林区",
    "town": "なないろの里"
  },
  "9840022": {
    "zipcode": "9840022",
    "prefectureCode": "04",
    "prefectureNumber": 4,
    "prefecture": "宮城県",
    "city": "仙台市若林区",
    "town": "五橋（３丁目）"
  },
  "9840030": {
    "zipcode": "9840030",
    "prefectureCode": "04",
    "prefectureNumber": 4,
    "prefecture": "宮城県",
    "city": "仙台市若林区",
    "town": "荒井東"
  },
  "9840031": {
    "zipcode": "9840031",
    "prefectureCode": "04",
    "prefectureNumber": 4,
    "prefecture": "宮城県",
    "city": "仙台市若林区",
    "town": "六丁目"
  },
  "9840032": {
    "zipcode": "9840032",
    "prefectureCode": "04",
    "prefectureNumber": 4,
    "prefecture": "宮城県",
    "city": "仙台市若林区",
    "town": "荒井"
  },
  "9840033": {
    "zipcode": "9840033",
    "prefectureCode": "04",
    "prefectureNumber": 4,
    "prefecture": "宮城県",
    "city": "仙台市若林区",
    "town": "荒浜"
  },
  "9840034": {
    "zipcode": "9840034",
    "prefectureCode": "04",
    "prefectureNumber": 4,
    "prefecture": "宮城県",
    "city": "仙台市若林区",
    "town": "荒浜新"
  },
  "9840035": {
    "zipcode": "9840035",
    "prefectureCode": "04",
    "prefectureNumber": 4,
    "prefecture": "宮城県",
    "city": "仙台市若林区",
    "town": "霞目"
  },
  "9840036": {
    "zipcode": "9840036",
    "prefectureCode": "04",
    "prefectureNumber": 4,
    "prefecture": "宮城県",
    "city": "仙台市若林区",
    "town": "長喜城"
  },
  "9840037": {
    "zipcode": "9840037",
    "prefectureCode": "04",
    "prefectureNumber": 4,
    "prefecture": "宮城県",
    "city": "仙台市若林区",
    "town": "蒲町"
  },
  "9840038": {
    "zipcode": "9840038",
    "prefectureCode": "04",
    "prefectureNumber": 4,
    "prefecture": "宮城県",
    "city": "仙台市若林区",
    "town": "伊在"
  },
  "9840039": {
    "zipcode": "9840039",
    "prefectureCode": "04",
    "prefectureNumber": 4,
    "prefecture": "宮城県",
    "city": "仙台市若林区",
    "town": "荒井南"
  },
  "9840041": {
    "zipcode": "9840041",
    "prefectureCode": "04",
    "prefectureNumber": 4,
    "prefecture": "宮城県",
    "city": "仙台市若林区",
    "town": "志波町"
  },
  "9840042": {
    "zipcode": "9840042",
    "prefectureCode": "04",
    "prefectureNumber": 4,
    "prefecture": "宮城県",
    "city": "仙台市若林区",
    "town": "大和町"
  },
  "9840043": {
    "zipcode": "9840043",
    "prefectureCode": "04",
    "prefectureNumber": 4,
    "prefecture": "宮城県",
    "city": "仙台市若林区",
    "town": "東新丁"
  },
  "9840044": {
    "zipcode": "9840044",
    "prefectureCode": "04",
    "prefectureNumber": 4,
    "prefecture": "宮城県",
    "city": "仙台市若林区",
    "town": "椌木通"
  },
  "9840045": {
    "zipcode": "9840045",
    "prefectureCode": "04",
    "prefectureNumber": 4,
    "prefecture": "宮城県",
    "city": "仙台市若林区",
    "town": "西新丁"
  },
  "9840046": {
    "zipcode": "9840046",
    "prefectureCode": "04",
    "prefectureNumber": 4,
    "prefecture": "宮城県",
    "city": "仙台市若林区",
    "town": "二軒茶屋"
  },
  "9840047": {
    "zipcode": "9840047",
    "prefectureCode": "04",
    "prefectureNumber": 4,
    "prefecture": "宮城県",
    "city": "仙台市若林区",
    "town": "木ノ下"
  },
  "9840048": {
    "zipcode": "9840048",
    "prefectureCode": "04",
    "prefectureNumber": 4,
    "prefecture": "宮城県",
    "city": "仙台市若林区",
    "town": "白萩町"
  },
  "9840051": {
    "zipcode": "9840051",
    "prefectureCode": "04",
    "prefectureNumber": 4,
    "prefecture": "宮城県",
    "city": "仙台市若林区",
    "town": "新寺"
  },
  "9840052": {
    "zipcode": "9840052",
    "prefectureCode": "04",
    "prefectureNumber": 4,
    "prefecture": "宮城県",
    "city": "仙台市若林区",
    "town": "連坊"
  },
  "9840053": {
    "zipcode": "9840053",
    "prefectureCode": "04",
    "prefectureNumber": 4,
    "prefecture": "宮城県",
    "city": "仙台市若林区",
    "town": "連坊小路"
  },
  "9840054": {
    "zipcode": "9840054",
    "prefectureCode": "04",
    "prefectureNumber": 4,
    "prefecture": "宮城県",
    "city": "仙台市若林区",
    "town": "裏柴田町"
  },
  "9840055": {
    "zipcode": "9840055",
    "prefectureCode": "04",
    "prefectureNumber": 4,
    "prefecture": "宮城県",
    "city": "仙台市若林区",
    "town": "表柴田町"
  },
  "9840056": {
    "zipcode": "9840056",
    "prefectureCode": "04",
    "prefectureNumber": 4,
    "prefecture": "宮城県",
    "city": "仙台市若林区",
    "town": "成田町"
  },
  "9840057": {
    "zipcode": "9840057",
    "prefectureCode": "04",
    "prefectureNumber": 4,
    "prefecture": "宮城県",
    "city": "仙台市若林区",
    "town": "三百人町"
  },
  "9840058": {
    "zipcode": "9840058",
    "prefectureCode": "04",
    "prefectureNumber": 4,
    "prefecture": "宮城県",
    "city": "仙台市若林区",
    "town": "元茶畑"
  },
  "9840061": {
    "zipcode": "9840061",
    "prefectureCode": "04",
    "prefectureNumber": 4,
    "prefecture": "宮城県",
    "city": "仙台市若林区",
    "town": "南鍛冶町"
  },
  "9840062": {
    "zipcode": "9840062",
    "prefectureCode": "04",
    "prefectureNumber": 4,
    "prefecture": "宮城県",
    "city": "仙台市若林区",
    "town": "弓ノ町"
  },
  "9840063": {
    "zipcode": "9840063",
    "prefectureCode": "04",
    "prefectureNumber": 4,
    "prefecture": "宮城県",
    "city": "仙台市若林区",
    "town": "石名坂"
  },
  "9840064": {
    "zipcode": "9840064",
    "prefectureCode": "04",
    "prefectureNumber": 4,
    "prefecture": "宮城県",
    "city": "仙台市若林区",
    "town": "石垣町"
  },
  "9840065": {
    "zipcode": "9840065",
    "prefectureCode": "04",
    "prefectureNumber": 4,
    "prefecture": "宮城県",
    "city": "仙台市若林区",
    "town": "土樋"
  },
  "9840071": {
    "zipcode": "9840071",
    "prefectureCode": "04",
    "prefectureNumber": 4,
    "prefecture": "宮城県",
    "city": "仙台市若林区",
    "town": "東九番丁"
  },
  "9840072": {
    "zipcode": "9840072",
    "prefectureCode": "04",
    "prefectureNumber": 4,
    "prefecture": "宮城県",
    "city": "仙台市若林区",
    "town": "東八番丁"
  },
  "9840073": {
    "zipcode": "9840073",
    "prefectureCode": "04",
    "prefectureNumber": 4,
    "prefecture": "宮城県",
    "city": "仙台市若林区",
    "town": "荒町"
  },
  "9840074": {
    "zipcode": "9840074",
    "prefectureCode": "04",
    "prefectureNumber": 4,
    "prefecture": "宮城県",
    "city": "仙台市若林区",
    "town": "東七番丁"
  },
  "9840075": {
    "zipcode": "9840075",
    "prefectureCode": "04",
    "prefectureNumber": 4,
    "prefecture": "宮城県",
    "city": "仙台市若林区",
    "town": "清水小路"
  },
  "9840801": {
    "zipcode": "9840801",
    "prefectureCode": "04",
    "prefectureNumber": 4,
    "prefecture": "宮城県",
    "city": "仙台市若林区",
    "town": "畳屋丁"
  },
  "9840802": {
    "zipcode": "9840802",
    "prefectureCode": "04",
    "prefectureNumber": 4,
    "prefecture": "宮城県",
    "city": "仙台市若林区",
    "town": "八軒小路"
  },
  "9840803": {
    "zipcode": "9840803",
    "prefectureCode": "04",
    "prefectureNumber": 4,
    "prefecture": "宮城県",
    "city": "仙台市若林区",
    "town": "新弓ノ町"
  },
  "9840804": {
    "zipcode": "9840804",
    "prefectureCode": "04",
    "prefectureNumber": 4,
    "prefecture": "宮城県",
    "city": "仙台市若林区",
    "town": "南石切町"
  },
  "9840805": {
    "zipcode": "9840805",
    "prefectureCode": "04",
    "prefectureNumber": 4,
    "prefecture": "宮城県",
    "city": "仙台市若林区",
    "town": "南材木町"
  },
  "9840806": {
    "zipcode": "9840806",
    "prefectureCode": "04",
    "prefectureNumber": 4,
    "prefecture": "宮城県",
    "city": "仙台市若林区",
    "town": "舟丁"
  },
  "9840807": {
    "zipcode": "9840807",
    "prefectureCode": "04",
    "prefectureNumber": 4,
    "prefecture": "宮城県",
    "city": "仙台市若林区",
    "town": "穀町"
  },
  "9840811": {
    "zipcode": "9840811",
    "prefectureCode": "04",
    "prefectureNumber": 4,
    "prefecture": "宮城県",
    "city": "仙台市若林区",
    "town": "保春院前丁"
  },
  "9840812": {
    "zipcode": "9840812",
    "prefectureCode": "04",
    "prefectureNumber": 4,
    "prefecture": "宮城県",
    "city": "仙台市若林区",
    "town": "五十人町"
  },
  "9840813": {
    "zipcode": "9840813",
    "prefectureCode": "04",
    "prefectureNumber": 4,
    "prefecture": "宮城県",
    "city": "仙台市若林区",
    "town": "六十人町"
  },
  "9840814": {
    "zipcode": "9840814",
    "prefectureCode": "04",
    "prefectureNumber": 4,
    "prefecture": "宮城県",
    "city": "仙台市若林区",
    "town": "南染師町"
  },
  "9840815": {
    "zipcode": "9840815",
    "prefectureCode": "04",
    "prefectureNumber": 4,
    "prefecture": "宮城県",
    "city": "仙台市若林区",
    "town": "文化町"
  },
  "9840816": {
    "zipcode": "9840816",
    "prefectureCode": "04",
    "prefectureNumber": 4,
    "prefecture": "宮城県",
    "city": "仙台市若林区",
    "town": "河原町"
  },
  "9840817": {
    "zipcode": "9840817",
    "prefectureCode": "04",
    "prefectureNumber": 4,
    "prefecture": "宮城県",
    "city": "仙台市若林区",
    "town": "堰場"
  },
  "9840821": {
    "zipcode": "9840821",
    "prefectureCode": "04",
    "prefectureNumber": 4,
    "prefecture": "宮城県",
    "city": "仙台市若林区",
    "town": "中倉"
  },
  "9840822": {
    "zipcode": "9840822",
    "prefectureCode": "04",
    "prefectureNumber": 4,
    "prefecture": "宮城県",
    "city": "仙台市若林区",
    "town": "かすみ町"
  },
  "9840823": {
    "zipcode": "9840823",
    "prefectureCode": "04",
    "prefectureNumber": 4,
    "prefecture": "宮城県",
    "city": "仙台市若林区",
    "town": "遠見塚"
  },
  "9840824": {
    "zipcode": "9840824",
    "prefectureCode": "04",
    "prefectureNumber": 4,
    "prefecture": "宮城県",
    "city": "仙台市若林区",
    "town": "遠見塚東"
  },
  "9840825": {
    "zipcode": "9840825",
    "prefectureCode": "04",
    "prefectureNumber": 4,
    "prefecture": "宮城県",
    "city": "仙台市若林区",
    "town": "古城"
  },
  "9840826": {
    "zipcode": "9840826",
    "prefectureCode": "04",
    "prefectureNumber": 4,
    "prefecture": "宮城県",
    "city": "仙台市若林区",
    "town": "若林"
  },
  "9840827": {
    "zipcode": "9840827",
    "prefectureCode": "04",
    "prefectureNumber": 4,
    "prefecture": "宮城県",
    "city": "仙台市若林区",
    "town": "南小泉"
  },
  "9840828": {
    "zipcode": "9840828",
    "prefectureCode": "04",
    "prefectureNumber": 4,
    "prefecture": "宮城県",
    "city": "仙台市若林区",
    "town": "一本杉町"
  },
  "9840831": {
    "zipcode": "9840831",
    "prefectureCode": "04",
    "prefectureNumber": 4,
    "prefecture": "宮城県",
    "city": "仙台市若林区",
    "town": "沖野"
  },
  "9840832": {
    "zipcode": "9840832",
    "prefectureCode": "04",
    "prefectureNumber": 4,
    "prefecture": "宮城県",
    "city": "仙台市若林区",
    "town": "下飯田"
  },
  "9840833": {
    "zipcode": "9840833",
    "prefectureCode": "04",
    "prefectureNumber": 4,
    "prefecture": "宮城県",
    "city": "仙台市若林区",
    "town": "飯田"
  },
  "9840834": {
    "zipcode": "9840834",
    "prefectureCode": "04",
    "prefectureNumber": 4,
    "prefecture": "宮城県",
    "city": "仙台市若林区",
    "town": "六郷"
  },
  "9840835": {
    "zipcode": "9840835",
    "prefectureCode": "04",
    "prefectureNumber": 4,
    "prefecture": "宮城県",
    "city": "仙台市若林区",
    "town": "今泉"
  },
  "9840836": {
    "zipcode": "9840836",
    "prefectureCode": "04",
    "prefectureNumber": 4,
    "prefecture": "宮城県",
    "city": "仙台市若林区",
    "town": "四郎丸"
  },
  "9840837": {
    "zipcode": "9840837",
    "prefectureCode": "04",
    "prefectureNumber": 4,
    "prefecture": "宮城県",
    "city": "仙台市若林区",
    "town": "日辺"
  },
  "9840838": {
    "zipcode": "9840838",
    "prefectureCode": "04",
    "prefectureNumber": 4,
    "prefecture": "宮城県",
    "city": "仙台市若林区",
    "town": "上飯田"
  },
  "9840841": {
    "zipcode": "9840841",
    "prefectureCode": "04",
    "prefectureNumber": 4,
    "prefecture": "宮城県",
    "city": "仙台市若林区",
    "town": "三本塚"
  },
  "9840842": {
    "zipcode": "9840842",
    "prefectureCode": "04",
    "prefectureNumber": 4,
    "prefecture": "宮城県",
    "city": "仙台市若林区",
    "town": "井土"
  },
  "9840843": {
    "zipcode": "9840843",
    "prefectureCode": "04",
    "prefectureNumber": 4,
    "prefecture": "宮城県",
    "city": "仙台市若林区",
    "town": "藤塚"
  },
  "9840844": {
    "zipcode": "9840844",
    "prefectureCode": "04",
    "prefectureNumber": 4,
    "prefecture": "宮城県",
    "city": "仙台市若林区",
    "town": "種次"
  },
  "9840845": {
    "zipcode": "9840845",
    "prefectureCode": "04",
    "prefectureNumber": 4,
    "prefecture": "宮城県",
    "city": "仙台市若林区",
    "town": "二木"
  }
}
