{
  "9880000": {
    "zipcode": "9880000",
    "prefectureCode": "04",
    "prefectureNumber": 4,
    "prefecture": "宮城県",
    "city": "気仙沼市",
    "town": "以下に掲載がない場合"
  },
  "9880001": {
    "zipcode": "9880001",
    "prefectureCode": "04",
    "prefectureNumber": 4,
    "prefecture": "宮城県",
    "city": "気仙沼市",
    "town": "東みなと町"
  },
  "9880002": {
    "zipcode": "9880002",
    "prefectureCode": "04",
    "prefectureNumber": 4,
    "prefecture": "宮城県",
    "city": "気仙沼市",
    "town": "錦町"
  },
  "9880003": {
    "zipcode": "9880003",
    "prefectureCode": "04",
    "prefectureNumber": 4,
    "prefecture": "宮城県",
    "city": "気仙沼市",
    "town": "本浜町"
  },
  "9880004": {
    "zipcode": "9880004",
    "prefectureCode": "04",
    "prefectureNumber": 4,
    "prefecture": "宮城県",
    "city": "気仙沼市",
    "town": "浜町"
  },
  "9880005": {
    "zipcode": "9880005",
    "prefectureCode": "04",
    "prefectureNumber": 4,
    "prefecture": "宮城県",
    "city": "気仙沼市",
    "town": "新浜町"
  },
  "9880006": {
    "zipcode": "9880006",
    "prefectureCode": "04",
    "prefectureNumber": 4,
    "prefecture": "宮城県",
    "city": "気仙沼市",
    "town": "西みなと町"
  },
  "9880007": {
    "zipcode": "9880007",
    "prefectureCode": "04",
    "prefectureNumber": 4,
    "prefecture": "宮城県",
    "city": "気仙沼市",
    "town": "中みなと町"
  },
  "9880008": {
    "zipcode": "9880008",
    "prefectureCode": "04",
    "prefectureNumber": 4,
    "prefecture": "宮城県",
    "city": "気仙沼市",
    "town": "魚浜町"
  },
  "9880011": {
    "zipcode": "9880011",
    "prefectureCode": "04",
    "prefectureNumber": 4,
    "prefecture": "宮城県",
    "city": "気仙沼市",
    "town": "陣山"
  },
  "9880012": {
    "zipcode": "9880012",
    "prefectureCode": "04",
    "prefectureNumber": 4,
    "prefecture": "宮城県",
    "city": "気仙沼市",
    "town": "栄町"
  },
  "9880013": {
    "zipcode": "9880013",
    "prefectureCode": "04",
    "prefectureNumber": 4,
    "prefecture": "宮城県",
    "city": "気仙沼市",
    "town": "魚町"
  },
  "9880014": {
    "zipcode": "9880014",
    "prefectureCode": "04",
    "prefectureNumber": 4,
    "prefecture": "宮城県",
    "city": "気仙沼市",
    "town": "柏崎"
  },
  "9880015": {
    "zipcode": "9880015",
    "prefectureCode": "04",
    "prefectureNumber": 4,
    "prefecture": "宮城県",
    "city": "気仙沼市",
    "town": "浜見山"
  },
  "9880016": {
    "zipcode": "9880016",
    "prefectureCode": "04",
    "prefectureNumber": 4,
    "prefecture": "宮城県",
    "city": "気仙沼市",
    "town": "沢田"
  },
  "9880017": {
    "zipcode": "9880017",
    "prefectureCode": "04",
    "prefectureNumber": 4,
    "prefecture": "宮城県",
    "city": "気仙沼市",
    "town": "南町"
  },
  "9880018": {
    "zipcode": "9880018",
    "prefectureCode": "04",
    "prefectureNumber": 4,
    "prefecture": "宮城県",
    "city": "気仙沼市",
    "town": "南町海岸"
  },
  "9880021": {
    "zipcode": "9880021",
    "prefectureCode": "04",
    "prefectureNumber": 4,
    "prefecture": "宮城県",
    "city": "気仙沼市",
    "town": "港町"
  },
  "9880022": {
    "zipcode": "9880022",
    "prefectureCode": "04",
    "prefectureNumber": 4,
    "prefecture": "宮城県",
    "city": "気仙沼市",
    "town": "河原田"
  },
  "9880023": {
    "zipcode": "9880023",
    "prefectureCode": "04",
    "prefectureNumber": 4,
    "prefecture": "宮城県",
    "city": "気仙沼市",
    "town": "南が丘"
  },
  "9880024": {
    "zipcode": "9880024",
    "prefectureCode": "04",
    "prefectureNumber": 4,
    "prefecture": "宮城県",
    "city": "気仙沼市",
    "town": "仲町"
  },
  "9880025": {
    "zipcode": "9880025",
    "prefectureCode": "04",
    "prefectureNumber": 4,
    "prefecture": "宮城県",
    "city": "気仙沼市",
    "town": "内ノ脇"
  },
  "9880026": {
    "zipcode": "9880026",
    "prefectureCode": "04",
    "prefectureNumber": 4,
    "prefecture": "宮城県",
    "city": "気仙沼市",
    "town": "幸町"
  },
  "9880031": {
    "zipcode": "9880031",
    "prefectureCode": "04",
    "prefectureNumber": 4,
    "prefecture": "宮城県",
    "city": "気仙沼市",
    "town": "潮見町"
  },
  "9880032": {
    "zipcode": "9880032",
    "prefectureCode": "04",
    "prefectureNumber": 4,
    "prefecture": "宮城県",
    "city": "気仙沼市",
    "town": "一景島"
  },
  "9880033": {
    "zipcode": "9880033",
    "prefectureCode": "04",
    "prefectureNumber": 4,
    "prefecture": "宮城県",
    "city": "気仙沼市",
    "town": "川口町"
  },
  "9880034": {
    "zipcode": "9880034",
    "prefectureCode": "04",
    "prefectureNumber": 4,
    "prefecture": "宮城県",
    "city": "気仙沼市",
    "town": "朝日町"
  },
  "9880036": {
    "zipcode": "9880036",
    "prefectureCode": "04",
    "prefectureNumber": 4,
    "prefecture": "宮城県",
    "city": "気仙沼市",
    "town": "弁天町"
  },
  "9880037": {
    "zipcode": "9880037",
    "prefectureCode": "04",
    "prefectureNumber": 4,
    "prefecture": "宮城県",
    "city": "気仙沼市",
    "town": "魚市場前"
  },
  "9880041": {
    "zipcode": "9880041",
    "prefectureCode": "04",
    "prefectureNumber": 4,
    "prefecture": "宮城県",
    "city": "気仙沼市",
    "town": "川畑"
  },
  "9880042": {
    "zipcode": "9880042",
    "prefectureCode": "04",
    "prefectureNumber": 4,
    "prefecture": "宮城県",
    "city": "気仙沼市",
    "town": "本郷"
  },
  "9880043": {
    "zipcode": "9880043",
    "prefectureCode": "04",
    "prefectureNumber": 4,
    "prefecture": "宮城県",
    "city": "気仙沼市",
    "town": "南郷"
  },
  "9880044": {
    "zipcode": "9880044",
    "prefectureCode": "04",
    "prefectureNumber": 4,
    "prefecture": "宮城県",
    "city": "気仙沼市",
    "town": "神山"
  },
  "9880045": {
    "zipcode": "9880045",
    "prefectureCode": "04",
    "prefectureNumber": 4,
    "prefecture": "宮城県",
    "city": "気仙沼市",
    "town": "田谷"
  },
  "9880046": {
    "zipcode": "9880046",
    "prefectureCode": "04",
    "prefectureNumber": 4,
    "prefecture": "宮城県",
    "city": "気仙沼市",
    "town": "田谷前"
  },
  "9880051": {
    "zipcode": "9880051",
    "prefectureCode": "04",
    "prefectureNumber": 4,
    "prefecture": "宮城県",
    "city": "気仙沼市",
    "town": "常楽"
  },
  "9880052": {
    "zipcode": "9880052",
    "prefectureCode": "04",
    "prefectureNumber": 4,
    "prefecture": "宮城県",
    "city": "気仙沼市",
    "town": "田中"
  },
  "9880053": {
    "zipcode": "9880053",
    "prefectureCode": "04",
    "prefectureNumber": 4,
    "prefecture": "宮城県",
    "city": "気仙沼市",
    "town": "田中前"
  },
  "9880054": {
    "zipcode": "9880054",
    "prefectureCode": "04",
    "prefectureNumber": 4,
    "prefecture": "宮城県",
    "city": "気仙沼市",
    "town": "駒場"
  },
  "9880055": {
    "zipcode": "9880055",
    "prefectureCode": "04",
    "prefectureNumber": 4,
    "prefecture": "宮城県",
    "city": "気仙沼市",
    "town": "反松"
  },
  "9880056": {
    "zipcode": "9880056",
    "prefectureCode": "04",
    "prefectureNumber": 4,
    "prefecture": "宮城県",
    "city": "気仙沼市",
    "town": "上田中"
  },
  "9880057": {
    "zipcode": "9880057",
    "prefectureCode": "04",
    "prefectureNumber": 4,
    "prefecture": "宮城県",
    "city": "気仙沼市",
    "town": "所沢"
  },
  "9880058": {
    "zipcode": "9880058",
    "prefectureCode": "04",
    "prefectureNumber": 4,
    "prefecture": "宮城県",
    "city": "気仙沼市",
    "town": "田中沖"
  },
  "9880061": {
    "zipcode": "9880061",
    "prefectureCode": "04",
    "prefectureNumber": 4,
    "prefecture": "宮城県",
    "city": "気仙沼市",
    "town": "岩ケ崎"
  },
  "9880062": {
    "zipcode": "9880062",
    "prefectureCode": "04",
    "prefectureNumber": 4,
    "prefecture": "宮城県",
    "city": "気仙沼市",
    "town": "明戸"
  },
  "9880063": {
    "zipcode": "9880063",
    "prefectureCode": "04",
    "prefectureNumber": 4,
    "prefecture": "宮城県",
    "city": "気仙沼市",
    "town": "四反田"
  },
  "9880064": {
    "zipcode": "9880064",
    "prefectureCode": "04",
    "prefectureNumber": 4,
    "prefecture": "宮城県",
    "city": "気仙沼市",
    "town": "九条"
  },
  "9880065": {
    "zipcode": "9880065",
    "prefectureCode": "04",
    "prefectureNumber": 4,
    "prefecture": "宮城県",
    "city": "気仙沼市",
    "town": "後九条"
  },
  "9880066": {
    "zipcode": "9880066",
    "prefectureCode": "04",
    "prefectureNumber": 4,
    "prefecture": "宮城県",
    "city": "気仙沼市",
    "town": "東新城"
  },
  "9880071": {
    "zipcode": "9880071",
    "prefectureCode": "04",
    "prefectureNumber": 4,
    "prefecture": "宮城県",
    "city": "気仙沼市",
    "town": "新町"
  },
  "9880072": {
    "zipcode": "9880072",
    "prefectureCode": "04",
    "prefectureNumber": 4,
    "prefecture": "宮城県",
    "city": "気仙沼市",
    "town": "化粧坂"
  },
  "9880073": {
    "zipcode": "9880073",
    "prefectureCode": "04",
    "prefectureNumber": 4,
    "prefecture": "宮城県",
    "city": "気仙沼市",
    "town": "笹が陣"
  },
  "9880074": {
    "zipcode": "9880074",
    "prefectureCode": "04",
    "prefectureNumber": 4,
    "prefecture": "宮城県",
    "city": "気仙沼市",
    "town": "本町"
  },
  "9880075": {
    "zipcode": "9880075",
    "prefectureCode": "04",
    "prefectureNumber": 4,
    "prefecture": "宮城県",
    "city": "気仙沼市",
    "town": "赤坂"
  },
  "9880076": {
    "zipcode": "9880076",
    "prefectureCode": "04",
    "prefectureNumber": 4,
    "prefecture": "宮城県",
    "city": "気仙沼市",
    "town": "舘山"
  },
  "9880077": {
    "zipcode": "9880077",
    "prefectureCode": "04",
    "prefectureNumber": 4,
    "prefecture": "宮城県",
    "city": "気仙沼市",
    "town": "古町"
  },
  "9880081": {
    "zipcode": "9880081",
    "prefectureCode": "04",
    "prefectureNumber": 4,
    "prefecture": "宮城県",
    "city": "気仙沼市",
    "town": "蔵底"
  },
  "9880082": {
    "zipcode": "9880082",
    "prefectureCode": "04",
    "prefectureNumber": 4,
    "prefecture": "宮城県",
    "city": "気仙沼市",
    "town": "太田"
  },
  "9880083": {
    "zipcode": "9880083",
    "prefectureCode": "04",
    "prefectureNumber": 4,
    "prefecture": "宮城県",
    "city": "気仙沼市",
    "town": "入沢"
  },
  "9880084": {
    "zipcode": "9880084",
    "prefectureCode": "04",
    "prefectureNumber": 4,
    "prefecture": "宮城県",
    "city": "気仙沼市",
    "town": "八日町"
  },
  "9880085": {
    "zipcode": "9880085",
    "prefectureCode": "04",
    "prefectureNumber": 4,
    "prefecture": "宮城県",
    "city": "気仙沼市",
    "town": "三日町"
  },
  "9880086": {
    "zipcode": "9880086",
    "prefectureCode": "04",
    "prefectureNumber": 4,
    "prefecture": "宮城県",
    "city": "気仙沼市",
    "town": "福美町"
  },
  "9880087": {
    "zipcode": "9880087",
    "prefectureCode": "04",
    "prefectureNumber": 4,
    "prefecture": "宮城県",
    "city": "気仙沼市",
    "town": "滝の入"
  },
  "9880101": {
    "zipcode": "9880101",
    "prefectureCode": "04",
    "prefectureNumber": 4,
    "prefecture": "宮城県",
    "city": "気仙沼市",
    "town": "赤岩舘下"
  },
  "9880102": {
    "zipcode": "9880102",
    "prefectureCode": "04",
    "prefectureNumber": 4,
    "prefecture": "宮城県",
    "city": "気仙沼市",
    "town": "赤岩舘森"
  },
  "9880103": {
    "zipcode": "9880103",
    "prefectureCode": "04",
    "prefectureNumber": 4,
    "prefecture": "宮城県",
    "city": "気仙沼市",
    "town": "赤岩港"
  },
  "9880104": {
    "zipcode": "9880104",
    "prefectureCode": "04",
    "prefectureNumber": 4,
    "prefecture": "宮城県",
    "city": "気仙沼市",
    "town": "赤岩五駄鱈"
  },
  "9880105": {
    "zipcode": "9880105",
    "prefectureCode": "04",
    "prefectureNumber": 4,
    "prefecture": "宮城県",
    "city": "気仙沼市",
    "town": "赤岩老松"
  },
  "9880111": {
    "zipcode": "9880111",
    "prefectureCode": "04",
    "prefectureNumber": 4,
    "prefecture": "宮城県",
    "city": "気仙沼市",
    "town": "松崎北沢"
  },
  "9880112": {
    "zipcode": "9880112",
    "prefectureCode": "04",
    "prefectureNumber": 4,
    "prefecture": "宮城県",
    "city": "気仙沼市",
    "town": "松崎前浜"
  },
  "9880113": {
    "zipcode": "9880113",
    "prefectureCode": "04",
    "prefectureNumber": 4,
    "prefecture": "宮城県",
    "city": "気仙沼市",
    "town": "松崎片浜"
  },
  "9880114": {
    "zipcode": "9880114",
    "prefectureCode": "04",
    "prefectureNumber": 4,
    "prefecture": "宮城県",
    "city": "気仙沼市",
    "town": "松崎浦田"
  },
  "9880121": {
    "zipcode": "9880121",
    "prefectureCode": "04",
    "prefectureNumber": 4,
    "prefecture": "宮城県",
    "city": "気仙沼市",
    "town": "松崎萱"
  },
  "9880122": {
    "zipcode": "9880122",
    "prefectureCode": "04",
    "prefectureNumber": 4,
    "prefecture": "宮城県",
    "city": "気仙沼市",
    "town": "松崎五駄鱈"
  },
  "9880123": {
    "zipcode": "9880123",
    "prefectureCode": "04",
    "prefectureNumber": 4,
    "prefecture": "宮城県",
    "city": "気仙沼市",
    "town": "松崎中瀬"
  },
  "9880124": {
    "zipcode": "9880124",
    "prefectureCode": "04",
    "prefectureNumber": 4,
    "prefecture": "宮城県",
    "city": "気仙沼市",
    "town": "松崎高谷"
  },
  "9880131": {
    "zipcode": "9880131",
    "prefectureCode": "04",
    "prefectureNumber": 4,
    "prefecture": "宮城県",
    "city": "気仙沼市",
    "town": "松崎尾崎"
  },
  "9880132": {
    "zipcode": "9880132",
    "prefectureCode": "04",
    "prefectureNumber": 4,
    "prefecture": "宮城県",
    "city": "気仙沼市",
    "town": "松崎馬場"
  },
  "9880133": {
    "zipcode": "9880133",
    "prefectureCode": "04",
    "prefectureNumber": 4,
    "prefecture": "宮城県",
    "city": "気仙沼市",
    "town": "松崎下赤田"
  },
  "9880134": {
    "zipcode": "9880134",
    "prefectureCode": "04",
    "prefectureNumber": 4,
    "prefecture": "宮城県",
    "city": "気仙沼市",
    "town": "松崎上赤田"
  },
  "9880141": {
    "zipcode": "9880141",
    "prefectureCode": "04",
    "prefectureNumber": 4,
    "prefecture": "宮城県",
    "city": "気仙沼市",
    "town": "松崎柳沢"
  },
  "9880142": {
    "zipcode": "9880142",
    "prefectureCode": "04",
    "prefectureNumber": 4,
    "prefecture": "宮城県",
    "city": "気仙沼市",
    "town": "松崎丸森"
  },
  "9880143": {
    "zipcode": "9880143",
    "prefectureCode": "04",
    "prefectureNumber": 4,
    "prefecture": "宮城県",
    "city": "気仙沼市",
    "town": "松崎地生"
  },
  "9880144": {
    "zipcode": "9880144",
    "prefectureCode": "04",
    "prefectureNumber": 4,
    "prefecture": "宮城県",
    "city": "気仙沼市",
    "town": "松崎鶴巻"
  },
  "9880151": {
    "zipcode": "9880151",
    "prefectureCode": "04",
    "prefectureNumber": 4,
    "prefecture": "宮城県",
    "city": "気仙沼市",
    "town": "松崎立石"
  },
  "9880152": {
    "zipcode": "9880152",
    "prefectureCode": "04",
    "prefectureNumber": 4,
    "prefecture": "宮城県",
    "city": "気仙沼市",
    "town": "松崎外ケ沢"
  },
  "9880153": {
    "zipcode": "9880153",
    "prefectureCode": "04",
    "prefectureNumber": 4,
    "prefecture": "宮城県",
    "city": "気仙沼市",
    "town": "松崎面瀬"
  },
  "9880154": {
    "zipcode": "9880154",
    "prefectureCode": "04",
    "prefectureNumber": 4,
    "prefecture": "宮城県",
    "city": "気仙沼市",
    "town": "松崎猫渕"
  },
  "9880155": {
    "zipcode": "9880155",
    "prefectureCode": "04",
    "prefectureNumber": 4,
    "prefecture": "宮城県",
    "city": "気仙沼市",
    "town": "松崎大萱"
  },
  "9880156": {
    "zipcode": "9880156",
    "prefectureCode": "04",
    "prefectureNumber": 4,
    "prefecture": "宮城県",
    "city": "気仙沼市",
    "town": "松崎下金取"
  },
  "9880157": {
    "zipcode": "9880157",
    "prefectureCode": "04",
    "prefectureNumber": 4,
    "prefecture": "宮城県",
    "city": "気仙沼市",
    "town": "松崎上金取"
  },
  "9880161": {
    "zipcode": "9880161",
    "prefectureCode": "04",
    "prefectureNumber": 4,
    "prefecture": "宮城県",
    "city": "気仙沼市",
    "town": "赤岩高前田"
  },
  "9880162": {
    "zipcode": "9880162",
    "prefectureCode": "04",
    "prefectureNumber": 4,
    "prefecture": "宮城県",
    "city": "気仙沼市",
    "town": "赤岩前田"
  },
  "9880163": {
    "zipcode": "9880163",
    "prefectureCode": "04",
    "prefectureNumber": 4,
    "prefecture": "宮城県",
    "city": "気仙沼市",
    "town": "赤岩迎前田"
  },
  "9880164": {
    "zipcode": "9880164",
    "prefectureCode": "04",
    "prefectureNumber": 4,
    "prefecture": "宮城県",
    "city": "気仙沼市",
    "town": "赤岩四十二"
  },
  "9880165": {
    "zipcode": "9880165",
    "prefectureCode": "04",
    "prefectureNumber": 4,
    "prefecture": "宮城県",
    "city": "気仙沼市",
    "town": "赤岩物見"
  },
  "9880166": {
    "zipcode": "9880166",
    "prefectureCode": "04",
    "prefectureNumber": 4,
    "prefecture": "宮城県",
    "city": "気仙沼市",
    "town": "赤岩上羽田"
  },
  "9880167": {
    "zipcode": "9880167",
    "prefectureCode": "04",
    "prefectureNumber": 4,
    "prefecture": "宮城県",
    "city": "気仙沼市",
    "town": "赤岩羽田"
  },
  "9880168": {
    "zipcode": "9880168",
    "prefectureCode": "04",
    "prefectureNumber": 4,
    "prefecture": "宮城県",
    "city": "気仙沼市",
    "town": "赤岩水梨子"
  },
  "9880169": {
    "zipcode": "9880169",
    "prefectureCode": "04",
    "prefectureNumber": 4,
    "prefecture": "宮城県",
    "city": "気仙沼市",
    "town": "物倉山"
  },
  "9880171": {
    "zipcode": "9880171",
    "prefectureCode": "04",
    "prefectureNumber": 4,
    "prefecture": "宮城県",
    "city": "気仙沼市",
    "town": "赤岩牧沢"
  },
  "9880172": {
    "zipcode": "9880172",
    "prefectureCode": "04",
    "prefectureNumber": 4,
    "prefecture": "宮城県",
    "city": "気仙沼市",
    "town": "赤岩大石倉"
  },
  "9880173": {
    "zipcode": "9880173",
    "prefectureCode": "04",
    "prefectureNumber": 4,
    "prefecture": "宮城県",
    "city": "気仙沼市",
    "town": "赤岩長柴"
  },
  "9880174": {
    "zipcode": "9880174",
    "prefectureCode": "04",
    "prefectureNumber": 4,
    "prefecture": "宮城県",
    "city": "気仙沼市",
    "town": "赤岩大滝"
  },
  "9880181": {
    "zipcode": "9880181",
    "prefectureCode": "04",
    "prefectureNumber": 4,
    "prefecture": "宮城県",
    "city": "気仙沼市",
    "town": "赤岩杉ノ沢"
  },
  "9880182": {
    "zipcode": "9880182",
    "prefectureCode": "04",
    "prefectureNumber": 4,
    "prefecture": "宮城県",
    "city": "気仙沼市",
    "town": "赤岩石兜"
  },
  "9880183": {
    "zipcode": "9880183",
    "prefectureCode": "04",
    "prefectureNumber": 4,
    "prefecture": "宮城県",
    "city": "気仙沼市",
    "town": "赤岩泥ノ木"
  },
  "9880184": {
    "zipcode": "9880184",
    "prefectureCode": "04",
    "prefectureNumber": 4,
    "prefecture": "宮城県",
    "city": "気仙沼市",
    "town": "赤岩平貝"
  },
  "9880185": {
    "zipcode": "9880185",
    "prefectureCode": "04",
    "prefectureNumber": 4,
    "prefecture": "宮城県",
    "city": "気仙沼市",
    "town": "赤岩小田"
  },
  "9880201": {
    "zipcode": "9880201",
    "prefectureCode": "04",
    "prefectureNumber": 4,
    "prefecture": "宮城県",
    "city": "気仙沼市",
    "town": "岩月千岩田"
  },
  "9880202": {
    "zipcode": "9880202",
    "prefectureCode": "04",
    "prefectureNumber": 4,
    "prefecture": "宮城県",
    "city": "気仙沼市",
    "town": "岩月台ノ沢"
  },
  "9880203": {
    "zipcode": "9880203",
    "prefectureCode": "04",
    "prefectureNumber": 4,
    "prefecture": "宮城県",
    "city": "気仙沼市",
    "town": "岩月星谷"
  },
  "9880204": {
    "zipcode": "9880204",
    "prefectureCode": "04",
    "prefectureNumber": 4,
    "prefecture": "宮城県",
    "city": "気仙沼市",
    "town": "岩月長平"
  },
  "9880205": {
    "zipcode": "9880205",
    "prefectureCode": "04",
    "prefectureNumber": 4,
    "prefecture": "宮城県",
    "city": "気仙沼市",
    "town": "岩月箒沢"
  },
  "9880206": {
    "zipcode": "9880206",
    "prefectureCode": "04",
    "prefectureNumber": 4,
    "prefecture": "宮城県",
    "city": "気仙沼市",
    "town": "岩月寺沢"
  },
  "9880207": {
    "zipcode": "9880207",
    "prefectureCode": "04",
    "prefectureNumber": 4,
    "prefecture": "宮城県",
    "city": "気仙沼市",
    "town": "岩月宝ケ沢"
  },
  "9880211": {
    "zipcode": "9880211",
    "prefectureCode": "04",
    "prefectureNumber": 4,
    "prefecture": "宮城県",
    "city": "気仙沼市",
    "town": "最知川原"
  },
  "9880212": {
    "zipcode": "9880212",
    "prefectureCode": "04",
    "prefectureNumber": 4,
    "prefecture": "宮城県",
    "city": "気仙沼市",
    "town": "最知森合"
  },
  "9880213": {
    "zipcode": "9880213",
    "prefectureCode": "04",
    "prefectureNumber": 4,
    "prefecture": "宮城県",
    "city": "気仙沼市",
    "town": "最知南最知"
  },
  "9880214": {
    "zipcode": "9880214",
    "prefectureCode": "04",
    "prefectureNumber": 4,
    "prefecture": "宮城県",
    "city": "気仙沼市",
    "town": "最知荒沢"
  },
  "9880215": {
    "zipcode": "9880215",
    "prefectureCode": "04",
    "prefectureNumber": 4,
    "prefecture": "宮城県",
    "city": "気仙沼市",
    "town": "最知北最知"
  },
  "9880221": {
    "zipcode": "9880221",
    "prefectureCode": "04",
    "prefectureNumber": 4,
    "prefecture": "宮城県",
    "city": "気仙沼市",
    "town": "長磯七半沢"
  },
  "9880222": {
    "zipcode": "9880222",
    "prefectureCode": "04",
    "prefectureNumber": 4,
    "prefecture": "宮城県",
    "city": "気仙沼市",
    "town": "長磯船原"
  },
  "9880223": {
    "zipcode": "9880223",
    "prefectureCode": "04",
    "prefectureNumber": 4,
    "prefecture": "宮城県",
    "city": "気仙沼市",
    "town": "長磯鳥子沢"
  },
  "9880224": {
    "zipcode": "9880224",
    "prefectureCode": "04",
    "prefectureNumber": 4,
    "prefecture": "宮城県",
    "city": "気仙沼市",
    "town": "長磯前林"
  },
  "9880225": {
    "zipcode": "9880225",
    "prefectureCode": "04",
    "prefectureNumber": 4,
    "prefecture": "宮城県",
    "city": "気仙沼市",
    "town": "長磯大窪"
  },
  "9880226": {
    "zipcode": "9880226",
    "prefectureCode": "04",
    "prefectureNumber": 4,
    "prefecture": "宮城県",
    "city": "気仙沼市",
    "town": "長磯後沢"
  },
  "9880227": {
    "zipcode": "9880227",
    "prefectureCode": "04",
    "prefectureNumber": 4,
    "prefecture": "宮城県",
    "city": "気仙沼市",
    "town": "長磯森"
  },
  "9880231": {
    "zipcode": "9880231",
    "prefectureCode": "04",
    "prefectureNumber": 4,
    "prefecture": "宮城県",
    "city": "気仙沼市",
    "town": "長磯浜"
  },
  "9880232": {
    "zipcode": "9880232",
    "prefectureCode": "04",
    "prefectureNumber": 4,
    "prefecture": "宮城県",
    "city": "気仙沼市",
    "town": "長磯下原"
  },
  "9880233": {
    "zipcode": "9880233",
    "prefectureCode": "04",
    "prefectureNumber": 4,
    "prefecture": "宮城県",
    "city": "気仙沼市",
    "town": "長磯原"
  },
  "9880234": {
    "zipcode": "9880234",
    "prefectureCode": "04",
    "prefectureNumber": 4,
    "prefecture": "宮城県",
    "city": "気仙沼市",
    "town": "長磯原ノ沢"
  },
  "9880235": {
    "zipcode": "9880235",
    "prefectureCode": "04",
    "prefectureNumber": 4,
    "prefecture": "宮城県",
    "city": "気仙沼市",
    "town": "長磯牧通"
  },
  "9880236": {
    "zipcode": "9880236",
    "prefectureCode": "04",
    "prefectureNumber": 4,
    "prefecture": "宮城県",
    "city": "気仙沼市",
    "town": "長磯二本松"
  },
  "9880237": {
    "zipcode": "9880237",
    "prefectureCode": "04",
    "prefectureNumber": 4,
    "prefecture": "宮城県",
    "city": "気仙沼市",
    "town": "長磯赤貝"
  },
  "9880238": {
    "zipcode": "9880238",
    "prefectureCode": "04",
    "prefectureNumber": 4,
    "prefecture": "宮城県",
    "city": "気仙沼市",
    "town": "長磯中原"
  },
  "9880241": {
    "zipcode": "9880241",
    "prefectureCode": "04",
    "prefectureNumber": 4,
    "prefecture": "宮城県",
    "city": "気仙沼市",
    "town": "波路上岩井崎"
  },
  "9880242": {
    "zipcode": "9880242",
    "prefectureCode": "04",
    "prefectureNumber": 4,
    "prefecture": "宮城県",
    "city": "気仙沼市",
    "town": "波路上崎野"
  },
  "9880243": {
    "zipcode": "9880243",
    "prefectureCode": "04",
    "prefectureNumber": 4,
    "prefecture": "宮城県",
    "city": "気仙沼市",
    "town": "波路上牧"
  },
  "9880244": {
    "zipcode": "9880244",
    "prefectureCode": "04",
    "prefectureNumber": 4,
    "prefecture": "宮城県",
    "city": "気仙沼市",
    "town": "波路上明戸"
  },
  "9880245": {
    "zipcode": "9880245",
    "prefectureCode": "04",
    "prefectureNumber": 4,
    "prefecture": "宮城県",
    "city": "気仙沼市",
    "town": "波路上杉ノ下"
  },
  "9880246": {
    "zipcode": "9880246",
    "prefectureCode": "04",
    "prefectureNumber": 4,
    "prefecture": "宮城県",
    "city": "気仙沼市",
    "town": "波路上瀬向"
  },
  "9880247": {
    "zipcode": "9880247",
    "prefectureCode": "04",
    "prefectureNumber": 4,
    "prefecture": "宮城県",
    "city": "気仙沼市",
    "town": "波路上内沼"
  },
  "9880251": {
    "zipcode": "9880251",
    "prefectureCode": "04",
    "prefectureNumber": 4,
    "prefecture": "宮城県",
    "city": "気仙沼市",
    "town": "波路上内田"
  },
  "9880252": {
    "zipcode": "9880252",
    "prefectureCode": "04",
    "prefectureNumber": 4,
    "prefecture": "宮城県",
    "city": "気仙沼市",
    "town": "波路上後原"
  },
  "9880253": {
    "zipcode": "9880253",
    "prefectureCode": "04",
    "prefectureNumber": 4,
    "prefecture": "宮城県",
    "city": "気仙沼市",
    "town": "波路上原"
  },
  "9880254": {
    "zipcode": "9880254",
    "prefectureCode": "04",
    "prefectureNumber": 4,
    "prefecture": "宮城県",
    "city": "気仙沼市",
    "town": "波路上野田"
  },
  "9880255": {
    "zipcode": "9880255",
    "prefectureCode": "04",
    "prefectureNumber": 4,
    "prefecture": "宮城県",
    "city": "気仙沼市",
    "town": "波路上向田"
  },
  "9880256": {
    "zipcode": "9880256",
    "prefectureCode": "04",
    "prefectureNumber": 4,
    "prefecture": "宮城県",
    "city": "気仙沼市",
    "town": "波路上向原"
  },
  "9880261": {
    "zipcode": "9880261",
    "prefectureCode": "04",
    "prefectureNumber": 4,
    "prefecture": "宮城県",
    "city": "気仙沼市",
    "town": "本吉町土樋下"
  },
  "9880262": {
    "zipcode": "9880262",
    "prefectureCode": "04",
    "prefectureNumber": 4,
    "prefecture": "宮城県",
    "city": "気仙沼市",
    "town": "本吉町沖の田"
  },
  "9880263": {
    "zipcode": "9880263",
    "prefectureCode": "04",
    "prefectureNumber": 4,
    "prefecture": "宮城県",
    "city": "気仙沼市",
    "town": "本吉町洞沢"
  },
  "9880264": {
    "zipcode": "9880264",
    "prefectureCode": "04",
    "prefectureNumber": 4,
    "prefecture": "宮城県",
    "city": "気仙沼市",
    "town": "本吉町長根"
  },
  "9880265": {
    "zipcode": "9880265",
    "prefectureCode": "04",
    "prefectureNumber": 4,
    "prefecture": "宮城県",
    "city": "気仙沼市",
    "town": "本吉町窪"
  },
  "9880266": {
    "zipcode": "9880266",
    "prefectureCode": "04",
    "prefectureNumber": 4,
    "prefecture": "宮城県",
    "city": "気仙沼市",
    "town": "本吉町寺谷"
  },
  "9880267": {
    "zipcode": "9880267",
    "prefectureCode": "04",
    "prefectureNumber": 4,
    "prefecture": "宮城県",
    "city": "気仙沼市",
    "town": "本吉町長畑"
  },
  "9880268": {
    "zipcode": "9880268",
    "prefectureCode": "04",
    "prefectureNumber": 4,
    "prefecture": "宮城県",
    "city": "気仙沼市",
    "town": "本吉町石川原"
  },
  "9880269": {
    "zipcode": "9880269",
    "prefectureCode": "04",
    "prefectureNumber": 4,
    "prefecture": "宮城県",
    "city": "気仙沼市",
    "town": "本吉町道貫"
  },
  "9880271": {
    "zipcode": "9880271",
    "prefectureCode": "04",
    "prefectureNumber": 4,
    "prefecture": "宮城県",
    "city": "気仙沼市",
    "town": "本吉町野々下"
  },
  "9880272": {
    "zipcode": "9880272",
    "prefectureCode": "04",
    "prefectureNumber": 4,
    "prefecture": "宮城県",
    "city": "気仙沼市",
    "town": "本吉町大谷"
  },
  "9880273": {
    "zipcode": "9880273",
    "prefectureCode": "04",
    "prefectureNumber": 4,
    "prefecture": "宮城県",
    "city": "気仙沼市",
    "town": "本吉町三島"
  },
  "9880274": {
    "zipcode": "9880274",
    "prefectureCode": "04",
    "prefectureNumber": 4,
    "prefecture": "宮城県",
    "city": "気仙沼市",
    "town": "本吉町滝根"
  },
  "9880275": {
    "zipcode": "9880275",
    "prefectureCode": "04",
    "prefectureNumber": 4,
    "prefecture": "宮城県",
    "city": "気仙沼市",
    "town": "本吉町九多丸"
  },
  "9880276": {
    "zipcode": "9880276",
    "prefectureCode": "04",
    "prefectureNumber": 4,
    "prefecture": "宮城県",
    "city": "気仙沼市",
    "town": "本吉町日門"
  },
  "9880277": {
    "zipcode": "9880277",
    "prefectureCode": "04",
    "prefectureNumber": 4,
    "prefecture": "宮城県",
    "city": "気仙沼市",
    "town": "本吉町田の沢"
  },
  "9880278": {
    "zipcode": "9880278",
    "prefectureCode": "04",
    "prefectureNumber": 4,
    "prefecture": "宮城県",
    "city": "気仙沼市",
    "town": "本吉町山谷"
  },
  "9880279": {
    "zipcode": "9880279",
    "prefectureCode": "04",
    "prefectureNumber": 4,
    "prefecture": "宮城県",
    "city": "気仙沼市",
    "town": "本吉町猿内"
  },
  "9880281": {
    "zipcode": "9880281",
    "prefectureCode": "04",
    "prefectureNumber": 4,
    "prefecture": "宮城県",
    "city": "気仙沼市",
    "town": "本吉町府中"
  },
  "9880282": {
    "zipcode": "9880282",
    "prefectureCode": "04",
    "prefectureNumber": 4,
    "prefecture": "宮城県",
    "city": "気仙沼市",
    "town": "本吉町前浜"
  },
  "9880283": {
    "zipcode": "9880283",
    "prefectureCode": "04",
    "prefectureNumber": 4,
    "prefecture": "宮城県",
    "city": "気仙沼市",
    "town": "本吉町谷地"
  },
  "9880284": {
    "zipcode": "9880284",
    "prefectureCode": "04",
    "prefectureNumber": 4,
    "prefecture": "宮城県",
    "city": "気仙沼市",
    "town": "本吉町赤牛"
  },
  "9880285": {
    "zipcode": "9880285",
    "prefectureCode": "04",
    "prefectureNumber": 4,
    "prefecture": "宮城県",
    "city": "気仙沼市",
    "town": "本吉町小金沢"
  },
  "9880286": {
    "zipcode": "9880286",
    "prefectureCode": "04",
    "prefectureNumber": 4,
    "prefecture": "宮城県",
    "city": "気仙沼市",
    "town": "本吉町高"
  },
  "9880287": {
    "zipcode": "9880287",
    "prefectureCode": "04",
    "prefectureNumber": 4,
    "prefecture": "宮城県",
    "city": "気仙沼市",
    "town": "本吉町大朴木"
  },
  "9880301": {
    "zipcode": "9880301",
    "prefectureCode": "04",
    "prefectureNumber": 4,
    "prefecture": "宮城県",
    "city": "気仙沼市",
    "town": "本吉町狼の巣"
  },
  "9880302": {
    "zipcode": "9880302",
    "prefectureCode": "04",
    "prefectureNumber": 4,
    "prefecture": "宮城県",
    "city": "気仙沼市",
    "town": "本吉町林の沢"
  },
  "9880303": {
    "zipcode": "9880303",
    "prefectureCode": "04",
    "prefectureNumber": 4,
    "prefecture": "宮城県",
    "city": "気仙沼市",
    "town": "本吉町幸土"
  },
  "9880304": {
    "zipcode": "9880304",
    "prefectureCode": "04",
    "prefectureNumber": 4,
    "prefecture": "宮城県",
    "city": "気仙沼市",
    "town": "本吉町大沢"
  },
  "9880305": {
    "zipcode": "9880305",
    "prefectureCode": "04",
    "prefectureNumber": 4,
    "prefecture": "宮城県",
    "city": "気仙沼市",
    "town": "本吉町津谷長根"
  },
  "9880306": {
    "zipcode": "9880306",
    "prefectureCode": "04",
    "prefectureNumber": 4,
    "prefecture": "宮城県",
    "city": "気仙沼市",
    "town": "本吉町大椚"
  },
  "9880307": {
    "zipcode": "9880307",
    "prefectureCode": "04",
    "prefectureNumber": 4,
    "prefecture": "宮城県",
    "city": "気仙沼市",
    "town": "本吉町津谷舘岡"
  },
  "9880308": {
    "zipcode": "9880308",
    "prefectureCode": "04",
    "prefectureNumber": 4,
    "prefecture": "宮城県",
    "city": "気仙沼市",
    "town": "本吉町津谷松岡"
  },
  "9880309": {
    "zipcode": "9880309",
    "prefectureCode": "04",
    "prefectureNumber": 4,
    "prefecture": "宮城県",
    "city": "気仙沼市",
    "town": "本吉町津谷松尾"
  },
  "9880311": {
    "zipcode": "9880311",
    "prefectureCode": "04",
    "prefectureNumber": 4,
    "prefecture": "宮城県",
    "city": "気仙沼市",
    "town": "本吉町風越"
  },
  "9880312": {
    "zipcode": "9880312",
    "prefectureCode": "04",
    "prefectureNumber": 4,
    "prefecture": "宮城県",
    "city": "気仙沼市",
    "town": "本吉町道外"
  },
  "9880313": {
    "zipcode": "9880313",
    "prefectureCode": "04",
    "prefectureNumber": 4,
    "prefecture": "宮城県",
    "city": "気仙沼市",
    "town": "本吉町卯名沢"
  },
  "9880314": {
    "zipcode": "9880314",
    "prefectureCode": "04",
    "prefectureNumber": 4,
    "prefecture": "宮城県",
    "city": "気仙沼市",
    "town": "本吉町圃の沢"
  },
  "9880315": {
    "zipcode": "9880315",
    "prefectureCode": "04",
    "prefectureNumber": 4,
    "prefecture": "宮城県",
    "city": "気仙沼市",
    "town": "本吉町新圃の沢"
  },
  "9880316": {
    "zipcode": "9880316",
    "prefectureCode": "04",
    "prefectureNumber": 4,
    "prefecture": "宮城県",
    "city": "気仙沼市",
    "town": "本吉町新北明戸"
  },
  "9880317": {
    "zipcode": "9880317",
    "prefectureCode": "04",
    "prefectureNumber": 4,
    "prefecture": "宮城県",
    "city": "気仙沼市",
    "town": "本吉町北明戸"
  },
  "9880318": {
    "zipcode": "9880318",
    "prefectureCode": "04",
    "prefectureNumber": 4,
    "prefecture": "宮城県",
    "city": "気仙沼市",
    "town": "本吉町登米沢"
  },
  "9880321": {
    "zipcode": "9880321",
    "prefectureCode": "04",
    "prefectureNumber": 4,
    "prefecture": "宮城県",
    "city": "気仙沼市",
    "town": "本吉町小浜"
  },
  "9880322": {
    "zipcode": "9880322",
    "prefectureCode": "04",
    "prefectureNumber": 4,
    "prefecture": "宮城県",
    "city": "気仙沼市",
    "town": "本吉町二十一浜"
  },
  "9880323": {
    "zipcode": "9880323",
    "prefectureCode": "04",
    "prefectureNumber": 4,
    "prefecture": "宮城県",
    "city": "気仙沼市",
    "town": "本吉町今朝磯"
  },
  "9880324": {
    "zipcode": "9880324",
    "prefectureCode": "04",
    "prefectureNumber": 4,
    "prefecture": "宮城県",
    "city": "気仙沼市",
    "town": "本吉町歌生"
  },
  "9880325": {
    "zipcode": "9880325",
    "prefectureCode": "04",
    "prefectureNumber": 4,
    "prefecture": "宮城県",
    "city": "気仙沼市",
    "town": "本吉町蔵内"
  },
  "9880326": {
    "zipcode": "9880326",
    "prefectureCode": "04",
    "prefectureNumber": 4,
    "prefecture": "宮城県",
    "city": "気仙沼市",
    "town": "本吉町柳沢"
  },
  "9880327": {
    "zipcode": "9880327",
    "prefectureCode": "04",
    "prefectureNumber": 4,
    "prefecture": "宮城県",
    "city": "気仙沼市",
    "town": "本吉町長窪"
  },
  "9880328": {
    "zipcode": "9880328",
    "prefectureCode": "04",
    "prefectureNumber": 4,
    "prefecture": "宮城県",
    "city": "気仙沼市",
    "town": "本吉町菅の沢"
  },
  "9880331": {
    "zipcode": "9880331",
    "prefectureCode": "04",
    "prefectureNumber": 4,
    "prefecture": "宮城県",
    "city": "気仙沼市",
    "town": "本吉町中島"
  },
  "9880332": {
    "zipcode": "9880332",
    "prefectureCode": "04",
    "prefectureNumber": 4,
    "prefecture": "宮城県",
    "city": "気仙沼市",
    "town": "本吉町下宿"
  },
  "9880333": {
    "zipcode": "9880333",
    "prefectureCode": "04",
    "prefectureNumber": 4,
    "prefecture": "宮城県",
    "city": "気仙沼市",
    "town": "本吉町平貝"
  },
  "9880334": {
    "zipcode": "9880334",
    "prefectureCode": "04",
    "prefectureNumber": 4,
    "prefecture": "宮城県",
    "city": "気仙沼市",
    "town": "本吉町外尾"
  },
  "9880335": {
    "zipcode": "9880335",
    "prefectureCode": "04",
    "prefectureNumber": 4,
    "prefecture": "宮城県",
    "city": "気仙沼市",
    "town": "本吉町蕨野"
  },
  "9880336": {
    "zipcode": "9880336",
    "prefectureCode": "04",
    "prefectureNumber": 4,
    "prefecture": "宮城県",
    "city": "気仙沼市",
    "town": "本吉町泉沢"
  },
  "9880337": {
    "zipcode": "9880337",
    "prefectureCode": "04",
    "prefectureNumber": 4,
    "prefecture": "宮城県",
    "city": "気仙沼市",
    "town": "本吉町新南明戸"
  },
  "9880338": {
    "zipcode": "9880338",
    "prefectureCode": "04",
    "prefectureNumber": 4,
    "prefecture": "宮城県",
    "city": "気仙沼市",
    "town": "本吉町南明戸"
  },
  "9880339": {
    "zipcode": "9880339",
    "prefectureCode": "04",
    "prefectureNumber": 4,
    "prefecture": "宮城県",
    "city": "気仙沼市",
    "town": "本吉町泉"
  },
  "9880341": {
    "zipcode": "9880341",
    "prefectureCode": "04",
    "prefectureNumber": 4,
    "prefecture": "宮城県",
    "city": "気仙沼市",
    "town": "本吉町津谷桜子"
  },
  "9880342": {
    "zipcode": "9880342",
    "prefectureCode": "04",
    "prefectureNumber": 4,
    "prefecture": "宮城県",
    "city": "気仙沼市",
    "town": "本吉町幣掛"
  },
  "9880343": {
    "zipcode": "9880343",
    "prefectureCode": "04",
    "prefectureNumber": 4,
    "prefecture": "宮城県",
    "city": "気仙沼市",
    "town": "本吉町松ヶ沢"
  },
  "9880344": {
    "zipcode": "9880344",
    "prefectureCode": "04",
    "prefectureNumber": 4,
    "prefecture": "宮城県",
    "city": "気仙沼市",
    "town": "本吉町宮内"
  },
  "9880345": {
    "zipcode": "9880345",
    "prefectureCode": "04",
    "prefectureNumber": 4,
    "prefecture": "宮城県",
    "city": "気仙沼市",
    "town": "本吉町舘下"
  },
  "9880346": {
    "zipcode": "9880346",
    "prefectureCode": "04",
    "prefectureNumber": 4,
    "prefecture": "宮城県",
    "city": "気仙沼市",
    "town": "本吉町岳の下"
  },
  "9880347": {
    "zipcode": "9880347",
    "prefectureCode": "04",
    "prefectureNumber": 4,
    "prefecture": "宮城県",
    "city": "気仙沼市",
    "town": "本吉町猪の鼻"
  },
  "9880348": {
    "zipcode": "9880348",
    "prefectureCode": "04",
    "prefectureNumber": 4,
    "prefecture": "宮城県",
    "city": "気仙沼市",
    "town": "本吉町小峰崎"
  },
  "9880351": {
    "zipcode": "9880351",
    "prefectureCode": "04",
    "prefectureNumber": 4,
    "prefecture": "宮城県",
    "city": "気仙沼市",
    "town": "本吉町午王野沢"
  },
  "9880352": {
    "zipcode": "9880352",
    "prefectureCode": "04",
    "prefectureNumber": 4,
    "prefecture": "宮城県",
    "city": "気仙沼市",
    "town": "本吉町平椚"
  },
  "9880353": {
    "zipcode": "9880353",
    "prefectureCode": "04",
    "prefectureNumber": 4,
    "prefecture": "宮城県",
    "city": "気仙沼市",
    "town": "本吉町信夫"
  },
  "9880354": {
    "zipcode": "9880354",
    "prefectureCode": "04",
    "prefectureNumber": 4,
    "prefecture": "宮城県",
    "city": "気仙沼市",
    "town": "本吉町鹿の子"
  },
  "9880355": {
    "zipcode": "9880355",
    "prefectureCode": "04",
    "prefectureNumber": 4,
    "prefecture": "宮城県",
    "city": "気仙沼市",
    "town": "本吉町滝沢"
  },
  "9880356": {
    "zipcode": "9880356",
    "prefectureCode": "04",
    "prefectureNumber": 4,
    "prefecture": "宮城県",
    "city": "気仙沼市",
    "town": "本吉町大柴"
  },
  "9880357": {
    "zipcode": "9880357",
    "prefectureCode": "04",
    "prefectureNumber": 4,
    "prefecture": "宮城県",
    "city": "気仙沼市",
    "town": "本吉町中平"
  },
  "9880358": {
    "zipcode": "9880358",
    "prefectureCode": "04",
    "prefectureNumber": 4,
    "prefecture": "宮城県",
    "city": "気仙沼市",
    "town": "本吉町大東"
  },
  "9880359": {
    "zipcode": "9880359",
    "prefectureCode": "04",
    "prefectureNumber": 4,
    "prefecture": "宮城県",
    "city": "気仙沼市",
    "town": "本吉町上野"
  },
  "9880361": {
    "zipcode": "9880361",
    "prefectureCode": "04",
    "prefectureNumber": 4,
    "prefecture": "宮城県",
    "city": "気仙沼市",
    "town": "本吉町下要害"
  },
  "9880362": {
    "zipcode": "9880362",
    "prefectureCode": "04",
    "prefectureNumber": 4,
    "prefecture": "宮城県",
    "city": "気仙沼市",
    "town": "本吉町寺要害"
  },
  "9880363": {
    "zipcode": "9880363",
    "prefectureCode": "04",
    "prefectureNumber": 4,
    "prefecture": "宮城県",
    "city": "気仙沼市",
    "town": "本吉町深萩"
  },
  "9880364": {
    "zipcode": "9880364",
    "prefectureCode": "04",
    "prefectureNumber": 4,
    "prefecture": "宮城県",
    "city": "気仙沼市",
    "town": "本吉町小金山"
  },
  "9880365": {
    "zipcode": "9880365",
    "prefectureCode": "04",
    "prefectureNumber": 4,
    "prefecture": "宮城県",
    "city": "気仙沼市",
    "town": "本吉町馬籠町"
  },
  "9880366": {
    "zipcode": "9880366",
    "prefectureCode": "04",
    "prefectureNumber": 4,
    "prefecture": "宮城県",
    "city": "気仙沼市",
    "town": "本吉町馬籠町頭"
  },
  "9880367": {
    "zipcode": "9880367",
    "prefectureCode": "04",
    "prefectureNumber": 4,
    "prefecture": "宮城県",
    "city": "気仙沼市",
    "town": "本吉町向畑"
  },
  "9880371": {
    "zipcode": "9880371",
    "prefectureCode": "04",
    "prefectureNumber": 4,
    "prefecture": "宮城県",
    "city": "気仙沼市",
    "town": "本吉町漆原"
  },
  "9880372": {
    "zipcode": "9880372",
    "prefectureCode": "04",
    "prefectureNumber": 4,
    "prefecture": "宮城県",
    "city": "気仙沼市",
    "town": "本吉町尾田"
  },
  "9880373": {
    "zipcode": "9880373",
    "prefectureCode": "04",
    "prefectureNumber": 4,
    "prefecture": "宮城県",
    "city": "気仙沼市",
    "town": "本吉町狩猟"
  },
  "9880374": {
    "zipcode": "9880374",
    "prefectureCode": "04",
    "prefectureNumber": 4,
    "prefecture": "宮城県",
    "city": "気仙沼市",
    "town": "本吉町角柄"
  },
  "9880375": {
    "zipcode": "9880375",
    "prefectureCode": "04",
    "prefectureNumber": 4,
    "prefecture": "宮城県",
    "city": "気仙沼市",
    "town": "本吉町中沢"
  },
  "9880381": {
    "zipcode": "9880381",
    "prefectureCode": "04",
    "prefectureNumber": 4,
    "prefecture": "宮城県",
    "city": "気仙沼市",
    "town": "本吉町津谷新明戸"
  },
  "9880382": {
    "zipcode": "9880382",
    "prefectureCode": "04",
    "prefectureNumber": 4,
    "prefecture": "宮城県",
    "city": "気仙沼市",
    "town": "本吉町津谷明戸"
  },
  "9880383": {
    "zipcode": "9880383",
    "prefectureCode": "04",
    "prefectureNumber": 4,
    "prefecture": "宮城県",
    "city": "気仙沼市",
    "town": "本吉町坊の倉"
  },
  "9880384": {
    "zipcode": "9880384",
    "prefectureCode": "04",
    "prefectureNumber": 4,
    "prefecture": "宮城県",
    "city": "気仙沼市",
    "town": "本吉町高岡"
  },
  "9880385": {
    "zipcode": "9880385",
    "prefectureCode": "04",
    "prefectureNumber": 4,
    "prefecture": "宮城県",
    "city": "気仙沼市",
    "town": "本吉町下川内"
  },
  "9880386": {
    "zipcode": "9880386",
    "prefectureCode": "04",
    "prefectureNumber": 4,
    "prefecture": "宮城県",
    "city": "気仙沼市",
    "town": "本吉町西川内"
  },
  "9880387": {
    "zipcode": "9880387",
    "prefectureCode": "04",
    "prefectureNumber": 4,
    "prefecture": "宮城県",
    "city": "気仙沼市",
    "town": "本吉町中川内"
  },
  "9880388": {
    "zipcode": "9880388",
    "prefectureCode": "04",
    "prefectureNumber": 4,
    "prefecture": "宮城県",
    "city": "気仙沼市",
    "town": "本吉町上川内"
  },
  "9880389": {
    "zipcode": "9880389",
    "prefectureCode": "04",
    "prefectureNumber": 4,
    "prefecture": "宮城県",
    "city": "気仙沼市",
    "town": "本吉町東川内"
  },
  "9880401": {
    "zipcode": "9880401",
    "prefectureCode": "04",
    "prefectureNumber": 4,
    "prefecture": "宮城県",
    "city": "本吉郡南三陸町",
    "town": "歌津浪板"
  },
  "9880402": {
    "zipcode": "9880402",
    "prefectureCode": "04",
    "prefectureNumber": 4,
    "prefecture": "宮城県",
    "city": "本吉郡南三陸町",
    "town": "歌津港"
  },
  "9880403": {
    "zipcode": "9880403",
    "prefectureCode": "04",
    "prefectureNumber": 4,
    "prefecture": "宮城県",
    "city": "本吉郡南三陸町",
    "town": "歌津長羽"
  },
  "9880404": {
    "zipcode": "9880404",
    "prefectureCode": "04",
    "prefectureNumber": 4,
    "prefecture": "宮城県",
    "city": "本吉郡南三陸町",
    "town": "歌津牧田"
  },
  "9880405": {
    "zipcode": "9880405",
    "prefectureCode": "04",
    "prefectureNumber": 4,
    "prefecture": "宮城県",
    "city": "本吉郡南三陸町",
    "town": "歌津草木沢"
  },
  "9880406": {
    "zipcode": "9880406",
    "prefectureCode": "04",
    "prefectureNumber": 4,
    "prefecture": "宮城県",
    "city": "本吉郡南三陸町",
    "town": "歌津中野"
  },
  "9880411": {
    "zipcode": "9880411",
    "prefectureCode": "04",
    "prefectureNumber": 4,
    "prefecture": "宮城県",
    "city": "本吉郡南三陸町",
    "town": "歌津田茂川"
  },
  "9880412": {
    "zipcode": "9880412",
    "prefectureCode": "04",
    "prefectureNumber": 4,
    "prefecture": "宮城県",
    "city": "本吉郡南三陸町",
    "town": "歌津南の沢"
  },
  "9880413": {
    "zipcode": "9880413",
    "prefectureCode": "04",
    "prefectureNumber": 4,
    "prefecture": "宮城県",
    "city": "本吉郡南三陸町",
    "town": "歌津上の山"
  },
  "9880414": {
    "zipcode": "9880414",
    "prefectureCode": "04",
    "prefectureNumber": 4,
    "prefecture": "宮城県",
    "city": "本吉郡南三陸町",
    "town": "歌津長沢"
  },
  "9880415": {
    "zipcode": "9880415",
    "prefectureCode": "04",
    "prefectureNumber": 4,
    "prefecture": "宮城県",
    "city": "本吉郡南三陸町",
    "town": "歌津田の浦"
  },
  "9880421": {
    "zipcode": "9880421",
    "prefectureCode": "04",
    "prefectureNumber": 4,
    "prefecture": "宮城県",
    "city": "本吉郡南三陸町",
    "town": "歌津平棚"
  },
  "9880422": {
    "zipcode": "9880422",
    "prefectureCode": "04",
    "prefectureNumber": 4,
    "prefecture": "宮城県",
    "city": "本吉郡南三陸町",
    "town": "歌津松の崎"
  },
  "9880423": {
    "zipcode": "9880423",
    "prefectureCode": "04",
    "prefectureNumber": 4,
    "prefecture": "宮城県",
    "city": "本吉郡南三陸町",
    "town": "歌津枡沢"
  },
  "9880424": {
    "zipcode": "9880424",
    "prefectureCode": "04",
    "prefectureNumber": 4,
    "prefecture": "宮城県",
    "city": "本吉郡南三陸町",
    "town": "歌津北の沢"
  },
  "9880425": {
    "zipcode": "9880425",
    "prefectureCode": "04",
    "prefectureNumber": 4,
    "prefecture": "宮城県",
    "city": "本吉郡南三陸町",
    "town": "歌津神山"
  },
  "9880426": {
    "zipcode": "9880426",
    "prefectureCode": "04",
    "prefectureNumber": 4,
    "prefecture": "宮城県",
    "city": "本吉郡南三陸町",
    "town": "歌津石浜"
  },
  "9880431": {
    "zipcode": "9880431",
    "prefectureCode": "04",
    "prefectureNumber": 4,
    "prefecture": "宮城県",
    "city": "本吉郡南三陸町",
    "town": "歌津名足"
  },
  "9880432": {
    "zipcode": "9880432",
    "prefectureCode": "04",
    "prefectureNumber": 4,
    "prefecture": "宮城県",
    "city": "本吉郡南三陸町",
    "town": "歌津中山"
  },
  "9880433": {
    "zipcode": "9880433",
    "prefectureCode": "04",
    "prefectureNumber": 4,
    "prefecture": "宮城県",
    "city": "本吉郡南三陸町",
    "town": "歌津馬場"
  },
  "9880434": {
    "zipcode": "9880434",
    "prefectureCode": "04",
    "prefectureNumber": 4,
    "prefecture": "宮城県",
    "city": "本吉郡南三陸町",
    "town": "歌津大磯"
  },
  "9880435": {
    "zipcode": "9880435",
    "prefectureCode": "04",
    "prefectureNumber": 4,
    "prefecture": "宮城県",
    "city": "本吉郡南三陸町",
    "town": "歌津小沼"
  },
  "9880436": {
    "zipcode": "9880436",
    "prefectureCode": "04",
    "prefectureNumber": 4,
    "prefecture": "宮城県",
    "city": "本吉郡南三陸町",
    "town": "歌津小長柴"
  },
  "9880441": {
    "zipcode": "9880441",
    "prefectureCode": "04",
    "prefectureNumber": 4,
    "prefecture": "宮城県",
    "city": "本吉郡南三陸町",
    "town": "歌津田の頭"
  },
  "9880442": {
    "zipcode": "9880442",
    "prefectureCode": "04",
    "prefectureNumber": 4,
    "prefecture": "宮城県",
    "city": "本吉郡南三陸町",
    "town": "歌津番所"
  },
  "9880443": {
    "zipcode": "9880443",
    "prefectureCode": "04",
    "prefectureNumber": 4,
    "prefecture": "宮城県",
    "city": "本吉郡南三陸町",
    "town": "歌津尾崎"
  },
  "9880444": {
    "zipcode": "9880444",
    "prefectureCode": "04",
    "prefectureNumber": 4,
    "prefecture": "宮城県",
    "city": "本吉郡南三陸町",
    "town": "歌津泊浜"
  },
  "9880445": {
    "zipcode": "9880445",
    "prefectureCode": "04",
    "prefectureNumber": 4,
    "prefecture": "宮城県",
    "city": "本吉郡南三陸町",
    "town": "歌津館浜"
  },
  "9880446": {
    "zipcode": "9880446",
    "prefectureCode": "04",
    "prefectureNumber": 4,
    "prefecture": "宮城県",
    "city": "本吉郡南三陸町",
    "town": "歌津板橋"
  },
  "9880447": {
    "zipcode": "9880447",
    "prefectureCode": "04",
    "prefectureNumber": 4,
    "prefecture": "宮城県",
    "city": "本吉郡南三陸町",
    "town": "歌津長柴"
  },
  "9880448": {
    "zipcode": "9880448",
    "prefectureCode": "04",
    "prefectureNumber": 4,
    "prefecture": "宮城県",
    "city": "本吉郡南三陸町",
    "town": "歌津大沼"
  },
  "9880451": {
    "zipcode": "9880451",
    "prefectureCode": "04",
    "prefectureNumber": 4,
    "prefecture": "宮城県",
    "city": "本吉郡南三陸町",
    "town": "歌津管の浜"
  },
  "9880452": {
    "zipcode": "9880452",
    "prefectureCode": "04",
    "prefectureNumber": 4,
    "prefecture": "宮城県",
    "city": "本吉郡南三陸町",
    "town": "歌津町向"
  },
  "9880453": {
    "zipcode": "9880453",
    "prefectureCode": "04",
    "prefectureNumber": 4,
    "prefecture": "宮城県",
    "city": "本吉郡南三陸町",
    "town": "歌津伊里前"
  },
  "9880454": {
    "zipcode": "9880454",
    "prefectureCode": "04",
    "prefectureNumber": 4,
    "prefecture": "宮城県",
    "city": "本吉郡南三陸町",
    "town": "歌津峰畑"
  },
  "9880455": {
    "zipcode": "9880455",
    "prefectureCode": "04",
    "prefectureNumber": 4,
    "prefecture": "宮城県",
    "city": "本吉郡南三陸町",
    "town": "歌津吉野沢"
  },
  "9880456": {
    "zipcode": "9880456",
    "prefectureCode": "04",
    "prefectureNumber": 4,
    "prefecture": "宮城県",
    "city": "本吉郡南三陸町",
    "town": "歌津川内"
  },
  "9880461": {
    "zipcode": "9880461",
    "prefectureCode": "04",
    "prefectureNumber": 4,
    "prefecture": "宮城県",
    "city": "本吉郡南三陸町",
    "town": "歌津寄木"
  },
  "9880462": {
    "zipcode": "9880462",
    "prefectureCode": "04",
    "prefectureNumber": 4,
    "prefecture": "宮城県",
    "city": "本吉郡南三陸町",
    "town": "歌津砂浜"
  },
  "9880463": {
    "zipcode": "9880463",
    "prefectureCode": "04",
    "prefectureNumber": 4,
    "prefecture": "宮城県",
    "city": "本吉郡南三陸町",
    "town": "歌津大森"
  },
  "9880464": {
    "zipcode": "9880464",
    "prefectureCode": "04",
    "prefectureNumber": 4,
    "prefecture": "宮城県",
    "city": "本吉郡南三陸町",
    "town": "歌津森畑"
  },
  "9880465": {
    "zipcode": "9880465",
    "prefectureCode": "04",
    "prefectureNumber": 4,
    "prefecture": "宮城県",
    "city": "本吉郡南三陸町",
    "town": "歌津韮の浜"
  },
  "9880466": {
    "zipcode": "9880466",
    "prefectureCode": "04",
    "prefectureNumber": 4,
    "prefecture": "宮城県",
    "city": "本吉郡南三陸町",
    "town": "歌津平松"
  },
  "9880467": {
    "zipcode": "9880467",
    "prefectureCode": "04",
    "prefectureNumber": 4,
    "prefecture": "宮城県",
    "city": "本吉郡南三陸町",
    "town": "歌津皿貝"
  },
  "9880471": {
    "zipcode": "9880471",
    "prefectureCode": "04",
    "prefectureNumber": 4,
    "prefecture": "宮城県",
    "city": "本吉郡南三陸町",
    "town": "歌津石泉"
  },
  "9880472": {
    "zipcode": "9880472",
    "prefectureCode": "04",
    "prefectureNumber": 4,
    "prefecture": "宮城県",
    "city": "本吉郡南三陸町",
    "town": "歌津宮方"
  },
  "9880473": {
    "zipcode": "9880473",
    "prefectureCode": "04",
    "prefectureNumber": 4,
    "prefecture": "宮城県",
    "city": "本吉郡南三陸町",
    "town": "歌津中在"
  },
  "9880474": {
    "zipcode": "9880474",
    "prefectureCode": "04",
    "prefectureNumber": 4,
    "prefecture": "宮城県",
    "city": "本吉郡南三陸町",
    "town": "歌津田表"
  },
  "9880475": {
    "zipcode": "9880475",
    "prefectureCode": "04",
    "prefectureNumber": 4,
    "prefecture": "宮城県",
    "city": "本吉郡南三陸町",
    "town": "歌津白山"
  },
  "9880476": {
    "zipcode": "9880476",
    "prefectureCode": "04",
    "prefectureNumber": 4,
    "prefecture": "宮城県",
    "city": "本吉郡南三陸町",
    "town": "歌津上沢"
  },
  "9880477": {
    "zipcode": "9880477",
    "prefectureCode": "04",
    "prefectureNumber": 4,
    "prefecture": "宮城県",
    "city": "本吉郡南三陸町",
    "town": "歌津払川"
  },
  "9880478": {
    "zipcode": "9880478",
    "prefectureCode": "04",
    "prefectureNumber": 4,
    "prefecture": "宮城県",
    "city": "本吉郡南三陸町",
    "town": "歌津樋の口"
  },
  "9880501": {
    "zipcode": "9880501",
    "prefectureCode": "04",
    "prefectureNumber": 4,
    "prefecture": "宮城県",
    "city": "気仙沼市",
    "town": "唐桑町釜石下"
  },
  "9880502": {
    "zipcode": "9880502",
    "prefectureCode": "04",
    "prefectureNumber": 4,
    "prefecture": "宮城県",
    "city": "気仙沼市",
    "town": "唐桑町台の下"
  },
  "9880503": {
    "zipcode": "9880503",
    "prefectureCode": "04",
    "prefectureNumber": 4,
    "prefecture": "宮城県",
    "city": "気仙沼市",
    "town": "唐桑町荒谷前"
  },
  "9880504": {
    "zipcode": "9880504",
    "prefectureCode": "04",
    "prefectureNumber": 4,
    "prefecture": "宮城県",
    "city": "気仙沼市",
    "town": "唐桑町竹の袖"
  },
  "9880505": {
    "zipcode": "9880505",
    "prefectureCode": "04",
    "prefectureNumber": 4,
    "prefecture": "宮城県",
    "city": "気仙沼市",
    "town": "唐桑町港"
  },
  "9880506": {
    "zipcode": "9880506",
    "prefectureCode": "04",
    "prefectureNumber": 4,
    "prefecture": "宮城県",
    "city": "気仙沼市",
    "town": "唐桑町出山"
  },
  "9880511": {
    "zipcode": "9880511",
    "prefectureCode": "04",
    "prefectureNumber": 4,
    "prefecture": "宮城県",
    "city": "気仙沼市",
    "town": "唐桑町舘"
  },
  "9880512": {
    "zipcode": "9880512",
    "prefectureCode": "04",
    "prefectureNumber": 4,
    "prefecture": "宮城県",
    "city": "気仙沼市",
    "town": "唐桑町岩井沢"
  },
  "9880513": {
    "zipcode": "9880513",
    "prefectureCode": "04",
    "prefectureNumber": 4,
    "prefecture": "宮城県",
    "city": "気仙沼市",
    "town": "唐桑町載鈎"
  },
  "9880514": {
    "zipcode": "9880514",
    "prefectureCode": "04",
    "prefectureNumber": 4,
    "prefecture": "宮城県",
    "city": "気仙沼市",
    "town": "唐桑町小田"
  },
  "9880521": {
    "zipcode": "9880521",
    "prefectureCode": "04",
    "prefectureNumber": 4,
    "prefecture": "宮城県",
    "city": "気仙沼市",
    "town": "唐桑町大畑"
  },
  "9880522": {
    "zipcode": "9880522",
    "prefectureCode": "04",
    "prefectureNumber": 4,
    "prefecture": "宮城県",
    "city": "気仙沼市",
    "town": "唐桑町上川原"
  },
  "9880523": {
    "zipcode": "9880523",
    "prefectureCode": "04",
    "prefectureNumber": 4,
    "prefecture": "宮城県",
    "city": "気仙沼市",
    "town": "唐桑町境"
  },
  "9880524": {
    "zipcode": "9880524",
    "prefectureCode": "04",
    "prefectureNumber": 4,
    "prefecture": "宮城県",
    "city": "気仙沼市",
    "town": "唐桑町只越"
  },
  "9880525": {
    "zipcode": "9880525",
    "prefectureCode": "04",
    "prefectureNumber": 4,
    "prefecture": "宮城県",
    "city": "気仙沼市",
    "town": "唐桑町堂角"
  },
  "9880526": {
    "zipcode": "9880526",
    "prefectureCode": "04",
    "prefectureNumber": 4,
    "prefecture": "宮城県",
    "city": "気仙沼市",
    "town": "唐桑町唯越"
  },
  "9880527": {
    "zipcode": "9880527",
    "prefectureCode": "04",
    "prefectureNumber": 4,
    "prefecture": "宮城県",
    "city": "気仙沼市",
    "town": "唐桑町西舞根（その他）"
  },
  "9880531": {
    "zipcode": "9880531",
    "prefectureCode": "04",
    "prefectureNumber": 4,
    "prefecture": "宮城県",
    "city": "気仙沼市",
    "town": "唐桑町高石浜"
  },
  "9880532": {
    "zipcode": "9880532",
    "prefectureCode": "04",
    "prefectureNumber": 4,
    "prefecture": "宮城県",
    "city": "気仙沼市",
    "town": "唐桑町石浜"
  },
  "9880533": {
    "zipcode": "9880533",
    "prefectureCode": "04",
    "prefectureNumber": 4,
    "prefecture": "宮城県",
    "city": "気仙沼市",
    "town": "唐桑町明戸"
  },
  "9880534": {
    "zipcode": "9880534",
    "prefectureCode": "04",
    "prefectureNumber": 4,
    "prefecture": "宮城県",
    "city": "気仙沼市",
    "town": "唐桑町宿浦"
  },
  "9880535": {
    "zipcode": "9880535",
    "prefectureCode": "04",
    "prefectureNumber": 4,
    "prefecture": "宮城県",
    "city": "気仙沼市",
    "town": "唐桑町馬場"
  },
  "9880541": {
    "zipcode": "9880541",
    "prefectureCode": "04",
    "prefectureNumber": 4,
    "prefecture": "宮城県",
    "city": "気仙沼市",
    "town": "唐桑町北中"
  },
  "9880542": {
    "zipcode": "9880542",
    "prefectureCode": "04",
    "prefectureNumber": 4,
    "prefecture": "宮城県",
    "city": "気仙沼市",
    "town": "唐桑町中"
  },
  "9880543": {
    "zipcode": "9880543",
    "prefectureCode": "04",
    "prefectureNumber": 4,
    "prefecture": "宮城県",
    "city": "気仙沼市",
    "town": "唐桑町小長根"
  },
  "9880544": {
    "zipcode": "9880544",
    "prefectureCode": "04",
    "prefectureNumber": 4,
    "prefecture": "宮城県",
    "city": "気仙沼市",
    "town": "唐桑町欠浜"
  },
  "9880551": {
    "zipcode": "9880551",
    "prefectureCode": "04",
    "prefectureNumber": 4,
    "prefecture": "宮城県",
    "city": "気仙沼市",
    "town": "唐桑町松圃"
  },
  "9880552": {
    "zipcode": "9880552",
    "prefectureCode": "04",
    "prefectureNumber": 4,
    "prefecture": "宮城県",
    "city": "気仙沼市",
    "town": "唐桑町津本"
  },
  "9880553": {
    "zipcode": "9880553",
    "prefectureCode": "04",
    "prefectureNumber": 4,
    "prefecture": "宮城県",
    "city": "気仙沼市",
    "town": "唐桑町神の倉"
  },
  "9880554": {
    "zipcode": "9880554",
    "prefectureCode": "04",
    "prefectureNumber": 4,
    "prefecture": "宮城県",
    "city": "気仙沼市",
    "town": "唐桑町崎浜"
  },
  "9880561": {
    "zipcode": "9880561",
    "prefectureCode": "04",
    "prefectureNumber": 4,
    "prefecture": "宮城県",
    "city": "気仙沼市",
    "town": "唐桑町小鯖"
  },
  "9880562": {
    "zipcode": "9880562",
    "prefectureCode": "04",
    "prefectureNumber": 4,
    "prefecture": "宮城県",
    "city": "気仙沼市",
    "town": "唐桑町上小鯖"
  },
  "9880563": {
    "zipcode": "9880563",
    "prefectureCode": "04",
    "prefectureNumber": 4,
    "prefecture": "宮城県",
    "city": "気仙沼市",
    "town": "唐桑町中井"
  },
  "9880571": {
    "zipcode": "9880571",
    "prefectureCode": "04",
    "prefectureNumber": 4,
    "prefecture": "宮城県",
    "city": "気仙沼市",
    "town": "唐桑町鮪立"
  },
  "9880572": {
    "zipcode": "9880572",
    "prefectureCode": "04",
    "prefectureNumber": 4,
    "prefecture": "宮城県",
    "city": "気仙沼市",
    "town": "唐桑町上鮪立"
  },
  "9880581": {
    "zipcode": "9880581",
    "prefectureCode": "04",
    "prefectureNumber": 4,
    "prefecture": "宮城県",
    "city": "気仙沼市",
    "town": "唐桑町浦"
  },
  "9880582": {
    "zipcode": "9880582",
    "prefectureCode": "04",
    "prefectureNumber": 4,
    "prefecture": "宮城県",
    "city": "気仙沼市",
    "town": "唐桑町東舞根"
  },
  "9880601": {
    "zipcode": "9880601",
    "prefectureCode": "04",
    "prefectureNumber": 4,
    "prefecture": "宮城県",
    "city": "気仙沼市",
    "town": "外浜"
  },
  "9880602": {
    "zipcode": "9880602",
    "prefectureCode": "04",
    "prefectureNumber": 4,
    "prefecture": "宮城県",
    "city": "気仙沼市",
    "town": "大初平"
  },
  "9880603": {
    "zipcode": "9880603",
    "prefectureCode": "04",
    "prefectureNumber": 4,
    "prefecture": "宮城県",
    "city": "気仙沼市",
    "town": "外畑"
  },
  "9880604": {
    "zipcode": "9880604",
    "prefectureCode": "04",
    "prefectureNumber": 4,
    "prefecture": "宮城県",
    "city": "気仙沼市",
    "town": "廻舘"
  },
  "9880605": {
    "zipcode": "9880605",
    "prefectureCode": "04",
    "prefectureNumber": 4,
    "prefecture": "宮城県",
    "city": "気仙沼市",
    "town": "浦の浜"
  },
  "9880606": {
    "zipcode": "9880606",
    "prefectureCode": "04",
    "prefectureNumber": 4,
    "prefecture": "宮城県",
    "city": "気仙沼市",
    "town": "磯草"
  },
  "9880607": {
    "zipcode": "9880607",
    "prefectureCode": "04",
    "prefectureNumber": 4,
    "prefecture": "宮城県",
    "city": "気仙沼市",
    "town": "亀山"
  },
  "9880611": {
    "zipcode": "9880611",
    "prefectureCode": "04",
    "prefectureNumber": 4,
    "prefecture": "宮城県",
    "city": "気仙沼市",
    "town": "田尻"
  },
  "9880612": {
    "zipcode": "9880612",
    "prefectureCode": "04",
    "prefectureNumber": 4,
    "prefecture": "宮城県",
    "city": "気仙沼市",
    "town": "大向"
  },
  "9880613": {
    "zipcode": "9880613",
    "prefectureCode": "04",
    "prefectureNumber": 4,
    "prefecture": "宮城県",
    "city": "気仙沼市",
    "town": "高井"
  },
  "9880621": {
    "zipcode": "9880621",
    "prefectureCode": "04",
    "prefectureNumber": 4,
    "prefecture": "宮城県",
    "city": "気仙沼市",
    "town": "長崎"
  },
  "9880622": {
    "zipcode": "9880622",
    "prefectureCode": "04",
    "prefectureNumber": 4,
    "prefecture": "宮城県",
    "city": "気仙沼市",
    "town": "中山"
  },
  "9880623": {
    "zipcode": "9880623",
    "prefectureCode": "04",
    "prefectureNumber": 4,
    "prefecture": "宮城県",
    "city": "気仙沼市",
    "town": "浅根"
  },
  "9880631": {
    "zipcode": "9880631",
    "prefectureCode": "04",
    "prefectureNumber": 4,
    "prefecture": "宮城県",
    "city": "気仙沼市",
    "town": "三作浜"
  },
  "9880632": {
    "zipcode": "9880632",
    "prefectureCode": "04",
    "prefectureNumber": 4,
    "prefecture": "宮城県",
    "city": "気仙沼市",
    "town": "横沼"
  },
  "9880633": {
    "zipcode": "9880633",
    "prefectureCode": "04",
    "prefectureNumber": 4,
    "prefecture": "宮城県",
    "city": "気仙沼市",
    "town": "駒形"
  },
  "9880634": {
    "zipcode": "9880634",
    "prefectureCode": "04",
    "prefectureNumber": 4,
    "prefecture": "宮城県",
    "city": "気仙沼市",
    "town": "要害"
  },
  "9880801": {
    "zipcode": "9880801",
    "prefectureCode": "04",
    "prefectureNumber": 4,
    "prefecture": "宮城県",
    "city": "気仙沼市",
    "town": "上東側根"
  },
  "9880802": {
    "zipcode": "9880802",
    "prefectureCode": "04",
    "prefectureNumber": 4,
    "prefecture": "宮城県",
    "city": "気仙沼市",
    "town": "日ノ口"
  },
  "9880803": {
    "zipcode": "9880803",
    "prefectureCode": "04",
    "prefectureNumber": 4,
    "prefecture": "宮城県",
    "city": "気仙沼市",
    "town": "上東側"
  },
  "9880804": {
    "zipcode": "9880804",
    "prefectureCode": "04",
    "prefectureNumber": 4,
    "prefecture": "宮城県",
    "city": "気仙沼市",
    "town": "東中才"
  },
  "9880805": {
    "zipcode": "9880805",
    "prefectureCode": "04",
    "prefectureNumber": 4,
    "prefecture": "宮城県",
    "city": "気仙沼市",
    "town": "西中才"
  },
  "9880806": {
    "zipcode": "9880806",
    "prefectureCode": "04",
    "prefectureNumber": 4,
    "prefecture": "宮城県",
    "city": "気仙沼市",
    "town": "上西側"
  },
  "9880807": {
    "zipcode": "9880807",
    "prefectureCode": "04",
    "prefectureNumber": 4,
    "prefecture": "宮城県",
    "city": "気仙沼市",
    "town": "白石"
  },
  "9880811": {
    "zipcode": "9880811",
    "prefectureCode": "04",
    "prefectureNumber": 4,
    "prefecture": "宮城県",
    "city": "気仙沼市",
    "town": "東八幡前"
  },
  "9880812": {
    "zipcode": "9880812",
    "prefectureCode": "04",
    "prefectureNumber": 4,
    "prefecture": "宮城県",
    "city": "気仙沼市",
    "town": "大峠山"
  },
  "9880813": {
    "zipcode": "9880813",
    "prefectureCode": "04",
    "prefectureNumber": 4,
    "prefecture": "宮城県",
    "city": "気仙沼市",
    "town": "浪板"
  },
  "9880814": {
    "zipcode": "9880814",
    "prefectureCode": "04",
    "prefectureNumber": 4,
    "prefecture": "宮城県",
    "city": "気仙沼市",
    "town": "大浦"
  },
  "9880815": {
    "zipcode": "9880815",
    "prefectureCode": "04",
    "prefectureNumber": 4,
    "prefecture": "宮城県",
    "city": "気仙沼市",
    "town": "小々汐"
  },
  "9880816": {
    "zipcode": "9880816",
    "prefectureCode": "04",
    "prefectureNumber": 4,
    "prefecture": "宮城県",
    "city": "気仙沼市",
    "town": "二ノ浜"
  },
  "9880817": {
    "zipcode": "9880817",
    "prefectureCode": "04",
    "prefectureNumber": 4,
    "prefecture": "宮城県",
    "city": "気仙沼市",
    "town": "西八幡前"
  },
  "9880818": {
    "zipcode": "9880818",
    "prefectureCode": "04",
    "prefectureNumber": 4,
    "prefecture": "宮城県",
    "city": "気仙沼市",
    "town": "三ノ浜"
  },
  "9880821": {
    "zipcode": "9880821",
    "prefectureCode": "04",
    "prefectureNumber": 4,
    "prefecture": "宮城県",
    "city": "気仙沼市",
    "town": "大林"
  },
  "9880822": {
    "zipcode": "9880822",
    "prefectureCode": "04",
    "prefectureNumber": 4,
    "prefecture": "宮城県",
    "city": "気仙沼市",
    "town": "切通"
  },
  "9880823": {
    "zipcode": "9880823",
    "prefectureCode": "04",
    "prefectureNumber": 4,
    "prefecture": "宮城県",
    "city": "気仙沼市",
    "town": "茗荷沢"
  },
  "9880824": {
    "zipcode": "9880824",
    "prefectureCode": "04",
    "prefectureNumber": 4,
    "prefecture": "宮城県",
    "city": "気仙沼市",
    "town": "川原崎"
  },
  "9880825": {
    "zipcode": "9880825",
    "prefectureCode": "04",
    "prefectureNumber": 4,
    "prefecture": "宮城県",
    "city": "気仙沼市",
    "town": "田尻沢"
  },
  "9880826": {
    "zipcode": "9880826",
    "prefectureCode": "04",
    "prefectureNumber": 4,
    "prefecture": "宮城県",
    "city": "気仙沼市",
    "town": "百目木"
  },
  "9880827": {
    "zipcode": "9880827",
    "prefectureCode": "04",
    "prefectureNumber": 4,
    "prefecture": "宮城県",
    "city": "気仙沼市",
    "town": "和野"
  },
  "9880828": {
    "zipcode": "9880828",
    "prefectureCode": "04",
    "prefectureNumber": 4,
    "prefecture": "宮城県",
    "city": "気仙沼市",
    "town": "下新田"
  },
  "9880829": {
    "zipcode": "9880829",
    "prefectureCode": "04",
    "prefectureNumber": 4,
    "prefecture": "宮城県",
    "city": "気仙沼市",
    "town": "新田"
  },
  "9880831": {
    "zipcode": "9880831",
    "prefectureCode": "04",
    "prefectureNumber": 4,
    "prefecture": "宮城県",
    "city": "気仙沼市",
    "town": "金成沢"
  },
  "9880832": {
    "zipcode": "9880832",
    "prefectureCode": "04",
    "prefectureNumber": 4,
    "prefecture": "宮城県",
    "city": "気仙沼市",
    "town": "瘻槻"
  },
  "9880833": {
    "zipcode": "9880833",
    "prefectureCode": "04",
    "prefectureNumber": 4,
    "prefecture": "宮城県",
    "city": "気仙沼市",
    "town": "渡戸"
  },
  "9880834": {
    "zipcode": "9880834",
    "prefectureCode": "04",
    "prefectureNumber": 4,
    "prefecture": "宮城県",
    "city": "気仙沼市",
    "town": "川上"
  },
  "9880835": {
    "zipcode": "9880835",
    "prefectureCode": "04",
    "prefectureNumber": 4,
    "prefecture": "宮城県",
    "city": "気仙沼市",
    "town": "長岩間"
  },
  "9880836": {
    "zipcode": "9880836",
    "prefectureCode": "04",
    "prefectureNumber": 4,
    "prefecture": "宮城県",
    "city": "気仙沼市",
    "town": "小芦"
  },
  "9880837": {
    "zipcode": "9880837",
    "prefectureCode": "04",
    "prefectureNumber": 4,
    "prefecture": "宮城県",
    "city": "気仙沼市",
    "town": "鹿ノ倉"
  },
  "9880841": {
    "zipcode": "9880841",
    "prefectureCode": "04",
    "prefectureNumber": 4,
    "prefecture": "宮城県",
    "city": "気仙沼市",
    "town": "柳沢"
  },
  "9880842": {
    "zipcode": "9880842",
    "prefectureCode": "04",
    "prefectureNumber": 4,
    "prefecture": "宮城県",
    "city": "気仙沼市",
    "town": "久保"
  },
  "9880843": {
    "zipcode": "9880843",
    "prefectureCode": "04",
    "prefectureNumber": 4,
    "prefecture": "宮城県",
    "city": "気仙沼市",
    "town": "落合"
  },
  "9880844": {
    "zipcode": "9880844",
    "prefectureCode": "04",
    "prefectureNumber": 4,
    "prefecture": "宮城県",
    "city": "気仙沼市",
    "town": "象ケ鼻"
  },
  "9880845": {
    "zipcode": "9880845",
    "prefectureCode": "04",
    "prefectureNumber": 4,
    "prefecture": "宮城県",
    "city": "気仙沼市",
    "town": "前木"
  },
  "9880846": {
    "zipcode": "9880846",
    "prefectureCode": "04",
    "prefectureNumber": 4,
    "prefecture": "宮城県",
    "city": "気仙沼市",
    "town": "川崎尻"
  },
  "9880847": {
    "zipcode": "9880847",
    "prefectureCode": "04",
    "prefectureNumber": 4,
    "prefecture": "宮城県",
    "city": "気仙沼市",
    "town": "阿霄月"
  },
  "9880851": {
    "zipcode": "9880851",
    "prefectureCode": "04",
    "prefectureNumber": 4,
    "prefecture": "宮城県",
    "city": "気仙沼市",
    "town": "下八瀬"
  },
  "9880852": {
    "zipcode": "9880852",
    "prefectureCode": "04",
    "prefectureNumber": 4,
    "prefecture": "宮城県",
    "city": "気仙沼市",
    "town": "松川"
  },
  "9880853": {
    "zipcode": "9880853",
    "prefectureCode": "04",
    "prefectureNumber": 4,
    "prefecture": "宮城県",
    "city": "気仙沼市",
    "town": "松川前"
  },
  "9880854": {
    "zipcode": "9880854",
    "prefectureCode": "04",
    "prefectureNumber": 4,
    "prefecture": "宮城県",
    "city": "気仙沼市",
    "town": "磯沢"
  },
  "9880855": {
    "zipcode": "9880855",
    "prefectureCode": "04",
    "prefectureNumber": 4,
    "prefecture": "宮城県",
    "city": "気仙沼市",
    "town": "名木沢"
  },
  "9880861": {
    "zipcode": "9880861",
    "prefectureCode": "04",
    "prefectureNumber": 4,
    "prefecture": "宮城県",
    "city": "気仙沼市",
    "town": "細尾"
  },
  "9880862": {
    "zipcode": "9880862",
    "prefectureCode": "04",
    "prefectureNumber": 4,
    "prefecture": "宮城県",
    "city": "気仙沼市",
    "town": "角地"
  },
  "9880863": {
    "zipcode": "9880863",
    "prefectureCode": "04",
    "prefectureNumber": 4,
    "prefecture": "宮城県",
    "city": "気仙沼市",
    "town": "芳ノ口"
  },
  "9880864": {
    "zipcode": "9880864",
    "prefectureCode": "04",
    "prefectureNumber": 4,
    "prefecture": "宮城県",
    "city": "気仙沼市",
    "town": "塚沢"
  },
  "9880865": {
    "zipcode": "9880865",
    "prefectureCode": "04",
    "prefectureNumber": 4,
    "prefecture": "宮城県",
    "city": "気仙沼市",
    "town": "早稲谷"
  },
  "9880866": {
    "zipcode": "9880866",
    "prefectureCode": "04",
    "prefectureNumber": 4,
    "prefecture": "宮城県",
    "city": "気仙沼市",
    "town": "内松川"
  },
  "9880867": {
    "zipcode": "9880867",
    "prefectureCode": "04",
    "prefectureNumber": 4,
    "prefecture": "宮城県",
    "city": "気仙沼市",
    "town": "台"
  },
  "9880868": {
    "zipcode": "9880868",
    "prefectureCode": "04",
    "prefectureNumber": 4,
    "prefecture": "宮城県",
    "city": "気仙沼市",
    "town": "関根"
  },
  "9880927": {
    "zipcode": "9880927",
    "prefectureCode": "04",
    "prefectureNumber": 4,
    "prefecture": "宮城県",
    "city": "気仙沼市",
    "town": "唐桑町西舞根（２００番以上）"
  }
}
