{
  "9890111": {
    "zipcode": "9890111",
    "prefectureCode": "04",
    "prefectureNumber": 4,
    "prefecture": "宮城県",
    "city": "白石市",
    "town": "越河五賀"
  },
  "9890112": {
    "zipcode": "9890112",
    "prefectureCode": "04",
    "prefectureNumber": 4,
    "prefecture": "宮城県",
    "city": "白石市",
    "town": "越河平"
  },
  "9890113": {
    "zipcode": "9890113",
    "prefectureCode": "04",
    "prefectureNumber": 4,
    "prefecture": "宮城県",
    "city": "白石市",
    "town": "越河"
  },
  "9890200": {
    "zipcode": "9890200",
    "prefectureCode": "04",
    "prefectureNumber": 4,
    "prefecture": "宮城県",
    "city": "白石市",
    "town": "以下に掲載がない場合"
  },
  "9890201": {
    "zipcode": "9890201",
    "prefectureCode": "04",
    "prefectureNumber": 4,
    "prefecture": "宮城県",
    "city": "白石市",
    "town": "小下倉"
  },
  "9890202": {
    "zipcode": "9890202",
    "prefectureCode": "04",
    "prefectureNumber": 4,
    "prefecture": "宮城県",
    "city": "白石市",
    "town": "上堰"
  },
  "9890203": {
    "zipcode": "9890203",
    "prefectureCode": "04",
    "prefectureNumber": 4,
    "prefecture": "宮城県",
    "city": "白石市",
    "town": "郡山"
  },
  "9890204": {
    "zipcode": "9890204",
    "prefectureCode": "04",
    "prefectureNumber": 4,
    "prefecture": "宮城県",
    "city": "白石市",
    "town": "松ケ丘"
  },
  "9890205": {
    "zipcode": "9890205",
    "prefectureCode": "04",
    "prefectureNumber": 4,
    "prefecture": "宮城県",
    "city": "白石市",
    "town": "東大畑"
  },
  "9890206": {
    "zipcode": "9890206",
    "prefectureCode": "04",
    "prefectureNumber": 4,
    "prefecture": "宮城県",
    "city": "白石市",
    "town": "寺屋敷前"
  },
  "9890207": {
    "zipcode": "9890207",
    "prefectureCode": "04",
    "prefectureNumber": 4,
    "prefecture": "宮城県",
    "city": "白石市",
    "town": "堂場前"
  },
  "9890208": {
    "zipcode": "9890208",
    "prefectureCode": "04",
    "prefectureNumber": 4,
    "prefecture": "宮城県",
    "city": "白石市",
    "town": "大畑"
  },
  "9890211": {
    "zipcode": "9890211",
    "prefectureCode": "04",
    "prefectureNumber": 4,
    "prefecture": "宮城県",
    "city": "白石市",
    "town": "大鷹沢鷹巣"
  },
  "9890212": {
    "zipcode": "9890212",
    "prefectureCode": "04",
    "prefectureNumber": 4,
    "prefecture": "宮城県",
    "city": "白石市",
    "town": "大鷹沢大町"
  },
  "9890213": {
    "zipcode": "9890213",
    "prefectureCode": "04",
    "prefectureNumber": 4,
    "prefecture": "宮城県",
    "city": "白石市",
    "town": "大鷹沢三沢"
  },
  "9890214": {
    "zipcode": "9890214",
    "prefectureCode": "04",
    "prefectureNumber": 4,
    "prefecture": "宮城県",
    "city": "白石市",
    "town": "大平坂谷"
  },
  "9890215": {
    "zipcode": "9890215",
    "prefectureCode": "04",
    "prefectureNumber": 4,
    "prefecture": "宮城県",
    "city": "白石市",
    "town": "斎川"
  },
  "9890216": {
    "zipcode": "9890216",
    "prefectureCode": "04",
    "prefectureNumber": 4,
    "prefecture": "宮城県",
    "city": "白石市",
    "town": "大平中目"
  },
  "9890217": {
    "zipcode": "9890217",
    "prefectureCode": "04",
    "prefectureNumber": 4,
    "prefecture": "宮城県",
    "city": "白石市",
    "town": "大平森合"
  },
  "9890218": {
    "zipcode": "9890218",
    "prefectureCode": "04",
    "prefectureNumber": 4,
    "prefecture": "宮城県",
    "city": "白石市",
    "town": "鷹巣東"
  },
  "9890220": {
    "zipcode": "9890220",
    "prefectureCode": "04",
    "prefectureNumber": 4,
    "prefecture": "宮城県",
    "city": "白石市",
    "town": "鷹巣西"
  },
  "9890221": {
    "zipcode": "9890221",
    "prefectureCode": "04",
    "prefectureNumber": 4,
    "prefecture": "宮城県",
    "city": "白石市",
    "town": "緑が丘"
  },
  "9890222": {
    "zipcode": "9890222",
    "prefectureCode": "04",
    "prefectureNumber": 4,
    "prefecture": "宮城県",
    "city": "白石市",
    "town": "鷹巣"
  },
  "9890223": {
    "zipcode": "9890223",
    "prefectureCode": "04",
    "prefectureNumber": 4,
    "prefecture": "宮城県",
    "city": "白石市",
    "town": "旭町"
  },
  "9890224": {
    "zipcode": "9890224",
    "prefectureCode": "04",
    "prefectureNumber": 4,
    "prefecture": "宮城県",
    "city": "白石市",
    "town": "北無双作"
  },
  "9890225": {
    "zipcode": "9890225",
    "prefectureCode": "04",
    "prefectureNumber": 4,
    "prefecture": "宮城県",
    "city": "白石市",
    "town": "東町"
  },
  "9890226": {
    "zipcode": "9890226",
    "prefectureCode": "04",
    "prefectureNumber": 4,
    "prefecture": "宮城県",
    "city": "白石市",
    "town": "白石沖"
  },
  "9890227": {
    "zipcode": "9890227",
    "prefectureCode": "04",
    "prefectureNumber": 4,
    "prefecture": "宮城県",
    "city": "白石市",
    "town": "田町"
  },
  "9890228": {
    "zipcode": "9890228",
    "prefectureCode": "04",
    "prefectureNumber": 4,
    "prefecture": "宮城県",
    "city": "白石市",
    "town": "兎作"
  },
  "9890229": {
    "zipcode": "9890229",
    "prefectureCode": "04",
    "prefectureNumber": 4,
    "prefecture": "宮城県",
    "city": "白石市",
    "town": "銚子ケ森"
  },
  "9890231": {
    "zipcode": "9890231",
    "prefectureCode": "04",
    "prefectureNumber": 4,
    "prefecture": "宮城県",
    "city": "白石市",
    "town": "福岡蔵本"
  },
  "9890232": {
    "zipcode": "9890232",
    "prefectureCode": "04",
    "prefectureNumber": 4,
    "prefecture": "宮城県",
    "city": "白石市",
    "town": "福岡長袋（その他）"
  },
  "9890233": {
    "zipcode": "9890233",
    "prefectureCode": "04",
    "prefectureNumber": 4,
    "prefecture": "宮城県",
    "city": "白石市",
    "town": "小原"
  },
  "9890241": {
    "zipcode": "9890241",
    "prefectureCode": "04",
    "prefectureNumber": 4,
    "prefecture": "宮城県",
    "city": "白石市",
    "town": "寿山"
  },
  "9890242": {
    "zipcode": "9890242",
    "prefectureCode": "04",
    "prefectureNumber": 4,
    "prefecture": "宮城県",
    "city": "白石市",
    "town": "柳町"
  },
  "9890243": {
    "zipcode": "9890243",
    "prefectureCode": "04",
    "prefectureNumber": 4,
    "prefecture": "宮城県",
    "city": "白石市",
    "town": "沢目"
  },
  "9890244": {
    "zipcode": "9890244",
    "prefectureCode": "04",
    "prefectureNumber": 4,
    "prefecture": "宮城県",
    "city": "白石市",
    "town": "上久保"
  },
  "9890245": {
    "zipcode": "9890245",
    "prefectureCode": "04",
    "prefectureNumber": 4,
    "prefecture": "宮城県",
    "city": "白石市",
    "town": "城南"
  },
  "9890246": {
    "zipcode": "9890246",
    "prefectureCode": "04",
    "prefectureNumber": 4,
    "prefecture": "宮城県",
    "city": "白石市",
    "town": "新館町"
  },
  "9890247": {
    "zipcode": "9890247",
    "prefectureCode": "04",
    "prefectureNumber": 4,
    "prefecture": "宮城県",
    "city": "白石市",
    "town": "八幡町"
  },
  "9890248": {
    "zipcode": "9890248",
    "prefectureCode": "04",
    "prefectureNumber": 4,
    "prefecture": "宮城県",
    "city": "白石市",
    "town": "南町"
  },
  "9890251": {
    "zipcode": "9890251",
    "prefectureCode": "04",
    "prefectureNumber": 4,
    "prefecture": "宮城県",
    "city": "白石市",
    "town": "益岡町"
  },
  "9890252": {
    "zipcode": "9890252",
    "prefectureCode": "04",
    "prefectureNumber": 4,
    "prefecture": "宮城県",
    "city": "白石市",
    "town": "西益岡町"
  },
  "9890253": {
    "zipcode": "9890253",
    "prefectureCode": "04",
    "prefectureNumber": 4,
    "prefecture": "宮城県",
    "city": "白石市",
    "town": "東小路"
  },
  "9890254": {
    "zipcode": "9890254",
    "prefectureCode": "04",
    "prefectureNumber": 4,
    "prefecture": "宮城県",
    "city": "白石市",
    "town": "大川町"
  },
  "9890255": {
    "zipcode": "9890255",
    "prefectureCode": "04",
    "prefectureNumber": 4,
    "prefecture": "宮城県",
    "city": "白石市",
    "town": "城北町"
  },
  "9890256": {
    "zipcode": "9890256",
    "prefectureCode": "04",
    "prefectureNumber": 4,
    "prefecture": "宮城県",
    "city": "白石市",
    "town": "本鍛冶小路"
  },
  "9890257": {
    "zipcode": "9890257",
    "prefectureCode": "04",
    "prefectureNumber": 4,
    "prefecture": "宮城県",
    "city": "白石市",
    "town": "亘理町"
  },
  "9890258": {
    "zipcode": "9890258",
    "prefectureCode": "04",
    "prefectureNumber": 4,
    "prefecture": "宮城県",
    "city": "白石市",
    "town": "半沢屋敷西"
  },
  "9890259": {
    "zipcode": "9890259",
    "prefectureCode": "04",
    "prefectureNumber": 4,
    "prefecture": "宮城県",
    "city": "白石市",
    "town": "半沢屋敷前"
  },
  "9890261": {
    "zipcode": "9890261",
    "prefectureCode": "04",
    "prefectureNumber": 4,
    "prefecture": "宮城県",
    "city": "白石市",
    "town": "外川原"
  },
  "9890262": {
    "zipcode": "9890262",
    "prefectureCode": "04",
    "prefectureNumber": 4,
    "prefecture": "宮城県",
    "city": "白石市",
    "town": "北川原"
  },
  "9890263": {
    "zipcode": "9890263",
    "prefectureCode": "04",
    "prefectureNumber": 4,
    "prefecture": "宮城県",
    "city": "白石市",
    "town": "柳川原"
  },
  "9890264": {
    "zipcode": "9890264",
    "prefectureCode": "04",
    "prefectureNumber": 4,
    "prefecture": "宮城県",
    "city": "白石市",
    "town": "幸"
  },
  "9890265": {
    "zipcode": "9890265",
    "prefectureCode": "04",
    "prefectureNumber": 4,
    "prefecture": "宮城県",
    "city": "白石市",
    "town": "十王堂北"
  },
  "9890266": {
    "zipcode": "9890266",
    "prefectureCode": "04",
    "prefectureNumber": 4,
    "prefecture": "宮城県",
    "city": "白石市",
    "town": "十王堂前"
  },
  "9890267": {
    "zipcode": "9890267",
    "prefectureCode": "04",
    "prefectureNumber": 4,
    "prefecture": "宮城県",
    "city": "白石市",
    "town": "延命寺北"
  },
  "9890268": {
    "zipcode": "9890268",
    "prefectureCode": "04",
    "prefectureNumber": 4,
    "prefecture": "宮城県",
    "city": "白石市",
    "town": "祢宜内"
  },
  "9890271": {
    "zipcode": "9890271",
    "prefectureCode": "04",
    "prefectureNumber": 4,
    "prefecture": "宮城県",
    "city": "白石市",
    "town": "不澄ケ池"
  },
  "9890272": {
    "zipcode": "9890272",
    "prefectureCode": "04",
    "prefectureNumber": 4,
    "prefecture": "宮城県",
    "city": "白石市",
    "town": "清水小路"
  },
  "9890273": {
    "zipcode": "9890273",
    "prefectureCode": "04",
    "prefectureNumber": 4,
    "prefecture": "宮城県",
    "city": "白石市",
    "town": "中町"
  },
  "9890274": {
    "zipcode": "9890274",
    "prefectureCode": "04",
    "prefectureNumber": 4,
    "prefecture": "宮城県",
    "city": "白石市",
    "town": "長町"
  },
  "9890275": {
    "zipcode": "9890275",
    "prefectureCode": "04",
    "prefectureNumber": 4,
    "prefecture": "宮城県",
    "city": "白石市",
    "town": "本町"
  },
  "9890276": {
    "zipcode": "9890276",
    "prefectureCode": "04",
    "prefectureNumber": 4,
    "prefecture": "宮城県",
    "city": "白石市",
    "town": "大手町"
  },
  "9890277": {
    "zipcode": "9890277",
    "prefectureCode": "04",
    "prefectureNumber": 4,
    "prefecture": "宮城県",
    "city": "白石市",
    "town": "沢端町"
  },
  "9890278": {
    "zipcode": "9890278",
    "prefectureCode": "04",
    "prefectureNumber": 4,
    "prefecture": "宮城県",
    "city": "白石市",
    "town": "沢端"
  },
  "9890500": {
    "zipcode": "9890500",
    "prefectureCode": "04",
    "prefectureNumber": 4,
    "prefecture": "宮城県",
    "city": "刈田郡七ヶ宿町",
    "town": "以下に掲載がない場合"
  },
  "9890501": {
    "zipcode": "9890501",
    "prefectureCode": "04",
    "prefectureNumber": 4,
    "prefecture": "宮城県",
    "city": "刈田郡七ヶ宿町",
    "town": "柏木山"
  },
  "9890502": {
    "zipcode": "9890502",
    "prefectureCode": "04",
    "prefectureNumber": 4,
    "prefecture": "宮城県",
    "city": "刈田郡七ヶ宿町",
    "town": "横川原"
  },
  "9890503": {
    "zipcode": "9890503",
    "prefectureCode": "04",
    "prefectureNumber": 4,
    "prefecture": "宮城県",
    "city": "刈田郡七ヶ宿町",
    "town": "横川"
  },
  "9890504": {
    "zipcode": "9890504",
    "prefectureCode": "04",
    "prefectureNumber": 4,
    "prefecture": "宮城県",
    "city": "刈田郡七ヶ宿町",
    "town": "上ノ平"
  },
  "9890505": {
    "zipcode": "9890505",
    "prefectureCode": "04",
    "prefectureNumber": 4,
    "prefecture": "宮城県",
    "city": "刈田郡七ヶ宿町",
    "town": "上ノ平山"
  },
  "9890506": {
    "zipcode": "9890506",
    "prefectureCode": "04",
    "prefectureNumber": 4,
    "prefecture": "宮城県",
    "city": "刈田郡七ヶ宿町",
    "town": "油畑"
  },
  "9890507": {
    "zipcode": "9890507",
    "prefectureCode": "04",
    "prefectureNumber": 4,
    "prefecture": "宮城県",
    "city": "刈田郡七ヶ宿町",
    "town": "町下"
  },
  "9890508": {
    "zipcode": "9890508",
    "prefectureCode": "04",
    "prefectureNumber": 4,
    "prefecture": "宮城県",
    "city": "刈田郡七ヶ宿町",
    "town": "長老"
  },
  "9890511": {
    "zipcode": "9890511",
    "prefectureCode": "04",
    "prefectureNumber": 4,
    "prefecture": "宮城県",
    "city": "刈田郡七ヶ宿町",
    "town": "松原"
  },
  "9890512": {
    "zipcode": "9890512",
    "prefectureCode": "04",
    "prefectureNumber": 4,
    "prefecture": "宮城県",
    "city": "刈田郡七ヶ宿町",
    "town": "関"
  },
  "9890513": {
    "zipcode": "9890513",
    "prefectureCode": "04",
    "prefectureNumber": 4,
    "prefecture": "宮城県",
    "city": "刈田郡七ヶ宿町",
    "town": "上町尻"
  },
  "9890514": {
    "zipcode": "9890514",
    "prefectureCode": "04",
    "prefectureNumber": 4,
    "prefecture": "宮城県",
    "city": "刈田郡七ヶ宿町",
    "town": "下町尻"
  },
  "9890515": {
    "zipcode": "9890515",
    "prefectureCode": "04",
    "prefectureNumber": 4,
    "prefecture": "宮城県",
    "city": "刈田郡七ヶ宿町",
    "town": "宮前"
  },
  "9890516": {
    "zipcode": "9890516",
    "prefectureCode": "04",
    "prefectureNumber": 4,
    "prefecture": "宮城県",
    "city": "刈田郡七ヶ宿町",
    "town": "東島田原"
  },
  "9890517": {
    "zipcode": "9890517",
    "prefectureCode": "04",
    "prefectureNumber": 4,
    "prefecture": "宮城県",
    "city": "刈田郡七ヶ宿町",
    "town": "上八合"
  },
  "9890518": {
    "zipcode": "9890518",
    "prefectureCode": "04",
    "prefectureNumber": 4,
    "prefecture": "宮城県",
    "city": "刈田郡七ヶ宿町",
    "town": "下八合"
  },
  "9890519": {
    "zipcode": "9890519",
    "prefectureCode": "04",
    "prefectureNumber": 4,
    "prefecture": "宮城県",
    "city": "刈田郡七ヶ宿町",
    "town": "諏訪原"
  },
  "9890521": {
    "zipcode": "9890521",
    "prefectureCode": "04",
    "prefectureNumber": 4,
    "prefecture": "宮城県",
    "city": "刈田郡七ヶ宿町",
    "town": "新雷神"
  },
  "9890522": {
    "zipcode": "9890522",
    "prefectureCode": "04",
    "prefectureNumber": 4,
    "prefecture": "宮城県",
    "city": "刈田郡七ヶ宿町",
    "town": "一枚田"
  },
  "9890523": {
    "zipcode": "9890523",
    "prefectureCode": "04",
    "prefectureNumber": 4,
    "prefecture": "宮城県",
    "city": "刈田郡七ヶ宿町",
    "town": "館下"
  },
  "9890524": {
    "zipcode": "9890524",
    "prefectureCode": "04",
    "prefectureNumber": 4,
    "prefecture": "宮城県",
    "city": "刈田郡七ヶ宿町",
    "town": "廻館"
  },
  "9890525": {
    "zipcode": "9890525",
    "prefectureCode": "04",
    "prefectureNumber": 4,
    "prefecture": "宮城県",
    "city": "刈田郡七ヶ宿町",
    "town": "利津保"
  },
  "9890526": {
    "zipcode": "9890526",
    "prefectureCode": "04",
    "prefectureNumber": 4,
    "prefecture": "宮城県",
    "city": "刈田郡七ヶ宿町",
    "town": "明神前"
  },
  "9890527": {
    "zipcode": "9890527",
    "prefectureCode": "04",
    "prefectureNumber": 4,
    "prefecture": "宮城県",
    "city": "刈田郡七ヶ宿町",
    "town": "烏川岳"
  },
  "9890528": {
    "zipcode": "9890528",
    "prefectureCode": "04",
    "prefectureNumber": 4,
    "prefecture": "宮城県",
    "city": "刈田郡七ヶ宿町",
    "town": "沢上山"
  },
  "9890529": {
    "zipcode": "9890529",
    "prefectureCode": "04",
    "prefectureNumber": 4,
    "prefecture": "宮城県",
    "city": "刈田郡七ヶ宿町",
    "town": "瀬見原"
  },
  "9890531": {
    "zipcode": "9890531",
    "prefectureCode": "04",
    "prefectureNumber": 4,
    "prefecture": "宮城県",
    "city": "刈田郡七ヶ宿町",
    "town": "矢立"
  },
  "9890532": {
    "zipcode": "9890532",
    "prefectureCode": "04",
    "prefectureNumber": 4,
    "prefecture": "宮城県",
    "city": "刈田郡七ヶ宿町",
    "town": "根添"
  },
  "9890533": {
    "zipcode": "9890533",
    "prefectureCode": "04",
    "prefectureNumber": 4,
    "prefecture": "宮城県",
    "city": "刈田郡七ヶ宿町",
    "town": "矢立平"
  },
  "9890534": {
    "zipcode": "9890534",
    "prefectureCode": "04",
    "prefectureNumber": 4,
    "prefecture": "宮城県",
    "city": "刈田郡七ヶ宿町",
    "town": "若林山"
  },
  "9890535": {
    "zipcode": "9890535",
    "prefectureCode": "04",
    "prefectureNumber": 4,
    "prefecture": "宮城県",
    "city": "刈田郡七ヶ宿町",
    "town": "野沢倉山"
  },
  "9890536": {
    "zipcode": "9890536",
    "prefectureCode": "04",
    "prefectureNumber": 4,
    "prefecture": "宮城県",
    "city": "刈田郡七ヶ宿町",
    "town": "切通"
  },
  "9890537": {
    "zipcode": "9890537",
    "prefectureCode": "04",
    "prefectureNumber": 4,
    "prefecture": "宮城県",
    "city": "刈田郡七ヶ宿町",
    "town": "萩崎"
  },
  "9890541": {
    "zipcode": "9890541",
    "prefectureCode": "04",
    "prefectureNumber": 4,
    "prefecture": "宮城県",
    "city": "刈田郡七ヶ宿町",
    "town": "仕切目"
  },
  "9890542": {
    "zipcode": "9890542",
    "prefectureCode": "04",
    "prefectureNumber": 4,
    "prefecture": "宮城県",
    "city": "刈田郡七ヶ宿町",
    "town": "島木野"
  },
  "9890543": {
    "zipcode": "9890543",
    "prefectureCode": "04",
    "prefectureNumber": 4,
    "prefecture": "宮城県",
    "city": "刈田郡七ヶ宿町",
    "town": "蒲木"
  },
  "9890544": {
    "zipcode": "9890544",
    "prefectureCode": "04",
    "prefectureNumber": 4,
    "prefecture": "宮城県",
    "city": "刈田郡七ヶ宿町",
    "town": "原谷地際"
  },
  "9890545": {
    "zipcode": "9890545",
    "prefectureCode": "04",
    "prefectureNumber": 4,
    "prefecture": "宮城県",
    "city": "刈田郡七ヶ宿町",
    "town": "原道上"
  },
  "9890546": {
    "zipcode": "9890546",
    "prefectureCode": "04",
    "prefectureNumber": 4,
    "prefecture": "宮城県",
    "city": "刈田郡七ヶ宿町",
    "town": "原道下"
  },
  "9890547": {
    "zipcode": "9890547",
    "prefectureCode": "04",
    "prefectureNumber": 4,
    "prefecture": "宮城県",
    "city": "刈田郡七ヶ宿町",
    "town": "中之沢"
  },
  "9890548": {
    "zipcode": "9890548",
    "prefectureCode": "04",
    "prefectureNumber": 4,
    "prefecture": "宮城県",
    "city": "刈田郡七ヶ宿町",
    "town": "八ツ分"
  },
  "9890549": {
    "zipcode": "9890549",
    "prefectureCode": "04",
    "prefectureNumber": 4,
    "prefecture": "宮城県",
    "city": "刈田郡七ヶ宿町",
    "town": "滑津"
  },
  "9890551": {
    "zipcode": "9890551",
    "prefectureCode": "04",
    "prefectureNumber": 4,
    "prefecture": "宮城県",
    "city": "刈田郡七ヶ宿町",
    "town": "八ツ森"
  },
  "9890552": {
    "zipcode": "9890552",
    "prefectureCode": "04",
    "prefectureNumber": 4,
    "prefecture": "宮城県",
    "city": "刈田郡七ヶ宿町",
    "town": "苗代端"
  },
  "9890553": {
    "zipcode": "9890553",
    "prefectureCode": "04",
    "prefectureNumber": 4,
    "prefecture": "宮城県",
    "city": "刈田郡七ヶ宿町",
    "town": "大迎"
  },
  "9890554": {
    "zipcode": "9890554",
    "prefectureCode": "04",
    "prefectureNumber": 4,
    "prefecture": "宮城県",
    "city": "刈田郡七ヶ宿町",
    "town": "陳ノ窪"
  },
  "9890555": {
    "zipcode": "9890555",
    "prefectureCode": "04",
    "prefectureNumber": 4,
    "prefecture": "宮城県",
    "city": "刈田郡七ヶ宿町",
    "town": "水上口"
  },
  "9890556": {
    "zipcode": "9890556",
    "prefectureCode": "04",
    "prefectureNumber": 4,
    "prefecture": "宮城県",
    "city": "刈田郡七ヶ宿町",
    "town": "愛宕下"
  },
  "9890557": {
    "zipcode": "9890557",
    "prefectureCode": "04",
    "prefectureNumber": 4,
    "prefecture": "宮城県",
    "city": "刈田郡七ヶ宿町",
    "town": "西森下"
  },
  "9890561": {
    "zipcode": "9890561",
    "prefectureCode": "04",
    "prefectureNumber": 4,
    "prefecture": "宮城県",
    "city": "刈田郡七ヶ宿町",
    "town": "栗原"
  },
  "9890601": {
    "zipcode": "9890601",
    "prefectureCode": "04",
    "prefectureNumber": 4,
    "prefecture": "宮城県",
    "city": "刈田郡七ヶ宿町",
    "town": "茂ヶ沢"
  },
  "9890602": {
    "zipcode": "9890602",
    "prefectureCode": "04",
    "prefectureNumber": 4,
    "prefecture": "宮城県",
    "city": "刈田郡七ヶ宿町",
    "town": "寺跡"
  },
  "9890611": {
    "zipcode": "9890611",
    "prefectureCode": "04",
    "prefectureNumber": 4,
    "prefecture": "宮城県",
    "city": "刈田郡七ヶ宿町",
    "town": "山伏坂"
  },
  "9890612": {
    "zipcode": "9890612",
    "prefectureCode": "04",
    "prefectureNumber": 4,
    "prefecture": "宮城県",
    "city": "刈田郡七ヶ宿町",
    "town": "侭ノ上"
  },
  "9890613": {
    "zipcode": "9890613",
    "prefectureCode": "04",
    "prefectureNumber": 4,
    "prefecture": "宮城県",
    "city": "刈田郡七ヶ宿町",
    "town": "上川原"
  },
  "9890614": {
    "zipcode": "9890614",
    "prefectureCode": "04",
    "prefectureNumber": 4,
    "prefecture": "宮城県",
    "city": "刈田郡七ヶ宿町",
    "town": "中川原"
  },
  "9890615": {
    "zipcode": "9890615",
    "prefectureCode": "04",
    "prefectureNumber": 4,
    "prefecture": "宮城県",
    "city": "刈田郡七ヶ宿町",
    "town": "沼田"
  },
  "9890616": {
    "zipcode": "9890616",
    "prefectureCode": "04",
    "prefectureNumber": 4,
    "prefecture": "宮城県",
    "city": "刈田郡七ヶ宿町",
    "town": "薄沢口"
  },
  "9890617": {
    "zipcode": "9890617",
    "prefectureCode": "04",
    "prefectureNumber": 4,
    "prefecture": "宮城県",
    "city": "刈田郡七ヶ宿町",
    "town": "滝下"
  },
  "9890621": {
    "zipcode": "9890621",
    "prefectureCode": "04",
    "prefectureNumber": 4,
    "prefecture": "宮城県",
    "city": "刈田郡七ヶ宿町",
    "town": "峠田"
  },
  "9890622": {
    "zipcode": "9890622",
    "prefectureCode": "04",
    "prefectureNumber": 4,
    "prefecture": "宮城県",
    "city": "刈田郡七ヶ宿町",
    "town": "峠田町頭"
  },
  "9890623": {
    "zipcode": "9890623",
    "prefectureCode": "04",
    "prefectureNumber": 4,
    "prefecture": "宮城県",
    "city": "刈田郡七ヶ宿町",
    "town": "上ノ台"
  },
  "9890624": {
    "zipcode": "9890624",
    "prefectureCode": "04",
    "prefectureNumber": 4,
    "prefecture": "宮城県",
    "city": "刈田郡七ヶ宿町",
    "town": "明神下"
  },
  "9890625": {
    "zipcode": "9890625",
    "prefectureCode": "04",
    "prefectureNumber": 4,
    "prefecture": "宮城県",
    "city": "刈田郡七ヶ宿町",
    "town": "峠田愛宕下"
  },
  "9890626": {
    "zipcode": "9890626",
    "prefectureCode": "04",
    "prefectureNumber": 4,
    "prefecture": "宮城県",
    "city": "刈田郡七ヶ宿町",
    "town": "茂庭道"
  },
  "9890627": {
    "zipcode": "9890627",
    "prefectureCode": "04",
    "prefectureNumber": 4,
    "prefecture": "宮城県",
    "city": "刈田郡七ヶ宿町",
    "town": "坂ノ下"
  },
  "9890628": {
    "zipcode": "9890628",
    "prefectureCode": "04",
    "prefectureNumber": 4,
    "prefecture": "宮城県",
    "city": "刈田郡七ヶ宿町",
    "town": "境ノ沢"
  },
  "9890631": {
    "zipcode": "9890631",
    "prefectureCode": "04",
    "prefectureNumber": 4,
    "prefecture": "宮城県",
    "city": "刈田郡七ヶ宿町",
    "town": "大石川原"
  },
  "9890632": {
    "zipcode": "9890632",
    "prefectureCode": "04",
    "prefectureNumber": 4,
    "prefecture": "宮城県",
    "city": "刈田郡七ヶ宿町",
    "town": "田中道下"
  },
  "9890633": {
    "zipcode": "9890633",
    "prefectureCode": "04",
    "prefectureNumber": 4,
    "prefecture": "宮城県",
    "city": "刈田郡七ヶ宿町",
    "town": "田中道上"
  },
  "9890634": {
    "zipcode": "9890634",
    "prefectureCode": "04",
    "prefectureNumber": 4,
    "prefecture": "宮城県",
    "city": "刈田郡七ヶ宿町",
    "town": "小駕籠沢"
  },
  "9890635": {
    "zipcode": "9890635",
    "prefectureCode": "04",
    "prefectureNumber": 4,
    "prefecture": "宮城県",
    "city": "刈田郡七ヶ宿町",
    "town": "板木"
  },
  "9890636": {
    "zipcode": "9890636",
    "prefectureCode": "04",
    "prefectureNumber": 4,
    "prefecture": "宮城県",
    "city": "刈田郡七ヶ宿町",
    "town": "六本杉"
  },
  "9890641": {
    "zipcode": "9890641",
    "prefectureCode": "04",
    "prefectureNumber": 4,
    "prefecture": "宮城県",
    "city": "刈田郡七ヶ宿町",
    "town": "程ヶ沢"
  },
  "9890642": {
    "zipcode": "9890642",
    "prefectureCode": "04",
    "prefectureNumber": 4,
    "prefecture": "宮城県",
    "city": "刈田郡七ヶ宿町",
    "town": "割付"
  },
  "9890643": {
    "zipcode": "9890643",
    "prefectureCode": "04",
    "prefectureNumber": 4,
    "prefecture": "宮城県",
    "city": "刈田郡七ヶ宿町",
    "town": "稲子"
  },
  "9890644": {
    "zipcode": "9890644",
    "prefectureCode": "04",
    "prefectureNumber": 4,
    "prefecture": "宮城県",
    "city": "刈田郡七ヶ宿町",
    "town": "稲子山"
  },
  "9890651": {
    "zipcode": "9890651",
    "prefectureCode": "04",
    "prefectureNumber": 4,
    "prefecture": "宮城県",
    "city": "刈田郡七ヶ宿町",
    "town": "東口道上"
  },
  "9890652": {
    "zipcode": "9890652",
    "prefectureCode": "04",
    "prefectureNumber": 4,
    "prefecture": "宮城県",
    "city": "刈田郡七ヶ宿町",
    "town": "東口道下"
  },
  "9890653": {
    "zipcode": "9890653",
    "prefectureCode": "04",
    "prefectureNumber": 4,
    "prefecture": "宮城県",
    "city": "刈田郡七ヶ宿町",
    "town": "湯原"
  },
  "9890654": {
    "zipcode": "9890654",
    "prefectureCode": "04",
    "prefectureNumber": 4,
    "prefecture": "宮城県",
    "city": "刈田郡七ヶ宿町",
    "town": "寺前"
  },
  "9890655": {
    "zipcode": "9890655",
    "prefectureCode": "04",
    "prefectureNumber": 4,
    "prefecture": "宮城県",
    "city": "刈田郡七ヶ宿町",
    "town": "壇前"
  },
  "9890656": {
    "zipcode": "9890656",
    "prefectureCode": "04",
    "prefectureNumber": 4,
    "prefecture": "宮城県",
    "city": "刈田郡七ヶ宿町",
    "town": "柳沢山国有林"
  },
  "9890657": {
    "zipcode": "9890657",
    "prefectureCode": "04",
    "prefectureNumber": 4,
    "prefecture": "宮城県",
    "city": "刈田郡七ヶ宿町",
    "town": "町裏"
  },
  "9890658": {
    "zipcode": "9890658",
    "prefectureCode": "04",
    "prefectureNumber": 4,
    "prefecture": "宮城県",
    "city": "刈田郡七ヶ宿町",
    "town": "南浦畑"
  },
  "9890661": {
    "zipcode": "9890661",
    "prefectureCode": "04",
    "prefectureNumber": 4,
    "prefecture": "宮城県",
    "city": "刈田郡七ヶ宿町",
    "town": "坂ノ上"
  },
  "9890662": {
    "zipcode": "9890662",
    "prefectureCode": "04",
    "prefectureNumber": 4,
    "prefecture": "宮城県",
    "city": "刈田郡七ヶ宿町",
    "town": "赤地"
  },
  "9890663": {
    "zipcode": "9890663",
    "prefectureCode": "04",
    "prefectureNumber": 4,
    "prefecture": "宮城県",
    "city": "刈田郡七ヶ宿町",
    "town": "東沢"
  },
  "9890664": {
    "zipcode": "9890664",
    "prefectureCode": "04",
    "prefectureNumber": 4,
    "prefecture": "宮城県",
    "city": "刈田郡七ヶ宿町",
    "town": "行人原道上"
  },
  "9890665": {
    "zipcode": "9890665",
    "prefectureCode": "04",
    "prefectureNumber": 4,
    "prefecture": "宮城県",
    "city": "刈田郡七ヶ宿町",
    "town": "侭ノ上地蔵前"
  },
  "9890666": {
    "zipcode": "9890666",
    "prefectureCode": "04",
    "prefectureNumber": 4,
    "prefecture": "宮城県",
    "city": "刈田郡七ヶ宿町",
    "town": "干蒲"
  },
  "9890667": {
    "zipcode": "9890667",
    "prefectureCode": "04",
    "prefectureNumber": 4,
    "prefecture": "宮城県",
    "city": "刈田郡七ヶ宿町",
    "town": "水下道上"
  },
  "9890701": {
    "zipcode": "9890701",
    "prefectureCode": "04",
    "prefectureNumber": 4,
    "prefecture": "宮城県",
    "city": "刈田郡蔵王町",
    "town": "宮"
  },
  "9890731": {
    "zipcode": "9890731",
    "prefectureCode": "04",
    "prefectureNumber": 4,
    "prefecture": "宮城県",
    "city": "白石市",
    "town": "福岡深谷"
  },
  "9890732": {
    "zipcode": "9890732",
    "prefectureCode": "04",
    "prefectureNumber": 4,
    "prefecture": "宮城県",
    "city": "白石市",
    "town": "福岡長袋（川寺山、芹沢）"
  },
  "9890733": {
    "zipcode": "9890733",
    "prefectureCode": "04",
    "prefectureNumber": 4,
    "prefecture": "宮城県",
    "city": "白石市",
    "town": "福岡八宮"
  },
  "9890734": {
    "zipcode": "9890734",
    "prefectureCode": "04",
    "prefectureNumber": 4,
    "prefecture": "宮城県",
    "city": "白石市",
    "town": "白鳥"
  },
  "9890800": {
    "zipcode": "9890800",
    "prefectureCode": "04",
    "prefectureNumber": 4,
    "prefecture": "宮城県",
    "city": "刈田郡蔵王町",
    "town": "以下に掲載がない場合"
  },
  "9890821": {
    "zipcode": "9890821",
    "prefectureCode": "04",
    "prefectureNumber": 4,
    "prefecture": "宮城県",
    "city": "刈田郡蔵王町",
    "town": "円田（その他）"
  },
  "9890831": {
    "zipcode": "9890831",
    "prefectureCode": "04",
    "prefectureNumber": 4,
    "prefecture": "宮城県",
    "city": "刈田郡蔵王町",
    "town": "平沢"
  },
  "9890841": {
    "zipcode": "9890841",
    "prefectureCode": "04",
    "prefectureNumber": 4,
    "prefecture": "宮城県",
    "city": "刈田郡蔵王町",
    "town": "小村崎"
  },
  "9890842": {
    "zipcode": "9890842",
    "prefectureCode": "04",
    "prefectureNumber": 4,
    "prefecture": "宮城県",
    "city": "刈田郡蔵王町",
    "town": "塩沢"
  },
  "9890843": {
    "zipcode": "9890843",
    "prefectureCode": "04",
    "prefectureNumber": 4,
    "prefecture": "宮城県",
    "city": "刈田郡蔵王町",
    "town": "矢附"
  },
  "9890851": {
    "zipcode": "9890851",
    "prefectureCode": "04",
    "prefectureNumber": 4,
    "prefecture": "宮城県",
    "city": "刈田郡蔵王町",
    "town": "曲竹"
  },
  "9890901": {
    "zipcode": "9890901",
    "prefectureCode": "04",
    "prefectureNumber": 4,
    "prefecture": "宮城県",
    "city": "柴田郡川崎町",
    "town": "前川（青根、手代塚山、沼ノ平山、名号下山、権現塚、火の塚山、峩々）"
  },
  "9890908": {
    "zipcode": "9890908",
    "prefectureCode": "04",
    "prefectureNumber": 4,
    "prefecture": "宮城県",
    "city": "柴田郡川崎町",
    "town": "青根温泉"
  },
  "9890911": {
    "zipcode": "9890911",
    "prefectureCode": "04",
    "prefectureNumber": 4,
    "prefecture": "宮城県",
    "city": "刈田郡蔵王町",
    "town": "遠刈田温泉栄町"
  },
  "9890912": {
    "zipcode": "9890912",
    "prefectureCode": "04",
    "prefectureNumber": 4,
    "prefecture": "宮城県",
    "city": "刈田郡蔵王町",
    "town": "遠刈田温泉仲町"
  },
  "9890913": {
    "zipcode": "9890913",
    "prefectureCode": "04",
    "prefectureNumber": 4,
    "prefecture": "宮城県",
    "city": "刈田郡蔵王町",
    "town": "遠刈田温泉本町"
  },
  "9890914": {
    "zipcode": "9890914",
    "prefectureCode": "04",
    "prefectureNumber": 4,
    "prefecture": "宮城県",
    "city": "刈田郡蔵王町",
    "town": "遠刈田温泉旭町"
  },
  "9890915": {
    "zipcode": "9890915",
    "prefectureCode": "04",
    "prefectureNumber": 4,
    "prefecture": "宮城県",
    "city": "刈田郡蔵王町",
    "town": "遠刈田温泉寿町"
  },
  "9890916": {
    "zipcode": "9890916",
    "prefectureCode": "04",
    "prefectureNumber": 4,
    "prefecture": "宮城県",
    "city": "刈田郡蔵王町",
    "town": "遠刈田温泉"
  },
  "9890921": {
    "zipcode": "9890921",
    "prefectureCode": "04",
    "prefectureNumber": 4,
    "prefecture": "宮城県",
    "city": "刈田郡蔵王町",
    "town": "円田（釜沢、善舞森、土浮谷地、土浮山２〜５番地）"
  },
  "9891101": {
    "zipcode": "9891101",
    "prefectureCode": "04",
    "prefectureNumber": 4,
    "prefecture": "宮城県",
    "city": "白石市",
    "town": "白川小奥"
  },
  "9891102": {
    "zipcode": "9891102",
    "prefectureCode": "04",
    "prefectureNumber": 4,
    "prefecture": "宮城県",
    "city": "白石市",
    "town": "白川津田"
  },
  "9891103": {
    "zipcode": "9891103",
    "prefectureCode": "04",
    "prefectureNumber": 4,
    "prefecture": "宮城県",
    "city": "白石市",
    "town": "白川犬卒都婆"
  },
  "9891104": {
    "zipcode": "9891104",
    "prefectureCode": "04",
    "prefectureNumber": 4,
    "prefecture": "宮城県",
    "city": "白石市",
    "town": "白川内親"
  },
  "9891200": {
    "zipcode": "9891200",
    "prefectureCode": "04",
    "prefectureNumber": 4,
    "prefecture": "宮城県",
    "city": "柴田郡大河原町",
    "town": "以下に掲載がない場合"
  },
  "9891201": {
    "zipcode": "9891201",
    "prefectureCode": "04",
    "prefectureNumber": 4,
    "prefecture": "宮城県",
    "city": "柴田郡大河原町",
    "town": "大谷"
  },
  "9891202": {
    "zipcode": "9891202",
    "prefectureCode": "04",
    "prefectureNumber": 4,
    "prefecture": "宮城県",
    "city": "柴田郡大河原町",
    "town": "高砂町"
  },
  "9891203": {
    "zipcode": "9891203",
    "prefectureCode": "04",
    "prefectureNumber": 4,
    "prefecture": "宮城県",
    "city": "柴田郡大河原町",
    "town": "旭町"
  },
  "9891204": {
    "zipcode": "9891204",
    "prefectureCode": "04",
    "prefectureNumber": 4,
    "prefecture": "宮城県",
    "city": "柴田郡大河原町",
    "town": "大竜"
  },
  "9891205": {
    "zipcode": "9891205",
    "prefectureCode": "04",
    "prefectureNumber": 4,
    "prefecture": "宮城県",
    "city": "柴田郡大河原町",
    "town": "大芝"
  },
  "9891206": {
    "zipcode": "9891206",
    "prefectureCode": "04",
    "prefectureNumber": 4,
    "prefecture": "宮城県",
    "city": "柴田郡大河原町",
    "town": "中の倉"
  },
  "9891207": {
    "zipcode": "9891207",
    "prefectureCode": "04",
    "prefectureNumber": 4,
    "prefecture": "宮城県",
    "city": "柴田郡大河原町",
    "town": "川瀬町"
  },
  "9891211": {
    "zipcode": "9891211",
    "prefectureCode": "04",
    "prefectureNumber": 4,
    "prefecture": "宮城県",
    "city": "柴田郡大河原町",
    "town": "広瀬町"
  },
  "9891212": {
    "zipcode": "9891212",
    "prefectureCode": "04",
    "prefectureNumber": 4,
    "prefecture": "宮城県",
    "city": "柴田郡大河原町",
    "town": "山崎町"
  },
  "9891213": {
    "zipcode": "9891213",
    "prefectureCode": "04",
    "prefectureNumber": 4,
    "prefecture": "宮城県",
    "city": "柴田郡大河原町",
    "town": "住吉町"
  },
  "9891214": {
    "zipcode": "9891214",
    "prefectureCode": "04",
    "prefectureNumber": 4,
    "prefecture": "宮城県",
    "city": "柴田郡大河原町",
    "town": "甲子町"
  },
  "9891215": {
    "zipcode": "9891215",
    "prefectureCode": "04",
    "prefectureNumber": 4,
    "prefecture": "宮城県",
    "city": "柴田郡大河原町",
    "town": "中島町"
  },
  "9891216": {
    "zipcode": "9891216",
    "prefectureCode": "04",
    "prefectureNumber": 4,
    "prefecture": "宮城県",
    "city": "柴田郡大河原町",
    "town": "幸町"
  },
  "9891217": {
    "zipcode": "9891217",
    "prefectureCode": "04",
    "prefectureNumber": 4,
    "prefecture": "宮城県",
    "city": "柴田郡大河原町",
    "town": "錦町"
  },
  "9891221": {
    "zipcode": "9891221",
    "prefectureCode": "04",
    "prefectureNumber": 4,
    "prefecture": "宮城県",
    "city": "柴田郡大河原町",
    "town": "緑町"
  },
  "9891222": {
    "zipcode": "9891222",
    "prefectureCode": "04",
    "prefectureNumber": 4,
    "prefecture": "宮城県",
    "city": "柴田郡大河原町",
    "town": "南平"
  },
  "9891223": {
    "zipcode": "9891223",
    "prefectureCode": "04",
    "prefectureNumber": 4,
    "prefecture": "宮城県",
    "city": "柴田郡大河原町",
    "town": "東新町"
  },
  "9891224": {
    "zipcode": "9891224",
    "prefectureCode": "04",
    "prefectureNumber": 4,
    "prefecture": "宮城県",
    "city": "柴田郡大河原町",
    "town": "金ケ瀬"
  },
  "9891225": {
    "zipcode": "9891225",
    "prefectureCode": "04",
    "prefectureNumber": 4,
    "prefecture": "宮城県",
    "city": "柴田郡大河原町",
    "town": "広表"
  },
  "9891231": {
    "zipcode": "9891231",
    "prefectureCode": "04",
    "prefectureNumber": 4,
    "prefecture": "宮城県",
    "city": "柴田郡大河原町",
    "town": "中川原"
  },
  "9891232": {
    "zipcode": "9891232",
    "prefectureCode": "04",
    "prefectureNumber": 4,
    "prefecture": "宮城県",
    "city": "柴田郡大河原町",
    "town": "南海道下"
  },
  "9891233": {
    "zipcode": "9891233",
    "prefectureCode": "04",
    "prefectureNumber": 4,
    "prefecture": "宮城県",
    "city": "柴田郡大河原町",
    "town": "上川原"
  },
  "9891234": {
    "zipcode": "9891234",
    "prefectureCode": "04",
    "prefectureNumber": 4,
    "prefecture": "宮城県",
    "city": "柴田郡大河原町",
    "town": "新古川"
  },
  "9891235": {
    "zipcode": "9891235",
    "prefectureCode": "04",
    "prefectureNumber": 4,
    "prefecture": "宮城県",
    "city": "柴田郡大河原町",
    "town": "南原町"
  },
  "9891236": {
    "zipcode": "9891236",
    "prefectureCode": "04",
    "prefectureNumber": 4,
    "prefecture": "宮城県",
    "city": "柴田郡大河原町",
    "town": "東原町"
  },
  "9891237": {
    "zipcode": "9891237",
    "prefectureCode": "04",
    "prefectureNumber": 4,
    "prefecture": "宮城県",
    "city": "柴田郡大河原町",
    "town": "荒町"
  },
  "9891241": {
    "zipcode": "9891241",
    "prefectureCode": "04",
    "prefectureNumber": 4,
    "prefecture": "宮城県",
    "city": "柴田郡大河原町",
    "town": "町"
  },
  "9891242": {
    "zipcode": "9891242",
    "prefectureCode": "04",
    "prefectureNumber": 4,
    "prefecture": "宮城県",
    "city": "柴田郡大河原町",
    "town": "西浦"
  },
  "9891243": {
    "zipcode": "9891243",
    "prefectureCode": "04",
    "prefectureNumber": 4,
    "prefecture": "宮城県",
    "city": "柴田郡大河原町",
    "town": "南"
  },
  "9891244": {
    "zipcode": "9891244",
    "prefectureCode": "04",
    "prefectureNumber": 4,
    "prefecture": "宮城県",
    "city": "柴田郡大河原町",
    "town": "西町"
  },
  "9891245": {
    "zipcode": "9891245",
    "prefectureCode": "04",
    "prefectureNumber": 4,
    "prefecture": "宮城県",
    "city": "柴田郡大河原町",
    "town": "新南"
  },
  "9891246": {
    "zipcode": "9891246",
    "prefectureCode": "04",
    "prefectureNumber": 4,
    "prefecture": "宮城県",
    "city": "柴田郡大河原町",
    "town": "新東"
  },
  "9891247": {
    "zipcode": "9891247",
    "prefectureCode": "04",
    "prefectureNumber": 4,
    "prefecture": "宮城県",
    "city": "柴田郡大河原町",
    "town": "東"
  },
  "9891248": {
    "zipcode": "9891248",
    "prefectureCode": "04",
    "prefectureNumber": 4,
    "prefecture": "宮城県",
    "city": "柴田郡大河原町",
    "town": "土手崎"
  },
  "9891249": {
    "zipcode": "9891249",
    "prefectureCode": "04",
    "prefectureNumber": 4,
    "prefecture": "宮城県",
    "city": "柴田郡大河原町",
    "town": "海道東"
  },
  "9891251": {
    "zipcode": "9891251",
    "prefectureCode": "04",
    "prefectureNumber": 4,
    "prefecture": "宮城県",
    "city": "柴田郡大河原町",
    "town": "橋本"
  },
  "9891252": {
    "zipcode": "9891252",
    "prefectureCode": "04",
    "prefectureNumber": 4,
    "prefecture": "宮城県",
    "city": "柴田郡大河原町",
    "town": "八乙女"
  },
  "9891253": {
    "zipcode": "9891253",
    "prefectureCode": "04",
    "prefectureNumber": 4,
    "prefecture": "宮城県",
    "city": "柴田郡大河原町",
    "town": "西"
  },
  "9891254": {
    "zipcode": "9891254",
    "prefectureCode": "04",
    "prefectureNumber": 4,
    "prefecture": "宮城県",
    "city": "柴田郡大河原町",
    "town": "沼"
  },
  "9891255": {
    "zipcode": "9891255",
    "prefectureCode": "04",
    "prefectureNumber": 4,
    "prefecture": "宮城県",
    "city": "柴田郡大河原町",
    "town": "袖谷地"
  },
  "9891256": {
    "zipcode": "9891256",
    "prefectureCode": "04",
    "prefectureNumber": 4,
    "prefecture": "宮城県",
    "city": "柴田郡大河原町",
    "town": "堤"
  },
  "9891257": {
    "zipcode": "9891257",
    "prefectureCode": "04",
    "prefectureNumber": 4,
    "prefecture": "宮城県",
    "city": "柴田郡大河原町",
    "town": "新寺"
  },
  "9891258": {
    "zipcode": "9891258",
    "prefectureCode": "04",
    "prefectureNumber": 4,
    "prefecture": "宮城県",
    "city": "柴田郡大河原町",
    "town": "小山田"
  },
  "9891259": {
    "zipcode": "9891259",
    "prefectureCode": "04",
    "prefectureNumber": 4,
    "prefecture": "宮城県",
    "city": "柴田郡大河原町",
    "town": "福田"
  },
  "9891261": {
    "zipcode": "9891261",
    "prefectureCode": "04",
    "prefectureNumber": 4,
    "prefecture": "宮城県",
    "city": "柴田郡大河原町",
    "town": "大巻"
  },
  "9891263": {
    "zipcode": "9891263",
    "prefectureCode": "04",
    "prefectureNumber": 4,
    "prefecture": "宮城県",
    "city": "柴田郡大河原町",
    "town": "大谷地"
  },
  "9891264": {
    "zipcode": "9891264",
    "prefectureCode": "04",
    "prefectureNumber": 4,
    "prefecture": "宮城県",
    "city": "柴田郡大河原町",
    "town": "新青川"
  },
  "9891266": {
    "zipcode": "9891266",
    "prefectureCode": "04",
    "prefectureNumber": 4,
    "prefecture": "宮城県",
    "city": "柴田郡大河原町",
    "town": "千塚前"
  },
  "9891267": {
    "zipcode": "9891267",
    "prefectureCode": "04",
    "prefectureNumber": 4,
    "prefecture": "宮城県",
    "city": "柴田郡大河原町",
    "town": "小島"
  },
  "9891271": {
    "zipcode": "9891271",
    "prefectureCode": "04",
    "prefectureNumber": 4,
    "prefecture": "宮城県",
    "city": "柴田郡大河原町",
    "town": "東桜町"
  },
  "9891272": {
    "zipcode": "9891272",
    "prefectureCode": "04",
    "prefectureNumber": 4,
    "prefecture": "宮城県",
    "city": "柴田郡大河原町",
    "town": "南桜町"
  },
  "9891273": {
    "zipcode": "9891273",
    "prefectureCode": "04",
    "prefectureNumber": 4,
    "prefecture": "宮城県",
    "city": "柴田郡大河原町",
    "town": "西桜町"
  },
  "9891274": {
    "zipcode": "9891274",
    "prefectureCode": "04",
    "prefectureNumber": 4,
    "prefecture": "宮城県",
    "city": "柴田郡大河原町",
    "town": "新桜町"
  },
  "9891300": {
    "zipcode": "9891300",
    "prefectureCode": "04",
    "prefectureNumber": 4,
    "prefecture": "宮城県",
    "city": "柴田郡村田町",
    "town": "以下に掲載がない場合"
  },
  "9891301": {
    "zipcode": "9891301",
    "prefectureCode": "04",
    "prefectureNumber": 4,
    "prefecture": "宮城県",
    "city": "柴田郡村田町",
    "town": "菅生"
  },
  "9891302": {
    "zipcode": "9891302",
    "prefectureCode": "04",
    "prefectureNumber": 4,
    "prefecture": "宮城県",
    "city": "柴田郡村田町",
    "town": "小泉"
  },
  "9891303": {
    "zipcode": "9891303",
    "prefectureCode": "04",
    "prefectureNumber": 4,
    "prefecture": "宮城県",
    "city": "柴田郡村田町",
    "town": "薄木"
  },
  "9891304": {
    "zipcode": "9891304",
    "prefectureCode": "04",
    "prefectureNumber": 4,
    "prefecture": "宮城県",
    "city": "柴田郡村田町",
    "town": "西ケ丘"
  },
  "9891305": {
    "zipcode": "9891305",
    "prefectureCode": "04",
    "prefectureNumber": 4,
    "prefecture": "宮城県",
    "city": "柴田郡村田町",
    "town": "村田"
  },
  "9891311": {
    "zipcode": "9891311",
    "prefectureCode": "04",
    "prefectureNumber": 4,
    "prefecture": "宮城県",
    "city": "柴田郡村田町",
    "town": "足立（その他）"
  },
  "9891321": {
    "zipcode": "9891321",
    "prefectureCode": "04",
    "prefectureNumber": 4,
    "prefecture": "宮城県",
    "city": "柴田郡村田町",
    "town": "沼辺"
  },
  "9891322": {
    "zipcode": "9891322",
    "prefectureCode": "04",
    "prefectureNumber": 4,
    "prefecture": "宮城県",
    "city": "柴田郡村田町",
    "town": "関場"
  },
  "9891323": {
    "zipcode": "9891323",
    "prefectureCode": "04",
    "prefectureNumber": 4,
    "prefecture": "宮城県",
    "city": "柴田郡村田町",
    "town": "沼田"
  },
  "9891500": {
    "zipcode": "9891500",
    "prefectureCode": "04",
    "prefectureNumber": 4,
    "prefecture": "宮城県",
    "city": "柴田郡川崎町",
    "town": "以下に掲載がない場合"
  },
  "9891501": {
    "zipcode": "9891501",
    "prefectureCode": "04",
    "prefectureNumber": 4,
    "prefecture": "宮城県",
    "city": "柴田郡川崎町",
    "town": "前川（その他）"
  },
  "9891502": {
    "zipcode": "9891502",
    "prefectureCode": "04",
    "prefectureNumber": 4,
    "prefecture": "宮城県",
    "city": "柴田郡川崎町",
    "town": "今宿"
  },
  "9891503": {
    "zipcode": "9891503",
    "prefectureCode": "04",
    "prefectureNumber": 4,
    "prefecture": "宮城県",
    "city": "柴田郡川崎町",
    "town": "川内"
  },
  "9891504": {
    "zipcode": "9891504",
    "prefectureCode": "04",
    "prefectureNumber": 4,
    "prefecture": "宮城県",
    "city": "柴田郡川崎町",
    "town": "本砂金"
  },
  "9891505": {
    "zipcode": "9891505",
    "prefectureCode": "04",
    "prefectureNumber": 4,
    "prefecture": "宮城県",
    "city": "柴田郡川崎町",
    "town": "小野"
  },
  "9891506": {
    "zipcode": "9891506",
    "prefectureCode": "04",
    "prefectureNumber": 4,
    "prefecture": "宮城県",
    "city": "柴田郡川崎町",
    "town": "支倉台"
  },
  "9891507": {
    "zipcode": "9891507",
    "prefectureCode": "04",
    "prefectureNumber": 4,
    "prefecture": "宮城県",
    "city": "柴田郡川崎町",
    "town": "支倉"
  },
  "9891511": {
    "zipcode": "9891511",
    "prefectureCode": "04",
    "prefectureNumber": 4,
    "prefecture": "宮城県",
    "city": "柴田郡村田町",
    "town": "足立（北向）"
  },
  "9891600": {
    "zipcode": "9891600",
    "prefectureCode": "04",
    "prefectureNumber": 4,
    "prefecture": "宮城県",
    "city": "柴田郡柴田町",
    "town": "以下に掲載がない場合"
  },
  "9891601": {
    "zipcode": "9891601",
    "prefectureCode": "04",
    "prefectureNumber": 4,
    "prefecture": "宮城県",
    "city": "柴田郡柴田町",
    "town": "船岡中央"
  },
  "9891602": {
    "zipcode": "9891602",
    "prefectureCode": "04",
    "prefectureNumber": 4,
    "prefecture": "宮城県",
    "city": "柴田郡柴田町",
    "town": "船岡土手内"
  },
  "9891603": {
    "zipcode": "9891603",
    "prefectureCode": "04",
    "prefectureNumber": 4,
    "prefecture": "宮城県",
    "city": "柴田郡柴田町",
    "town": "船岡西"
  },
  "9891604": {
    "zipcode": "9891604",
    "prefectureCode": "04",
    "prefectureNumber": 4,
    "prefecture": "宮城県",
    "city": "柴田郡柴田町",
    "town": "船岡東"
  },
  "9891605": {
    "zipcode": "9891605",
    "prefectureCode": "04",
    "prefectureNumber": 4,
    "prefecture": "宮城県",
    "city": "柴田郡柴田町",
    "town": "船岡南"
  },
  "9891606": {
    "zipcode": "9891606",
    "prefectureCode": "04",
    "prefectureNumber": 4,
    "prefecture": "宮城県",
    "city": "柴田郡柴田町",
    "town": "船岡"
  },
  "9891607": {
    "zipcode": "9891607",
    "prefectureCode": "04",
    "prefectureNumber": 4,
    "prefecture": "宮城県",
    "city": "柴田郡柴田町",
    "town": "船岡新栄"
  },
  "9891608": {
    "zipcode": "9891608",
    "prefectureCode": "04",
    "prefectureNumber": 4,
    "prefecture": "宮城県",
    "city": "柴田郡柴田町",
    "town": "剣崎"
  },
  "9891611": {
    "zipcode": "9891611",
    "prefectureCode": "04",
    "prefectureNumber": 4,
    "prefecture": "宮城県",
    "city": "柴田郡柴田町",
    "town": "上名生"
  },
  "9891612": {
    "zipcode": "9891612",
    "prefectureCode": "04",
    "prefectureNumber": 4,
    "prefecture": "宮城県",
    "city": "柴田郡柴田町",
    "town": "中名生"
  },
  "9891613": {
    "zipcode": "9891613",
    "prefectureCode": "04",
    "prefectureNumber": 4,
    "prefecture": "宮城県",
    "city": "柴田郡柴田町",
    "town": "下名生"
  },
  "9891621": {
    "zipcode": "9891621",
    "prefectureCode": "04",
    "prefectureNumber": 4,
    "prefecture": "宮城県",
    "city": "柴田郡柴田町",
    "town": "本船迫"
  },
  "9891622": {
    "zipcode": "9891622",
    "prefectureCode": "04",
    "prefectureNumber": 4,
    "prefecture": "宮城県",
    "city": "柴田郡柴田町",
    "town": "西船迫"
  },
  "9891623": {
    "zipcode": "9891623",
    "prefectureCode": "04",
    "prefectureNumber": 4,
    "prefecture": "宮城県",
    "city": "柴田郡柴田町",
    "town": "北船岡"
  },
  "9891631": {
    "zipcode": "9891631",
    "prefectureCode": "04",
    "prefectureNumber": 4,
    "prefecture": "宮城県",
    "city": "柴田郡柴田町",
    "town": "東船迫（２丁目）"
  },
  "9891731": {
    "zipcode": "9891731",
    "prefectureCode": "04",
    "prefectureNumber": 4,
    "prefecture": "宮城県",
    "city": "柴田郡柴田町",
    "town": "東船迫（１丁目）"
  },
  "9891741": {
    "zipcode": "9891741",
    "prefectureCode": "04",
    "prefectureNumber": 4,
    "prefecture": "宮城県",
    "city": "柴田郡柴田町",
    "town": "富沢"
  },
  "9891742": {
    "zipcode": "9891742",
    "prefectureCode": "04",
    "prefectureNumber": 4,
    "prefecture": "宮城県",
    "city": "柴田郡柴田町",
    "town": "上川名"
  },
  "9891743": {
    "zipcode": "9891743",
    "prefectureCode": "04",
    "prefectureNumber": 4,
    "prefecture": "宮城県",
    "city": "柴田郡柴田町",
    "town": "四日市場"
  },
  "9891744": {
    "zipcode": "9891744",
    "prefectureCode": "04",
    "prefectureNumber": 4,
    "prefecture": "宮城県",
    "city": "柴田郡柴田町",
    "town": "松ケ越"
  },
  "9891745": {
    "zipcode": "9891745",
    "prefectureCode": "04",
    "prefectureNumber": 4,
    "prefecture": "宮城県",
    "city": "柴田郡柴田町",
    "town": "入間田"
  },
  "9891746": {
    "zipcode": "9891746",
    "prefectureCode": "04",
    "prefectureNumber": 4,
    "prefecture": "宮城県",
    "city": "柴田郡柴田町",
    "town": "ゆずが丘"
  },
  "9891751": {
    "zipcode": "9891751",
    "prefectureCode": "04",
    "prefectureNumber": 4,
    "prefecture": "宮城県",
    "city": "柴田郡柴田町",
    "town": "槻木新町"
  },
  "9891752": {
    "zipcode": "9891752",
    "prefectureCode": "04",
    "prefectureNumber": 4,
    "prefecture": "宮城県",
    "city": "柴田郡柴田町",
    "town": "槻木下町"
  },
  "9891753": {
    "zipcode": "9891753",
    "prefectureCode": "04",
    "prefectureNumber": 4,
    "prefecture": "宮城県",
    "city": "柴田郡柴田町",
    "town": "槻木上町"
  },
  "9891754": {
    "zipcode": "9891754",
    "prefectureCode": "04",
    "prefectureNumber": 4,
    "prefecture": "宮城県",
    "city": "柴田郡柴田町",
    "town": "槻木白幡"
  },
  "9891755": {
    "zipcode": "9891755",
    "prefectureCode": "04",
    "prefectureNumber": 4,
    "prefecture": "宮城県",
    "city": "柴田郡柴田町",
    "town": "槻木西"
  },
  "9891756": {
    "zipcode": "9891756",
    "prefectureCode": "04",
    "prefectureNumber": 4,
    "prefecture": "宮城県",
    "city": "柴田郡柴田町",
    "town": "槻木"
  },
  "9891757": {
    "zipcode": "9891757",
    "prefectureCode": "04",
    "prefectureNumber": 4,
    "prefecture": "宮城県",
    "city": "柴田郡柴田町",
    "town": "槻木東"
  },
  "9891758": {
    "zipcode": "9891758",
    "prefectureCode": "04",
    "prefectureNumber": 4,
    "prefecture": "宮城県",
    "city": "柴田郡柴田町",
    "town": "槻木駅西"
  },
  "9891761": {
    "zipcode": "9891761",
    "prefectureCode": "04",
    "prefectureNumber": 4,
    "prefecture": "宮城県",
    "city": "柴田郡柴田町",
    "town": "葉坂"
  },
  "9891762": {
    "zipcode": "9891762",
    "prefectureCode": "04",
    "prefectureNumber": 4,
    "prefecture": "宮城県",
    "city": "柴田郡柴田町",
    "town": "海老穴"
  },
  "9891763": {
    "zipcode": "9891763",
    "prefectureCode": "04",
    "prefectureNumber": 4,
    "prefecture": "宮城県",
    "city": "柴田郡柴田町",
    "town": "船迫"
  },
  "9891764": {
    "zipcode": "9891764",
    "prefectureCode": "04",
    "prefectureNumber": 4,
    "prefecture": "宮城県",
    "city": "柴田郡柴田町",
    "town": "小成田"
  },
  "9891765": {
    "zipcode": "9891765",
    "prefectureCode": "04",
    "prefectureNumber": 4,
    "prefecture": "宮城県",
    "city": "柴田郡柴田町",
    "town": "成田"
  },
  "9892111": {
    "zipcode": "9892111",
    "prefectureCode": "04",
    "prefectureNumber": 4,
    "prefecture": "宮城県",
    "city": "亘理郡山元町",
    "town": "坂元"
  },
  "9892112": {
    "zipcode": "9892112",
    "prefectureCode": "04",
    "prefectureNumber": 4,
    "prefecture": "宮城県",
    "city": "亘理郡山元町",
    "town": "真庭"
  },
  "9892200": {
    "zipcode": "9892200",
    "prefectureCode": "04",
    "prefectureNumber": 4,
    "prefecture": "宮城県",
    "city": "亘理郡山元町",
    "town": "以下に掲載がない場合"
  },
  "9892201": {
    "zipcode": "9892201",
    "prefectureCode": "04",
    "prefectureNumber": 4,
    "prefecture": "宮城県",
    "city": "亘理郡山元町",
    "town": "山寺"
  },
  "9892202": {
    "zipcode": "9892202",
    "prefectureCode": "04",
    "prefectureNumber": 4,
    "prefecture": "宮城県",
    "city": "亘理郡山元町",
    "town": "高瀬"
  },
  "9892203": {
    "zipcode": "9892203",
    "prefectureCode": "04",
    "prefectureNumber": 4,
    "prefecture": "宮城県",
    "city": "亘理郡山元町",
    "town": "浅生原"
  },
  "9892204": {
    "zipcode": "9892204",
    "prefectureCode": "04",
    "prefectureNumber": 4,
    "prefecture": "宮城県",
    "city": "亘理郡山元町",
    "town": "鷲足"
  },
  "9892205": {
    "zipcode": "9892205",
    "prefectureCode": "04",
    "prefectureNumber": 4,
    "prefecture": "宮城県",
    "city": "亘理郡山元町",
    "town": "小平"
  },
  "9892206": {
    "zipcode": "9892206",
    "prefectureCode": "04",
    "prefectureNumber": 4,
    "prefecture": "宮城県",
    "city": "亘理郡山元町",
    "town": "大平"
  },
  "9892207": {
    "zipcode": "9892207",
    "prefectureCode": "04",
    "prefectureNumber": 4,
    "prefecture": "宮城県",
    "city": "亘理郡山元町",
    "town": "八手庭"
  },
  "9892208": {
    "zipcode": "9892208",
    "prefectureCode": "04",
    "prefectureNumber": 4,
    "prefecture": "宮城県",
    "city": "亘理郡山元町",
    "town": "つばめの杜"
  },
  "9892300": {
    "zipcode": "9892300",
    "prefectureCode": "04",
    "prefectureNumber": 4,
    "prefecture": "宮城県",
    "city": "亘理郡亘理町",
    "town": "以下に掲載がない場合"
  },
  "9892301": {
    "zipcode": "9892301",
    "prefectureCode": "04",
    "prefectureNumber": 4,
    "prefecture": "宮城県",
    "city": "亘理郡亘理町",
    "town": "逢隈中泉"
  },
  "9892302": {
    "zipcode": "9892302",
    "prefectureCode": "04",
    "prefectureNumber": 4,
    "prefecture": "宮城県",
    "city": "亘理郡亘理町",
    "town": "逢隈牛袋"
  },
  "9892303": {
    "zipcode": "9892303",
    "prefectureCode": "04",
    "prefectureNumber": 4,
    "prefecture": "宮城県",
    "city": "亘理郡亘理町",
    "town": "逢隈十文字"
  },
  "9892311": {
    "zipcode": "9892311",
    "prefectureCode": "04",
    "prefectureNumber": 4,
    "prefecture": "宮城県",
    "city": "亘理郡亘理町",
    "town": "荒浜"
  },
  "9892321": {
    "zipcode": "9892321",
    "prefectureCode": "04",
    "prefectureNumber": 4,
    "prefecture": "宮城県",
    "city": "亘理郡亘理町",
    "town": "逢隈榎袋"
  },
  "9892322": {
    "zipcode": "9892322",
    "prefectureCode": "04",
    "prefectureNumber": 4,
    "prefecture": "宮城県",
    "city": "亘理郡亘理町",
    "town": "逢隈蕨"
  },
  "9892323": {
    "zipcode": "9892323",
    "prefectureCode": "04",
    "prefectureNumber": 4,
    "prefecture": "宮城県",
    "city": "亘理郡亘理町",
    "town": "逢隈鷺屋"
  },
  "9892324": {
    "zipcode": "9892324",
    "prefectureCode": "04",
    "prefectureNumber": 4,
    "prefecture": "宮城県",
    "city": "亘理郡亘理町",
    "town": "逢隈高屋"
  },
  "9892325": {
    "zipcode": "9892325",
    "prefectureCode": "04",
    "prefectureNumber": 4,
    "prefecture": "宮城県",
    "city": "亘理郡亘理町",
    "town": "花苺"
  },
  "9892331": {
    "zipcode": "9892331",
    "prefectureCode": "04",
    "prefectureNumber": 4,
    "prefecture": "宮城県",
    "city": "亘理郡亘理町",
    "town": "吉田"
  },
  "9892332": {
    "zipcode": "9892332",
    "prefectureCode": "04",
    "prefectureNumber": 4,
    "prefecture": "宮城県",
    "city": "亘理郡亘理町",
    "town": "苺浜"
  },
  "9892333": {
    "zipcode": "9892333",
    "prefectureCode": "04",
    "prefectureNumber": 4,
    "prefecture": "宮城県",
    "city": "亘理郡亘理町",
    "town": "苺里"
  },
  "9892341": {
    "zipcode": "9892341",
    "prefectureCode": "04",
    "prefectureNumber": 4,
    "prefecture": "宮城県",
    "city": "亘理郡亘理町",
    "town": "長瀞"
  },
  "9892351": {
    "zipcode": "9892351",
    "prefectureCode": "04",
    "prefectureNumber": 4,
    "prefecture": "宮城県",
    "city": "亘理郡亘理町",
    "town": "南町東"
  },
  "9892352": {
    "zipcode": "9892352",
    "prefectureCode": "04",
    "prefectureNumber": 4,
    "prefecture": "宮城県",
    "city": "亘理郡亘理町",
    "town": "悠里"
  },
  "9892361": {
    "zipcode": "9892361",
    "prefectureCode": "04",
    "prefectureNumber": 4,
    "prefecture": "宮城県",
    "city": "亘理郡亘理町",
    "town": "龍円寺前"
  },
  "9892371": {
    "zipcode": "9892371",
    "prefectureCode": "04",
    "prefectureNumber": 4,
    "prefecture": "宮城県",
    "city": "亘理郡亘理町",
    "town": "逢隈鹿島"
  },
  "9892372": {
    "zipcode": "9892372",
    "prefectureCode": "04",
    "prefectureNumber": 4,
    "prefecture": "宮城県",
    "city": "亘理郡亘理町",
    "town": "逢隈神宮寺"
  },
  "9892381": {
    "zipcode": "9892381",
    "prefectureCode": "04",
    "prefectureNumber": 4,
    "prefecture": "宮城県",
    "city": "亘理郡亘理町",
    "town": "逢隈上郡"
  },
  "9892382": {
    "zipcode": "9892382",
    "prefectureCode": "04",
    "prefectureNumber": 4,
    "prefecture": "宮城県",
    "city": "亘理郡亘理町",
    "town": "逢隈下郡"
  },
  "9892383": {
    "zipcode": "9892383",
    "prefectureCode": "04",
    "prefectureNumber": 4,
    "prefecture": "宮城県",
    "city": "亘理郡亘理町",
    "town": "逢隈田沢"
  },
  "9892384": {
    "zipcode": "9892384",
    "prefectureCode": "04",
    "prefectureNumber": 4,
    "prefecture": "宮城県",
    "city": "亘理郡亘理町",
    "town": "逢隈小山"
  },
  "9892385": {
    "zipcode": "9892385",
    "prefectureCode": "04",
    "prefectureNumber": 4,
    "prefecture": "宮城県",
    "city": "亘理郡亘理町",
    "town": "逢隈（郡）"
  },
  "9892400": {
    "zipcode": "9892400",
    "prefectureCode": "04",
    "prefectureNumber": 4,
    "prefecture": "宮城県",
    "city": "岩沼市",
    "town": "以下に掲載がない場合"
  },
  "9892401": {
    "zipcode": "9892401",
    "prefectureCode": "04",
    "prefectureNumber": 4,
    "prefecture": "宮城県",
    "city": "名取市",
    "town": "下増田（南原無番地、仙台空港関係施設）"
  },
  "9892411": {
    "zipcode": "9892411",
    "prefectureCode": "04",
    "prefectureNumber": 4,
    "prefecture": "宮城県",
    "city": "名取市",
    "town": "本郷"
  },
  "9892412": {
    "zipcode": "9892412",
    "prefectureCode": "04",
    "prefectureNumber": 4,
    "prefecture": "宮城県",
    "city": "名取市",
    "town": "堀内"
  },
  "9892420": {
    "zipcode": "9892420",
    "prefectureCode": "04",
    "prefectureNumber": 4,
    "prefecture": "宮城県",
    "city": "岩沼市",
    "town": "空港西"
  },
  "9892421": {
    "zipcode": "9892421",
    "prefectureCode": "04",
    "prefectureNumber": 4,
    "prefecture": "宮城県",
    "city": "岩沼市",
    "town": "下野郷"
  },
  "9892422": {
    "zipcode": "9892422",
    "prefectureCode": "04",
    "prefectureNumber": 4,
    "prefecture": "宮城県",
    "city": "岩沼市",
    "town": "空港南"
  },
  "9892423": {
    "zipcode": "9892423",
    "prefectureCode": "04",
    "prefectureNumber": 4,
    "prefecture": "宮城県",
    "city": "岩沼市",
    "town": "押分"
  },
  "9892424": {
    "zipcode": "9892424",
    "prefectureCode": "04",
    "prefectureNumber": 4,
    "prefecture": "宮城県",
    "city": "岩沼市",
    "town": "早股"
  },
  "9892425": {
    "zipcode": "9892425",
    "prefectureCode": "04",
    "prefectureNumber": 4,
    "prefecture": "宮城県",
    "city": "岩沼市",
    "town": "寺島"
  },
  "9892426": {
    "zipcode": "9892426",
    "prefectureCode": "04",
    "prefectureNumber": 4,
    "prefecture": "宮城県",
    "city": "岩沼市",
    "town": "末広"
  },
  "9892427": {
    "zipcode": "9892427",
    "prefectureCode": "04",
    "prefectureNumber": 4,
    "prefecture": "宮城県",
    "city": "岩沼市",
    "town": "里の杜"
  },
  "9892428": {
    "zipcode": "9892428",
    "prefectureCode": "04",
    "prefectureNumber": 4,
    "prefecture": "宮城県",
    "city": "岩沼市",
    "town": "玉浦西"
  },
  "9892429": {
    "zipcode": "9892429",
    "prefectureCode": "04",
    "prefectureNumber": 4,
    "prefecture": "宮城県",
    "city": "岩沼市",
    "town": "恵み野"
  },
  "9892431": {
    "zipcode": "9892431",
    "prefectureCode": "04",
    "prefectureNumber": 4,
    "prefecture": "宮城県",
    "city": "岩沼市",
    "town": "相の原"
  },
  "9892432": {
    "zipcode": "9892432",
    "prefectureCode": "04",
    "prefectureNumber": 4,
    "prefecture": "宮城県",
    "city": "岩沼市",
    "town": "中央"
  },
  "9892433": {
    "zipcode": "9892433",
    "prefectureCode": "04",
    "prefectureNumber": 4,
    "prefecture": "宮城県",
    "city": "岩沼市",
    "town": "桜"
  },
  "9892434": {
    "zipcode": "9892434",
    "prefectureCode": "04",
    "prefectureNumber": 4,
    "prefecture": "宮城県",
    "city": "岩沼市",
    "town": "藤浪"
  },
  "9892435": {
    "zipcode": "9892435",
    "prefectureCode": "04",
    "prefectureNumber": 4,
    "prefecture": "宮城県",
    "city": "岩沼市",
    "town": "阿武隈"
  },
  "9892436": {
    "zipcode": "9892436",
    "prefectureCode": "04",
    "prefectureNumber": 4,
    "prefecture": "宮城県",
    "city": "岩沼市",
    "town": "吹上"
  },
  "9892437": {
    "zipcode": "9892437",
    "prefectureCode": "04",
    "prefectureNumber": 4,
    "prefecture": "宮城県",
    "city": "岩沼市",
    "town": "吹上西"
  },
  "9892441": {
    "zipcode": "9892441",
    "prefectureCode": "04",
    "prefectureNumber": 4,
    "prefecture": "宮城県",
    "city": "岩沼市",
    "town": "館下"
  },
  "9892442": {
    "zipcode": "9892442",
    "prefectureCode": "04",
    "prefectureNumber": 4,
    "prefecture": "宮城県",
    "city": "岩沼市",
    "town": "大手町"
  },
  "9892443": {
    "zipcode": "9892443",
    "prefectureCode": "04",
    "prefectureNumber": 4,
    "prefecture": "宮城県",
    "city": "岩沼市",
    "town": "稲荷町"
  },
  "9892444": {
    "zipcode": "9892444",
    "prefectureCode": "04",
    "prefectureNumber": 4,
    "prefecture": "宮城県",
    "city": "岩沼市",
    "town": "本町"
  },
  "9892445": {
    "zipcode": "9892445",
    "prefectureCode": "04",
    "prefectureNumber": 4,
    "prefecture": "宮城県",
    "city": "岩沼市",
    "town": "桑原"
  },
  "9892446": {
    "zipcode": "9892446",
    "prefectureCode": "04",
    "prefectureNumber": 4,
    "prefecture": "宮城県",
    "city": "岩沼市",
    "town": "西六角"
  },
  "9892447": {
    "zipcode": "9892447",
    "prefectureCode": "04",
    "prefectureNumber": 4,
    "prefecture": "宮城県",
    "city": "岩沼市",
    "town": "桑原西"
  },
  "9892448": {
    "zipcode": "9892448",
    "prefectureCode": "04",
    "prefectureNumber": 4,
    "prefecture": "宮城県",
    "city": "岩沼市",
    "town": "二木"
  },
  "9892451": {
    "zipcode": "9892451",
    "prefectureCode": "04",
    "prefectureNumber": 4,
    "prefecture": "宮城県",
    "city": "岩沼市",
    "town": "土ケ崎"
  },
  "9892452": {
    "zipcode": "9892452",
    "prefectureCode": "04",
    "prefectureNumber": 4,
    "prefecture": "宮城県",
    "city": "岩沼市",
    "town": "武隈"
  },
  "9892453": {
    "zipcode": "9892453",
    "prefectureCode": "04",
    "prefectureNumber": 4,
    "prefecture": "宮城県",
    "city": "岩沼市",
    "town": "大昭和"
  },
  "9892454": {
    "zipcode": "9892454",
    "prefectureCode": "04",
    "prefectureNumber": 4,
    "prefecture": "宮城県",
    "city": "岩沼市",
    "town": "南長谷"
  },
  "9892455": {
    "zipcode": "9892455",
    "prefectureCode": "04",
    "prefectureNumber": 4,
    "prefecture": "宮城県",
    "city": "岩沼市",
    "town": "北長谷"
  },
  "9892456": {
    "zipcode": "9892456",
    "prefectureCode": "04",
    "prefectureNumber": 4,
    "prefecture": "宮城県",
    "city": "岩沼市",
    "town": "松ケ丘"
  },
  "9892457": {
    "zipcode": "9892457",
    "prefectureCode": "04",
    "prefectureNumber": 4,
    "prefecture": "宮城県",
    "city": "岩沼市",
    "town": "平等"
  },
  "9892458": {
    "zipcode": "9892458",
    "prefectureCode": "04",
    "prefectureNumber": 4,
    "prefecture": "宮城県",
    "city": "岩沼市",
    "town": "竹の里"
  },
  "9892459": {
    "zipcode": "9892459",
    "prefectureCode": "04",
    "prefectureNumber": 4,
    "prefecture": "宮城県",
    "city": "岩沼市",
    "town": "たけくま"
  },
  "9892461": {
    "zipcode": "9892461",
    "prefectureCode": "04",
    "prefectureNumber": 4,
    "prefecture": "宮城県",
    "city": "岩沼市",
    "town": "長岡"
  },
  "9892462": {
    "zipcode": "9892462",
    "prefectureCode": "04",
    "prefectureNumber": 4,
    "prefecture": "宮城県",
    "city": "岩沼市",
    "town": "山桜"
  },
  "9892463": {
    "zipcode": "9892463",
    "prefectureCode": "04",
    "prefectureNumber": 4,
    "prefecture": "宮城県",
    "city": "岩沼市",
    "town": "荒井"
  },
  "9892464": {
    "zipcode": "9892464",
    "prefectureCode": "04",
    "prefectureNumber": 4,
    "prefecture": "宮城県",
    "city": "岩沼市",
    "town": "三色吉"
  },
  "9892465": {
    "zipcode": "9892465",
    "prefectureCode": "04",
    "prefectureNumber": 4,
    "prefecture": "宮城県",
    "city": "岩沼市",
    "town": "志賀"
  },
  "9892471": {
    "zipcode": "9892471",
    "prefectureCode": "04",
    "prefectureNumber": 4,
    "prefecture": "宮城県",
    "city": "岩沼市",
    "town": "小川"
  },
  "9892472": {
    "zipcode": "9892472",
    "prefectureCode": "04",
    "prefectureNumber": 4,
    "prefecture": "宮城県",
    "city": "岩沼市",
    "town": "梶橋"
  },
  "9892473": {
    "zipcode": "9892473",
    "prefectureCode": "04",
    "prefectureNumber": 4,
    "prefecture": "宮城県",
    "city": "岩沼市",
    "town": "栄町"
  },
  "9892474": {
    "zipcode": "9892474",
    "prefectureCode": "04",
    "prefectureNumber": 4,
    "prefecture": "宮城県",
    "city": "岩沼市",
    "town": "朝日"
  },
  "9892475": {
    "zipcode": "9892475",
    "prefectureCode": "04",
    "prefectureNumber": 4,
    "prefecture": "宮城県",
    "city": "岩沼市",
    "town": "大和"
  },
  "9892476": {
    "zipcode": "9892476",
    "prefectureCode": "04",
    "prefectureNumber": 4,
    "prefecture": "宮城県",
    "city": "岩沼市",
    "town": "敷島"
  },
  "9892477": {
    "zipcode": "9892477",
    "prefectureCode": "04",
    "prefectureNumber": 4,
    "prefecture": "宮城県",
    "city": "岩沼市",
    "town": "東谷地"
  },
  "9892478": {
    "zipcode": "9892478",
    "prefectureCode": "04",
    "prefectureNumber": 4,
    "prefecture": "宮城県",
    "city": "岩沼市",
    "town": "あさひ野"
  },
  "9893121": {
    "zipcode": "9893121",
    "prefectureCode": "04",
    "prefectureNumber": 4,
    "prefecture": "宮城県",
    "city": "仙台市青葉区",
    "town": "郷六"
  },
  "9893122": {
    "zipcode": "9893122",
    "prefectureCode": "04",
    "prefectureNumber": 4,
    "prefecture": "宮城県",
    "city": "仙台市青葉区",
    "town": "栗生"
  },
  "9893123": {
    "zipcode": "9893123",
    "prefectureCode": "04",
    "prefectureNumber": 4,
    "prefecture": "宮城県",
    "city": "仙台市青葉区",
    "town": "錦ケ丘"
  },
  "9893124": {
    "zipcode": "9893124",
    "prefectureCode": "04",
    "prefectureNumber": 4,
    "prefecture": "宮城県",
    "city": "仙台市青葉区",
    "town": "上愛子"
  },
  "9893125": {
    "zipcode": "9893125",
    "prefectureCode": "04",
    "prefectureNumber": 4,
    "prefecture": "宮城県",
    "city": "仙台市青葉区",
    "town": "下愛子"
  },
  "9893126": {
    "zipcode": "9893126",
    "prefectureCode": "04",
    "prefectureNumber": 4,
    "prefecture": "宮城県",
    "city": "仙台市青葉区",
    "town": "落合"
  },
  "9893127": {
    "zipcode": "9893127",
    "prefectureCode": "04",
    "prefectureNumber": 4,
    "prefecture": "宮城県",
    "city": "仙台市青葉区",
    "town": "愛子東"
  },
  "9893128": {
    "zipcode": "9893128",
    "prefectureCode": "04",
    "prefectureNumber": 4,
    "prefecture": "宮城県",
    "city": "仙台市青葉区",
    "town": "愛子中央"
  },
  "9893161": {
    "zipcode": "9893161",
    "prefectureCode": "04",
    "prefectureNumber": 4,
    "prefecture": "宮城県",
    "city": "仙台市青葉区",
    "town": "折立"
  },
  "9893162": {
    "zipcode": "9893162",
    "prefectureCode": "04",
    "prefectureNumber": 4,
    "prefecture": "宮城県",
    "city": "仙台市青葉区",
    "town": "西花苑"
  },
  "9893163": {
    "zipcode": "9893163",
    "prefectureCode": "04",
    "prefectureNumber": 4,
    "prefecture": "宮城県",
    "city": "仙台市青葉区",
    "town": "茂庭"
  },
  "9893201": {
    "zipcode": "9893201",
    "prefectureCode": "04",
    "prefectureNumber": 4,
    "prefecture": "宮城県",
    "city": "仙台市青葉区",
    "town": "国見ケ丘"
  },
  "9893202": {
    "zipcode": "9893202",
    "prefectureCode": "04",
    "prefectureNumber": 4,
    "prefecture": "宮城県",
    "city": "仙台市青葉区",
    "town": "中山台"
  },
  "9893203": {
    "zipcode": "9893203",
    "prefectureCode": "04",
    "prefectureNumber": 4,
    "prefecture": "宮城県",
    "city": "仙台市青葉区",
    "town": "中山吉成"
  },
  "9893204": {
    "zipcode": "9893204",
    "prefectureCode": "04",
    "prefectureNumber": 4,
    "prefecture": "宮城県",
    "city": "仙台市青葉区",
    "town": "南吉成"
  },
  "9893205": {
    "zipcode": "9893205",
    "prefectureCode": "04",
    "prefectureNumber": 4,
    "prefecture": "宮城県",
    "city": "仙台市青葉区",
    "town": "吉成"
  },
  "9893206": {
    "zipcode": "9893206",
    "prefectureCode": "04",
    "prefectureNumber": 4,
    "prefecture": "宮城県",
    "city": "仙台市青葉区",
    "town": "吉成台"
  },
  "9893207": {
    "zipcode": "9893207",
    "prefectureCode": "04",
    "prefectureNumber": 4,
    "prefecture": "宮城県",
    "city": "仙台市青葉区",
    "town": "中山台西"
  },
  "9893211": {
    "zipcode": "9893211",
    "prefectureCode": "04",
    "prefectureNumber": 4,
    "prefecture": "宮城県",
    "city": "仙台市青葉区",
    "town": "赤坂"
  },
  "9893212": {
    "zipcode": "9893212",
    "prefectureCode": "04",
    "prefectureNumber": 4,
    "prefecture": "宮城県",
    "city": "仙台市青葉区",
    "town": "芋沢"
  },
  "9893213": {
    "zipcode": "9893213",
    "prefectureCode": "04",
    "prefectureNumber": 4,
    "prefecture": "宮城県",
    "city": "仙台市青葉区",
    "town": "大倉"
  },
  "9893214": {
    "zipcode": "9893214",
    "prefectureCode": "04",
    "prefectureNumber": 4,
    "prefecture": "宮城県",
    "city": "仙台市青葉区",
    "town": "みやぎ台"
  },
  "9893215": {
    "zipcode": "9893215",
    "prefectureCode": "04",
    "prefectureNumber": 4,
    "prefecture": "宮城県",
    "city": "仙台市青葉区",
    "town": "向田"
  },
  "9893216": {
    "zipcode": "9893216",
    "prefectureCode": "04",
    "prefectureNumber": 4,
    "prefecture": "宮城県",
    "city": "仙台市青葉区",
    "town": "高野原"
  },
  "9893431": {
    "zipcode": "9893431",
    "prefectureCode": "04",
    "prefectureNumber": 4,
    "prefecture": "宮城県",
    "city": "仙台市青葉区",
    "town": "作並"
  },
  "9893432": {
    "zipcode": "9893432",
    "prefectureCode": "04",
    "prefectureNumber": 4,
    "prefecture": "宮城県",
    "city": "仙台市青葉区",
    "town": "熊ケ根"
  },
  "9893433": {
    "zipcode": "9893433",
    "prefectureCode": "04",
    "prefectureNumber": 4,
    "prefecture": "宮城県",
    "city": "仙台市青葉区",
    "town": "ニッカ"
  },
  "9893434": {
    "zipcode": "9893434",
    "prefectureCode": "04",
    "prefectureNumber": 4,
    "prefecture": "宮城県",
    "city": "仙台市青葉区",
    "town": "新川"
  },
  "9894101": {
    "zipcode": "9894101",
    "prefectureCode": "04",
    "prefectureNumber": 4,
    "prefecture": "宮城県",
    "city": "大崎市",
    "town": "鹿島台船越"
  },
  "9894102": {
    "zipcode": "9894102",
    "prefectureCode": "04",
    "prefectureNumber": 4,
    "prefecture": "宮城県",
    "city": "大崎市",
    "town": "鹿島台木間塚"
  },
  "9894103": {
    "zipcode": "9894103",
    "prefectureCode": "04",
    "prefectureNumber": 4,
    "prefecture": "宮城県",
    "city": "大崎市",
    "town": "鹿島台平渡"
  },
  "9894104": {
    "zipcode": "9894104",
    "prefectureCode": "04",
    "prefectureNumber": 4,
    "prefecture": "宮城県",
    "city": "大崎市",
    "town": "鹿島台広長"
  },
  "9894105": {
    "zipcode": "9894105",
    "prefectureCode": "04",
    "prefectureNumber": 4,
    "prefecture": "宮城県",
    "city": "大崎市",
    "town": "鹿島台深谷"
  },
  "9894106": {
    "zipcode": "9894106",
    "prefectureCode": "04",
    "prefectureNumber": 4,
    "prefecture": "宮城県",
    "city": "大崎市",
    "town": "鹿島台大迫"
  },
  "9894201": {
    "zipcode": "9894201",
    "prefectureCode": "04",
    "prefectureNumber": 4,
    "prefecture": "宮城県",
    "city": "遠田郡美里町",
    "town": "和多田沼"
  },
  "9894202": {
    "zipcode": "9894202",
    "prefectureCode": "04",
    "prefectureNumber": 4,
    "prefecture": "宮城県",
    "city": "遠田郡美里町",
    "town": "福ケ袋"
  },
  "9894203": {
    "zipcode": "9894203",
    "prefectureCode": "04",
    "prefectureNumber": 4,
    "prefecture": "宮城県",
    "city": "遠田郡美里町",
    "town": "練牛"
  },
  "9894204": {
    "zipcode": "9894204",
    "prefectureCode": "04",
    "prefectureNumber": 4,
    "prefecture": "宮城県",
    "city": "遠田郡美里町",
    "town": "大柳"
  },
  "9894205": {
    "zipcode": "9894205",
    "prefectureCode": "04",
    "prefectureNumber": 4,
    "prefecture": "宮城県",
    "city": "遠田郡美里町",
    "town": "木間塚"
  },
  "9894206": {
    "zipcode": "9894206",
    "prefectureCode": "04",
    "prefectureNumber": 4,
    "prefecture": "宮城県",
    "city": "遠田郡美里町",
    "town": "二郷"
  },
  "9894207": {
    "zipcode": "9894207",
    "prefectureCode": "04",
    "prefectureNumber": 4,
    "prefecture": "宮城県",
    "city": "遠田郡美里町",
    "town": "鳥谷坂一"
  },
  "9894208": {
    "zipcode": "9894208",
    "prefectureCode": "04",
    "prefectureNumber": 4,
    "prefecture": "宮城県",
    "city": "遠田郡美里町",
    "town": "鳥谷坂二"
  },
  "9894209": {
    "zipcode": "9894209",
    "prefectureCode": "04",
    "prefectureNumber": 4,
    "prefecture": "宮城県",
    "city": "遠田郡美里町",
    "town": "新鳥谷坂"
  },
  "9894301": {
    "zipcode": "9894301",
    "prefectureCode": "04",
    "prefectureNumber": 4,
    "prefecture": "宮城県",
    "city": "大崎市",
    "town": "田尻蕪栗"
  },
  "9894302": {
    "zipcode": "9894302",
    "prefectureCode": "04",
    "prefectureNumber": 4,
    "prefecture": "宮城県",
    "city": "大崎市",
    "town": "田尻大貫"
  },
  "9894303": {
    "zipcode": "9894303",
    "prefectureCode": "04",
    "prefectureNumber": 4,
    "prefecture": "宮城県",
    "city": "大崎市",
    "town": "田尻大沢"
  },
  "9894304": {
    "zipcode": "9894304",
    "prefectureCode": "04",
    "prefectureNumber": 4,
    "prefecture": "宮城県",
    "city": "大崎市",
    "town": "田尻北小牛田"
  },
  "9894305": {
    "zipcode": "9894305",
    "prefectureCode": "04",
    "prefectureNumber": 4,
    "prefecture": "宮城県",
    "city": "大崎市",
    "town": "田尻小塩"
  },
  "9894306": {
    "zipcode": "9894306",
    "prefectureCode": "04",
    "prefectureNumber": 4,
    "prefecture": "宮城県",
    "city": "大崎市",
    "town": "田尻桜田高野"
  },
  "9894307": {
    "zipcode": "9894307",
    "prefectureCode": "04",
    "prefectureNumber": 4,
    "prefecture": "宮城県",
    "city": "大崎市",
    "town": "田尻北高城"
  },
  "9894308": {
    "zipcode": "9894308",
    "prefectureCode": "04",
    "prefectureNumber": 4,
    "prefecture": "宮城県",
    "city": "大崎市",
    "town": "田尻沼部"
  },
  "9894411": {
    "zipcode": "9894411",
    "prefectureCode": "04",
    "prefectureNumber": 4,
    "prefecture": "宮城県",
    "city": "大崎市",
    "town": "田尻八幡"
  },
  "9894412": {
    "zipcode": "9894412",
    "prefectureCode": "04",
    "prefectureNumber": 4,
    "prefecture": "宮城県",
    "city": "大崎市",
    "town": "田尻大嶺"
  },
  "9894413": {
    "zipcode": "9894413",
    "prefectureCode": "04",
    "prefectureNumber": 4,
    "prefecture": "宮城県",
    "city": "大崎市",
    "town": "田尻通木"
  },
  "9894414": {
    "zipcode": "9894414",
    "prefectureCode": "04",
    "prefectureNumber": 4,
    "prefecture": "宮城県",
    "city": "大崎市",
    "town": "田尻北牧目"
  },
  "9894415": {
    "zipcode": "9894415",
    "prefectureCode": "04",
    "prefectureNumber": 4,
    "prefecture": "宮城県",
    "city": "大崎市",
    "town": "田尻"
  },
  "9894416": {
    "zipcode": "9894416",
    "prefectureCode": "04",
    "prefectureNumber": 4,
    "prefecture": "宮城県",
    "city": "大崎市",
    "town": "田尻中目"
  },
  "9894417": {
    "zipcode": "9894417",
    "prefectureCode": "04",
    "prefectureNumber": 4,
    "prefecture": "宮城県",
    "city": "大崎市",
    "town": "田尻沼木"
  },
  "9894418": {
    "zipcode": "9894418",
    "prefectureCode": "04",
    "prefectureNumber": 4,
    "prefecture": "宮城県",
    "city": "大崎市",
    "town": "田尻諏訪峠"
  },
  "9894419": {
    "zipcode": "9894419",
    "prefectureCode": "04",
    "prefectureNumber": 4,
    "prefecture": "宮城県",
    "city": "大崎市",
    "town": "田尻小松"
  },
  "9894503": {
    "zipcode": "9894503",
    "prefectureCode": "04",
    "prefectureNumber": 4,
    "prefecture": "宮城県",
    "city": "栗原市",
    "town": "瀬峰力石"
  },
  "9894504": {
    "zipcode": "9894504",
    "prefectureCode": "04",
    "prefectureNumber": 4,
    "prefecture": "宮城県",
    "city": "栗原市",
    "town": "瀬峰小深沢"
  },
  "9894505": {
    "zipcode": "9894505",
    "prefectureCode": "04",
    "prefectureNumber": 4,
    "prefecture": "宮城県",
    "city": "栗原市",
    "town": "瀬峰刈安沢"
  },
  "9894506": {
    "zipcode": "9894506",
    "prefectureCode": "04",
    "prefectureNumber": 4,
    "prefecture": "宮城県",
    "city": "栗原市",
    "town": "瀬峰清水沢"
  },
  "9894507": {
    "zipcode": "9894507",
    "prefectureCode": "04",
    "prefectureNumber": 4,
    "prefecture": "宮城県",
    "city": "栗原市",
    "town": "瀬峰西原"
  },
  "9894508": {
    "zipcode": "9894508",
    "prefectureCode": "04",
    "prefectureNumber": 4,
    "prefecture": "宮城県",
    "city": "栗原市",
    "town": "瀬峰柴ノ脇"
  },
  "9894509": {
    "zipcode": "9894509",
    "prefectureCode": "04",
    "prefectureNumber": 4,
    "prefecture": "宮城県",
    "city": "栗原市",
    "town": "瀬峰大鰐谷"
  },
  "9894510": {
    "zipcode": "9894510",
    "prefectureCode": "04",
    "prefectureNumber": 4,
    "prefecture": "宮城県",
    "city": "栗原市",
    "town": "瀬峰新下藤沢"
  },
  "9894511": {
    "zipcode": "9894511",
    "prefectureCode": "04",
    "prefectureNumber": 4,
    "prefecture": "宮城県",
    "city": "栗原市",
    "town": "瀬峰新田沢"
  },
  "9894512": {
    "zipcode": "9894512",
    "prefectureCode": "04",
    "prefectureNumber": 4,
    "prefecture": "宮城県",
    "city": "栗原市",
    "town": "瀬峰下藤沢"
  },
  "9894513": {
    "zipcode": "9894513",
    "prefectureCode": "04",
    "prefectureNumber": 4,
    "prefecture": "宮城県",
    "city": "栗原市",
    "town": "瀬峰根岸"
  },
  "9894514": {
    "zipcode": "9894514",
    "prefectureCode": "04",
    "prefectureNumber": 4,
    "prefecture": "宮城県",
    "city": "栗原市",
    "town": "瀬峰桃生田前"
  },
  "9894515": {
    "zipcode": "9894515",
    "prefectureCode": "04",
    "prefectureNumber": 4,
    "prefecture": "宮城県",
    "city": "栗原市",
    "town": "瀬峰桃生田"
  },
  "9894516": {
    "zipcode": "9894516",
    "prefectureCode": "04",
    "prefectureNumber": 4,
    "prefecture": "宮城県",
    "city": "栗原市",
    "town": "瀬峰長者原"
  },
  "9894517": {
    "zipcode": "9894517",
    "prefectureCode": "04",
    "prefectureNumber": 4,
    "prefecture": "宮城県",
    "city": "栗原市",
    "town": "瀬峰藤沢瀬嶺"
  },
  "9894518": {
    "zipcode": "9894518",
    "prefectureCode": "04",
    "prefectureNumber": 4,
    "prefecture": "宮城県",
    "city": "栗原市",
    "town": "瀬峰荒神堂"
  },
  "9894519": {
    "zipcode": "9894519",
    "prefectureCode": "04",
    "prefectureNumber": 4,
    "prefecture": "宮城県",
    "city": "栗原市",
    "town": "瀬峰横森前"
  },
  "9894521": {
    "zipcode": "9894521",
    "prefectureCode": "04",
    "prefectureNumber": 4,
    "prefecture": "宮城県",
    "city": "栗原市",
    "town": "瀬峰下田"
  },
  "9894522": {
    "zipcode": "9894522",
    "prefectureCode": "04",
    "prefectureNumber": 4,
    "prefecture": "宮城県",
    "city": "栗原市",
    "town": "瀬峰下の前"
  },
  "9894523": {
    "zipcode": "9894523",
    "prefectureCode": "04",
    "prefectureNumber": 4,
    "prefecture": "宮城県",
    "city": "栗原市",
    "town": "瀬峰北谷地"
  },
  "9894524": {
    "zipcode": "9894524",
    "prefectureCode": "04",
    "prefectureNumber": 4,
    "prefecture": "宮城県",
    "city": "栗原市",
    "town": "瀬峰藤田"
  },
  "9894525": {
    "zipcode": "9894525",
    "prefectureCode": "04",
    "prefectureNumber": 4,
    "prefecture": "宮城県",
    "city": "栗原市",
    "town": "瀬峰下谷地"
  },
  "9894526": {
    "zipcode": "9894526",
    "prefectureCode": "04",
    "prefectureNumber": 4,
    "prefecture": "宮城県",
    "city": "栗原市",
    "town": "瀬峰宮小路原西"
  },
  "9894527": {
    "zipcode": "9894527",
    "prefectureCode": "04",
    "prefectureNumber": 4,
    "prefecture": "宮城県",
    "city": "栗原市",
    "town": "瀬峰宮小路原東"
  },
  "9894528": {
    "zipcode": "9894528",
    "prefectureCode": "04",
    "prefectureNumber": 4,
    "prefecture": "宮城県",
    "city": "栗原市",
    "town": "瀬峰山崎前"
  },
  "9894529": {
    "zipcode": "9894529",
    "prefectureCode": "04",
    "prefectureNumber": 4,
    "prefecture": "宮城県",
    "city": "栗原市",
    "town": "瀬峰新下田"
  },
  "9894531": {
    "zipcode": "9894531",
    "prefectureCode": "04",
    "prefectureNumber": 4,
    "prefecture": "宮城県",
    "city": "栗原市",
    "town": "瀬峰筒ケ崎"
  },
  "9894532": {
    "zipcode": "9894532",
    "prefectureCode": "04",
    "prefectureNumber": 4,
    "prefecture": "宮城県",
    "city": "栗原市",
    "town": "瀬峰樋口山"
  },
  "9894533": {
    "zipcode": "9894533",
    "prefectureCode": "04",
    "prefectureNumber": 4,
    "prefecture": "宮城県",
    "city": "栗原市",
    "town": "瀬峰愛宕"
  },
  "9894534": {
    "zipcode": "9894534",
    "prefectureCode": "04",
    "prefectureNumber": 4,
    "prefecture": "宮城県",
    "city": "栗原市",
    "town": "瀬峰泉谷"
  },
  "9894535": {
    "zipcode": "9894535",
    "prefectureCode": "04",
    "prefectureNumber": 4,
    "prefecture": "宮城県",
    "city": "栗原市",
    "town": "瀬峰泉谷南"
  },
  "9894536": {
    "zipcode": "9894536",
    "prefectureCode": "04",
    "prefectureNumber": 4,
    "prefecture": "宮城県",
    "city": "栗原市",
    "town": "瀬峰壇ノ越"
  },
  "9894537": {
    "zipcode": "9894537",
    "prefectureCode": "04",
    "prefectureNumber": 4,
    "prefecture": "宮城県",
    "city": "栗原市",
    "town": "瀬峰船橋"
  },
  "9894538": {
    "zipcode": "9894538",
    "prefectureCode": "04",
    "prefectureNumber": 4,
    "prefecture": "宮城県",
    "city": "栗原市",
    "town": "瀬峰諏訪原"
  },
  "9894539": {
    "zipcode": "9894539",
    "prefectureCode": "04",
    "prefectureNumber": 4,
    "prefecture": "宮城県",
    "city": "栗原市",
    "town": "瀬峰二ツ谷"
  },
  "9894540": {
    "zipcode": "9894540",
    "prefectureCode": "04",
    "prefectureNumber": 4,
    "prefecture": "宮城県",
    "city": "栗原市",
    "town": "瀬峰牛渕前"
  },
  "9894541": {
    "zipcode": "9894541",
    "prefectureCode": "04",
    "prefectureNumber": 4,
    "prefecture": "宮城県",
    "city": "栗原市",
    "town": "瀬峰牛渕"
  },
  "9894542": {
    "zipcode": "9894542",
    "prefectureCode": "04",
    "prefectureNumber": 4,
    "prefecture": "宮城県",
    "city": "栗原市",
    "town": "瀬峰新井堀"
  },
  "9894543": {
    "zipcode": "9894543",
    "prefectureCode": "04",
    "prefectureNumber": 4,
    "prefecture": "宮城県",
    "city": "栗原市",
    "town": "瀬峰新井屋敷"
  },
  "9894544": {
    "zipcode": "9894544",
    "prefectureCode": "04",
    "prefectureNumber": 4,
    "prefecture": "宮城県",
    "city": "栗原市",
    "town": "瀬峰除"
  },
  "9894545": {
    "zipcode": "9894545",
    "prefectureCode": "04",
    "prefectureNumber": 4,
    "prefecture": "宮城県",
    "city": "栗原市",
    "town": "瀬峰伊勢堂"
  },
  "9894546": {
    "zipcode": "9894546",
    "prefectureCode": "04",
    "prefectureNumber": 4,
    "prefecture": "宮城県",
    "city": "栗原市",
    "town": "瀬峰四ツ壇"
  },
  "9894547": {
    "zipcode": "9894547",
    "prefectureCode": "04",
    "prefectureNumber": 4,
    "prefecture": "宮城県",
    "city": "栗原市",
    "town": "瀬峰神田"
  },
  "9894548": {
    "zipcode": "9894548",
    "prefectureCode": "04",
    "prefectureNumber": 4,
    "prefecture": "宮城県",
    "city": "栗原市",
    "town": "瀬峰長根"
  },
  "9894549": {
    "zipcode": "9894549",
    "prefectureCode": "04",
    "prefectureNumber": 4,
    "prefecture": "宮城県",
    "city": "栗原市",
    "town": "瀬峰荒町"
  },
  "9894551": {
    "zipcode": "9894551",
    "prefectureCode": "04",
    "prefectureNumber": 4,
    "prefecture": "宮城県",
    "city": "栗原市",
    "town": "瀬峰三代"
  },
  "9894552": {
    "zipcode": "9894552",
    "prefectureCode": "04",
    "prefectureNumber": 4,
    "prefecture": "宮城県",
    "city": "栗原市",
    "town": "瀬峰宮田"
  },
  "9894553": {
    "zipcode": "9894553",
    "prefectureCode": "04",
    "prefectureNumber": 4,
    "prefecture": "宮城県",
    "city": "栗原市",
    "town": "瀬峰二又"
  },
  "9894554": {
    "zipcode": "9894554",
    "prefectureCode": "04",
    "prefectureNumber": 4,
    "prefecture": "宮城県",
    "city": "栗原市",
    "town": "瀬峰原田"
  },
  "9894555": {
    "zipcode": "9894555",
    "prefectureCode": "04",
    "prefectureNumber": 4,
    "prefecture": "宮城県",
    "city": "栗原市",
    "town": "瀬峰野沢"
  },
  "9894556": {
    "zipcode": "9894556",
    "prefectureCode": "04",
    "prefectureNumber": 4,
    "prefecture": "宮城県",
    "city": "栗原市",
    "town": "瀬峰袋沢"
  },
  "9894557": {
    "zipcode": "9894557",
    "prefectureCode": "04",
    "prefectureNumber": 4,
    "prefecture": "宮城県",
    "city": "栗原市",
    "town": "瀬峰上沢田"
  },
  "9894560": {
    "zipcode": "9894560",
    "prefectureCode": "04",
    "prefectureNumber": 4,
    "prefecture": "宮城県",
    "city": "栗原市",
    "town": "瀬峰新道東"
  },
  "9894561": {
    "zipcode": "9894561",
    "prefectureCode": "04",
    "prefectureNumber": 4,
    "prefecture": "宮城県",
    "city": "栗原市",
    "town": "瀬峰樋渡"
  },
  "9894562": {
    "zipcode": "9894562",
    "prefectureCode": "04",
    "prefectureNumber": 4,
    "prefecture": "宮城県",
    "city": "栗原市",
    "town": "瀬峰川ノ畑"
  },
  "9894563": {
    "zipcode": "9894563",
    "prefectureCode": "04",
    "prefectureNumber": 4,
    "prefecture": "宮城県",
    "city": "栗原市",
    "town": "瀬峰上富前"
  },
  "9894564": {
    "zipcode": "9894564",
    "prefectureCode": "04",
    "prefectureNumber": 4,
    "prefecture": "宮城県",
    "city": "栗原市",
    "town": "瀬峰谷地田"
  },
  "9894565": {
    "zipcode": "9894565",
    "prefectureCode": "04",
    "prefectureNumber": 4,
    "prefecture": "宮城県",
    "city": "栗原市",
    "town": "瀬峰天神下"
  },
  "9894566": {
    "zipcode": "9894566",
    "prefectureCode": "04",
    "prefectureNumber": 4,
    "prefecture": "宮城県",
    "city": "栗原市",
    "town": "瀬峰上屋敷"
  },
  "9894567": {
    "zipcode": "9894567",
    "prefectureCode": "04",
    "prefectureNumber": 4,
    "prefecture": "宮城県",
    "city": "栗原市",
    "town": "瀬峰西原前"
  },
  "9894568": {
    "zipcode": "9894568",
    "prefectureCode": "04",
    "prefectureNumber": 4,
    "prefecture": "宮城県",
    "city": "栗原市",
    "town": "瀬峰大屋敷"
  },
  "9894569": {
    "zipcode": "9894569",
    "prefectureCode": "04",
    "prefectureNumber": 4,
    "prefecture": "宮城県",
    "city": "栗原市",
    "town": "瀬峰筒場"
  },
  "9894570": {
    "zipcode": "9894570",
    "prefectureCode": "04",
    "prefectureNumber": 4,
    "prefecture": "宮城県",
    "city": "栗原市",
    "town": "瀬峰町田前"
  },
  "9894571": {
    "zipcode": "9894571",
    "prefectureCode": "04",
    "prefectureNumber": 4,
    "prefecture": "宮城県",
    "city": "栗原市",
    "town": "瀬峰寺沢"
  },
  "9894572": {
    "zipcode": "9894572",
    "prefectureCode": "04",
    "prefectureNumber": 4,
    "prefecture": "宮城県",
    "city": "栗原市",
    "town": "瀬峰寺浦"
  },
  "9894573": {
    "zipcode": "9894573",
    "prefectureCode": "04",
    "prefectureNumber": 4,
    "prefecture": "宮城県",
    "city": "栗原市",
    "town": "瀬峰十王堂前"
  },
  "9894574": {
    "zipcode": "9894574",
    "prefectureCode": "04",
    "prefectureNumber": 4,
    "prefecture": "宮城県",
    "city": "栗原市",
    "town": "瀬峰北ノ沢"
  },
  "9894575": {
    "zipcode": "9894575",
    "prefectureCode": "04",
    "prefectureNumber": 4,
    "prefecture": "宮城県",
    "city": "栗原市",
    "town": "瀬峰町田"
  },
  "9894576": {
    "zipcode": "9894576",
    "prefectureCode": "04",
    "prefectureNumber": 4,
    "prefecture": "宮城県",
    "city": "栗原市",
    "town": "瀬峰高土山"
  },
  "9894577": {
    "zipcode": "9894577",
    "prefectureCode": "04",
    "prefectureNumber": 4,
    "prefecture": "宮城県",
    "city": "栗原市",
    "town": "瀬峰薬沢西"
  },
  "9894578": {
    "zipcode": "9894578",
    "prefectureCode": "04",
    "prefectureNumber": 4,
    "prefecture": "宮城県",
    "city": "栗原市",
    "town": "瀬峰薬沢東"
  },
  "9894579": {
    "zipcode": "9894579",
    "prefectureCode": "04",
    "prefectureNumber": 4,
    "prefecture": "宮城県",
    "city": "栗原市",
    "town": "瀬峰橋本浦"
  },
  "9894580": {
    "zipcode": "9894580",
    "prefectureCode": "04",
    "prefectureNumber": 4,
    "prefecture": "宮城県",
    "city": "栗原市",
    "town": "瀬峰大境前"
  },
  "9894581": {
    "zipcode": "9894581",
    "prefectureCode": "04",
    "prefectureNumber": 4,
    "prefecture": "宮城県",
    "city": "栗原市",
    "town": "瀬峰藤沢要害"
  },
  "9894582": {
    "zipcode": "9894582",
    "prefectureCode": "04",
    "prefectureNumber": 4,
    "prefecture": "宮城県",
    "city": "栗原市",
    "town": "瀬峰坂ノ下浦"
  },
  "9894583": {
    "zipcode": "9894583",
    "prefectureCode": "04",
    "prefectureNumber": 4,
    "prefecture": "宮城県",
    "city": "栗原市",
    "town": "瀬峰大境山"
  },
  "9894584": {
    "zipcode": "9894584",
    "prefectureCode": "04",
    "prefectureNumber": 4,
    "prefecture": "宮城県",
    "city": "栗原市",
    "town": "瀬峰清水山"
  },
  "9894585": {
    "zipcode": "9894585",
    "prefectureCode": "04",
    "prefectureNumber": 4,
    "prefecture": "宮城県",
    "city": "栗原市",
    "town": "瀬峰坂ノ下前北"
  },
  "9894586": {
    "zipcode": "9894586",
    "prefectureCode": "04",
    "prefectureNumber": 4,
    "prefecture": "宮城県",
    "city": "栗原市",
    "town": "瀬峰蔵王"
  },
  "9894587": {
    "zipcode": "9894587",
    "prefectureCode": "04",
    "prefectureNumber": 4,
    "prefecture": "宮城県",
    "city": "栗原市",
    "town": "瀬峰薬師堂前"
  },
  "9894588": {
    "zipcode": "9894588",
    "prefectureCode": "04",
    "prefectureNumber": 4,
    "prefecture": "宮城県",
    "city": "栗原市",
    "town": "瀬峰蒲盛"
  },
  "9894589": {
    "zipcode": "9894589",
    "prefectureCode": "04",
    "prefectureNumber": 4,
    "prefecture": "宮城県",
    "city": "栗原市",
    "town": "瀬峰富要害"
  },
  "9894601": {
    "zipcode": "9894601",
    "prefectureCode": "04",
    "prefectureNumber": 4,
    "prefecture": "宮城県",
    "city": "登米市",
    "town": "迫町新田"
  },
  "9894701": {
    "zipcode": "9894701",
    "prefectureCode": "04",
    "prefectureNumber": 4,
    "prefecture": "宮城県",
    "city": "登米市",
    "town": "石越町北郷"
  },
  "9894702": {
    "zipcode": "9894702",
    "prefectureCode": "04",
    "prefectureNumber": 4,
    "prefecture": "宮城県",
    "city": "登米市",
    "town": "石越町東郷"
  },
  "9894703": {
    "zipcode": "9894703",
    "prefectureCode": "04",
    "prefectureNumber": 4,
    "prefecture": "宮城県",
    "city": "登米市",
    "town": "石越町南郷"
  },
  "9894802": {
    "zipcode": "9894802",
    "prefectureCode": "04",
    "prefectureNumber": 4,
    "prefecture": "宮城県",
    "city": "栗原市",
    "town": "金成末野"
  },
  "9894803": {
    "zipcode": "9894803",
    "prefectureCode": "04",
    "prefectureNumber": 4,
    "prefecture": "宮城県",
    "city": "栗原市",
    "town": "金成藤渡戸"
  },
  "9894805": {
    "zipcode": "9894805",
    "prefectureCode": "04",
    "prefectureNumber": 4,
    "prefecture": "宮城県",
    "city": "栗原市",
    "town": "金成片馬合"
  },
  "9894806": {
    "zipcode": "9894806",
    "prefectureCode": "04",
    "prefectureNumber": 4,
    "prefecture": "宮城県",
    "city": "栗原市",
    "town": "金成有壁"
  },
  "9894807": {
    "zipcode": "9894807",
    "prefectureCode": "04",
    "prefectureNumber": 4,
    "prefecture": "宮城県",
    "city": "栗原市",
    "town": "金成赤児"
  },
  "9894808": {
    "zipcode": "9894808",
    "prefectureCode": "04",
    "prefectureNumber": 4,
    "prefecture": "宮城県",
    "city": "栗原市",
    "town": "金成普賢堂"
  },
  "9895111": {
    "zipcode": "9895111",
    "prefectureCode": "04",
    "prefectureNumber": 4,
    "prefecture": "宮城県",
    "city": "栗原市",
    "town": "金成日向"
  },
  "9895112": {
    "zipcode": "9895112",
    "prefectureCode": "04",
    "prefectureNumber": 4,
    "prefecture": "宮城県",
    "city": "栗原市",
    "town": "金成宇南崎"
  },
  "9895113": {
    "zipcode": "9895113",
    "prefectureCode": "04",
    "prefectureNumber": 4,
    "prefecture": "宮城県",
    "city": "栗原市",
    "town": "金成宮前"
  },
  "9895114": {
    "zipcode": "9895114",
    "prefectureCode": "04",
    "prefectureNumber": 4,
    "prefecture": "宮城県",
    "city": "栗原市",
    "town": "金成下富田"
  },
  "9895115": {
    "zipcode": "9895115",
    "prefectureCode": "04",
    "prefectureNumber": 4,
    "prefecture": "宮城県",
    "city": "栗原市",
    "town": "金成上富田"
  },
  "9895116": {
    "zipcode": "9895116",
    "prefectureCode": "04",
    "prefectureNumber": 4,
    "prefecture": "宮城県",
    "city": "栗原市",
    "town": "金成大梨"
  },
  "9895117": {
    "zipcode": "9895117",
    "prefectureCode": "04",
    "prefectureNumber": 4,
    "prefecture": "宮城県",
    "city": "栗原市",
    "town": "金成柧木沢"
  },
  "9895118": {
    "zipcode": "9895118",
    "prefectureCode": "04",
    "prefectureNumber": 4,
    "prefecture": "宮城県",
    "city": "栗原市",
    "town": "金成入ノ沢"
  },
  "9895119": {
    "zipcode": "9895119",
    "prefectureCode": "04",
    "prefectureNumber": 4,
    "prefecture": "宮城県",
    "city": "栗原市",
    "town": "金成狼ノ沢"
  },
  "9895121": {
    "zipcode": "9895121",
    "prefectureCode": "04",
    "prefectureNumber": 4,
    "prefecture": "宮城県",
    "city": "栗原市",
    "town": "金成大平"
  },
  "9895122": {
    "zipcode": "9895122",
    "prefectureCode": "04",
    "prefectureNumber": 4,
    "prefecture": "宮城県",
    "city": "栗原市",
    "town": "金成三沢"
  },
  "9895123": {
    "zipcode": "9895123",
    "prefectureCode": "04",
    "prefectureNumber": 4,
    "prefecture": "宮城県",
    "city": "栗原市",
    "town": "金成平治屋敷"
  },
  "9895124": {
    "zipcode": "9895124",
    "prefectureCode": "04",
    "prefectureNumber": 4,
    "prefecture": "宮城県",
    "city": "栗原市",
    "town": "金成山中堤下"
  },
  "9895125": {
    "zipcode": "9895125",
    "prefectureCode": "04",
    "prefectureNumber": 4,
    "prefecture": "宮城県",
    "city": "栗原市",
    "town": "金成大林寺沢"
  },
  "9895126": {
    "zipcode": "9895126",
    "prefectureCode": "04",
    "prefectureNumber": 4,
    "prefecture": "宮城県",
    "city": "栗原市",
    "town": "金成鍔瓦"
  },
  "9895127": {
    "zipcode": "9895127",
    "prefectureCode": "04",
    "prefectureNumber": 4,
    "prefecture": "宮城県",
    "city": "栗原市",
    "town": "金成稲荷前"
  },
  "9895128": {
    "zipcode": "9895128",
    "prefectureCode": "04",
    "prefectureNumber": 4,
    "prefecture": "宮城県",
    "city": "栗原市",
    "town": "金成金山沢"
  },
  "9895130": {
    "zipcode": "9895130",
    "prefectureCode": "04",
    "prefectureNumber": 4,
    "prefecture": "宮城県",
    "city": "栗原市",
    "town": "金成清水田"
  },
  "9895131": {
    "zipcode": "9895131",
    "prefectureCode": "04",
    "prefectureNumber": 4,
    "prefecture": "宮城県",
    "city": "栗原市",
    "town": "金成日向田"
  },
  "9895132": {
    "zipcode": "9895132",
    "prefectureCode": "04",
    "prefectureNumber": 4,
    "prefecture": "宮城県",
    "city": "栗原市",
    "town": "金成干谷沢"
  },
  "9895133": {
    "zipcode": "9895133",
    "prefectureCode": "04",
    "prefectureNumber": 4,
    "prefecture": "宮城県",
    "city": "栗原市",
    "town": "金成新町"
  },
  "9895134": {
    "zipcode": "9895134",
    "prefectureCode": "04",
    "prefectureNumber": 4,
    "prefecture": "宮城県",
    "city": "栗原市",
    "town": "金成新町裏"
  },
  "9895135": {
    "zipcode": "9895135",
    "prefectureCode": "04",
    "prefectureNumber": 4,
    "prefecture": "宮城県",
    "city": "栗原市",
    "town": "金成台畑"
  },
  "9895136": {
    "zipcode": "9895136",
    "prefectureCode": "04",
    "prefectureNumber": 4,
    "prefecture": "宮城県",
    "city": "栗原市",
    "town": "金成熊ノ下"
  },
  "9895137": {
    "zipcode": "9895137",
    "prefectureCode": "04",
    "prefectureNumber": 4,
    "prefecture": "宮城県",
    "city": "栗原市",
    "town": "金成髪長"
  },
  "9895138": {
    "zipcode": "9895138",
    "prefectureCode": "04",
    "prefectureNumber": 4,
    "prefecture": "宮城県",
    "city": "栗原市",
    "town": "金成翁沢"
  },
  "9895139": {
    "zipcode": "9895139",
    "prefectureCode": "04",
    "prefectureNumber": 4,
    "prefecture": "宮城県",
    "city": "栗原市",
    "town": "金成黄金田"
  },
  "9895141": {
    "zipcode": "9895141",
    "prefectureCode": "04",
    "prefectureNumber": 4,
    "prefecture": "宮城県",
    "city": "栗原市",
    "town": "金成翁留"
  },
  "9895142": {
    "zipcode": "9895142",
    "prefectureCode": "04",
    "prefectureNumber": 4,
    "prefecture": "宮城県",
    "city": "栗原市",
    "town": "金成入生田"
  },
  "9895143": {
    "zipcode": "9895143",
    "prefectureCode": "04",
    "prefectureNumber": 4,
    "prefecture": "宮城県",
    "city": "栗原市",
    "town": "金成奉公田"
  },
  "9895144": {
    "zipcode": "9895144",
    "prefectureCode": "04",
    "prefectureNumber": 4,
    "prefecture": "宮城県",
    "city": "栗原市",
    "town": "金成中町"
  },
  "9895145": {
    "zipcode": "9895145",
    "prefectureCode": "04",
    "prefectureNumber": 4,
    "prefecture": "宮城県",
    "city": "栗原市",
    "town": "金成中町西裏"
  },
  "9895146": {
    "zipcode": "9895146",
    "prefectureCode": "04",
    "prefectureNumber": 4,
    "prefecture": "宮城県",
    "city": "栗原市",
    "town": "金成祝"
  },
  "9895151": {
    "zipcode": "9895151",
    "prefectureCode": "04",
    "prefectureNumber": 4,
    "prefecture": "宮城県",
    "city": "栗原市",
    "town": "金成桜町"
  },
  "9895152": {
    "zipcode": "9895152",
    "prefectureCode": "04",
    "prefectureNumber": 4,
    "prefecture": "宮城県",
    "city": "栗原市",
    "town": "金成四ツ屋敷"
  },
  "9895153": {
    "zipcode": "9895153",
    "prefectureCode": "04",
    "prefectureNumber": 4,
    "prefecture": "宮城県",
    "city": "栗原市",
    "town": "金成上町東裏"
  },
  "9895154": {
    "zipcode": "9895154",
    "prefectureCode": "04",
    "prefectureNumber": 4,
    "prefecture": "宮城県",
    "city": "栗原市",
    "town": "金成上町"
  },
  "9895155": {
    "zipcode": "9895155",
    "prefectureCode": "04",
    "prefectureNumber": 4,
    "prefecture": "宮城県",
    "city": "栗原市",
    "town": "金成上町西裏"
  },
  "9895161": {
    "zipcode": "9895161",
    "prefectureCode": "04",
    "prefectureNumber": 4,
    "prefecture": "宮城県",
    "city": "栗原市",
    "town": "金成館下"
  },
  "9895162": {
    "zipcode": "9895162",
    "prefectureCode": "04",
    "prefectureNumber": 4,
    "prefecture": "宮城県",
    "city": "栗原市",
    "town": "金成長根沢"
  },
  "9895163": {
    "zipcode": "9895163",
    "prefectureCode": "04",
    "prefectureNumber": 4,
    "prefecture": "宮城県",
    "city": "栗原市",
    "town": "金成大久保沢"
  },
  "9895164": {
    "zipcode": "9895164",
    "prefectureCode": "04",
    "prefectureNumber": 4,
    "prefecture": "宮城県",
    "city": "栗原市",
    "town": "金成金生"
  },
  "9895165": {
    "zipcode": "9895165",
    "prefectureCode": "04",
    "prefectureNumber": 4,
    "prefecture": "宮城県",
    "city": "栗原市",
    "town": "金成長館"
  },
  "9895166": {
    "zipcode": "9895166",
    "prefectureCode": "04",
    "prefectureNumber": 4,
    "prefecture": "宮城県",
    "city": "栗原市",
    "town": "金成長根前"
  },
  "9895171": {
    "zipcode": "9895171",
    "prefectureCode": "04",
    "prefectureNumber": 4,
    "prefecture": "宮城県",
    "city": "栗原市",
    "town": "金成沢辺"
  },
  "9895172": {
    "zipcode": "9895172",
    "prefectureCode": "04",
    "prefectureNumber": 4,
    "prefecture": "宮城県",
    "city": "栗原市",
    "town": "金成姉歯"
  },
  "9895173": {
    "zipcode": "9895173",
    "prefectureCode": "04",
    "prefectureNumber": 4,
    "prefecture": "宮城県",
    "city": "栗原市",
    "town": "金成梨崎"
  },
  "9895181": {
    "zipcode": "9895181",
    "prefectureCode": "04",
    "prefectureNumber": 4,
    "prefecture": "宮城県",
    "city": "栗原市",
    "town": "金成津久毛"
  },
  "9895183": {
    "zipcode": "9895183",
    "prefectureCode": "04",
    "prefectureNumber": 4,
    "prefecture": "宮城県",
    "city": "栗原市",
    "town": "金成小堤"
  },
  "9895184": {
    "zipcode": "9895184",
    "prefectureCode": "04",
    "prefectureNumber": 4,
    "prefecture": "宮城県",
    "city": "栗原市",
    "town": "金成小迫"
  },
  "9895185": {
    "zipcode": "9895185",
    "prefectureCode": "04",
    "prefectureNumber": 4,
    "prefecture": "宮城県",
    "city": "栗原市",
    "town": "金成大原木"
  },
  "9895301": {
    "zipcode": "9895301",
    "prefectureCode": "04",
    "prefectureNumber": 4,
    "prefecture": "宮城県",
    "city": "栗原市",
    "town": "栗駒岩ケ崎"
  },
  "9895311": {
    "zipcode": "9895311",
    "prefectureCode": "04",
    "prefectureNumber": 4,
    "prefecture": "宮城県",
    "city": "栗原市",
    "town": "栗駒里谷"
  },
  "9895312": {
    "zipcode": "9895312",
    "prefectureCode": "04",
    "prefectureNumber": 4,
    "prefecture": "宮城県",
    "city": "栗原市",
    "town": "栗駒猿飛来"
  },
  "9895321": {
    "zipcode": "9895321",
    "prefectureCode": "04",
    "prefectureNumber": 4,
    "prefecture": "宮城県",
    "city": "栗原市",
    "town": "栗駒栗原"
  },
  "9895322": {
    "zipcode": "9895322",
    "prefectureCode": "04",
    "prefectureNumber": 4,
    "prefecture": "宮城県",
    "city": "栗原市",
    "town": "栗駒桜田"
  },
  "9895323": {
    "zipcode": "9895323",
    "prefectureCode": "04",
    "prefectureNumber": 4,
    "prefecture": "宮城県",
    "city": "栗原市",
    "town": "栗駒菱沼"
  },
  "9895324": {
    "zipcode": "9895324",
    "prefectureCode": "04",
    "prefectureNumber": 4,
    "prefecture": "宮城県",
    "city": "栗原市",
    "town": "栗駒八幡"
  },
  "9895331": {
    "zipcode": "9895331",
    "prefectureCode": "04",
    "prefectureNumber": 4,
    "prefecture": "宮城県",
    "city": "栗原市",
    "town": "栗駒泉沢"
  },
  "9895332": {
    "zipcode": "9895332",
    "prefectureCode": "04",
    "prefectureNumber": 4,
    "prefecture": "宮城県",
    "city": "栗原市",
    "town": "栗駒芋埣"
  },
  "9895333": {
    "zipcode": "9895333",
    "prefectureCode": "04",
    "prefectureNumber": 4,
    "prefecture": "宮城県",
    "city": "栗原市",
    "town": "栗駒片子沢"
  },
  "9895334": {
    "zipcode": "9895334",
    "prefectureCode": "04",
    "prefectureNumber": 4,
    "prefecture": "宮城県",
    "city": "栗原市",
    "town": "栗駒嶺崎"
  },
  "9895335": {
    "zipcode": "9895335",
    "prefectureCode": "04",
    "prefectureNumber": 4,
    "prefecture": "宮城県",
    "city": "栗原市",
    "town": "栗駒渡丸"
  },
  "9895341": {
    "zipcode": "9895341",
    "prefectureCode": "04",
    "prefectureNumber": 4,
    "prefecture": "宮城県",
    "city": "栗原市",
    "town": "栗駒稲屋敷"
  },
  "9895351": {
    "zipcode": "9895351",
    "prefectureCode": "04",
    "prefectureNumber": 4,
    "prefecture": "宮城県",
    "city": "栗原市",
    "town": "栗駒中野"
  },
  "9895361": {
    "zipcode": "9895361",
    "prefectureCode": "04",
    "prefectureNumber": 4,
    "prefecture": "宮城県",
    "city": "栗原市",
    "town": "栗駒文字"
  },
  "9895371": {
    "zipcode": "9895371",
    "prefectureCode": "04",
    "prefectureNumber": 4,
    "prefecture": "宮城県",
    "city": "栗原市",
    "town": "栗駒沼倉"
  },
  "9895372": {
    "zipcode": "9895372",
    "prefectureCode": "04",
    "prefectureNumber": 4,
    "prefecture": "宮城県",
    "city": "栗原市",
    "town": "栗駒松倉"
  },
  "9895381": {
    "zipcode": "9895381",
    "prefectureCode": "04",
    "prefectureNumber": 4,
    "prefecture": "宮城県",
    "city": "栗原市",
    "town": "栗駒鳥沢"
  },
  "9895382": {
    "zipcode": "9895382",
    "prefectureCode": "04",
    "prefectureNumber": 4,
    "prefecture": "宮城県",
    "city": "栗原市",
    "town": "栗駒深谷"
  },
  "9895401": {
    "zipcode": "9895401",
    "prefectureCode": "04",
    "prefectureNumber": 4,
    "prefecture": "宮城県",
    "city": "栗原市",
    "town": "鶯沢袋"
  },
  "9895402": {
    "zipcode": "9895402",
    "prefectureCode": "04",
    "prefectureNumber": 4,
    "prefecture": "宮城県",
    "city": "栗原市",
    "town": "鶯沢南郷"
  },
  "9895403": {
    "zipcode": "9895403",
    "prefectureCode": "04",
    "prefectureNumber": 4,
    "prefecture": "宮城県",
    "city": "栗原市",
    "town": "鶯沢北郷"
  },
  "9895501": {
    "zipcode": "9895501",
    "prefectureCode": "04",
    "prefectureNumber": 4,
    "prefecture": "宮城県",
    "city": "栗原市",
    "town": "若柳川北"
  },
  "9895502": {
    "zipcode": "9895502",
    "prefectureCode": "04",
    "prefectureNumber": 4,
    "prefecture": "宮城県",
    "city": "栗原市",
    "town": "若柳川南"
  },
  "9895503": {
    "zipcode": "9895503",
    "prefectureCode": "04",
    "prefectureNumber": 4,
    "prefecture": "宮城県",
    "city": "栗原市",
    "town": "若柳下畑岡"
  },
  "9895504": {
    "zipcode": "9895504",
    "prefectureCode": "04",
    "prefectureNumber": 4,
    "prefecture": "宮城県",
    "city": "栗原市",
    "town": "若柳上畑岡"
  },
  "9895505": {
    "zipcode": "9895505",
    "prefectureCode": "04",
    "prefectureNumber": 4,
    "prefecture": "宮城県",
    "city": "栗原市",
    "town": "若柳福岡"
  },
  "9895506": {
    "zipcode": "9895506",
    "prefectureCode": "04",
    "prefectureNumber": 4,
    "prefecture": "宮城県",
    "city": "栗原市",
    "town": "若柳大林"
  },
  "9895507": {
    "zipcode": "9895507",
    "prefectureCode": "04",
    "prefectureNumber": 4,
    "prefecture": "宮城県",
    "city": "栗原市",
    "town": "若柳有賀"
  },
  "9895508": {
    "zipcode": "9895508",
    "prefectureCode": "04",
    "prefectureNumber": 4,
    "prefecture": "宮城県",
    "city": "栗原市",
    "town": "若柳武鎗"
  },
  "9895509": {
    "zipcode": "9895509",
    "prefectureCode": "04",
    "prefectureNumber": 4,
    "prefecture": "宮城県",
    "city": "栗原市",
    "town": "若柳大林新寺浦"
  },
  "9895601": {
    "zipcode": "9895601",
    "prefectureCode": "04",
    "prefectureNumber": 4,
    "prefecture": "宮城県",
    "city": "栗原市",
    "town": "志波姫刈敷"
  },
  "9895602": {
    "zipcode": "9895602",
    "prefectureCode": "04",
    "prefectureNumber": 4,
    "prefecture": "宮城県",
    "city": "栗原市",
    "town": "志波姫城内南"
  },
  "9895603": {
    "zipcode": "9895603",
    "prefectureCode": "04",
    "prefectureNumber": 4,
    "prefecture": "宮城県",
    "city": "栗原市",
    "town": "志波姫伊豆野"
  },
  "9895604": {
    "zipcode": "9895604",
    "prefectureCode": "04",
    "prefectureNumber": 4,
    "prefecture": "宮城県",
    "city": "栗原市",
    "town": "志波姫大門南"
  },
  "9895605": {
    "zipcode": "9895605",
    "prefectureCode": "04",
    "prefectureNumber": 4,
    "prefecture": "宮城県",
    "city": "栗原市",
    "town": "志波姫北郷"
  },
  "9895606": {
    "zipcode": "9895606",
    "prefectureCode": "04",
    "prefectureNumber": 4,
    "prefecture": "宮城県",
    "city": "栗原市",
    "town": "志波姫荒町南"
  },
  "9895607": {
    "zipcode": "9895607",
    "prefectureCode": "04",
    "prefectureNumber": 4,
    "prefecture": "宮城県",
    "city": "栗原市",
    "town": "志波姫蔵場南"
  },
  "9895608": {
    "zipcode": "9895608",
    "prefectureCode": "04",
    "prefectureNumber": 4,
    "prefecture": "宮城県",
    "city": "栗原市",
    "town": "志波姫荒町北"
  },
  "9895609": {
    "zipcode": "9895609",
    "prefectureCode": "04",
    "prefectureNumber": 4,
    "prefecture": "宮城県",
    "city": "栗原市",
    "town": "志波姫花崎西"
  },
  "9895610": {
    "zipcode": "9895610",
    "prefectureCode": "04",
    "prefectureNumber": 4,
    "prefecture": "宮城県",
    "city": "栗原市",
    "town": "志波姫要害東"
  },
  "9895611": {
    "zipcode": "9895611",
    "prefectureCode": "04",
    "prefectureNumber": 4,
    "prefecture": "宮城県",
    "city": "栗原市",
    "town": "志波姫南郷"
  },
  "9895612": {
    "zipcode": "9895612",
    "prefectureCode": "04",
    "prefectureNumber": 4,
    "prefecture": "宮城県",
    "city": "栗原市",
    "town": "志波姫新熊谷"
  },
  "9895613": {
    "zipcode": "9895613",
    "prefectureCode": "04",
    "prefectureNumber": 4,
    "prefecture": "宮城県",
    "city": "栗原市",
    "town": "志波姫新沼崎"
  },
  "9895614": {
    "zipcode": "9895614",
    "prefectureCode": "04",
    "prefectureNumber": 4,
    "prefecture": "宮城県",
    "city": "栗原市",
    "town": "志波姫新原"
  },
  "9895615": {
    "zipcode": "9895615",
    "prefectureCode": "04",
    "prefectureNumber": 4,
    "prefecture": "宮城県",
    "city": "栗原市",
    "town": "志波姫沼崎"
  },
  "9895616": {
    "zipcode": "9895616",
    "prefectureCode": "04",
    "prefectureNumber": 4,
    "prefecture": "宮城県",
    "city": "栗原市",
    "town": "志波姫新上戸"
  },
  "9895617": {
    "zipcode": "9895617",
    "prefectureCode": "04",
    "prefectureNumber": 4,
    "prefecture": "宮城県",
    "city": "栗原市",
    "town": "志波姫新橋本"
  },
  "9895618": {
    "zipcode": "9895618",
    "prefectureCode": "04",
    "prefectureNumber": 4,
    "prefecture": "宮城県",
    "city": "栗原市",
    "town": "志波姫新八樟"
  },
  "9895619": {
    "zipcode": "9895619",
    "prefectureCode": "04",
    "prefectureNumber": 4,
    "prefecture": "宮城県",
    "city": "栗原市",
    "town": "志波姫横峰浦"
  },
  "9895621": {
    "zipcode": "9895621",
    "prefectureCode": "04",
    "prefectureNumber": 4,
    "prefecture": "宮城県",
    "city": "栗原市",
    "town": "志波姫下里"
  },
  "9895622": {
    "zipcode": "9895622",
    "prefectureCode": "04",
    "prefectureNumber": 4,
    "prefecture": "宮城県",
    "city": "栗原市",
    "town": "志波姫八樟"
  },
  "9895623": {
    "zipcode": "9895623",
    "prefectureCode": "04",
    "prefectureNumber": 4,
    "prefecture": "宮城県",
    "city": "栗原市",
    "town": "志波姫南八樟"
  },
  "9895624": {
    "zipcode": "9895624",
    "prefectureCode": "04",
    "prefectureNumber": 4,
    "prefecture": "宮城県",
    "city": "栗原市",
    "town": "志波姫南堀口"
  },
  "9895625": {
    "zipcode": "9895625",
    "prefectureCode": "04",
    "prefectureNumber": 4,
    "prefecture": "宮城県",
    "city": "栗原市",
    "town": "志波姫堀口"
  },
  "9895626": {
    "zipcode": "9895626",
    "prefectureCode": "04",
    "prefectureNumber": 4,
    "prefecture": "宮城県",
    "city": "栗原市",
    "town": "志波姫中沖"
  },
  "9895627": {
    "zipcode": "9895627",
    "prefectureCode": "04",
    "prefectureNumber": 4,
    "prefecture": "宮城県",
    "city": "栗原市",
    "town": "志波姫北堀口"
  },
  "9896100": {
    "zipcode": "9896100",
    "prefectureCode": "04",
    "prefectureNumber": 4,
    "prefecture": "宮城県",
    "city": "大崎市",
    "town": "以下に掲載がない場合"
  },
  "9896101": {
    "zipcode": "9896101",
    "prefectureCode": "04",
    "prefectureNumber": 4,
    "prefecture": "宮城県",
    "city": "大崎市",
    "town": "古川福浦"
  },
  "9896102": {
    "zipcode": "9896102",
    "prefectureCode": "04",
    "prefectureNumber": 4,
    "prefecture": "宮城県",
    "city": "大崎市",
    "town": "古川江合本町"
  },
  "9896103": {
    "zipcode": "9896103",
    "prefectureCode": "04",
    "prefectureNumber": 4,
    "prefecture": "宮城県",
    "city": "大崎市",
    "town": "古川江合寿町"
  },
  "9896104": {
    "zipcode": "9896104",
    "prefectureCode": "04",
    "prefectureNumber": 4,
    "prefecture": "宮城県",
    "city": "大崎市",
    "town": "古川江合錦町"
  },
  "9896105": {
    "zipcode": "9896105",
    "prefectureCode": "04",
    "prefectureNumber": 4,
    "prefecture": "宮城県",
    "city": "大崎市",
    "town": "古川福沼"
  },
  "9896106": {
    "zipcode": "9896106",
    "prefectureCode": "04",
    "prefectureNumber": 4,
    "prefecture": "宮城県",
    "city": "大崎市",
    "town": "古川幸町"
  },
  "9896111": {
    "zipcode": "9896111",
    "prefectureCode": "04",
    "prefectureNumber": 4,
    "prefecture": "宮城県",
    "city": "大崎市",
    "town": "古川鶴ケ埣"
  },
  "9896112": {
    "zipcode": "9896112",
    "prefectureCode": "04",
    "prefectureNumber": 4,
    "prefecture": "宮城県",
    "city": "大崎市",
    "town": "古川馬寄"
  },
  "9896113": {
    "zipcode": "9896113",
    "prefectureCode": "04",
    "prefectureNumber": 4,
    "prefecture": "宮城県",
    "city": "大崎市",
    "town": "古川蓑口沼"
  },
  "9896114": {
    "zipcode": "9896114",
    "prefectureCode": "04",
    "prefectureNumber": 4,
    "prefecture": "宮城県",
    "city": "大崎市",
    "town": "古川大幡"
  },
  "9896115": {
    "zipcode": "9896115",
    "prefectureCode": "04",
    "prefectureNumber": 4,
    "prefecture": "宮城県",
    "city": "大崎市",
    "town": "古川駅東"
  },
  "9896116": {
    "zipcode": "9896116",
    "prefectureCode": "04",
    "prefectureNumber": 4,
    "prefecture": "宮城県",
    "city": "大崎市",
    "town": "古川李埣"
  },
  "9896117": {
    "zipcode": "9896117",
    "prefectureCode": "04",
    "prefectureNumber": 4,
    "prefecture": "宮城県",
    "city": "大崎市",
    "town": "古川旭"
  },
  "9896121": {
    "zipcode": "9896121",
    "prefectureCode": "04",
    "prefectureNumber": 4,
    "prefecture": "宮城県",
    "city": "大崎市",
    "town": "古川深沼"
  },
  "9896122": {
    "zipcode": "9896122",
    "prefectureCode": "04",
    "prefectureNumber": 4,
    "prefecture": "宮城県",
    "city": "大崎市",
    "town": "古川桑針"
  },
  "9896123": {
    "zipcode": "9896123",
    "prefectureCode": "04",
    "prefectureNumber": 4,
    "prefecture": "宮城県",
    "city": "大崎市",
    "town": "古川下中目"
  },
  "9896124": {
    "zipcode": "9896124",
    "prefectureCode": "04",
    "prefectureNumber": 4,
    "prefecture": "宮城県",
    "city": "大崎市",
    "town": "古川石森"
  },
  "9896125": {
    "zipcode": "9896125",
    "prefectureCode": "04",
    "prefectureNumber": 4,
    "prefecture": "宮城県",
    "city": "大崎市",
    "town": "古川師山"
  },
  "9896126": {
    "zipcode": "9896126",
    "prefectureCode": "04",
    "prefectureNumber": 4,
    "prefecture": "宮城県",
    "city": "大崎市",
    "town": "古川楡木"
  },
  "9896127": {
    "zipcode": "9896127",
    "prefectureCode": "04",
    "prefectureNumber": 4,
    "prefecture": "宮城県",
    "city": "大崎市",
    "town": "古川宮内"
  },
  "9896128": {
    "zipcode": "9896128",
    "prefectureCode": "04",
    "prefectureNumber": 4,
    "prefecture": "宮城県",
    "city": "大崎市",
    "town": "古川境野宮"
  },
  "9896131": {
    "zipcode": "9896131",
    "prefectureCode": "04",
    "prefectureNumber": 4,
    "prefecture": "宮城県",
    "city": "大崎市",
    "town": "古川金五輪"
  },
  "9896132": {
    "zipcode": "9896132",
    "prefectureCode": "04",
    "prefectureNumber": 4,
    "prefecture": "宮城県",
    "city": "大崎市",
    "town": "古川米袋"
  },
  "9896133": {
    "zipcode": "9896133",
    "prefectureCode": "04",
    "prefectureNumber": 4,
    "prefecture": "宮城県",
    "city": "大崎市",
    "town": "古川西荒井"
  },
  "9896134": {
    "zipcode": "9896134",
    "prefectureCode": "04",
    "prefectureNumber": 4,
    "prefecture": "宮城県",
    "city": "大崎市",
    "town": "古川米倉"
  },
  "9896135": {
    "zipcode": "9896135",
    "prefectureCode": "04",
    "prefectureNumber": 4,
    "prefecture": "宮城県",
    "city": "大崎市",
    "town": "古川稲葉"
  },
  "9896136": {
    "zipcode": "9896136",
    "prefectureCode": "04",
    "prefectureNumber": 4,
    "prefecture": "宮城県",
    "city": "大崎市",
    "town": "古川穂波"
  },
  "9896141": {
    "zipcode": "9896141",
    "prefectureCode": "04",
    "prefectureNumber": 4,
    "prefecture": "宮城県",
    "city": "大崎市",
    "town": "古川南新町"
  },
  "9896142": {
    "zipcode": "9896142",
    "prefectureCode": "04",
    "prefectureNumber": 4,
    "prefecture": "宮城県",
    "city": "大崎市",
    "town": "古川中島町"
  },
  "9896143": {
    "zipcode": "9896143",
    "prefectureCode": "04",
    "prefectureNumber": 4,
    "prefecture": "宮城県",
    "city": "大崎市",
    "town": "古川中里"
  },
  "9896144": {
    "zipcode": "9896144",
    "prefectureCode": "04",
    "prefectureNumber": 4,
    "prefecture": "宮城県",
    "city": "大崎市",
    "town": "古川小稲葉町"
  },
  "9896145": {
    "zipcode": "9896145",
    "prefectureCode": "04",
    "prefectureNumber": 4,
    "prefecture": "宮城県",
    "city": "大崎市",
    "town": "古川北稲葉"
  },
  "9896151": {
    "zipcode": "9896151",
    "prefectureCode": "04",
    "prefectureNumber": 4,
    "prefecture": "宮城県",
    "city": "大崎市",
    "town": "古川城西"
  },
  "9896152": {
    "zipcode": "9896152",
    "prefectureCode": "04",
    "prefectureNumber": 4,
    "prefecture": "宮城県",
    "city": "大崎市",
    "town": "古川二ノ構"
  },
  "9896153": {
    "zipcode": "9896153",
    "prefectureCode": "04",
    "prefectureNumber": 4,
    "prefecture": "宮城県",
    "city": "大崎市",
    "town": "古川七日町"
  },
  "9896154": {
    "zipcode": "9896154",
    "prefectureCode": "04",
    "prefectureNumber": 4,
    "prefecture": "宮城県",
    "city": "大崎市",
    "town": "古川三日町"
  },
  "9896155": {
    "zipcode": "9896155",
    "prefectureCode": "04",
    "prefectureNumber": 4,
    "prefecture": "宮城県",
    "city": "大崎市",
    "town": "古川南町"
  },
  "9896156": {
    "zipcode": "9896156",
    "prefectureCode": "04",
    "prefectureNumber": 4,
    "prefecture": "宮城県",
    "city": "大崎市",
    "town": "古川西館"
  },
  "9896157": {
    "zipcode": "9896157",
    "prefectureCode": "04",
    "prefectureNumber": 4,
    "prefecture": "宮城県",
    "city": "大崎市",
    "town": "古川栄町"
  },
  "9896161": {
    "zipcode": "9896161",
    "prefectureCode": "04",
    "prefectureNumber": 4,
    "prefecture": "宮城県",
    "city": "大崎市",
    "town": "古川駅南"
  },
  "9896162": {
    "zipcode": "9896162",
    "prefectureCode": "04",
    "prefectureNumber": 4,
    "prefecture": "宮城県",
    "city": "大崎市",
    "town": "古川駅前大通"
  },
  "9896163": {
    "zipcode": "9896163",
    "prefectureCode": "04",
    "prefectureNumber": 4,
    "prefecture": "宮城県",
    "city": "大崎市",
    "town": "古川台町"
  },
  "9896164": {
    "zipcode": "9896164",
    "prefectureCode": "04",
    "prefectureNumber": 4,
    "prefecture": "宮城県",
    "city": "大崎市",
    "town": "古川荒川小金町"
  },
  "9896165": {
    "zipcode": "9896165",
    "prefectureCode": "04",
    "prefectureNumber": 4,
    "prefecture": "宮城県",
    "city": "大崎市",
    "town": "古川十日町"
  },
  "9896166": {
    "zipcode": "9896166",
    "prefectureCode": "04",
    "prefectureNumber": 4,
    "prefecture": "宮城県",
    "city": "大崎市",
    "town": "古川東町"
  },
  "9896167": {
    "zipcode": "9896167",
    "prefectureCode": "04",
    "prefectureNumber": 4,
    "prefecture": "宮城県",
    "city": "大崎市",
    "town": "古川川端"
  },
  "9896171": {
    "zipcode": "9896171",
    "prefectureCode": "04",
    "prefectureNumber": 4,
    "prefecture": "宮城県",
    "city": "大崎市",
    "town": "古川北町"
  },
  "9896172": {
    "zipcode": "9896172",
    "prefectureCode": "04",
    "prefectureNumber": 4,
    "prefecture": "宮城県",
    "city": "大崎市",
    "town": "古川前田町"
  },
  "9896173": {
    "zipcode": "9896173",
    "prefectureCode": "04",
    "prefectureNumber": 4,
    "prefecture": "宮城県",
    "city": "大崎市",
    "town": "古川浦町"
  },
  "9896174": {
    "zipcode": "9896174",
    "prefectureCode": "04",
    "prefectureNumber": 4,
    "prefecture": "宮城県",
    "city": "大崎市",
    "town": "古川千手寺町"
  },
  "9896175": {
    "zipcode": "9896175",
    "prefectureCode": "04",
    "prefectureNumber": 4,
    "prefecture": "宮城県",
    "city": "大崎市",
    "town": "古川諏訪"
  },
  "9896201": {
    "zipcode": "9896201",
    "prefectureCode": "04",
    "prefectureNumber": 4,
    "prefecture": "宮城県",
    "city": "大崎市",
    "town": "古川渋井"
  },
  "9896202": {
    "zipcode": "9896202",
    "prefectureCode": "04",
    "prefectureNumber": 4,
    "prefecture": "宮城県",
    "city": "大崎市",
    "town": "古川上中目"
  },
  "9896203": {
    "zipcode": "9896203",
    "prefectureCode": "04",
    "prefectureNumber": 4,
    "prefecture": "宮城県",
    "city": "大崎市",
    "town": "古川飯川"
  },
  "9896204": {
    "zipcode": "9896204",
    "prefectureCode": "04",
    "prefectureNumber": 4,
    "prefecture": "宮城県",
    "city": "大崎市",
    "town": "古川矢目"
  },
  "9896205": {
    "zipcode": "9896205",
    "prefectureCode": "04",
    "prefectureNumber": 4,
    "prefecture": "宮城県",
    "city": "大崎市",
    "town": "古川新沼"
  },
  "9896206": {
    "zipcode": "9896206",
    "prefectureCode": "04",
    "prefectureNumber": 4,
    "prefecture": "宮城県",
    "city": "大崎市",
    "town": "古川中沢"
  },
  "9896207": {
    "zipcode": "9896207",
    "prefectureCode": "04",
    "prefectureNumber": 4,
    "prefecture": "宮城県",
    "city": "大崎市",
    "town": "古川堤根"
  },
  "9896208": {
    "zipcode": "9896208",
    "prefectureCode": "04",
    "prefectureNumber": 4,
    "prefecture": "宮城県",
    "city": "大崎市",
    "town": "古川引田"
  },
  "9896211": {
    "zipcode": "9896211",
    "prefectureCode": "04",
    "prefectureNumber": 4,
    "prefecture": "宮城県",
    "city": "大崎市",
    "town": "古川斎下"
  },
  "9896212": {
    "zipcode": "9896212",
    "prefectureCode": "04",
    "prefectureNumber": 4,
    "prefecture": "宮城県",
    "city": "大崎市",
    "town": "古川荒田目"
  },
  "9896213": {
    "zipcode": "9896213",
    "prefectureCode": "04",
    "prefectureNumber": 4,
    "prefecture": "宮城県",
    "city": "大崎市",
    "town": "古川保柳"
  },
  "9896214": {
    "zipcode": "9896214",
    "prefectureCode": "04",
    "prefectureNumber": 4,
    "prefecture": "宮城県",
    "city": "大崎市",
    "town": "古川新堀"
  },
  "9896215": {
    "zipcode": "9896215",
    "prefectureCode": "04",
    "prefectureNumber": 4,
    "prefecture": "宮城県",
    "city": "大崎市",
    "town": "古川耳取"
  },
  "9896216": {
    "zipcode": "9896216",
    "prefectureCode": "04",
    "prefectureNumber": 4,
    "prefecture": "宮城県",
    "city": "大崎市",
    "town": "古川柏崎"
  },
  "9896217": {
    "zipcode": "9896217",
    "prefectureCode": "04",
    "prefectureNumber": 4,
    "prefecture": "宮城県",
    "city": "大崎市",
    "town": "古川南沢"
  },
  "9896221": {
    "zipcode": "9896221",
    "prefectureCode": "04",
    "prefectureNumber": 4,
    "prefecture": "宮城県",
    "city": "大崎市",
    "town": "古川大宮"
  },
  "9896222": {
    "zipcode": "9896222",
    "prefectureCode": "04",
    "prefectureNumber": 4,
    "prefecture": "宮城県",
    "city": "大崎市",
    "town": "古川若葉町"
  },
  "9896223": {
    "zipcode": "9896223",
    "prefectureCode": "04",
    "prefectureNumber": 4,
    "prefecture": "宮城県",
    "city": "大崎市",
    "town": "古川"
  },
  "9896224": {
    "zipcode": "9896224",
    "prefectureCode": "04",
    "prefectureNumber": 4,
    "prefecture": "宮城県",
    "city": "大崎市",
    "town": "古川小泉"
  },
  "9896225": {
    "zipcode": "9896225",
    "prefectureCode": "04",
    "prefectureNumber": 4,
    "prefecture": "宮城県",
    "city": "大崎市",
    "town": "古川塚目"
  },
  "9896226": {
    "zipcode": "9896226",
    "prefectureCode": "04",
    "prefectureNumber": 4,
    "prefecture": "宮城県",
    "city": "大崎市",
    "town": "古川新田"
  },
  "9896227": {
    "zipcode": "9896227",
    "prefectureCode": "04",
    "prefectureNumber": 4,
    "prefecture": "宮城県",
    "city": "大崎市",
    "town": "古川大崎"
  },
  "9896228": {
    "zipcode": "9896228",
    "prefectureCode": "04",
    "prefectureNumber": 4,
    "prefecture": "宮城県",
    "city": "大崎市",
    "town": "古川清水"
  },
  "9896231": {
    "zipcode": "9896231",
    "prefectureCode": "04",
    "prefectureNumber": 4,
    "prefecture": "宮城県",
    "city": "大崎市",
    "town": "古川長岡"
  },
  "9896232": {
    "zipcode": "9896232",
    "prefectureCode": "04",
    "prefectureNumber": 4,
    "prefecture": "宮城県",
    "city": "大崎市",
    "town": "古川沢田"
  },
  "9896233": {
    "zipcode": "9896233",
    "prefectureCode": "04",
    "prefectureNumber": 4,
    "prefecture": "宮城県",
    "city": "大崎市",
    "town": "古川桜ノ目"
  },
  "9896234": {
    "zipcode": "9896234",
    "prefectureCode": "04",
    "prefectureNumber": 4,
    "prefecture": "宮城県",
    "city": "大崎市",
    "town": "古川小林"
  },
  "9896235": {
    "zipcode": "9896235",
    "prefectureCode": "04",
    "prefectureNumber": 4,
    "prefecture": "宮城県",
    "city": "大崎市",
    "town": "古川宮沢"
  },
  "9896236": {
    "zipcode": "9896236",
    "prefectureCode": "04",
    "prefectureNumber": 4,
    "prefecture": "宮城県",
    "city": "大崎市",
    "town": "古川川熊"
  },
  "9896241": {
    "zipcode": "9896241",
    "prefectureCode": "04",
    "prefectureNumber": 4,
    "prefecture": "宮城県",
    "city": "大崎市",
    "town": "古川清水沢"
  },
  "9896242": {
    "zipcode": "9896242",
    "prefectureCode": "04",
    "prefectureNumber": 4,
    "prefecture": "宮城県",
    "city": "大崎市",
    "town": "古川北宮沢"
  },
  "9896243": {
    "zipcode": "9896243",
    "prefectureCode": "04",
    "prefectureNumber": 4,
    "prefecture": "宮城県",
    "city": "大崎市",
    "town": "古川雨生沢"
  },
  "9896244": {
    "zipcode": "9896244",
    "prefectureCode": "04",
    "prefectureNumber": 4,
    "prefecture": "宮城県",
    "city": "大崎市",
    "town": "古川清滝"
  },
  "9896251": {
    "zipcode": "9896251",
    "prefectureCode": "04",
    "prefectureNumber": 4,
    "prefecture": "宮城県",
    "city": "大崎市",
    "town": "古川小野"
  },
  "9896252": {
    "zipcode": "9896252",
    "prefectureCode": "04",
    "prefectureNumber": 4,
    "prefecture": "宮城県",
    "city": "大崎市",
    "town": "古川荒谷"
  },
  "9896253": {
    "zipcode": "9896253",
    "prefectureCode": "04",
    "prefectureNumber": 4,
    "prefecture": "宮城県",
    "city": "大崎市",
    "town": "古川馬放"
  },
  "9896254": {
    "zipcode": "9896254",
    "prefectureCode": "04",
    "prefectureNumber": 4,
    "prefecture": "宮城県",
    "city": "大崎市",
    "town": "古川狐塚"
  },
  "9896255": {
    "zipcode": "9896255",
    "prefectureCode": "04",
    "prefectureNumber": 4,
    "prefecture": "宮城県",
    "city": "大崎市",
    "town": "古川休塚"
  },
  "9896261": {
    "zipcode": "9896261",
    "prefectureCode": "04",
    "prefectureNumber": 4,
    "prefecture": "宮城県",
    "city": "大崎市",
    "town": "古川長岡針"
  },
  "9896262": {
    "zipcode": "9896262",
    "prefectureCode": "04",
    "prefectureNumber": 4,
    "prefecture": "宮城県",
    "city": "大崎市",
    "town": "古川馬櫛"
  },
  "9896263": {
    "zipcode": "9896263",
    "prefectureCode": "04",
    "prefectureNumber": 4,
    "prefecture": "宮城県",
    "city": "大崎市",
    "town": "古川下谷地"
  },
  "9896264": {
    "zipcode": "9896264",
    "prefectureCode": "04",
    "prefectureNumber": 4,
    "prefecture": "宮城県",
    "city": "大崎市",
    "town": "古川上埣"
  },
  "9896265": {
    "zipcode": "9896265",
    "prefectureCode": "04",
    "prefectureNumber": 4,
    "prefecture": "宮城県",
    "city": "大崎市",
    "town": "古川渕尻"
  },
  "9896266": {
    "zipcode": "9896266",
    "prefectureCode": "04",
    "prefectureNumber": 4,
    "prefecture": "宮城県",
    "city": "大崎市",
    "town": "古川富長"
  },
  "9896301": {
    "zipcode": "9896301",
    "prefectureCode": "04",
    "prefectureNumber": 4,
    "prefecture": "宮城県",
    "city": "大崎市",
    "town": "三本木桑折"
  },
  "9896302": {
    "zipcode": "9896302",
    "prefectureCode": "04",
    "prefectureNumber": 4,
    "prefecture": "宮城県",
    "city": "大崎市",
    "town": "三本木上伊場野"
  },
  "9896303": {
    "zipcode": "9896303",
    "prefectureCode": "04",
    "prefectureNumber": 4,
    "prefecture": "宮城県",
    "city": "大崎市",
    "town": "三本木伊場野"
  },
  "9896304": {
    "zipcode": "9896304",
    "prefectureCode": "04",
    "prefectureNumber": 4,
    "prefecture": "宮城県",
    "city": "大崎市",
    "town": "三本木秋田"
  },
  "9896305": {
    "zipcode": "9896305",
    "prefectureCode": "04",
    "prefectureNumber": 4,
    "prefecture": "宮城県",
    "city": "大崎市",
    "town": "三本木伊賀"
  },
  "9896306": {
    "zipcode": "9896306",
    "prefectureCode": "04",
    "prefectureNumber": 4,
    "prefecture": "宮城県",
    "city": "大崎市",
    "town": "三本木新町"
  },
  "9896311": {
    "zipcode": "9896311",
    "prefectureCode": "04",
    "prefectureNumber": 4,
    "prefecture": "宮城県",
    "city": "大崎市",
    "town": "三本木坂本"
  },
  "9896312": {
    "zipcode": "9896312",
    "prefectureCode": "04",
    "prefectureNumber": 4,
    "prefecture": "宮城県",
    "city": "大崎市",
    "town": "三本木蟻ケ袋"
  },
  "9896313": {
    "zipcode": "9896313",
    "prefectureCode": "04",
    "prefectureNumber": 4,
    "prefecture": "宮城県",
    "city": "大崎市",
    "town": "三本木音無"
  },
  "9896314": {
    "zipcode": "9896314",
    "prefectureCode": "04",
    "prefectureNumber": 4,
    "prefecture": "宮城県",
    "city": "大崎市",
    "town": "三本木斉田"
  },
  "9896315": {
    "zipcode": "9896315",
    "prefectureCode": "04",
    "prefectureNumber": 4,
    "prefecture": "宮城県",
    "city": "大崎市",
    "town": "三本木新沼"
  },
  "9896316": {
    "zipcode": "9896316",
    "prefectureCode": "04",
    "prefectureNumber": 4,
    "prefecture": "宮城県",
    "city": "大崎市",
    "town": "三本木高柳"
  },
  "9896317": {
    "zipcode": "9896317",
    "prefectureCode": "04",
    "prefectureNumber": 4,
    "prefecture": "宮城県",
    "city": "大崎市",
    "town": "三本木蒜袋"
  },
  "9896321": {
    "zipcode": "9896321",
    "prefectureCode": "04",
    "prefectureNumber": 4,
    "prefecture": "宮城県",
    "city": "大崎市",
    "town": "三本木"
  },
  "9896322": {
    "zipcode": "9896322",
    "prefectureCode": "04",
    "prefectureNumber": 4,
    "prefecture": "宮城県",
    "city": "大崎市",
    "town": "三本木南谷地"
  },
  "9896401": {
    "zipcode": "9896401",
    "prefectureCode": "04",
    "prefectureNumber": 4,
    "prefecture": "宮城県",
    "city": "大崎市",
    "town": "岩出山（上真山、葛岡）"
  },
  "9896402": {
    "zipcode": "9896402",
    "prefectureCode": "04",
    "prefectureNumber": 4,
    "prefecture": "宮城県",
    "city": "大崎市",
    "town": "岩出山（磯田、下真山）"
  },
  "9896403": {
    "zipcode": "9896403",
    "prefectureCode": "04",
    "prefectureNumber": 4,
    "prefecture": "宮城県",
    "city": "大崎市",
    "town": "岩出山上野目"
  },
  "9896404": {
    "zipcode": "9896404",
    "prefectureCode": "04",
    "prefectureNumber": 4,
    "prefecture": "宮城県",
    "city": "大崎市",
    "town": "岩出山下一栗"
  },
  "9896405": {
    "zipcode": "9896405",
    "prefectureCode": "04",
    "prefectureNumber": 4,
    "prefecture": "宮城県",
    "city": "大崎市",
    "town": "岩出山池月"
  },
  "9896411": {
    "zipcode": "9896411",
    "prefectureCode": "04",
    "prefectureNumber": 4,
    "prefecture": "宮城県",
    "city": "大崎市",
    "town": "岩出山船場"
  },
  "9896412": {
    "zipcode": "9896412",
    "prefectureCode": "04",
    "prefectureNumber": 4,
    "prefecture": "宮城県",
    "city": "大崎市",
    "town": "岩出山下野目"
  },
  "9896413": {
    "zipcode": "9896413",
    "prefectureCode": "04",
    "prefectureNumber": 4,
    "prefecture": "宮城県",
    "city": "大崎市",
    "town": "岩出山東川原町"
  },
  "9896414": {
    "zipcode": "9896414",
    "prefectureCode": "04",
    "prefectureNumber": 4,
    "prefecture": "宮城県",
    "city": "大崎市",
    "town": "岩出山下川原"
  },
  "9896415": {
    "zipcode": "9896415",
    "prefectureCode": "04",
    "prefectureNumber": 4,
    "prefecture": "宮城県",
    "city": "大崎市",
    "town": "岩出山東川原"
  },
  "9896421": {
    "zipcode": "9896421",
    "prefectureCode": "04",
    "prefectureNumber": 4,
    "prefecture": "宮城県",
    "city": "大崎市",
    "town": "岩出山上中江"
  },
  "9896422": {
    "zipcode": "9896422",
    "prefectureCode": "04",
    "prefectureNumber": 4,
    "prefecture": "宮城県",
    "city": "大崎市",
    "town": "岩出山重蔵"
  },
  "9896423": {
    "zipcode": "9896423",
    "prefectureCode": "04",
    "prefectureNumber": 4,
    "prefecture": "宮城県",
    "city": "大崎市",
    "town": "岩出山前毘沙門"
  },
  "9896424": {
    "zipcode": "9896424",
    "prefectureCode": "04",
    "prefectureNumber": 4,
    "prefecture": "宮城県",
    "city": "大崎市",
    "town": "岩出山丸山"
  },
  "9896425": {
    "zipcode": "9896425",
    "prefectureCode": "04",
    "prefectureNumber": 4,
    "prefecture": "宮城県",
    "city": "大崎市",
    "town": "岩出山西御名掛"
  },
  "9896426": {
    "zipcode": "9896426",
    "prefectureCode": "04",
    "prefectureNumber": 4,
    "prefecture": "宮城県",
    "city": "大崎市",
    "town": "岩出山東御名掛"
  },
  "9896431": {
    "zipcode": "9896431",
    "prefectureCode": "04",
    "prefectureNumber": 4,
    "prefecture": "宮城県",
    "city": "大崎市",
    "town": "岩出山上川原南"
  },
  "9896432": {
    "zipcode": "9896432",
    "prefectureCode": "04",
    "prefectureNumber": 4,
    "prefecture": "宮城県",
    "city": "大崎市",
    "town": "岩出山上川原北"
  },
  "9896433": {
    "zipcode": "9896433",
    "prefectureCode": "04",
    "prefectureNumber": 4,
    "prefecture": "宮城県",
    "city": "大崎市",
    "town": "岩出山上川原町"
  },
  "9896434": {
    "zipcode": "9896434",
    "prefectureCode": "04",
    "prefectureNumber": 4,
    "prefecture": "宮城県",
    "city": "大崎市",
    "town": "岩出山下川原町"
  },
  "9896435": {
    "zipcode": "9896435",
    "prefectureCode": "04",
    "prefectureNumber": 4,
    "prefecture": "宮城県",
    "city": "大崎市",
    "town": "岩出山浦小路"
  },
  "9896436": {
    "zipcode": "9896436",
    "prefectureCode": "04",
    "prefectureNumber": 4,
    "prefecture": "宮城県",
    "city": "大崎市",
    "town": "岩出山二ノ構"
  },
  "9896437": {
    "zipcode": "9896437",
    "prefectureCode": "04",
    "prefectureNumber": 4,
    "prefecture": "宮城県",
    "city": "大崎市",
    "town": "岩出山城山"
  },
  "9896441": {
    "zipcode": "9896441",
    "prefectureCode": "04",
    "prefectureNumber": 4,
    "prefecture": "宮城県",
    "city": "大崎市",
    "town": "岩出山通丁"
  },
  "9896442": {
    "zipcode": "9896442",
    "prefectureCode": "04",
    "prefectureNumber": 4,
    "prefecture": "宮城県",
    "city": "大崎市",
    "town": "岩出山下金沢"
  },
  "9896443": {
    "zipcode": "9896443",
    "prefectureCode": "04",
    "prefectureNumber": 4,
    "prefecture": "宮城県",
    "city": "大崎市",
    "town": "岩出山轟"
  },
  "9896444": {
    "zipcode": "9896444",
    "prefectureCode": "04",
    "prefectureNumber": 4,
    "prefecture": "宮城県",
    "city": "大崎市",
    "town": "岩出山細峯"
  },
  "9896445": {
    "zipcode": "9896445",
    "prefectureCode": "04",
    "prefectureNumber": 4,
    "prefecture": "宮城県",
    "city": "大崎市",
    "town": "岩出山南沢"
  },
  "9896446": {
    "zipcode": "9896446",
    "prefectureCode": "04",
    "prefectureNumber": 4,
    "prefecture": "宮城県",
    "city": "大崎市",
    "town": "岩出山大学町"
  },
  "9896447": {
    "zipcode": "9896447",
    "prefectureCode": "04",
    "prefectureNumber": 4,
    "prefecture": "宮城県",
    "city": "大崎市",
    "town": "岩出山上金沢"
  },
  "9896461": {
    "zipcode": "9896461",
    "prefectureCode": "04",
    "prefectureNumber": 4,
    "prefecture": "宮城県",
    "city": "大崎市",
    "town": "岩出山松沢"
  },
  "9896462": {
    "zipcode": "9896462",
    "prefectureCode": "04",
    "prefectureNumber": 4,
    "prefecture": "宮城県",
    "city": "大崎市",
    "town": "岩出山蛭沢"
  },
  "9896463": {
    "zipcode": "9896463",
    "prefectureCode": "04",
    "prefectureNumber": 4,
    "prefecture": "宮城県",
    "city": "大崎市",
    "town": "岩出山木通沢"
  },
  "9896464": {
    "zipcode": "9896464",
    "prefectureCode": "04",
    "prefectureNumber": 4,
    "prefecture": "宮城県",
    "city": "大崎市",
    "town": "岩出山下東昌寺沢"
  },
  "9896465": {
    "zipcode": "9896465",
    "prefectureCode": "04",
    "prefectureNumber": 4,
    "prefecture": "宮城県",
    "city": "大崎市",
    "town": "岩出山上東昌寺沢"
  },
  "9896466": {
    "zipcode": "9896466",
    "prefectureCode": "04",
    "prefectureNumber": 4,
    "prefecture": "宮城県",
    "city": "大崎市",
    "town": "岩出山保土沢"
  },
  "9896471": {
    "zipcode": "9896471",
    "prefectureCode": "04",
    "prefectureNumber": 4,
    "prefecture": "宮城県",
    "city": "大崎市",
    "town": "岩出山（その他）"
  },
  "9896701": {
    "zipcode": "9896701",
    "prefectureCode": "04",
    "prefectureNumber": 4,
    "prefecture": "宮城県",
    "city": "栗原市",
    "town": "花山草木沢上原"
  },
  "9896711": {
    "zipcode": "9896711",
    "prefectureCode": "04",
    "prefectureNumber": 4,
    "prefecture": "宮城県",
    "city": "大崎市",
    "town": "鳴子温泉蓬田"
  },
  "9896712": {
    "zipcode": "9896712",
    "prefectureCode": "04",
    "prefectureNumber": 4,
    "prefecture": "宮城県",
    "city": "大崎市",
    "town": "鳴子温泉和田"
  },
  "9896801": {
    "zipcode": "9896801",
    "prefectureCode": "04",
    "prefectureNumber": 4,
    "prefecture": "宮城県",
    "city": "大崎市",
    "town": "鳴子温泉末沢"
  },
  "9896802": {
    "zipcode": "9896802",
    "prefectureCode": "04",
    "prefectureNumber": 4,
    "prefecture": "宮城県",
    "city": "大崎市",
    "town": "鳴子温泉末沢西"
  },
  "9896803": {
    "zipcode": "9896803",
    "prefectureCode": "04",
    "prefectureNumber": 4,
    "prefecture": "宮城県",
    "city": "大崎市",
    "town": "鳴子温泉大畑"
  },
  "9896804": {
    "zipcode": "9896804",
    "prefectureCode": "04",
    "prefectureNumber": 4,
    "prefecture": "宮城県",
    "city": "大崎市",
    "town": "鳴子温泉中屋敷"
  },
  "9896805": {
    "zipcode": "9896805",
    "prefectureCode": "04",
    "prefectureNumber": 4,
    "prefecture": "宮城県",
    "city": "大崎市",
    "town": "鳴子温泉岩渕前"
  },
  "9896806": {
    "zipcode": "9896806",
    "prefectureCode": "04",
    "prefectureNumber": 4,
    "prefecture": "宮城県",
    "city": "大崎市",
    "town": "鳴子温泉岩渕"
  },
  "9896807": {
    "zipcode": "9896807",
    "prefectureCode": "04",
    "prefectureNumber": 4,
    "prefecture": "宮城県",
    "city": "大崎市",
    "town": "鳴子温泉見手野原"
  },
  "9896811": {
    "zipcode": "9896811",
    "prefectureCode": "04",
    "prefectureNumber": 4,
    "prefecture": "宮城県",
    "city": "大崎市",
    "town": "鳴子温泉鷲ノ巣"
  },
  "9896821": {
    "zipcode": "9896821",
    "prefectureCode": "04",
    "prefectureNumber": 4,
    "prefecture": "宮城県",
    "city": "大崎市",
    "town": "鳴子温泉車湯"
  },
  "9896822": {
    "zipcode": "9896822",
    "prefectureCode": "04",
    "prefectureNumber": 4,
    "prefecture": "宮城県",
    "city": "大崎市",
    "town": "鳴子温泉新屋敷"
  },
  "9896823": {
    "zipcode": "9896823",
    "prefectureCode": "04",
    "prefectureNumber": 4,
    "prefecture": "宮城県",
    "city": "大崎市",
    "town": "鳴子温泉湯元"
  },
  "9896824": {
    "zipcode": "9896824",
    "prefectureCode": "04",
    "prefectureNumber": 4,
    "prefecture": "宮城県",
    "city": "大崎市",
    "town": "鳴子温泉河原湯"
  },
  "9896825": {
    "zipcode": "9896825",
    "prefectureCode": "04",
    "prefectureNumber": 4,
    "prefecture": "宮城県",
    "city": "大崎市",
    "town": "鳴子温泉上鳴子"
  },
  "9896826": {
    "zipcode": "9896826",
    "prefectureCode": "04",
    "prefectureNumber": 4,
    "prefecture": "宮城県",
    "city": "大崎市",
    "town": "鳴子温泉古戸前"
  },
  "9896827": {
    "zipcode": "9896827",
    "prefectureCode": "04",
    "prefectureNumber": 4,
    "prefecture": "宮城県",
    "city": "大崎市",
    "town": "鳴子温泉尿前"
  },
  "9896831": {
    "zipcode": "9896831",
    "prefectureCode": "04",
    "prefectureNumber": 4,
    "prefecture": "宮城県",
    "city": "大崎市",
    "town": "鳴子温泉柳木"
  },
  "9896832": {
    "zipcode": "9896832",
    "prefectureCode": "04",
    "prefectureNumber": 4,
    "prefecture": "宮城県",
    "city": "大崎市",
    "town": "鳴子温泉星沼"
  },
  "9896833": {
    "zipcode": "9896833",
    "prefectureCode": "04",
    "prefectureNumber": 4,
    "prefecture": "宮城県",
    "city": "大崎市",
    "town": "鳴子温泉川端"
  },
  "9896834": {
    "zipcode": "9896834",
    "prefectureCode": "04",
    "prefectureNumber": 4,
    "prefecture": "宮城県",
    "city": "大崎市",
    "town": "鳴子温泉西原"
  },
  "9896835": {
    "zipcode": "9896835",
    "prefectureCode": "04",
    "prefectureNumber": 4,
    "prefecture": "宮城県",
    "city": "大崎市",
    "town": "鳴子温泉南原"
  },
  "9896836": {
    "zipcode": "9896836",
    "prefectureCode": "04",
    "prefectureNumber": 4,
    "prefecture": "宮城県",
    "city": "大崎市",
    "town": "鳴子温泉焼石亦"
  },
  "9896837": {
    "zipcode": "9896837",
    "prefectureCode": "04",
    "prefectureNumber": 4,
    "prefecture": "宮城県",
    "city": "大崎市",
    "town": "鳴子温泉南星沼"
  },
  "9896838": {
    "zipcode": "9896838",
    "prefectureCode": "04",
    "prefectureNumber": 4,
    "prefecture": "宮城県",
    "city": "大崎市",
    "town": "鳴子温泉奥羽岳"
  },
  "9896941": {
    "zipcode": "9896941",
    "prefectureCode": "04",
    "prefectureNumber": 4,
    "prefecture": "宮城県",
    "city": "大崎市",
    "town": "鳴子温泉鬼首"
  }
}
