{
  "9930000": {
    "zipcode": "9930000",
    "prefectureCode": "06",
    "prefectureNumber": 6,
    "prefecture": "山形県",
    "city": "長井市",
    "town": "以下に掲載がない場合"
  },
  "9930001": {
    "zipcode": "9930001",
    "prefectureCode": "06",
    "prefectureNumber": 6,
    "prefecture": "山形県",
    "city": "長井市",
    "town": "ままの上"
  },
  "9930002": {
    "zipcode": "9930002",
    "prefectureCode": "06",
    "prefectureNumber": 6,
    "prefecture": "山形県",
    "city": "長井市",
    "town": "屋城町"
  },
  "9930003": {
    "zipcode": "9930003",
    "prefectureCode": "06",
    "prefectureNumber": 6,
    "prefecture": "山形県",
    "city": "長井市",
    "town": "東町"
  },
  "9930004": {
    "zipcode": "9930004",
    "prefectureCode": "06",
    "prefectureNumber": 6,
    "prefecture": "山形県",
    "city": "長井市",
    "town": "神明町"
  },
  "9930005": {
    "zipcode": "9930005",
    "prefectureCode": "06",
    "prefectureNumber": 6,
    "prefecture": "山形県",
    "city": "長井市",
    "town": "片田町"
  },
  "9930006": {
    "zipcode": "9930006",
    "prefectureCode": "06",
    "prefectureNumber": 6,
    "prefecture": "山形県",
    "city": "長井市",
    "town": "あら町"
  },
  "9930007": {
    "zipcode": "9930007",
    "prefectureCode": "06",
    "prefectureNumber": 6,
    "prefecture": "山形県",
    "city": "長井市",
    "town": "本町"
  },
  "9930011": {
    "zipcode": "9930011",
    "prefectureCode": "06",
    "prefectureNumber": 6,
    "prefecture": "山形県",
    "city": "長井市",
    "town": "館町北"
  },
  "9930012": {
    "zipcode": "9930012",
    "prefectureCode": "06",
    "prefectureNumber": 6,
    "prefecture": "山形県",
    "city": "長井市",
    "town": "日の出町"
  },
  "9930013": {
    "zipcode": "9930013",
    "prefectureCode": "06",
    "prefectureNumber": 6,
    "prefecture": "山形県",
    "city": "長井市",
    "town": "館町南"
  },
  "9930014": {
    "zipcode": "9930014",
    "prefectureCode": "06",
    "prefectureNumber": 6,
    "prefecture": "山形県",
    "city": "長井市",
    "town": "小出"
  },
  "9930015": {
    "zipcode": "9930015",
    "prefectureCode": "06",
    "prefectureNumber": 6,
    "prefecture": "山形県",
    "city": "長井市",
    "town": "四ツ谷"
  },
  "9930016": {
    "zipcode": "9930016",
    "prefectureCode": "06",
    "prefectureNumber": 6,
    "prefecture": "山形県",
    "city": "長井市",
    "town": "台町"
  },
  "9930017": {
    "zipcode": "9930017",
    "prefectureCode": "06",
    "prefectureNumber": 6,
    "prefecture": "山形県",
    "city": "長井市",
    "town": "花作町"
  },
  "9930021": {
    "zipcode": "9930021",
    "prefectureCode": "06",
    "prefectureNumber": 6,
    "prefecture": "山形県",
    "city": "長井市",
    "town": "上伊佐沢"
  },
  "9930022": {
    "zipcode": "9930022",
    "prefectureCode": "06",
    "prefectureNumber": 6,
    "prefecture": "山形県",
    "city": "長井市",
    "town": "芦沢"
  },
  "9930023": {
    "zipcode": "9930023",
    "prefectureCode": "06",
    "prefectureNumber": 6,
    "prefecture": "山形県",
    "city": "長井市",
    "town": "下伊佐沢"
  },
  "9930024": {
    "zipcode": "9930024",
    "prefectureCode": "06",
    "prefectureNumber": 6,
    "prefecture": "山形県",
    "city": "長井市",
    "town": "中伊佐沢"
  },
  "9930031": {
    "zipcode": "9930031",
    "prefectureCode": "06",
    "prefectureNumber": 6,
    "prefecture": "山形県",
    "city": "長井市",
    "town": "泉"
  },
  "9930032": {
    "zipcode": "9930032",
    "prefectureCode": "06",
    "prefectureNumber": 6,
    "prefecture": "山形県",
    "city": "長井市",
    "town": "河井"
  },
  "9930033": {
    "zipcode": "9930033",
    "prefectureCode": "06",
    "prefectureNumber": 6,
    "prefecture": "山形県",
    "city": "長井市",
    "town": "今泉"
  },
  "9930034": {
    "zipcode": "9930034",
    "prefectureCode": "06",
    "prefectureNumber": 6,
    "prefecture": "山形県",
    "city": "長井市",
    "town": "歌丸"
  },
  "9930035": {
    "zipcode": "9930035",
    "prefectureCode": "06",
    "prefectureNumber": 6,
    "prefecture": "山形県",
    "city": "長井市",
    "town": "時庭"
  },
  "9930041": {
    "zipcode": "9930041",
    "prefectureCode": "06",
    "prefectureNumber": 6,
    "prefecture": "山形県",
    "city": "長井市",
    "town": "九野本"
  },
  "9930042": {
    "zipcode": "9930042",
    "prefectureCode": "06",
    "prefectureNumber": 6,
    "prefecture": "山形県",
    "city": "長井市",
    "town": "平山"
  },
  "9930051": {
    "zipcode": "9930051",
    "prefectureCode": "06",
    "prefectureNumber": 6,
    "prefecture": "山形県",
    "city": "長井市",
    "town": "幸町"
  },
  "9930052": {
    "zipcode": "9930052",
    "prefectureCode": "06",
    "prefectureNumber": 6,
    "prefecture": "山形県",
    "city": "長井市",
    "town": "新町"
  },
  "9930053": {
    "zipcode": "9930053",
    "prefectureCode": "06",
    "prefectureNumber": 6,
    "prefecture": "山形県",
    "city": "長井市",
    "town": "中道"
  },
  "9930054": {
    "zipcode": "9930054",
    "prefectureCode": "06",
    "prefectureNumber": 6,
    "prefecture": "山形県",
    "city": "長井市",
    "town": "清水町"
  },
  "9930061": {
    "zipcode": "9930061",
    "prefectureCode": "06",
    "prefectureNumber": 6,
    "prefecture": "山形県",
    "city": "長井市",
    "town": "寺泉"
  },
  "9930062": {
    "zipcode": "9930062",
    "prefectureCode": "06",
    "prefectureNumber": 6,
    "prefecture": "山形県",
    "city": "長井市",
    "town": "川原沢"
  },
  "9930063": {
    "zipcode": "9930063",
    "prefectureCode": "06",
    "prefectureNumber": 6,
    "prefecture": "山形県",
    "city": "長井市",
    "town": "草岡"
  },
  "9930064": {
    "zipcode": "9930064",
    "prefectureCode": "06",
    "prefectureNumber": 6,
    "prefecture": "山形県",
    "city": "長井市",
    "town": "勧進代"
  },
  "9930071": {
    "zipcode": "9930071",
    "prefectureCode": "06",
    "prefectureNumber": 6,
    "prefecture": "山形県",
    "city": "長井市",
    "town": "白兎"
  },
  "9930072": {
    "zipcode": "9930072",
    "prefectureCode": "06",
    "prefectureNumber": 6,
    "prefecture": "山形県",
    "city": "長井市",
    "town": "五十川"
  },
  "9930073": {
    "zipcode": "9930073",
    "prefectureCode": "06",
    "prefectureNumber": 6,
    "prefecture": "山形県",
    "city": "長井市",
    "town": "森"
  },
  "9930074": {
    "zipcode": "9930074",
    "prefectureCode": "06",
    "prefectureNumber": 6,
    "prefecture": "山形県",
    "city": "長井市",
    "town": "宮"
  },
  "9930075": {
    "zipcode": "9930075",
    "prefectureCode": "06",
    "prefectureNumber": 6,
    "prefecture": "山形県",
    "city": "長井市",
    "town": "成田"
  },
  "9930081": {
    "zipcode": "9930081",
    "prefectureCode": "06",
    "prefectureNumber": 6,
    "prefecture": "山形県",
    "city": "長井市",
    "town": "緑町"
  },
  "9930082": {
    "zipcode": "9930082",
    "prefectureCode": "06",
    "prefectureNumber": 6,
    "prefecture": "山形県",
    "city": "長井市",
    "town": "舟場"
  },
  "9930083": {
    "zipcode": "9930083",
    "prefectureCode": "06",
    "prefectureNumber": 6,
    "prefecture": "山形県",
    "city": "長井市",
    "town": "大町"
  },
  "9930084": {
    "zipcode": "9930084",
    "prefectureCode": "06",
    "prefectureNumber": 6,
    "prefecture": "山形県",
    "city": "長井市",
    "town": "栄町"
  },
  "9930085": {
    "zipcode": "9930085",
    "prefectureCode": "06",
    "prefectureNumber": 6,
    "prefecture": "山形県",
    "city": "長井市",
    "town": "高野町"
  },
  "9930086": {
    "zipcode": "9930086",
    "prefectureCode": "06",
    "prefectureNumber": 6,
    "prefecture": "山形県",
    "city": "長井市",
    "town": "十日町"
  },
  "9930087": {
    "zipcode": "9930087",
    "prefectureCode": "06",
    "prefectureNumber": 6,
    "prefecture": "山形県",
    "city": "長井市",
    "town": "横町"
  }
}
