{
  "9940000": {
    "zipcode": "9940000",
    "prefectureCode": "06",
    "prefectureNumber": 6,
    "prefecture": "山形県",
    "city": "天童市",
    "town": "以下に掲載がない場合"
  },
  "9940001": {
    "zipcode": "9940001",
    "prefectureCode": "06",
    "prefectureNumber": 6,
    "prefecture": "山形県",
    "city": "天童市",
    "town": "万代"
  },
  "9940002": {
    "zipcode": "9940002",
    "prefectureCode": "06",
    "prefectureNumber": 6,
    "prefecture": "山形県",
    "city": "天童市",
    "town": "乱川"
  },
  "9940003": {
    "zipcode": "9940003",
    "prefectureCode": "06",
    "prefectureNumber": 6,
    "prefecture": "山形県",
    "city": "天童市",
    "town": "柏木町"
  },
  "9940004": {
    "zipcode": "9940004",
    "prefectureCode": "06",
    "prefectureNumber": 6,
    "prefecture": "山形県",
    "city": "天童市",
    "town": "小関"
  },
  "9940005": {
    "zipcode": "9940005",
    "prefectureCode": "06",
    "prefectureNumber": 6,
    "prefecture": "山形県",
    "city": "天童市",
    "town": "高木"
  },
  "9940006": {
    "zipcode": "9940006",
    "prefectureCode": "06",
    "prefectureNumber": 6,
    "prefecture": "山形県",
    "city": "天童市",
    "town": "成生"
  },
  "9940007": {
    "zipcode": "9940007",
    "prefectureCode": "06",
    "prefectureNumber": 6,
    "prefecture": "山形県",
    "city": "天童市",
    "town": "大清水"
  },
  "9940011": {
    "zipcode": "9940011",
    "prefectureCode": "06",
    "prefectureNumber": 6,
    "prefecture": "山形県",
    "city": "天童市",
    "town": "北久野本"
  },
  "9940012": {
    "zipcode": "9940012",
    "prefectureCode": "06",
    "prefectureNumber": 6,
    "prefecture": "山形県",
    "city": "天童市",
    "town": "久野本"
  },
  "9940013": {
    "zipcode": "9940013",
    "prefectureCode": "06",
    "prefectureNumber": 6,
    "prefecture": "山形県",
    "city": "天童市",
    "town": "老野森"
  },
  "9940014": {
    "zipcode": "9940014",
    "prefectureCode": "06",
    "prefectureNumber": 6,
    "prefecture": "山形県",
    "city": "天童市",
    "town": "糠塚"
  },
  "9940015": {
    "zipcode": "9940015",
    "prefectureCode": "06",
    "prefectureNumber": 6,
    "prefecture": "山形県",
    "city": "天童市",
    "town": "泉町"
  },
  "9940016": {
    "zipcode": "9940016",
    "prefectureCode": "06",
    "prefectureNumber": 6,
    "prefecture": "山形県",
    "city": "天童市",
    "town": "東久野本"
  },
  "9940021": {
    "zipcode": "9940021",
    "prefectureCode": "06",
    "prefectureNumber": 6,
    "prefecture": "山形県",
    "city": "天童市",
    "town": "山元"
  },
  "9940022": {
    "zipcode": "9940022",
    "prefectureCode": "06",
    "prefectureNumber": 6,
    "prefecture": "山形県",
    "city": "天童市",
    "town": "貫津"
  },
  "9940023": {
    "zipcode": "9940023",
    "prefectureCode": "06",
    "prefectureNumber": 6,
    "prefecture": "山形県",
    "city": "天童市",
    "town": "東善寺"
  },
  "9940024": {
    "zipcode": "9940024",
    "prefectureCode": "06",
    "prefectureNumber": 6,
    "prefecture": "山形県",
    "city": "天童市",
    "town": "鎌田"
  },
  "9940025": {
    "zipcode": "9940025",
    "prefectureCode": "06",
    "prefectureNumber": 6,
    "prefecture": "山形県",
    "city": "天童市",
    "town": "鎌田本町"
  },
  "9940026": {
    "zipcode": "9940026",
    "prefectureCode": "06",
    "prefectureNumber": 6,
    "prefecture": "山形県",
    "city": "天童市",
    "town": "東本町"
  },
  "9940027": {
    "zipcode": "9940027",
    "prefectureCode": "06",
    "prefectureNumber": 6,
    "prefecture": "山形県",
    "city": "天童市",
    "town": "桜町"
  },
  "9940028": {
    "zipcode": "9940028",
    "prefectureCode": "06",
    "prefectureNumber": 6,
    "prefecture": "山形県",
    "city": "天童市",
    "town": "鍬ノ町"
  },
  "9940031": {
    "zipcode": "9940031",
    "prefectureCode": "06",
    "prefectureNumber": 6,
    "prefecture": "山形県",
    "city": "天童市",
    "town": "天童中"
  },
  "9940032": {
    "zipcode": "9940032",
    "prefectureCode": "06",
    "prefectureNumber": 6,
    "prefecture": "山形県",
    "city": "天童市",
    "town": "小路"
  },
  "9940033": {
    "zipcode": "9940033",
    "prefectureCode": "06",
    "prefectureNumber": 6,
    "prefecture": "山形県",
    "city": "天童市",
    "town": "三日町"
  },
  "9940034": {
    "zipcode": "9940034",
    "prefectureCode": "06",
    "prefectureNumber": 6,
    "prefecture": "山形県",
    "city": "天童市",
    "town": "本町"
  },
  "9940041": {
    "zipcode": "9940041",
    "prefectureCode": "06",
    "prefectureNumber": 6,
    "prefecture": "山形県",
    "city": "天童市",
    "town": "五日町"
  },
  "9940042": {
    "zipcode": "9940042",
    "prefectureCode": "06",
    "prefectureNumber": 6,
    "prefecture": "山形県",
    "city": "天童市",
    "town": "北目"
  },
  "9940043": {
    "zipcode": "9940043",
    "prefectureCode": "06",
    "prefectureNumber": 6,
    "prefecture": "山形県",
    "city": "天童市",
    "town": "松城町"
  },
  "9940044": {
    "zipcode": "9940044",
    "prefectureCode": "06",
    "prefectureNumber": 6,
    "prefecture": "山形県",
    "city": "天童市",
    "town": "一日町"
  },
  "9940045": {
    "zipcode": "9940045",
    "prefectureCode": "06",
    "prefectureNumber": 6,
    "prefecture": "山形県",
    "city": "天童市",
    "town": "仲町"
  },
  "9940046": {
    "zipcode": "9940046",
    "prefectureCode": "06",
    "prefectureNumber": 6,
    "prefecture": "山形県",
    "city": "天童市",
    "town": "田鶴町"
  },
  "9940047": {
    "zipcode": "9940047",
    "prefectureCode": "06",
    "prefectureNumber": 6,
    "prefecture": "山形県",
    "city": "天童市",
    "town": "駅西"
  },
  "9940048": {
    "zipcode": "9940048",
    "prefectureCode": "06",
    "prefectureNumber": 6,
    "prefecture": "山形県",
    "city": "天童市",
    "town": "交り江"
  },
  "9940049": {
    "zipcode": "9940049",
    "prefectureCode": "06",
    "prefectureNumber": 6,
    "prefecture": "山形県",
    "city": "天童市",
    "town": "南町"
  },
  "9940051": {
    "zipcode": "9940051",
    "prefectureCode": "06",
    "prefectureNumber": 6,
    "prefecture": "山形県",
    "city": "天童市",
    "town": "奈良沢"
  },
  "9940052": {
    "zipcode": "9940052",
    "prefectureCode": "06",
    "prefectureNumber": 6,
    "prefecture": "山形県",
    "city": "天童市",
    "town": "下荻野戸"
  },
  "9940053": {
    "zipcode": "9940053",
    "prefectureCode": "06",
    "prefectureNumber": 6,
    "prefecture": "山形県",
    "city": "天童市",
    "town": "上荻野戸"
  },
  "9940054": {
    "zipcode": "9940054",
    "prefectureCode": "06",
    "prefectureNumber": 6,
    "prefecture": "山形県",
    "city": "天童市",
    "town": "荒谷"
  },
  "9940055": {
    "zipcode": "9940055",
    "prefectureCode": "06",
    "prefectureNumber": 6,
    "prefecture": "山形県",
    "city": "天童市",
    "town": "原町"
  },
  "9940056": {
    "zipcode": "9940056",
    "prefectureCode": "06",
    "prefectureNumber": 6,
    "prefecture": "山形県",
    "city": "天童市",
    "town": "干布"
  },
  "9940057": {
    "zipcode": "9940057",
    "prefectureCode": "06",
    "prefectureNumber": 6,
    "prefecture": "山形県",
    "city": "天童市",
    "town": "石鳥居"
  },
  "9940061": {
    "zipcode": "9940061",
    "prefectureCode": "06",
    "prefectureNumber": 6,
    "prefecture": "山形県",
    "city": "天童市",
    "town": "東芳賀"
  },
  "9940062": {
    "zipcode": "9940062",
    "prefectureCode": "06",
    "prefectureNumber": 6,
    "prefecture": "山形県",
    "city": "天童市",
    "town": "長岡北"
  },
  "9940063": {
    "zipcode": "9940063",
    "prefectureCode": "06",
    "prefectureNumber": 6,
    "prefecture": "山形県",
    "city": "天童市",
    "town": "東長岡"
  },
  "9940064": {
    "zipcode": "9940064",
    "prefectureCode": "06",
    "prefectureNumber": 6,
    "prefecture": "山形県",
    "city": "天童市",
    "town": "中里"
  },
  "9940065": {
    "zipcode": "9940065",
    "prefectureCode": "06",
    "prefectureNumber": 6,
    "prefecture": "山形県",
    "city": "天童市",
    "town": "清池"
  },
  "9940066": {
    "zipcode": "9940066",
    "prefectureCode": "06",
    "prefectureNumber": 6,
    "prefecture": "山形県",
    "city": "天童市",
    "town": "長岡"
  },
  "9940067": {
    "zipcode": "9940067",
    "prefectureCode": "06",
    "prefectureNumber": 6,
    "prefecture": "山形県",
    "city": "天童市",
    "town": "芳賀"
  },
  "9940068": {
    "zipcode": "9940068",
    "prefectureCode": "06",
    "prefectureNumber": 6,
    "prefecture": "山形県",
    "city": "天童市",
    "town": "高擶"
  },
  "9940069": {
    "zipcode": "9940069",
    "prefectureCode": "06",
    "prefectureNumber": 6,
    "prefecture": "山形県",
    "city": "天童市",
    "town": "清池東"
  },
  "9940071": {
    "zipcode": "9940071",
    "prefectureCode": "06",
    "prefectureNumber": 6,
    "prefecture": "山形県",
    "city": "天童市",
    "town": "矢野目"
  },
  "9940072": {
    "zipcode": "9940072",
    "prefectureCode": "06",
    "prefectureNumber": 6,
    "prefecture": "山形県",
    "city": "天童市",
    "town": "塚野目"
  },
  "9940073": {
    "zipcode": "9940073",
    "prefectureCode": "06",
    "prefectureNumber": 6,
    "prefecture": "山形県",
    "city": "天童市",
    "town": "寺津"
  },
  "9940074": {
    "zipcode": "9940074",
    "prefectureCode": "06",
    "prefectureNumber": 6,
    "prefecture": "山形県",
    "city": "天童市",
    "town": "藤内新田"
  },
  "9940075": {
    "zipcode": "9940075",
    "prefectureCode": "06",
    "prefectureNumber": 6,
    "prefecture": "山形県",
    "city": "天童市",
    "town": "蔵増"
  },
  "9940076": {
    "zipcode": "9940076",
    "prefectureCode": "06",
    "prefectureNumber": 6,
    "prefecture": "山形県",
    "city": "天童市",
    "town": "高野辺"
  },
  "9940077": {
    "zipcode": "9940077",
    "prefectureCode": "06",
    "prefectureNumber": 6,
    "prefecture": "山形県",
    "city": "天童市",
    "town": "窪野目"
  },
  "9940078": {
    "zipcode": "9940078",
    "prefectureCode": "06",
    "prefectureNumber": 6,
    "prefecture": "山形県",
    "city": "天童市",
    "town": "今町"
  },
  "9940079": {
    "zipcode": "9940079",
    "prefectureCode": "06",
    "prefectureNumber": 6,
    "prefecture": "山形県",
    "city": "天童市",
    "town": "大町"
  },
  "9940081": {
    "zipcode": "9940081",
    "prefectureCode": "06",
    "prefectureNumber": 6,
    "prefecture": "山形県",
    "city": "天童市",
    "town": "南小畑"
  },
  "9940082": {
    "zipcode": "9940082",
    "prefectureCode": "06",
    "prefectureNumber": 6,
    "prefecture": "山形県",
    "city": "天童市",
    "town": "芳賀タウン北"
  },
  "9940083": {
    "zipcode": "9940083",
    "prefectureCode": "06",
    "prefectureNumber": 6,
    "prefecture": "山形県",
    "city": "天童市",
    "town": "芳賀タウン南"
  },
  "9940101": {
    "zipcode": "9940101",
    "prefectureCode": "06",
    "prefectureNumber": 6,
    "prefecture": "山形県",
    "city": "天童市",
    "town": "山口"
  },
  "9940102": {
    "zipcode": "9940102",
    "prefectureCode": "06",
    "prefectureNumber": 6,
    "prefecture": "山形県",
    "city": "天童市",
    "town": "道満"
  },
  "9940103": {
    "zipcode": "9940103",
    "prefectureCode": "06",
    "prefectureNumber": 6,
    "prefecture": "山形県",
    "city": "天童市",
    "town": "川原子"
  },
  "9940104": {
    "zipcode": "9940104",
    "prefectureCode": "06",
    "prefectureNumber": 6,
    "prefecture": "山形県",
    "city": "天童市",
    "town": "田麦野"
  }
}
