{
  "9960000": {
    "zipcode": "9960000",
    "prefectureCode": "06",
    "prefectureNumber": 6,
    "prefecture": "山形県",
    "city": "新庄市",
    "town": "以下に掲載がない場合"
  },
  "9960001": {
    "zipcode": "9960001",
    "prefectureCode": "06",
    "prefectureNumber": 6,
    "prefecture": "山形県",
    "city": "新庄市",
    "town": "五日町"
  },
  "9960002": {
    "zipcode": "9960002",
    "prefectureCode": "06",
    "prefectureNumber": 6,
    "prefecture": "山形県",
    "city": "新庄市",
    "town": "金沢"
  },
  "9960011": {
    "zipcode": "9960011",
    "prefectureCode": "06",
    "prefectureNumber": 6,
    "prefecture": "山形県",
    "city": "新庄市",
    "town": "東谷地田町"
  },
  "9960021": {
    "zipcode": "9960021",
    "prefectureCode": "06",
    "prefectureNumber": 6,
    "prefecture": "山形県",
    "city": "新庄市",
    "town": "常葉町"
  },
  "9960022": {
    "zipcode": "9960022",
    "prefectureCode": "06",
    "prefectureNumber": 6,
    "prefecture": "山形県",
    "city": "新庄市",
    "town": "住吉町"
  },
  "9960023": {
    "zipcode": "9960023",
    "prefectureCode": "06",
    "prefectureNumber": 6,
    "prefecture": "山形県",
    "city": "新庄市",
    "town": "沖の町"
  },
  "9960024": {
    "zipcode": "9960024",
    "prefectureCode": "06",
    "prefectureNumber": 6,
    "prefecture": "山形県",
    "city": "新庄市",
    "town": "多門町"
  },
  "9960025": {
    "zipcode": "9960025",
    "prefectureCode": "06",
    "prefectureNumber": 6,
    "prefecture": "山形県",
    "city": "新庄市",
    "town": "若葉町"
  },
  "9960026": {
    "zipcode": "9960026",
    "prefectureCode": "06",
    "prefectureNumber": 6,
    "prefecture": "山形県",
    "city": "新庄市",
    "town": "大町"
  },
  "9960027": {
    "zipcode": "9960027",
    "prefectureCode": "06",
    "prefectureNumber": 6,
    "prefecture": "山形県",
    "city": "新庄市",
    "town": "本町"
  },
  "9960028": {
    "zipcode": "9960028",
    "prefectureCode": "06",
    "prefectureNumber": 6,
    "prefecture": "山形県",
    "city": "新庄市",
    "town": "万場町"
  },
  "9960031": {
    "zipcode": "9960031",
    "prefectureCode": "06",
    "prefectureNumber": 6,
    "prefecture": "山形県",
    "city": "新庄市",
    "town": "末広町"
  },
  "9960032": {
    "zipcode": "9960032",
    "prefectureCode": "06",
    "prefectureNumber": 6,
    "prefecture": "山形県",
    "city": "新庄市",
    "town": "上金沢町"
  },
  "9960033": {
    "zipcode": "9960033",
    "prefectureCode": "06",
    "prefectureNumber": 6,
    "prefecture": "山形県",
    "city": "新庄市",
    "town": "下金沢町"
  },
  "9960034": {
    "zipcode": "9960034",
    "prefectureCode": "06",
    "prefectureNumber": 6,
    "prefecture": "山形県",
    "city": "新庄市",
    "town": "下田町"
  },
  "9960035": {
    "zipcode": "9960035",
    "prefectureCode": "06",
    "prefectureNumber": 6,
    "prefecture": "山形県",
    "city": "新庄市",
    "town": "鉄砲町"
  },
  "9960041": {
    "zipcode": "9960041",
    "prefectureCode": "06",
    "prefectureNumber": 6,
    "prefecture": "山形県",
    "city": "新庄市",
    "town": "鳥越"
  },
  "9960051": {
    "zipcode": "9960051",
    "prefectureCode": "06",
    "prefectureNumber": 6,
    "prefecture": "山形県",
    "city": "新庄市",
    "town": "松本"
  },
  "9960052": {
    "zipcode": "9960052",
    "prefectureCode": "06",
    "prefectureNumber": 6,
    "prefecture": "山形県",
    "city": "新庄市",
    "town": "角沢"
  },
  "9960053": {
    "zipcode": "9960053",
    "prefectureCode": "06",
    "prefectureNumber": 6,
    "prefecture": "山形県",
    "city": "新庄市",
    "town": "福田"
  },
  "9960054": {
    "zipcode": "9960054",
    "prefectureCode": "06",
    "prefectureNumber": 6,
    "prefecture": "山形県",
    "city": "新庄市",
    "town": "仁間"
  },
  "9960061": {
    "zipcode": "9960061",
    "prefectureCode": "06",
    "prefectureNumber": 6,
    "prefecture": "山形県",
    "city": "新庄市",
    "town": "飛田"
  },
  "9960071": {
    "zipcode": "9960071",
    "prefectureCode": "06",
    "prefectureNumber": 6,
    "prefecture": "山形県",
    "city": "新庄市",
    "town": "小田島町"
  },
  "9960072": {
    "zipcode": "9960072",
    "prefectureCode": "06",
    "prefectureNumber": 6,
    "prefecture": "山形県",
    "city": "新庄市",
    "town": "宮内町"
  },
  "9960073": {
    "zipcode": "9960073",
    "prefectureCode": "06",
    "prefectureNumber": 6,
    "prefecture": "山形県",
    "city": "新庄市",
    "town": "栄町"
  },
  "9960074": {
    "zipcode": "9960074",
    "prefectureCode": "06",
    "prefectureNumber": 6,
    "prefecture": "山形県",
    "city": "新庄市",
    "town": "小田島"
  },
  "9960075": {
    "zipcode": "9960075",
    "prefectureCode": "06",
    "prefectureNumber": 6,
    "prefecture": "山形県",
    "city": "新庄市",
    "town": "横打町"
  },
  "9960076": {
    "zipcode": "9960076",
    "prefectureCode": "06",
    "prefectureNumber": 6,
    "prefecture": "山形県",
    "city": "新庄市",
    "town": "城西町"
  },
  "9960077": {
    "zipcode": "9960077",
    "prefectureCode": "06",
    "prefectureNumber": 6,
    "prefecture": "山形県",
    "city": "新庄市",
    "town": "城南町"
  },
  "9960078": {
    "zipcode": "9960078",
    "prefectureCode": "06",
    "prefectureNumber": 6,
    "prefecture": "山形県",
    "city": "新庄市",
    "town": "新町"
  },
  "9960079": {
    "zipcode": "9960079",
    "prefectureCode": "06",
    "prefectureNumber": 6,
    "prefecture": "山形県",
    "city": "新庄市",
    "town": "千門町"
  },
  "9960081": {
    "zipcode": "9960081",
    "prefectureCode": "06",
    "prefectureNumber": 6,
    "prefecture": "山形県",
    "city": "新庄市",
    "town": "中道町"
  },
  "9960082": {
    "zipcode": "9960082",
    "prefectureCode": "06",
    "prefectureNumber": 6,
    "prefecture": "山形県",
    "city": "新庄市",
    "town": "北町"
  },
  "9960083": {
    "zipcode": "9960083",
    "prefectureCode": "06",
    "prefectureNumber": 6,
    "prefecture": "山形県",
    "city": "新庄市",
    "town": "沼田町"
  },
  "9960084": {
    "zipcode": "9960084",
    "prefectureCode": "06",
    "prefectureNumber": 6,
    "prefecture": "山形県",
    "city": "新庄市",
    "town": "大手町"
  },
  "9960085": {
    "zipcode": "9960085",
    "prefectureCode": "06",
    "prefectureNumber": 6,
    "prefecture": "山形県",
    "city": "新庄市",
    "town": "堀端町"
  },
  "9960086": {
    "zipcode": "9960086",
    "prefectureCode": "06",
    "prefectureNumber": 6,
    "prefecture": "山形県",
    "city": "新庄市",
    "town": "石川町"
  },
  "9960087": {
    "zipcode": "9960087",
    "prefectureCode": "06",
    "prefectureNumber": 6,
    "prefecture": "山形県",
    "city": "新庄市",
    "town": "沼田"
  },
  "9960088": {
    "zipcode": "9960088",
    "prefectureCode": "06",
    "prefectureNumber": 6,
    "prefecture": "山形県",
    "city": "新庄市",
    "town": "桧町"
  },
  "9960091": {
    "zipcode": "9960091",
    "prefectureCode": "06",
    "prefectureNumber": 6,
    "prefecture": "山形県",
    "city": "新庄市",
    "town": "十日町（その他）"
  },
  "9960111": {
    "zipcode": "9960111",
    "prefectureCode": "06",
    "prefectureNumber": 6,
    "prefecture": "山形県",
    "city": "新庄市",
    "town": "升形"
  },
  "9960112": {
    "zipcode": "9960112",
    "prefectureCode": "06",
    "prefectureNumber": 6,
    "prefecture": "山形県",
    "city": "新庄市",
    "town": "本合海"
  },
  "9960200": {
    "zipcode": "9960200",
    "prefectureCode": "06",
    "prefectureNumber": 6,
    "prefecture": "山形県",
    "city": "最上郡大蔵村",
    "town": "以下に掲載がない場合"
  },
  "9960201": {
    "zipcode": "9960201",
    "prefectureCode": "06",
    "prefectureNumber": 6,
    "prefecture": "山形県",
    "city": "最上郡大蔵村",
    "town": "南山（その他）"
  },
  "9960211": {
    "zipcode": "9960211",
    "prefectureCode": "06",
    "prefectureNumber": 6,
    "prefecture": "山形県",
    "city": "最上郡大蔵村",
    "town": "合海"
  },
  "9960212": {
    "zipcode": "9960212",
    "prefectureCode": "06",
    "prefectureNumber": 6,
    "prefecture": "山形県",
    "city": "最上郡大蔵村",
    "town": "清水"
  },
  "9960213": {
    "zipcode": "9960213",
    "prefectureCode": "06",
    "prefectureNumber": 6,
    "prefecture": "山形県",
    "city": "最上郡大蔵村",
    "town": "赤松"
  },
  "9960301": {
    "zipcode": "9960301",
    "prefectureCode": "06",
    "prefectureNumber": 6,
    "prefecture": "山形県",
    "city": "最上郡大蔵村",
    "town": "南山（４３０番地以上「１７７０−１〜２、１８６２−４２、１９２３−５を除く」、大谷地、折渡、鍵金野、金山、滝ノ沢、豊牧、沼の台、肘折、平林）"
  }
}
