{
  "9970000": {
    "zipcode": "9970000",
    "prefectureCode": "06",
    "prefectureNumber": 6,
    "prefecture": "山形県",
    "city": "鶴岡市",
    "town": "以下に掲載がない場合"
  },
  "9970001": {
    "zipcode": "9970001",
    "prefectureCode": "06",
    "prefectureNumber": 6,
    "prefecture": "山形県",
    "city": "鶴岡市",
    "town": "湯野沢"
  },
  "9970002": {
    "zipcode": "9970002",
    "prefectureCode": "06",
    "prefectureNumber": 6,
    "prefecture": "山形県",
    "city": "鶴岡市",
    "town": "播磨"
  },
  "9970003": {
    "zipcode": "9970003",
    "prefectureCode": "06",
    "prefectureNumber": 6,
    "prefecture": "山形県",
    "city": "鶴岡市",
    "town": "文下"
  },
  "9970004": {
    "zipcode": "9970004",
    "prefectureCode": "06",
    "prefectureNumber": 6,
    "prefecture": "山形県",
    "city": "鶴岡市",
    "town": "本田"
  },
  "9970005": {
    "zipcode": "9970005",
    "prefectureCode": "06",
    "prefectureNumber": 6,
    "prefecture": "山形県",
    "city": "鶴岡市",
    "town": "小京田"
  },
  "9970006": {
    "zipcode": "9970006",
    "prefectureCode": "06",
    "prefectureNumber": 6,
    "prefecture": "山形県",
    "city": "鶴岡市",
    "town": "福田"
  },
  "9970007": {
    "zipcode": "9970007",
    "prefectureCode": "06",
    "prefectureNumber": 6,
    "prefecture": "山形県",
    "city": "鶴岡市",
    "town": "豊田"
  },
  "9970008": {
    "zipcode": "9970008",
    "prefectureCode": "06",
    "prefectureNumber": 6,
    "prefecture": "山形県",
    "city": "鶴岡市",
    "town": "平田"
  },
  "9970009": {
    "zipcode": "9970009",
    "prefectureCode": "06",
    "prefectureNumber": 6,
    "prefecture": "山形県",
    "city": "鶴岡市",
    "town": "中京田"
  },
  "9970010": {
    "zipcode": "9970010",
    "prefectureCode": "06",
    "prefectureNumber": 6,
    "prefecture": "山形県",
    "city": "鶴岡市",
    "town": "余慶町"
  },
  "9970011": {
    "zipcode": "9970011",
    "prefectureCode": "06",
    "prefectureNumber": 6,
    "prefecture": "山形県",
    "city": "鶴岡市",
    "town": "宝田"
  },
  "9970012": {
    "zipcode": "9970012",
    "prefectureCode": "06",
    "prefectureNumber": 6,
    "prefecture": "山形県",
    "city": "鶴岡市",
    "town": "道形"
  },
  "9970013": {
    "zipcode": "9970013",
    "prefectureCode": "06",
    "prefectureNumber": 6,
    "prefecture": "山形県",
    "city": "鶴岡市",
    "town": "道形町"
  },
  "9970014": {
    "zipcode": "9970014",
    "prefectureCode": "06",
    "prefectureNumber": 6,
    "prefecture": "山形県",
    "city": "鶴岡市",
    "town": "大宝寺町"
  },
  "9970015": {
    "zipcode": "9970015",
    "prefectureCode": "06",
    "prefectureNumber": 6,
    "prefecture": "山形県",
    "city": "鶴岡市",
    "town": "末広町"
  },
  "9970016": {
    "zipcode": "9970016",
    "prefectureCode": "06",
    "prefectureNumber": 6,
    "prefecture": "山形県",
    "city": "鶴岡市",
    "town": "日和田町"
  },
  "9970017": {
    "zipcode": "9970017",
    "prefectureCode": "06",
    "prefectureNumber": 6,
    "prefecture": "山形県",
    "city": "鶴岡市",
    "town": "大宝寺（その他）"
  },
  "9970018": {
    "zipcode": "9970018",
    "prefectureCode": "06",
    "prefectureNumber": 6,
    "prefecture": "山形県",
    "city": "鶴岡市",
    "town": "茅原町"
  },
  "9970019": {
    "zipcode": "9970019",
    "prefectureCode": "06",
    "prefectureNumber": 6,
    "prefecture": "山形県",
    "city": "鶴岡市",
    "town": "茅原"
  },
  "9970021": {
    "zipcode": "9970021",
    "prefectureCode": "06",
    "prefectureNumber": 6,
    "prefecture": "山形県",
    "city": "鶴岡市",
    "town": "宝町"
  },
  "9970022": {
    "zipcode": "9970022",
    "prefectureCode": "06",
    "prefectureNumber": 6,
    "prefecture": "山形県",
    "city": "鶴岡市",
    "town": "切添町"
  },
  "9970023": {
    "zipcode": "9970023",
    "prefectureCode": "06",
    "prefectureNumber": 6,
    "prefecture": "山形県",
    "city": "鶴岡市",
    "town": "鳥居町"
  },
  "9970024": {
    "zipcode": "9970024",
    "prefectureCode": "06",
    "prefectureNumber": 6,
    "prefecture": "山形県",
    "city": "鶴岡市",
    "town": "朝暘町"
  },
  "9970025": {
    "zipcode": "9970025",
    "prefectureCode": "06",
    "prefectureNumber": 6,
    "prefecture": "山形県",
    "city": "鶴岡市",
    "town": "日出"
  },
  "9970026": {
    "zipcode": "9970026",
    "prefectureCode": "06",
    "prefectureNumber": 6,
    "prefecture": "山形県",
    "city": "鶴岡市",
    "town": "大東町"
  },
  "9970027": {
    "zipcode": "9970027",
    "prefectureCode": "06",
    "prefectureNumber": 6,
    "prefecture": "山形県",
    "city": "鶴岡市",
    "town": "昭和町"
  },
  "9970028": {
    "zipcode": "9970028",
    "prefectureCode": "06",
    "prefectureNumber": 6,
    "prefecture": "山形県",
    "city": "鶴岡市",
    "town": "山王町"
  },
  "9970029": {
    "zipcode": "9970029",
    "prefectureCode": "06",
    "prefectureNumber": 6,
    "prefecture": "山形県",
    "city": "鶴岡市",
    "town": "日吉町"
  },
  "9970031": {
    "zipcode": "9970031",
    "prefectureCode": "06",
    "prefectureNumber": 6,
    "prefecture": "山形県",
    "city": "鶴岡市",
    "town": "錦町"
  },
  "9970032": {
    "zipcode": "9970032",
    "prefectureCode": "06",
    "prefectureNumber": 6,
    "prefecture": "山形県",
    "city": "鶴岡市",
    "town": "上畑町"
  },
  "9970033": {
    "zipcode": "9970033",
    "prefectureCode": "06",
    "prefectureNumber": 6,
    "prefecture": "山形県",
    "city": "鶴岡市",
    "town": "泉町"
  },
  "9970034": {
    "zipcode": "9970034",
    "prefectureCode": "06",
    "prefectureNumber": 6,
    "prefecture": "山形県",
    "city": "鶴岡市",
    "town": "本町"
  },
  "9970035": {
    "zipcode": "9970035",
    "prefectureCode": "06",
    "prefectureNumber": 6,
    "prefecture": "山形県",
    "city": "鶴岡市",
    "town": "馬場町"
  },
  "9970036": {
    "zipcode": "9970036",
    "prefectureCode": "06",
    "prefectureNumber": 6,
    "prefecture": "山形県",
    "city": "鶴岡市",
    "town": "家中新町"
  },
  "9970037": {
    "zipcode": "9970037",
    "prefectureCode": "06",
    "prefectureNumber": 6,
    "prefecture": "山形県",
    "city": "鶴岡市",
    "town": "若葉町"
  },
  "9970038": {
    "zipcode": "9970038",
    "prefectureCode": "06",
    "prefectureNumber": 6,
    "prefecture": "山形県",
    "city": "鶴岡市",
    "town": "北茅原町"
  },
  "9970039": {
    "zipcode": "9970039",
    "prefectureCode": "06",
    "prefectureNumber": 6,
    "prefecture": "山形県",
    "city": "鶴岡市",
    "town": "西茅原町"
  },
  "9970041": {
    "zipcode": "9970041",
    "prefectureCode": "06",
    "prefectureNumber": 6,
    "prefecture": "山形県",
    "city": "鶴岡市",
    "town": "城北町"
  },
  "9970042": {
    "zipcode": "9970042",
    "prefectureCode": "06",
    "prefectureNumber": 6,
    "prefecture": "山形県",
    "city": "鶴岡市",
    "town": "新形町"
  },
  "9970043": {
    "zipcode": "9970043",
    "prefectureCode": "06",
    "prefectureNumber": 6,
    "prefecture": "山形県",
    "city": "鶴岡市",
    "town": "東新斎町"
  },
  "9970044": {
    "zipcode": "9970044",
    "prefectureCode": "06",
    "prefectureNumber": 6,
    "prefecture": "山形県",
    "city": "鶴岡市",
    "town": "新海町"
  },
  "9970045": {
    "zipcode": "9970045",
    "prefectureCode": "06",
    "prefectureNumber": 6,
    "prefecture": "山形県",
    "city": "鶴岡市",
    "town": "西新斎町"
  },
  "9970046": {
    "zipcode": "9970046",
    "prefectureCode": "06",
    "prefectureNumber": 6,
    "prefecture": "山形県",
    "city": "鶴岡市",
    "town": "みどり町"
  },
  "9970047": {
    "zipcode": "9970047",
    "prefectureCode": "06",
    "prefectureNumber": 6,
    "prefecture": "山形県",
    "city": "鶴岡市",
    "town": "大塚町"
  },
  "9970048": {
    "zipcode": "9970048",
    "prefectureCode": "06",
    "prefectureNumber": 6,
    "prefecture": "山形県",
    "city": "鶴岡市",
    "town": "平京田"
  },
  "9970049": {
    "zipcode": "9970049",
    "prefectureCode": "06",
    "prefectureNumber": 6,
    "prefecture": "山形県",
    "city": "鶴岡市",
    "town": "大部町"
  },
  "9970051": {
    "zipcode": "9970051",
    "prefectureCode": "06",
    "prefectureNumber": 6,
    "prefecture": "山形県",
    "city": "鶴岡市",
    "town": "荒井京田"
  },
  "9970052": {
    "zipcode": "9970052",
    "prefectureCode": "06",
    "prefectureNumber": 6,
    "prefecture": "山形県",
    "city": "鶴岡市",
    "town": "覚岸寺"
  },
  "9970053": {
    "zipcode": "9970053",
    "prefectureCode": "06",
    "prefectureNumber": 6,
    "prefecture": "山形県",
    "city": "鶴岡市",
    "town": "北京田"
  },
  "9970054": {
    "zipcode": "9970054",
    "prefectureCode": "06",
    "prefectureNumber": 6,
    "prefecture": "山形県",
    "city": "鶴岡市",
    "town": "高田"
  },
  "9970055": {
    "zipcode": "9970055",
    "prefectureCode": "06",
    "prefectureNumber": 6,
    "prefecture": "山形県",
    "city": "鶴岡市",
    "town": "西京田"
  },
  "9970056": {
    "zipcode": "9970056",
    "prefectureCode": "06",
    "prefectureNumber": 6,
    "prefecture": "山形県",
    "city": "鶴岡市",
    "town": "中野京田"
  },
  "9970057": {
    "zipcode": "9970057",
    "prefectureCode": "06",
    "prefectureNumber": 6,
    "prefecture": "山形県",
    "city": "鶴岡市",
    "town": "安丹"
  },
  "9970058": {
    "zipcode": "9970058",
    "prefectureCode": "06",
    "prefectureNumber": 6,
    "prefecture": "山形県",
    "city": "鶴岡市",
    "town": "林崎"
  },
  "9970101": {
    "zipcode": "9970101",
    "prefectureCode": "06",
    "prefectureNumber": 6,
    "prefecture": "山形県",
    "city": "鶴岡市",
    "town": "羽黒町町屋"
  },
  "9970102": {
    "zipcode": "9970102",
    "prefectureCode": "06",
    "prefectureNumber": 6,
    "prefecture": "山形県",
    "city": "鶴岡市",
    "town": "羽黒町中里"
  },
  "9970103": {
    "zipcode": "9970103",
    "prefectureCode": "06",
    "prefectureNumber": 6,
    "prefecture": "山形県",
    "city": "鶴岡市",
    "town": "羽黒町戸野"
  },
  "9970104": {
    "zipcode": "9970104",
    "prefectureCode": "06",
    "prefectureNumber": 6,
    "prefecture": "山形県",
    "city": "鶴岡市",
    "town": "羽黒町坂ノ下"
  },
  "9970105": {
    "zipcode": "9970105",
    "prefectureCode": "06",
    "prefectureNumber": 6,
    "prefecture": "山形県",
    "city": "鶴岡市",
    "town": "羽黒町川行"
  },
  "9970106": {
    "zipcode": "9970106",
    "prefectureCode": "06",
    "prefectureNumber": 6,
    "prefecture": "山形県",
    "city": "鶴岡市",
    "town": "羽黒町染興屋"
  },
  "9970107": {
    "zipcode": "9970107",
    "prefectureCode": "06",
    "prefectureNumber": 6,
    "prefecture": "山形県",
    "city": "鶴岡市",
    "town": "羽黒町小増川"
  },
  "9970108": {
    "zipcode": "9970108",
    "prefectureCode": "06",
    "prefectureNumber": 6,
    "prefecture": "山形県",
    "city": "鶴岡市",
    "town": "羽黒町金森目"
  },
  "9970117": {
    "zipcode": "9970117",
    "prefectureCode": "06",
    "prefectureNumber": 6,
    "prefecture": "山形県",
    "city": "鶴岡市",
    "town": "大宝寺（中野）"
  },
  "9970121": {
    "zipcode": "9970121",
    "prefectureCode": "06",
    "prefectureNumber": 6,
    "prefecture": "山形県",
    "city": "鶴岡市",
    "town": "羽黒町玉川"
  },
  "9970122": {
    "zipcode": "9970122",
    "prefectureCode": "06",
    "prefectureNumber": 6,
    "prefecture": "山形県",
    "city": "鶴岡市",
    "town": "羽黒町大口"
  },
  "9970123": {
    "zipcode": "9970123",
    "prefectureCode": "06",
    "prefectureNumber": 6,
    "prefecture": "山形県",
    "city": "鶴岡市",
    "town": "羽黒町市野山"
  },
  "9970124": {
    "zipcode": "9970124",
    "prefectureCode": "06",
    "prefectureNumber": 6,
    "prefecture": "山形県",
    "city": "鶴岡市",
    "town": "羽黒町増川新田"
  },
  "9970125": {
    "zipcode": "9970125",
    "prefectureCode": "06",
    "prefectureNumber": 6,
    "prefecture": "山形県",
    "city": "鶴岡市",
    "town": "羽黒町仙道"
  },
  "9970126": {
    "zipcode": "9970126",
    "prefectureCode": "06",
    "prefectureNumber": 6,
    "prefecture": "山形県",
    "city": "鶴岡市",
    "town": "羽黒町野荒町"
  },
  "9970127": {
    "zipcode": "9970127",
    "prefectureCode": "06",
    "prefectureNumber": 6,
    "prefecture": "山形県",
    "city": "鶴岡市",
    "town": "羽黒町十文字"
  },
  "9970131": {
    "zipcode": "9970131",
    "prefectureCode": "06",
    "prefectureNumber": 6,
    "prefecture": "山形県",
    "city": "鶴岡市",
    "town": "羽黒町川代"
  },
  "9970141": {
    "zipcode": "9970141",
    "prefectureCode": "06",
    "prefectureNumber": 6,
    "prefecture": "山形県",
    "city": "鶴岡市",
    "town": "羽黒町荒川"
  },
  "9970142": {
    "zipcode": "9970142",
    "prefectureCode": "06",
    "prefectureNumber": 6,
    "prefecture": "山形県",
    "city": "鶴岡市",
    "town": "羽黒町上野新田"
  },
  "9970143": {
    "zipcode": "9970143",
    "prefectureCode": "06",
    "prefectureNumber": 6,
    "prefecture": "山形県",
    "city": "鶴岡市",
    "town": "羽黒町野田"
  },
  "9970151": {
    "zipcode": "9970151",
    "prefectureCode": "06",
    "prefectureNumber": 6,
    "prefecture": "山形県",
    "city": "鶴岡市",
    "town": "羽黒町黒瀬"
  },
  "9970152": {
    "zipcode": "9970152",
    "prefectureCode": "06",
    "prefectureNumber": 6,
    "prefecture": "山形県",
    "city": "鶴岡市",
    "town": "羽黒町猪俣新田"
  },
  "9970153": {
    "zipcode": "9970153",
    "prefectureCode": "06",
    "prefectureNumber": 6,
    "prefecture": "山形県",
    "city": "鶴岡市",
    "town": "羽黒町高寺"
  },
  "9970154": {
    "zipcode": "9970154",
    "prefectureCode": "06",
    "prefectureNumber": 6,
    "prefecture": "山形県",
    "city": "鶴岡市",
    "town": "羽黒町馬渡ノ内下"
  },
  "9970155": {
    "zipcode": "9970155",
    "prefectureCode": "06",
    "prefectureNumber": 6,
    "prefecture": "山形県",
    "city": "鶴岡市",
    "town": "羽黒町石野新田"
  },
  "9970156": {
    "zipcode": "9970156",
    "prefectureCode": "06",
    "prefectureNumber": 6,
    "prefecture": "山形県",
    "city": "鶴岡市",
    "town": "羽黒町松尾"
  },
  "9970157": {
    "zipcode": "9970157",
    "prefectureCode": "06",
    "prefectureNumber": 6,
    "prefecture": "山形県",
    "city": "鶴岡市",
    "town": "羽黒町後田"
  },
  "9970158": {
    "zipcode": "9970158",
    "prefectureCode": "06",
    "prefectureNumber": 6,
    "prefecture": "山形県",
    "city": "鶴岡市",
    "town": "羽黒町松ケ岡"
  },
  "9970161": {
    "zipcode": "9970161",
    "prefectureCode": "06",
    "prefectureNumber": 6,
    "prefecture": "山形県",
    "city": "鶴岡市",
    "town": "羽黒町押口"
  },
  "9970162": {
    "zipcode": "9970162",
    "prefectureCode": "06",
    "prefectureNumber": 6,
    "prefecture": "山形県",
    "city": "鶴岡市",
    "town": "羽黒町細谷"
  },
  "9970163": {
    "zipcode": "9970163",
    "prefectureCode": "06",
    "prefectureNumber": 6,
    "prefecture": "山形県",
    "city": "鶴岡市",
    "town": "羽黒町狩谷野目"
  },
  "9970164": {
    "zipcode": "9970164",
    "prefectureCode": "06",
    "prefectureNumber": 6,
    "prefecture": "山形県",
    "city": "鶴岡市",
    "town": "羽黒町昼田"
  },
  "9970165": {
    "zipcode": "9970165",
    "prefectureCode": "06",
    "prefectureNumber": 6,
    "prefecture": "山形県",
    "city": "鶴岡市",
    "town": "羽黒町富沢"
  },
  "9970166": {
    "zipcode": "9970166",
    "prefectureCode": "06",
    "prefectureNumber": 6,
    "prefecture": "山形県",
    "city": "鶴岡市",
    "town": "羽黒町三ツ橋"
  },
  "9970167": {
    "zipcode": "9970167",
    "prefectureCode": "06",
    "prefectureNumber": 6,
    "prefecture": "山形県",
    "city": "鶴岡市",
    "town": "羽黒町赤川"
  },
  "9970211": {
    "zipcode": "9970211",
    "prefectureCode": "06",
    "prefectureNumber": 6,
    "prefecture": "山形県",
    "city": "鶴岡市",
    "town": "羽黒町手向"
  },
  "9970301": {
    "zipcode": "9970301",
    "prefectureCode": "06",
    "prefectureNumber": 6,
    "prefecture": "山形県",
    "city": "鶴岡市",
    "town": "馬渡"
  },
  "9970302": {
    "zipcode": "9970302",
    "prefectureCode": "06",
    "prefectureNumber": 6,
    "prefecture": "山形県",
    "city": "鶴岡市",
    "town": "田代"
  },
  "9970303": {
    "zipcode": "9970303",
    "prefectureCode": "06",
    "prefectureNumber": 6,
    "prefecture": "山形県",
    "city": "鶴岡市",
    "town": "たらのき代"
  },
  "9970311": {
    "zipcode": "9970311",
    "prefectureCode": "06",
    "prefectureNumber": 6,
    "prefecture": "山形県",
    "city": "鶴岡市",
    "town": "黒川"
  },
  "9970321": {
    "zipcode": "9970321",
    "prefectureCode": "06",
    "prefectureNumber": 6,
    "prefecture": "山形県",
    "city": "鶴岡市",
    "town": "宝谷"
  },
  "9970322": {
    "zipcode": "9970322",
    "prefectureCode": "06",
    "prefectureNumber": 6,
    "prefecture": "山形県",
    "city": "鶴岡市",
    "town": "松根"
  },
  "9970323": {
    "zipcode": "9970323",
    "prefectureCode": "06",
    "prefectureNumber": 6,
    "prefecture": "山形県",
    "city": "鶴岡市",
    "town": "西片屋"
  },
  "9970331": {
    "zipcode": "9970331",
    "prefectureCode": "06",
    "prefectureNumber": 6,
    "prefecture": "山形県",
    "city": "鶴岡市",
    "town": "板井川"
  },
  "9970332": {
    "zipcode": "9970332",
    "prefectureCode": "06",
    "prefectureNumber": 6,
    "prefecture": "山形県",
    "city": "鶴岡市",
    "town": "西荒屋"
  },
  "9970333": {
    "zipcode": "9970333",
    "prefectureCode": "06",
    "prefectureNumber": 6,
    "prefecture": "山形県",
    "city": "鶴岡市",
    "town": "常盤木"
  },
  "9970334": {
    "zipcode": "9970334",
    "prefectureCode": "06",
    "prefectureNumber": 6,
    "prefecture": "山形県",
    "city": "鶴岡市",
    "town": "丸岡"
  },
  "9970341": {
    "zipcode": "9970341",
    "prefectureCode": "06",
    "prefectureNumber": 6,
    "prefecture": "山形県",
    "city": "鶴岡市",
    "town": "下山添"
  },
  "9970342": {
    "zipcode": "9970342",
    "prefectureCode": "06",
    "prefectureNumber": 6,
    "prefecture": "山形県",
    "city": "鶴岡市",
    "town": "三千刈"
  },
  "9970343": {
    "zipcode": "9970343",
    "prefectureCode": "06",
    "prefectureNumber": 6,
    "prefecture": "山形県",
    "city": "鶴岡市",
    "town": "桂荒俣"
  },
  "9970344": {
    "zipcode": "9970344",
    "prefectureCode": "06",
    "prefectureNumber": 6,
    "prefecture": "山形県",
    "city": "鶴岡市",
    "town": "東荒屋"
  },
  "9970345": {
    "zipcode": "9970345",
    "prefectureCode": "06",
    "prefectureNumber": 6,
    "prefecture": "山形県",
    "city": "鶴岡市",
    "town": "中田"
  },
  "9970346": {
    "zipcode": "9970346",
    "prefectureCode": "06",
    "prefectureNumber": 6,
    "prefecture": "山形県",
    "city": "鶴岡市",
    "town": "上山添"
  },
  "9970351": {
    "zipcode": "9970351",
    "prefectureCode": "06",
    "prefectureNumber": 6,
    "prefecture": "山形県",
    "city": "鶴岡市",
    "town": "勝福寺"
  },
  "9970361": {
    "zipcode": "9970361",
    "prefectureCode": "06",
    "prefectureNumber": 6,
    "prefecture": "山形県",
    "city": "鶴岡市",
    "town": "民田"
  },
  "9970362": {
    "zipcode": "9970362",
    "prefectureCode": "06",
    "prefectureNumber": 6,
    "prefecture": "山形県",
    "city": "鶴岡市",
    "town": "中橋"
  },
  "9970363": {
    "zipcode": "9970363",
    "prefectureCode": "06",
    "prefectureNumber": 6,
    "prefecture": "山形県",
    "city": "鶴岡市",
    "town": "寿"
  },
  "9970364": {
    "zipcode": "9970364",
    "prefectureCode": "06",
    "prefectureNumber": 6,
    "prefecture": "山形県",
    "city": "鶴岡市",
    "town": "滝沢"
  },
  "9970365": {
    "zipcode": "9970365",
    "prefectureCode": "06",
    "prefectureNumber": 6,
    "prefecture": "山形県",
    "city": "鶴岡市",
    "town": "金谷"
  },
  "9970366": {
    "zipcode": "9970366",
    "prefectureCode": "06",
    "prefectureNumber": 6,
    "prefecture": "山形県",
    "city": "鶴岡市",
    "town": "谷定"
  },
  "9970367": {
    "zipcode": "9970367",
    "prefectureCode": "06",
    "prefectureNumber": 6,
    "prefecture": "山形県",
    "city": "鶴岡市",
    "town": "上山谷"
  },
  "9970368": {
    "zipcode": "9970368",
    "prefectureCode": "06",
    "prefectureNumber": 6,
    "prefecture": "山形県",
    "city": "鶴岡市",
    "town": "青龍寺"
  },
  "9970369": {
    "zipcode": "9970369",
    "prefectureCode": "06",
    "prefectureNumber": 6,
    "prefecture": "山形県",
    "city": "鶴岡市",
    "town": "高坂"
  },
  "9970401": {
    "zipcode": "9970401",
    "prefectureCode": "06",
    "prefectureNumber": 6,
    "prefecture": "山形県",
    "city": "鶴岡市",
    "town": "中野新田"
  },
  "9970402": {
    "zipcode": "9970402",
    "prefectureCode": "06",
    "prefectureNumber": 6,
    "prefecture": "山形県",
    "city": "鶴岡市",
    "town": "東岩本"
  },
  "9970403": {
    "zipcode": "9970403",
    "prefectureCode": "06",
    "prefectureNumber": 6,
    "prefecture": "山形県",
    "city": "鶴岡市",
    "town": "越中山"
  },
  "9970404": {
    "zipcode": "9970404",
    "prefectureCode": "06",
    "prefectureNumber": 6,
    "prefecture": "山形県",
    "city": "鶴岡市",
    "town": "下名川"
  },
  "9970405": {
    "zipcode": "9970405",
    "prefectureCode": "06",
    "prefectureNumber": 6,
    "prefecture": "山形県",
    "city": "鶴岡市",
    "town": "上名川"
  },
  "9970411": {
    "zipcode": "9970411",
    "prefectureCode": "06",
    "prefectureNumber": 6,
    "prefecture": "山形県",
    "city": "鶴岡市",
    "town": "熊出"
  },
  "9970412": {
    "zipcode": "9970412",
    "prefectureCode": "06",
    "prefectureNumber": 6,
    "prefecture": "山形県",
    "city": "鶴岡市",
    "town": "本郷"
  },
  "9970413": {
    "zipcode": "9970413",
    "prefectureCode": "06",
    "prefectureNumber": 6,
    "prefecture": "山形県",
    "city": "鶴岡市",
    "town": "行沢"
  },
  "9970414": {
    "zipcode": "9970414",
    "prefectureCode": "06",
    "prefectureNumber": 6,
    "prefecture": "山形県",
    "city": "鶴岡市",
    "town": "大針"
  },
  "9970415": {
    "zipcode": "9970415",
    "prefectureCode": "06",
    "prefectureNumber": 6,
    "prefecture": "山形県",
    "city": "鶴岡市",
    "town": "砂川"
  },
  "9970531": {
    "zipcode": "9970531",
    "prefectureCode": "06",
    "prefectureNumber": 6,
    "prefecture": "山形県",
    "city": "鶴岡市",
    "town": "大網"
  },
  "9970532": {
    "zipcode": "9970532",
    "prefectureCode": "06",
    "prefectureNumber": 6,
    "prefecture": "山形県",
    "city": "鶴岡市",
    "town": "田麦俣"
  },
  "9970621": {
    "zipcode": "9970621",
    "prefectureCode": "06",
    "prefectureNumber": 6,
    "prefecture": "山形県",
    "city": "鶴岡市",
    "town": "荒沢"
  },
  "9970622": {
    "zipcode": "9970622",
    "prefectureCode": "06",
    "prefectureNumber": 6,
    "prefecture": "山形県",
    "city": "鶴岡市",
    "town": "大鳥"
  },
  "9970623": {
    "zipcode": "9970623",
    "prefectureCode": "06",
    "prefectureNumber": 6,
    "prefecture": "山形県",
    "city": "鶴岡市",
    "town": "上田沢"
  },
  "9970624": {
    "zipcode": "9970624",
    "prefectureCode": "06",
    "prefectureNumber": 6,
    "prefecture": "山形県",
    "city": "鶴岡市",
    "town": "倉沢"
  },
  "9970625": {
    "zipcode": "9970625",
    "prefectureCode": "06",
    "prefectureNumber": 6,
    "prefecture": "山形県",
    "city": "鶴岡市",
    "town": "下田沢"
  },
  "9970626": {
    "zipcode": "9970626",
    "prefectureCode": "06",
    "prefectureNumber": 6,
    "prefecture": "山形県",
    "city": "鶴岡市",
    "town": "松沢"
  },
  "9970751": {
    "zipcode": "9970751",
    "prefectureCode": "06",
    "prefectureNumber": 6,
    "prefecture": "山形県",
    "city": "鶴岡市",
    "town": "藤沢"
  },
  "9970752": {
    "zipcode": "9970752",
    "prefectureCode": "06",
    "prefectureNumber": 6,
    "prefecture": "山形県",
    "city": "鶴岡市",
    "town": "湯田川"
  },
  "9970753": {
    "zipcode": "9970753",
    "prefectureCode": "06",
    "prefectureNumber": 6,
    "prefecture": "山形県",
    "city": "鶴岡市",
    "town": "田川"
  },
  "9970754": {
    "zipcode": "9970754",
    "prefectureCode": "06",
    "prefectureNumber": 6,
    "prefecture": "山形県",
    "city": "鶴岡市",
    "town": "少連寺"
  },
  "9970755": {
    "zipcode": "9970755",
    "prefectureCode": "06",
    "prefectureNumber": 6,
    "prefecture": "山形県",
    "city": "鶴岡市",
    "town": "砂谷"
  },
  "9970756": {
    "zipcode": "9970756",
    "prefectureCode": "06",
    "prefectureNumber": 6,
    "prefecture": "山形県",
    "city": "鶴岡市",
    "town": "東目"
  },
  "9970757": {
    "zipcode": "9970757",
    "prefectureCode": "06",
    "prefectureNumber": 6,
    "prefecture": "山形県",
    "city": "鶴岡市",
    "town": "坂野下"
  },
  "9970758": {
    "zipcode": "9970758",
    "prefectureCode": "06",
    "prefectureNumber": 6,
    "prefecture": "山形県",
    "city": "鶴岡市",
    "town": "関根"
  },
  "9970801": {
    "zipcode": "9970801",
    "prefectureCode": "06",
    "prefectureNumber": 6,
    "prefecture": "山形県",
    "city": "鶴岡市",
    "town": "東原町"
  },
  "9970802": {
    "zipcode": "9970802",
    "prefectureCode": "06",
    "prefectureNumber": 6,
    "prefecture": "山形県",
    "city": "鶴岡市",
    "town": "伊勢原町"
  },
  "9970803": {
    "zipcode": "9970803",
    "prefectureCode": "06",
    "prefectureNumber": 6,
    "prefecture": "山形県",
    "city": "鶴岡市",
    "town": "伊勢横内"
  },
  "9970804": {
    "zipcode": "9970804",
    "prefectureCode": "06",
    "prefectureNumber": 6,
    "prefecture": "山形県",
    "city": "鶴岡市",
    "town": "斎藤川原"
  },
  "9970805": {
    "zipcode": "9970805",
    "prefectureCode": "06",
    "prefectureNumber": 6,
    "prefecture": "山形県",
    "city": "鶴岡市",
    "town": "我老林"
  },
  "9970806": {
    "zipcode": "9970806",
    "prefectureCode": "06",
    "prefectureNumber": 6,
    "prefecture": "山形県",
    "city": "鶴岡市",
    "town": "遠賀原"
  },
  "9970807": {
    "zipcode": "9970807",
    "prefectureCode": "06",
    "prefectureNumber": 6,
    "prefecture": "山形県",
    "city": "鶴岡市",
    "town": "八ツ興屋"
  },
  "9970808": {
    "zipcode": "9970808",
    "prefectureCode": "06",
    "prefectureNumber": 6,
    "prefecture": "山形県",
    "city": "鶴岡市",
    "town": "苗津"
  },
  "9970809": {
    "zipcode": "9970809",
    "prefectureCode": "06",
    "prefectureNumber": 6,
    "prefecture": "山形県",
    "city": "鶴岡市",
    "town": "苗津町"
  },
  "9970811": {
    "zipcode": "9970811",
    "prefectureCode": "06",
    "prefectureNumber": 6,
    "prefecture": "山形県",
    "city": "鶴岡市",
    "town": "神明町"
  },
  "9970812": {
    "zipcode": "9970812",
    "prefectureCode": "06",
    "prefectureNumber": 6,
    "prefecture": "山形県",
    "city": "鶴岡市",
    "town": "長者町"
  },
  "9970813": {
    "zipcode": "9970813",
    "prefectureCode": "06",
    "prefectureNumber": 6,
    "prefecture": "山形県",
    "city": "鶴岡市",
    "town": "千石町"
  },
  "9970814": {
    "zipcode": "9970814",
    "prefectureCode": "06",
    "prefectureNumber": 6,
    "prefecture": "山形県",
    "city": "鶴岡市",
    "town": "城南町"
  },
  "9970815": {
    "zipcode": "9970815",
    "prefectureCode": "06",
    "prefectureNumber": 6,
    "prefecture": "山形県",
    "city": "鶴岡市",
    "town": "外内島"
  },
  "9970816": {
    "zipcode": "9970816",
    "prefectureCode": "06",
    "prefectureNumber": 6,
    "prefecture": "山形県",
    "city": "鶴岡市",
    "town": "文園町"
  },
  "9970817": {
    "zipcode": "9970817",
    "prefectureCode": "06",
    "prefectureNumber": 6,
    "prefecture": "山形県",
    "city": "鶴岡市",
    "town": "睦町"
  },
  "9970818": {
    "zipcode": "9970818",
    "prefectureCode": "06",
    "prefectureNumber": 6,
    "prefecture": "山形県",
    "city": "鶴岡市",
    "town": "三和町"
  },
  "9970819": {
    "zipcode": "9970819",
    "prefectureCode": "06",
    "prefectureNumber": 6,
    "prefecture": "山形県",
    "city": "鶴岡市",
    "town": "のぞみ町"
  },
  "9970821": {
    "zipcode": "9970821",
    "prefectureCode": "06",
    "prefectureNumber": 6,
    "prefecture": "山形県",
    "city": "鶴岡市",
    "town": "三光町"
  },
  "9970822": {
    "zipcode": "9970822",
    "prefectureCode": "06",
    "prefectureNumber": 6,
    "prefecture": "山形県",
    "city": "鶴岡市",
    "town": "双葉町"
  },
  "9970823": {
    "zipcode": "9970823",
    "prefectureCode": "06",
    "prefectureNumber": 6,
    "prefecture": "山形県",
    "city": "鶴岡市",
    "town": "海老島町"
  },
  "9970824": {
    "zipcode": "9970824",
    "prefectureCode": "06",
    "prefectureNumber": 6,
    "prefecture": "山形県",
    "city": "鶴岡市",
    "town": "日枝"
  },
  "9970825": {
    "zipcode": "9970825",
    "prefectureCode": "06",
    "prefectureNumber": 6,
    "prefecture": "山形県",
    "city": "鶴岡市",
    "town": "小真木原町"
  },
  "9970826": {
    "zipcode": "9970826",
    "prefectureCode": "06",
    "prefectureNumber": 6,
    "prefecture": "山形県",
    "city": "鶴岡市",
    "town": "美原町"
  },
  "9970827": {
    "zipcode": "9970827",
    "prefectureCode": "06",
    "prefectureNumber": 6,
    "prefecture": "山形県",
    "city": "鶴岡市",
    "town": "陽光町"
  },
  "9970831": {
    "zipcode": "9970831",
    "prefectureCode": "06",
    "prefectureNumber": 6,
    "prefecture": "山形県",
    "city": "鶴岡市",
    "town": "大西町"
  },
  "9970832": {
    "zipcode": "9970832",
    "prefectureCode": "06",
    "prefectureNumber": 6,
    "prefecture": "山形県",
    "city": "鶴岡市",
    "town": "青柳町"
  },
  "9970833": {
    "zipcode": "9970833",
    "prefectureCode": "06",
    "prefectureNumber": 6,
    "prefecture": "山形県",
    "city": "鶴岡市",
    "town": "柳田"
  },
  "9970834": {
    "zipcode": "9970834",
    "prefectureCode": "06",
    "prefectureNumber": 6,
    "prefecture": "山形県",
    "city": "鶴岡市",
    "town": "稲生"
  },
  "9970835": {
    "zipcode": "9970835",
    "prefectureCode": "06",
    "prefectureNumber": 6,
    "prefecture": "山形県",
    "city": "鶴岡市",
    "town": "番田"
  },
  "9970836": {
    "zipcode": "9970836",
    "prefectureCode": "06",
    "prefectureNumber": 6,
    "prefecture": "山形県",
    "city": "鶴岡市",
    "town": "寺田"
  },
  "9970837": {
    "zipcode": "9970837",
    "prefectureCode": "06",
    "prefectureNumber": 6,
    "prefecture": "山形県",
    "city": "鶴岡市",
    "town": "道田町"
  },
  "9970838": {
    "zipcode": "9970838",
    "prefectureCode": "06",
    "prefectureNumber": 6,
    "prefecture": "山形県",
    "city": "鶴岡市",
    "town": "淀川町"
  },
  "9970839": {
    "zipcode": "9970839",
    "prefectureCode": "06",
    "prefectureNumber": 6,
    "prefecture": "山形県",
    "city": "鶴岡市",
    "town": "砂田町"
  },
  "9970841": {
    "zipcode": "9970841",
    "prefectureCode": "06",
    "prefectureNumber": 6,
    "prefecture": "山形県",
    "city": "鶴岡市",
    "town": "白山"
  },
  "9970842": {
    "zipcode": "9970842",
    "prefectureCode": "06",
    "prefectureNumber": 6,
    "prefecture": "山形県",
    "city": "鶴岡市",
    "town": "井岡"
  },
  "9970843": {
    "zipcode": "9970843",
    "prefectureCode": "06",
    "prefectureNumber": 6,
    "prefecture": "山形県",
    "city": "鶴岡市",
    "town": "岡山"
  },
  "9970844": {
    "zipcode": "9970844",
    "prefectureCode": "06",
    "prefectureNumber": 6,
    "prefecture": "山形県",
    "city": "鶴岡市",
    "town": "森片"
  },
  "9970845": {
    "zipcode": "9970845",
    "prefectureCode": "06",
    "prefectureNumber": 6,
    "prefecture": "山形県",
    "city": "鶴岡市",
    "town": "下清水"
  },
  "9970846": {
    "zipcode": "9970846",
    "prefectureCode": "06",
    "prefectureNumber": 6,
    "prefecture": "山形県",
    "city": "鶴岡市",
    "town": "中清水"
  },
  "9970847": {
    "zipcode": "9970847",
    "prefectureCode": "06",
    "prefectureNumber": 6,
    "prefecture": "山形県",
    "city": "鶴岡市",
    "town": "上清水"
  },
  "9970848": {
    "zipcode": "9970848",
    "prefectureCode": "06",
    "prefectureNumber": 6,
    "prefecture": "山形県",
    "city": "鶴岡市",
    "town": "清水新田"
  },
  "9970851": {
    "zipcode": "9970851",
    "prefectureCode": "06",
    "prefectureNumber": 6,
    "prefecture": "山形県",
    "city": "鶴岡市",
    "town": "布目"
  },
  "9970852": {
    "zipcode": "9970852",
    "prefectureCode": "06",
    "prefectureNumber": 6,
    "prefecture": "山形県",
    "city": "鶴岡市",
    "town": "新斎部"
  },
  "9970853": {
    "zipcode": "9970853",
    "prefectureCode": "06",
    "prefectureNumber": 6,
    "prefecture": "山形県",
    "city": "鶴岡市",
    "town": "小淀川"
  },
  "9970854": {
    "zipcode": "9970854",
    "prefectureCode": "06",
    "prefectureNumber": 6,
    "prefecture": "山形県",
    "city": "鶴岡市",
    "town": "大淀川"
  },
  "9970855": {
    "zipcode": "9970855",
    "prefectureCode": "06",
    "prefectureNumber": 6,
    "prefecture": "山形県",
    "city": "鶴岡市",
    "town": "矢馳"
  },
  "9970856": {
    "zipcode": "9970856",
    "prefectureCode": "06",
    "prefectureNumber": 6,
    "prefecture": "山形県",
    "city": "鶴岡市",
    "town": "山田"
  },
  "9970857": {
    "zipcode": "9970857",
    "prefectureCode": "06",
    "prefectureNumber": 6,
    "prefecture": "山形県",
    "city": "鶴岡市",
    "town": "美咲町"
  },
  "9970861": {
    "zipcode": "9970861",
    "prefectureCode": "06",
    "prefectureNumber": 6,
    "prefecture": "山形県",
    "city": "鶴岡市",
    "town": "桜新町"
  },
  "9970862": {
    "zipcode": "9970862",
    "prefectureCode": "06",
    "prefectureNumber": 6,
    "prefecture": "山形県",
    "city": "鶴岡市",
    "town": "ほなみ町"
  },
  "9971111": {
    "zipcode": "9971111",
    "prefectureCode": "06",
    "prefectureNumber": 6,
    "prefecture": "山形県",
    "city": "鶴岡市",
    "town": "茨新田"
  },
  "9971112": {
    "zipcode": "9971112",
    "prefectureCode": "06",
    "prefectureNumber": 6,
    "prefecture": "山形県",
    "city": "鶴岡市",
    "town": "西沼"
  },
  "9971113": {
    "zipcode": "9971113",
    "prefectureCode": "06",
    "prefectureNumber": 6,
    "prefecture": "山形県",
    "city": "鶴岡市",
    "town": "長崎"
  },
  "9971114": {
    "zipcode": "9971114",
    "prefectureCode": "06",
    "prefectureNumber": 6,
    "prefecture": "山形県",
    "city": "鶴岡市",
    "town": "千安京田"
  },
  "9971115": {
    "zipcode": "9971115",
    "prefectureCode": "06",
    "prefectureNumber": 6,
    "prefecture": "山形県",
    "city": "鶴岡市",
    "town": "辻興屋"
  },
  "9971116": {
    "zipcode": "9971116",
    "prefectureCode": "06",
    "prefectureNumber": 6,
    "prefecture": "山形県",
    "city": "鶴岡市",
    "town": "面野山"
  },
  "9971117": {
    "zipcode": "9971117",
    "prefectureCode": "06",
    "prefectureNumber": 6,
    "prefecture": "山形県",
    "city": "鶴岡市",
    "town": "下川"
  },
  "9971121": {
    "zipcode": "9971121",
    "prefectureCode": "06",
    "prefectureNumber": 6,
    "prefecture": "山形県",
    "city": "鶴岡市",
    "town": "大山（その他）"
  },
  "9971122": {
    "zipcode": "9971122",
    "prefectureCode": "06",
    "prefectureNumber": 6,
    "prefecture": "山形県",
    "city": "鶴岡市",
    "town": "友江"
  },
  "9971123": {
    "zipcode": "9971123",
    "prefectureCode": "06",
    "prefectureNumber": 6,
    "prefecture": "山形県",
    "city": "鶴岡市",
    "town": "友江町"
  },
  "9971124": {
    "zipcode": "9971124",
    "prefectureCode": "06",
    "prefectureNumber": 6,
    "prefecture": "山形県",
    "city": "鶴岡市",
    "town": "大山（丁目）"
  },
  "9971125": {
    "zipcode": "9971125",
    "prefectureCode": "06",
    "prefectureNumber": 6,
    "prefecture": "山形県",
    "city": "鶴岡市",
    "town": "馬町"
  },
  "9971131": {
    "zipcode": "9971131",
    "prefectureCode": "06",
    "prefectureNumber": 6,
    "prefecture": "山形県",
    "city": "鶴岡市",
    "town": "菱津"
  },
  "9971132": {
    "zipcode": "9971132",
    "prefectureCode": "06",
    "prefectureNumber": 6,
    "prefecture": "山形県",
    "city": "鶴岡市",
    "town": "栃屋"
  },
  "9971133": {
    "zipcode": "9971133",
    "prefectureCode": "06",
    "prefectureNumber": 6,
    "prefecture": "山形県",
    "city": "鶴岡市",
    "town": "下興屋"
  },
  "9971134": {
    "zipcode": "9971134",
    "prefectureCode": "06",
    "prefectureNumber": 6,
    "prefecture": "山形県",
    "city": "鶴岡市",
    "town": "下小中"
  },
  "9971135": {
    "zipcode": "9971135",
    "prefectureCode": "06",
    "prefectureNumber": 6,
    "prefecture": "山形県",
    "city": "鶴岡市",
    "town": "中楯"
  },
  "9971156": {
    "zipcode": "9971156",
    "prefectureCode": "06",
    "prefectureNumber": 6,
    "prefecture": "山形県",
    "city": "鶴岡市",
    "town": "平成町"
  },
  "9971201": {
    "zipcode": "9971201",
    "prefectureCode": "06",
    "prefectureNumber": 6,
    "prefecture": "山形県",
    "city": "鶴岡市",
    "town": "湯野浜"
  },
  "9971202": {
    "zipcode": "9971202",
    "prefectureCode": "06",
    "prefectureNumber": 6,
    "prefecture": "山形県",
    "city": "鶴岡市",
    "town": "宮沢"
  },
  "9971203": {
    "zipcode": "9971203",
    "prefectureCode": "06",
    "prefectureNumber": 6,
    "prefecture": "山形県",
    "city": "鶴岡市",
    "town": "金沢"
  },
  "9971204": {
    "zipcode": "9971204",
    "prefectureCode": "06",
    "prefectureNumber": 6,
    "prefecture": "山形県",
    "city": "鶴岡市",
    "town": "加茂"
  },
  "9971205": {
    "zipcode": "9971205",
    "prefectureCode": "06",
    "prefectureNumber": 6,
    "prefecture": "山形県",
    "city": "鶴岡市",
    "town": "油戸"
  },
  "9971206": {
    "zipcode": "9971206",
    "prefectureCode": "06",
    "prefectureNumber": 6,
    "prefecture": "山形県",
    "city": "鶴岡市",
    "town": "今泉"
  },
  "9971300": {
    "zipcode": "9971300",
    "prefectureCode": "06",
    "prefectureNumber": 6,
    "prefecture": "山形県",
    "city": "東田川郡三川町",
    "town": "以下に掲載がない場合"
  },
  "9971301": {
    "zipcode": "9971301",
    "prefectureCode": "06",
    "prefectureNumber": 6,
    "prefecture": "山形県",
    "city": "東田川郡三川町",
    "town": "横山"
  },
  "9971311": {
    "zipcode": "9971311",
    "prefectureCode": "06",
    "prefectureNumber": 6,
    "prefecture": "山形県",
    "city": "東田川郡三川町",
    "town": "青山"
  },
  "9971312": {
    "zipcode": "9971312",
    "prefectureCode": "06",
    "prefectureNumber": 6,
    "prefecture": "山形県",
    "city": "東田川郡三川町",
    "town": "善阿弥"
  },
  "9971313": {
    "zipcode": "9971313",
    "prefectureCode": "06",
    "prefectureNumber": 6,
    "prefecture": "山形県",
    "city": "東田川郡三川町",
    "town": "角田二口"
  },
  "9971314": {
    "zipcode": "9971314",
    "prefectureCode": "06",
    "prefectureNumber": 6,
    "prefecture": "山形県",
    "city": "東田川郡三川町",
    "town": "東沼"
  },
  "9971315": {
    "zipcode": "9971315",
    "prefectureCode": "06",
    "prefectureNumber": 6,
    "prefecture": "山形県",
    "city": "東田川郡三川町",
    "town": "神花"
  },
  "9971316": {
    "zipcode": "9971316",
    "prefectureCode": "06",
    "prefectureNumber": 6,
    "prefecture": "山形県",
    "city": "東田川郡三川町",
    "town": "猪子"
  },
  "9971317": {
    "zipcode": "9971317",
    "prefectureCode": "06",
    "prefectureNumber": 6,
    "prefecture": "山形県",
    "city": "東田川郡三川町",
    "town": "成田新田"
  },
  "9971321": {
    "zipcode": "9971321",
    "prefectureCode": "06",
    "prefectureNumber": 6,
    "prefecture": "山形県",
    "city": "東田川郡三川町",
    "town": "押切新田"
  },
  "9971322": {
    "zipcode": "9971322",
    "prefectureCode": "06",
    "prefectureNumber": 6,
    "prefecture": "山形県",
    "city": "東田川郡三川町",
    "town": "土口"
  },
  "9971331": {
    "zipcode": "9971331",
    "prefectureCode": "06",
    "prefectureNumber": 6,
    "prefecture": "山形県",
    "city": "東田川郡三川町",
    "town": "助川"
  },
  "9971332": {
    "zipcode": "9971332",
    "prefectureCode": "06",
    "prefectureNumber": 6,
    "prefecture": "山形県",
    "city": "東田川郡三川町",
    "town": "堤野"
  },
  "9971333": {
    "zipcode": "9971333",
    "prefectureCode": "06",
    "prefectureNumber": 6,
    "prefecture": "山形県",
    "city": "東田川郡三川町",
    "town": "横内"
  },
  "9971334": {
    "zipcode": "9971334",
    "prefectureCode": "06",
    "prefectureNumber": 6,
    "prefecture": "山形県",
    "city": "東田川郡三川町",
    "town": "竹原田"
  },
  "9971335": {
    "zipcode": "9971335",
    "prefectureCode": "06",
    "prefectureNumber": 6,
    "prefecture": "山形県",
    "city": "東田川郡三川町",
    "town": "菱沼"
  },
  "9971336": {
    "zipcode": "9971336",
    "prefectureCode": "06",
    "prefectureNumber": 6,
    "prefecture": "山形県",
    "city": "東田川郡三川町",
    "town": "加藤"
  },
  "9971337": {
    "zipcode": "9971337",
    "prefectureCode": "06",
    "prefectureNumber": 6,
    "prefecture": "山形県",
    "city": "東田川郡三川町",
    "town": "小尺"
  },
  "9971338": {
    "zipcode": "9971338",
    "prefectureCode": "06",
    "prefectureNumber": 6,
    "prefecture": "山形県",
    "city": "東田川郡三川町",
    "town": "横川"
  },
  "9971339": {
    "zipcode": "9971339",
    "prefectureCode": "06",
    "prefectureNumber": 6,
    "prefecture": "山形県",
    "city": "東田川郡三川町",
    "town": "横川新田"
  }
}
